{
    "type": "FeatureCollection",
    "features": [
        {
            "type": "Feature",
            "properties": {
                "name": "staz ip di lupotto alessandro",
                "id": "25812",
                "brand": "Api-Ip",
                "amenity": "fuel",
                "operator": "LUPOTTO ALESSANDRO"
            },
            "geometry": {
                "type": "Point",
                "coordinates": [
                    7.325456142425536,
                    45.74177760833432
                ]
            }
        },
        {
            "type": "Feature",
            "properties": {
                "name": "AOSTA-VIA S.MARTIN DE CORLEANS 122",
                "id": "11460",
                "brand": "Q8",
                "amenity": "fuel",
                "operator": "SERVIZI & GESTIONI ITALIA S.R.L."
            },
            "geometry": {
                "type": "Point",
                "coordinates": [
                    7.30823796371419,
                    45.73867778310636
                ]
            }
        },
        {
            "type": "Feature",
            "properties": {
                "name": "ESSO",
                "id": "21133",
                "brand": "Esso",
                "amenity": "fuel",
                "operator": "D. E D. S.A.S. DI DARENSOD ALESSANDRO & C."
            },
            "geometry": {
                "type": "Point",
                "coordinates": [
                    7.308578396542316,
                    45.771258589475465
                ]
            }
        },
        {
            "type": "Feature",
            "properties": {
                "name": "Stazione di Servizio di Desaymoz Marco",
                "id": "14610",
                "brand": "Total Erg",
                "amenity": "fuel",
                "operator": "DESAYMOZ MARCO"
            },
            "geometry": {
                "type": "Point",
                "coordinates": [
                    7.3179181563446045,
                    45.7476903207535
                ]
            }
        },
        {
            "type": "Feature",
            "properties": {
                "name": "ESSO",
                "id": "25835",
                "brand": "Esso",
                "amenity": "fuel",
                "operator": "CERE ORNELLA"
            },
            "geometry": {
                "type": "Point",
                "coordinates": [
                    7.322777956724167,
                    45.74187232580946
                ]
            }
        },
        {
            "type": "Feature",
            "properties": {
                "name": "ENI 55357",
                "id": "25679",
                "brand": "Agip Eni",
                "amenity": "fuel",
                "operator": "MARTINET FABIO FERNANDO"
            },
            "geometry": {
                "type": "Point",
                "coordinates": [
                    7.333508133888245,
                    45.736938922655504
                ]
            }
        },
        {
            "type": "Feature",
            "properties": {
                "name": "Stazione di Servizio IP",
                "id": "29554",
                "brand": "Api-Ip",
                "amenity": "fuel",
                "operator": "GALLO VITTORIO"
            },
            "geometry": {
                "type": "Point",
                "coordinates": [
                    7.23004157242201,
                    45.709316354464946
                ]
            }
        },
        {
            "type": "Feature",
            "properties": {
                "name": "Totalerg",
                "id": "25702",
                "brand": "Total Erg",
                "amenity": "fuel",
                "operator": "TROPIANO ANDREA"
            },
            "geometry": {
                "type": "Point",
                "coordinates": [
                    7.3012512601188755,
                    45.735477367360424
                ]
            }
        },
        {
            "type": "Feature",
            "properties": {
                "name": "agip 00030",
                "id": "11410",
                "brand": "Agip Eni",
                "amenity": "fuel",
                "operator": "G.B.V. SRL"
            },
            "geometry": {
                "type": "Point",
                "coordinates": [
                    7.323704659938813,
                    45.72812120883784
                ]
            }
        },
        {
            "type": "Feature",
            "properties": {
                "name": "eni pv00024 - centro auto snc",
                "id": "9778",
                "brand": "Agip Eni",
                "amenity": "fuel",
                "operator": "CENTRO AUTO DI FERRARI ROBERTO E FERRARI LUCA S.N.C. SIGLABILE IN CENTRO AUTO S.N.C."
            },
            "geometry": {
                "type": "Point",
                "coordinates": [
                    7.346034049987793,
                    45.739686287082094
                ]
            }
        },
        {
            "type": "Feature",
            "properties": {
                "name": "VALPETROLI",
                "id": "20870",
                "amenity": "fuel",
                "operator": "COMPAGNIA VALPETROLI SOCIETA' A RESPONSABILITA' LIMITATA"
            },
            "geometry": {
                "type": "Point",
                "coordinates": [
                    7.334315478801727,
                    45.74074955346215
                ]
            }
        },
        {
            "type": "Feature",
            "properties": {
                "name": "ENI 00002",
                "id": "4227",
                "brand": "Agip Eni",
                "amenity": "fuel",
                "operator": "VERDUCI FORTUNATO & C. S.N.C. IN SIGLA VERDUCI F. & C. S.N.C."
            },
            "geometry": {
                "type": "Point",
                "coordinates": [
                    7.299033701419829,
                    45.73291160676662
                ]
            }
        },
        {
            "type": "Feature",
            "properties": {
                "name": "TECNO-PEM Aosta",
                "id": "27570",
                "brand": "Api-Ip",
                "amenity": "fuel",
                "operator": "TECNO-PEM DI PIETRO ED ERIK MANGIONE S.N.C."
            },
            "geometry": {
                "type": "Point",
                "coordinates": [
                    7.293842285871507,
                    45.73155350158308
                ]
            }
        },
        {
            "type": "Feature",
            "properties": {
                "name": "ESSO 2924",
                "id": "25684",
                "brand": "Esso",
                "amenity": "fuel",
                "operator": "BIANCO DOMENICO"
            },
            "geometry": {
                "type": "Point",
                "coordinates": [
                    7.336683869361878,
                    45.73972597273459
                ]
            }
        },
        {
            "type": "Feature",
            "properties": {
                "name": "Totalerg",
                "id": "26169",
                "brand": "Total Erg",
                "amenity": "fuel",
                "operator": "SPEEDCAR DI DE MARZI GIADA S.A.S."
            },
            "geometry": {
                "type": "Point",
                "coordinates": [
                    7.290099909085938,
                    45.731773387196824
                ]
            }
        },
        {
            "type": "Feature",
            "properties": {
                "name": "Q8",
                "id": "7070",
                "brand": "Q8",
                "amenity": "fuel",
                "operator": "GRASSI FRANCESCO"
            },
            "geometry": {
                "type": "Point",
                "coordinates": [
                    7.325950420731261,
                    45.735392762175195
                ]
            }
        },
        {
            "type": "Feature",
            "properties": {
                "name": "ESSO dI DENARIER Ren√© & C",
                "id": "25405",
                "brand": "Esso",
                "amenity": "fuel",
                "operator": "GAS VALLEE S.N.C. DI DENARIER RENE' & C."
            },
            "geometry": {
                "type": "Point",
                "coordinates": [
                    7.25855380296707,
                    45.71549131945488
                ]
            }
        },
        {
            "type": "Feature",
            "properties": {
                "name": "ESSO 2901",
                "id": "25670",
                "brand": "Esso",
                "amenity": "fuel",
                "operator": "BRUNELLO WILLIAM"
            },
            "geometry": {
                "type": "Point",
                "coordinates": [
                    7.314509116077488,
                    45.73328023417177
                ]
            }
        },
        {
            "type": "Feature",
            "properties": {
                "name": "Totalerg",
                "id": "13124",
                "brand": "Total Erg",
                "amenity": "fuel",
                "operator": "MAQUIGNAZ STEFANO"
            },
            "geometry": {
                "type": "Point",
                "coordinates": [
                    7.350241094827654,
                    45.728445499466986
                ]
            }
        },
        {
            "type": "Feature",
            "properties": {
                "name": "AOSTA EST AUTOPORTO",
                "id": "3723",
                "brand": "Agip Eni",
                "amenity": "fuel",
                "operator": "AUTOSERVIZI  MONT BLANC S.R.L."
            },
            "geometry": {
                "type": "Point",
                "coordinates": [
                    7.369854148479477,
                    45.737551999999994
                ]
            }
        },
        {
            "type": "Feature",
            "properties": {
                "name": "P.V. ENI nr 00001 con Autolavaggio",
                "id": "9568",
                "brand": "Agip Eni",
                "amenity": "fuel",
                "operator": "DE MORO ALESSIO"
            },
            "geometry": {
                "type": "Point",
                "coordinates": [
                    7.315642478598876,
                    45.740441058307624
                ]
            }
        },
        {
            "type": "Feature",
            "properties": {
                "name": "TECNO-PEM Sarre",
                "id": "27569",
                "brand": "Api-Ip",
                "amenity": "fuel",
                "operator": "TECNO-PEM DI PIETRO ED ERIK MANGIONE S.N.C."
            },
            "geometry": {
                "type": "Point",
                "coordinates": [
                    7.264177222117269,
                    45.71975808388579
                ]
            }
        },
        {
            "type": "Feature",
            "properties": {
                "name": "staz ip di lupotto alessandro",
                "id": "26006",
                "brand": "Api-Ip",
                "amenity": "fuel",
                "operator": "LUPOTTO ALESSANDRO"
            },
            "geometry": {
                "type": "Point",
                "coordinates": [
                    7.325456142425536,
                    45.74177760833432
                ]
            }
        },
        {
            "type": "Feature",
            "properties": {
                "name": "DORIA SALVATORE",
                "id": "25176",
                "brand": "Tamoil",
                "amenity": "fuel",
                "operator": "DORIA SALVATORE"
            },
            "geometry": {
                "type": "Point",
                "coordinates": [
                    7.33165857749566,
                    45.73911482336916
                ]
            }
        },
        {
            "type": "Feature",
            "properties": {
                "name": "impianto Eni n.59001",
                "id": "7629",
                "brand": "Agip Eni",
                "amenity": "fuel",
                "operator": "VERDUCI ERMINIO"
            },
            "geometry": {
                "type": "Point",
                "coordinates": [
                    7.350282669067384,
                    45.74005169360924
                ]
            }
        },
        {
            "type": "Feature",
            "properties": {
                "name": "STAZIONE DI SERVIZIO GIADA",
                "id": "26262",
                "brand": "Api-Ip",
                "amenity": "fuel",
                "operator": "STAZIONE SERVIZIO GIADA S.A.S. DI CONTE MARCO"
            },
            "geometry": {
                "type": "Point",
                "coordinates": [
                    7.297566915270408,
                    45.73598982372928
                ]
            }
        }
    ]
}