{
    "type": "FeatureCollection",
    "features": [
        {
            "type": "Feature",
            "properties": {
                "name": "autolavaggio g.m di vazzana fabrizio snc",
                "id": "26306",
                "brand": "Agip Eni",
                "amenity": "fuel",
                "operator": "AUTOLAVAGGIO G.M. S.N.C. DI VAZZANA FABRIZIO & C."
            },
            "geometry": {
                "type": "Point",
                "coordinates": [
                    7.537669837474825,
                    45.21897004575189
                ]
            }
        },
        {
            "type": "Feature",
            "properties": {
                "name": "LANZO TORINESE-VIA DELLE VALLI 5",
                "id": "11885",
                "brand": "Q8",
                "amenity": "fuel",
                "operator": "SERVIZI & GESTIONI ITALIA S.R.L."
            },
            "geometry": {
                "type": "Point",
                "coordinates": [
                    7.483644839286852,
                    45.2715735736444
                ]
            }
        },
        {
            "type": "Feature",
            "properties": {
                "name": "TAMOIL",
                "id": "6173",
                "brand": "Tamoil",
                "amenity": "fuel",
                "operator": "CAUDERA MAURO"
            },
            "geometry": {
                "type": "Point",
                "coordinates": [
                    7.5483311637542565,
                    45.25558087243367
                ]
            }
        },
        {
            "type": "Feature",
            "properties": {
                "name": "ip",
                "id": "27322",
                "brand": "Api-Ip",
                "amenity": "fuel",
                "operator": "BERTUCCELLI PAOLO"
            },
            "geometry": {
                "type": "Point",
                "coordinates": [
                    7.468925781560528,
                    45.26262259944076
                ]
            }
        },
        {
            "type": "Feature",
            "properties": {
                "name": "tamoil robassomero",
                "id": "24528",
                "brand": "Tamoil",
                "amenity": "fuel",
                "operator": "AN. DE. GI. S.N.C. DI FURLAN ELENA E MANISCALCO GIUSEPPE"
            },
            "geometry": {
                "type": "Point",
                "coordinates": [
                    7.543287716654959,
                    45.21395460563448
                ]
            }
        },
        {
            "type": "Feature",
            "properties": {
                "name": "ENERGY",
                "id": "7791",
                "brand": "Esso",
                "amenity": "fuel",
                "operator": "ENERGY S.A.S. DI DUMEVILLE GIOVANNI LORENZO & C."
            },
            "geometry": {
                "type": "Point",
                "coordinates": [
                    7.5197696418874775,
                    45.266318516647736
                ]
            }
        },
        {
            "type": "Feature",
            "properties": {
                "name": "DISTRIBUTORE  EREDI CAMPIDONICO SPA CERES",
                "id": "29319",
                "brand": "Repsol",
                "amenity": "fuel",
                "operator": "EREDI CAMPIDONICO - S.P.A."
            },
            "geometry": {
                "type": "Point",
                "coordinates": [
                    7.388700947574194,
                    45.311045202956954
                ]
            }
        },
        {
            "type": "Feature",
            "properties": {
                "name": "TotalErg Votta Francesco",
                "id": "17187",
                "brand": "Total Erg",
                "amenity": "fuel",
                "operator": "VOTTA FRANCESCO"
            },
            "geometry": {
                "type": "Point",
                "coordinates": [
                    7.469484195352833,
                    45.26307506658605
                ]
            }
        },
        {
            "type": "Feature",
            "properties": {
                "name": "TOTALERG",
                "id": "13061",
                "brand": "Total Erg",
                "amenity": "fuel",
                "operator": "SANSEVERINO DIEGO"
            },
            "geometry": {
                "type": "Point",
                "coordinates": [
                    7.507566064596177,
                    45.252929961294775
                ]
            }
        },
        {
            "type": "Feature",
            "properties": {
                "name": "Distributore Tamoil 8254",
                "id": "17323",
                "brand": "Tamoil",
                "amenity": "fuel",
                "operator": "VAUDANO EROS"
            },
            "geometry": {
                "type": "Point",
                "coordinates": [
                    7.482005290284406,
                    45.273720820168755
                ]
            }
        },
        {
            "type": "Feature",
            "properties": {
                "name": "Tamoil di Bogino Mario",
                "id": "29882",
                "brand": "Tamoil",
                "amenity": "fuel",
                "operator": "BOGINO MARIO"
            },
            "geometry": {
                "type": "Point",
                "coordinates": [
                    7.530746127647377,
                    45.22559052709632
                ]
            }
        },
        {
            "type": "Feature",
            "properties": {
                "name": "RETITALIA  CARBURANTI",
                "id": "28658",
                "brand": "Retitalia",
                "amenity": "fuel",
                "operator": "BAR SPORT S.N.C. DI JI ZHONGWEI & C."
            },
            "geometry": {
                "type": "Point",
                "coordinates": [
                    7.54390999674797,
                    45.25985778540119
                ]
            }
        },
        {
            "type": "Feature",
            "properties": {
                "name": "MOLINAR MIN ERNESTO",
                "id": "9141",
                "brand": "Api-Ip",
                "amenity": "fuel",
                "operator": "MOLINAR MIN ERNESTO"
            },
            "geometry": {
                "type": "Point",
                "coordinates": [
                    7.536714006545025,
                    45.3085465171629
                ]
            }
        },
        {
            "type": "Feature",
            "properties": {
                "name": "tamoil",
                "id": "19989",
                "brand": "Tamoil",
                "amenity": "fuel",
                "operator": "GENCHI SABINO"
            },
            "geometry": {
                "type": "Point",
                "coordinates": [
                    7.513704962016846,
                    45.246310509551684
                ]
            }
        }
    ]
}