{
    "type": "FeatureCollection",
    "features": [
        {
            "type": "Feature",
            "properties": {
                "name": "PARA D&G. S.N.C.",
                "id": "4432",
                "brand": "Socogas",
                "amenity": "fuel",
                "operator": "PARA D. & G. DI PARA DOMENICA,  PARA GIUSEPPE & C. S.N.C."
            },
            "geometry": {
                "type": "Point",
                "coordinates": [
                    7.496272623538969,
                    44.634202302725384
                ]
            }
        },
        {
            "type": "Feature",
            "properties": {
                "name": "STAZIONE SERVIZIO I P",
                "id": "29911",
                "brand": "Api-Ip",
                "amenity": "fuel",
                "operator": "EANDI ELIO"
            },
            "geometry": {
                "type": "Point",
                "coordinates": [
                    7.497974485158919,
                    44.63796723899965
                ]
            }
        },
        {
            "type": "Feature",
            "properties": {
                "name": "Total Erg",
                "id": "19875",
                "brand": "Total Erg",
                "amenity": "fuel",
                "operator": "DUDITEX DISTRIBUTION CENTER SNC DI QUAGLIA MARCO & C. VALIDAMENTE SIGLABILE, OVE CONSENTITO, \"DUDITEX SNC\""
            },
            "geometry": {
                "type": "Point",
                "coordinates": [
                    7.484964317582695,
                    44.607695966123295
                ]
            }
        },
        {
            "type": "Feature",
            "properties": {
                "name": "FER.VIN.SNC",
                "id": "17747",
                "brand": "Total Erg",
                "amenity": "fuel",
                "operator": "FER.VIN. SNC DI VINCENTI FRANCO E FERRATO FRANCA SIGLABILE \"FER.VIN. SNC\""
            },
            "geometry": {
                "type": "Point",
                "coordinates": [
                    7.474364882969667,
                    44.64725915151879
                ]
            }
        },
        {
            "type": "Feature",
            "properties": {
                "name": "stazione di servizio IP",
                "id": "14827",
                "brand": "Api-Ip",
                "amenity": "fuel",
                "operator": "PAIRONE GIANMARCO"
            },
            "geometry": {
                "type": "Point",
                "coordinates": [
                    7.479528933763503,
                    44.647625437270435
                ]
            }
        },
        {
            "type": "Feature",
            "properties": {
                "name": "00320",
                "id": "10002",
                "brand": "Agip Eni",
                "amenity": "fuel",
                "operator": "LAURENTI MAURIZIO"
            },
            "geometry": {
                "type": "Point",
                "coordinates": [
                    7.498015615344229,
                    44.64079845424145
                ]
            }
        },
        {
            "type": "Feature",
            "properties": {
                "name": "stazione esso verzuolo",
                "id": "31667",
                "brand": "Esso",
                "amenity": "fuel",
                "operator": "LA CAPINERA SNC DI QUINTO GILBERTO & C."
            },
            "geometry": {
                "type": "Point",
                "coordinates": [
                    7.4831365048885345,
                    44.600981036697625
                ]
            }
        },
        {
            "type": "Feature",
            "properties": {
                "name": "ERG",
                "id": "18352",
                "brand": "Total Erg",
                "amenity": "fuel",
                "operator": "MIGLIORE GIANCARLO"
            },
            "geometry": {
                "type": "Point",
                "coordinates": [
                    7.5221385061740875,
                    44.592327222509276
                ]
            }
        },
        {
            "type": "Feature",
            "properties": {
                "name": "IP SALUZZO LOC. RUATA EANDI",
                "id": "21782",
                "brand": "Api-Ip",
                "amenity": "fuel",
                "operator": "GONELLA & SOMA' S.R.L."
            },
            "geometry": {
                "type": "Point",
                "coordinates": [
                    7.517415330019842,
                    44.64766180938942
                ]
            }
        },
        {
            "type": "Feature",
            "properties": {
                "name": "Tamoil Saluzzo",
                "id": "12118",
                "brand": "Tamoil",
                "amenity": "fuel",
                "operator": "G.A.R.E. DI DALMASSO RENATA  &  C. S.A.S."
            },
            "geometry": {
                "type": "Point",
                "coordinates": [
                    7.510077953338623,
                    44.66836445080606
                ]
            }
        },
        {
            "type": "Feature",
            "properties": {
                "name": "PETROLNAFTA",
                "id": "21342",
                "amenity": "fuel",
                "operator": "PETROLNAFTA DI CONTI GIOVANNI & C. S.N.C."
            },
            "geometry": {
                "type": "Point",
                "coordinates": [
                    7.384612203704817,
                    44.6515598595561
                ]
            }
        },
        {
            "type": "Feature",
            "properties": {
                "name": "CARMAR SNC",
                "id": "15256",
                "brand": "Api-Ip",
                "amenity": "fuel",
                "operator": "CARMAR S.N.C. DI BARRA CARLO E MELIFIORI MARA SIGLABILE \"CARMAR S.N.C.\""
            },
            "geometry": {
                "type": "Point",
                "coordinates": [
                    7.496432330688434,
                    44.65230866836165
                ]
            }
        },
        {
            "type": "Feature",
            "properties": {
                "name": "TOTAL ERG",
                "id": "31743",
                "brand": "Total Erg",
                "amenity": "fuel",
                "operator": "FERRERO GIULIA"
            },
            "geometry": {
                "type": "Point",
                "coordinates": [
                    7.403653264045714,
                    44.657244632625776
                ]
            }
        },
        {
            "type": "Feature",
            "properties": {
                "name": "esso",
                "id": "19479",
                "brand": "Esso",
                "amenity": "fuel",
                "operator": "NOVENA ALESSANDRA"
            },
            "geometry": {
                "type": "Point",
                "coordinates": [
                    7.488216608762741,
                    44.65460973512323
                ]
            }
        },
        {
            "type": "Feature",
            "properties": {
                "name": "manuela",
                "id": "14476",
                "brand": "Total Erg",
                "amenity": "fuel",
                "operator": "BRUNETTI MANUELA"
            },
            "geometry": {
                "type": "Point",
                "coordinates": [
                    7.40366667509079,
                    44.65720418471156
                ]
            }
        },
        {
            "type": "Feature",
            "properties": {
                "name": "Bragas - Saluzzo",
                "id": "30283",
                "amenity": "fuel",
                "operator": "BRAGAS S.R.L."
            },
            "geometry": {
                "type": "Point",
                "coordinates": [
                    7.507423907518387,
                    44.62708173311333
                ]
            }
        },
        {
            "type": "Feature",
            "properties": {
                "name": "PV 243",
                "id": "26239",
                "brand": "Agip Eni",
                "amenity": "fuel",
                "operator": "GESTIONI INNOVATIVE ITALIA S.R.L."
            },
            "geometry": {
                "type": "Point",
                "coordinates": [
                    7.3946166722897715,
                    44.65708452352094
                ]
            }
        },
        {
            "type": "Feature",
            "properties": {
                "name": "CENTRO CALOR SALUZZO",
                "id": "10537",
                "amenity": "fuel",
                "operator": "CENTRO CALOR S.R.L."
            },
            "geometry": {
                "type": "Point",
                "coordinates": [
                    7.507444024085998,
                    44.62707982417189
                ]
            }
        }
    ]
}