{
    "type": "FeatureCollection",
    "features": [
        {
            "type": "Feature",
            "properties": {
                "name": "IP di Giraudo Gianmario",
                "id": "7861",
                "brand": "Api-Ip",
                "amenity": "fuel",
                "operator": "GIRAUDO GIAN MARIO"
            },
            "geometry": {
                "type": "Point",
                "coordinates": [
                    7.5396728515625,
                    44.384505169048225
                ]
            }
        },
        {
            "type": "Feature",
            "properties": {
                "name": "Daniele & Busso",
                "id": "24366",
                "amenity": "fuel",
                "operator": "DANIELE RAIMONDO & BUSSO DUILIO S.N.C."
            },
            "geometry": {
                "type": "Point",
                "coordinates": [
                    7.548149228096008,
                    44.394457097501764
                ]
            }
        },
        {
            "type": "Feature",
            "properties": {
                "name": "RED POWER",
                "id": "23863",
                "amenity": "fuel",
                "operator": "RED POWER S.R.L."
            },
            "geometry": {
                "type": "Point",
                "coordinates": [
                    7.506279176914405,
                    44.43178812930369
                ]
            }
        },
        {
            "type": "Feature",
            "properties": {
                "name": "Distributore ESSO",
                "id": "29160",
                "brand": "Esso",
                "amenity": "fuel",
                "operator": "BRESCACIN ALAIN"
            },
            "geometry": {
                "type": "Point",
                "coordinates": [
                    7.554428279399872,
                    44.395453693249294
                ]
            }
        },
        {
            "type": "Feature",
            "properties": {
                "name": "CARAGLIO-VIA C.BATTISTI 86 SS. 22",
                "id": "11547",
                "brand": "Q8",
                "amenity": "fuel",
                "operator": "SERVIZI & GESTIONI ITALIA S.R.L."
            },
            "geometry": {
                "type": "Point",
                "coordinates": [
                    7.436464373016405,
                    44.414988504756714
                ]
            }
        },
        {
            "type": "Feature",
            "properties": {
                "name": "Totalerg",
                "id": "4412",
                "brand": "Total Erg",
                "amenity": "fuel",
                "operator": "BOTTA MARCO"
            },
            "geometry": {
                "type": "Point",
                "coordinates": [
                    7.522455850123605,
                    44.373120216889866
                ]
            }
        },
        {
            "type": "Feature",
            "properties": {
                "name": "CUNEO-CORSO NIZZA",
                "id": "11546",
                "brand": "Q8",
                "amenity": "fuel",
                "operator": "SERVIZI & GESTIONI ITALIA S.R.L."
            },
            "geometry": {
                "type": "Point",
                "coordinates": [
                    7.537520699405604,
                    44.379216939901816
                ]
            }
        },
        {
            "type": "Feature",
            "properties": {
                "name": "DEPLANO MAURIZIO",
                "id": "20864",
                "brand": "Api-Ip",
                "amenity": "fuel",
                "operator": "DEPLANO MAURIZIO"
            },
            "geometry": {
                "type": "Point",
                "coordinates": [
                    7.534778895630325,
                    44.38513129494256
                ]
            }
        },
        {
            "type": "Feature",
            "properties": {
                "name": "stazione di servizio shell rosano valter",
                "id": "5719",
                "brand": "Shell",
                "amenity": "fuel",
                "operator": "ROSANO VALTER"
            },
            "geometry": {
                "type": "Point",
                "coordinates": [
                    7.54081770555729,
                    44.40020758277417
                ]
            }
        },
        {
            "type": "Feature",
            "properties": {
                "name": "STAZIONE DI SERVIZIO AGIP",
                "id": "9213",
                "brand": "Agip Eni",
                "amenity": "fuel",
                "operator": "MUSSO PIERFRANCO"
            },
            "geometry": {
                "type": "Point",
                "coordinates": [
                    7.554173744351375,
                    44.395588937165186
                ]
            }
        },
        {
            "type": "Feature",
            "properties": {
                "name": "Esso",
                "id": "23978",
                "brand": "Esso",
                "amenity": "fuel",
                "operator": "DE ANGELIS ANTONIO"
            },
            "geometry": {
                "type": "Point",
                "coordinates": [
                    7.5525564968914995,
                    44.409222421076436
                ]
            }
        },
        {
            "type": "Feature",
            "properties": {
                "name": "3D CUNEO",
                "id": "24331",
                "amenity": "fuel",
                "operator": "3D S.R.L."
            },
            "geometry": {
                "type": "Point",
                "coordinates": [
                    7.538781394756823,
                    44.38640226426963
                ]
            }
        },
        {
            "type": "Feature",
            "properties": {
                "name": "TOTALERG",
                "id": "13999",
                "brand": "Total Erg",
                "amenity": "fuel",
                "operator": "ABELLO SERGIO"
            },
            "geometry": {
                "type": "Point",
                "coordinates": [
                    7.549860633239404,
                    44.41486531292481
                ]
            }
        },
        {
            "type": "Feature",
            "properties": {
                "name": "SOLE LUNA SNC",
                "id": "13363",
                "brand": "Total Erg",
                "amenity": "fuel",
                "operator": "SOLE LUNA SNC DI ARMITANO ELISA E DAO DANIELE"
            },
            "geometry": {
                "type": "Point",
                "coordinates": [
                    7.384887188673019,
                    44.45468268316582
                ]
            }
        },
        {
            "type": "Feature",
            "properties": {
                "name": "Impianto Agip 236",
                "id": "20463",
                "brand": "Agip Eni",
                "amenity": "fuel",
                "operator": "CASTROGIOVANNI GIUSEPPE"
            },
            "geometry": {
                "type": "Point",
                "coordinates": [
                    7.513464242219926,
                    44.35628851536318
                ]
            }
        },
        {
            "type": "Feature",
            "properties": {
                "name": "SACED SAN ROCCO",
                "id": "25794",
                "amenity": "fuel",
                "operator": "ABC ENERGY SRL"
            },
            "geometry": {
                "type": "Point",
                "coordinates": [
                    7.481886595487594,
                    44.39741847040318
                ]
            }
        },
        {
            "type": "Feature",
            "properties": {
                "name": "PITSTOP DI DONADIO ANDREA",
                "id": "30345",
                "brand": "Total Erg",
                "amenity": "fuel",
                "operator": "PIT STOP DI DONADIO ANDREA"
            },
            "geometry": {
                "type": "Point",
                "coordinates": [
                    7.486324310302734,
                    44.366354546509314
                ]
            }
        },
        {
            "type": "Feature",
            "properties": {
                "name": "00209",
                "id": "4951",
                "brand": "Agip Eni",
                "amenity": "fuel",
                "operator": "BOTANICA CLAUDIA"
            },
            "geometry": {
                "type": "Point",
                "coordinates": [
                    7.552027702331542,
                    44.41226370524243
                ]
            }
        },
        {
            "type": "Feature",
            "properties": {
                "name": "BORGODIS",
                "id": "31041",
                "amenity": "fuel",
                "operator": "BORGODIS S.R.L."
            },
            "geometry": {
                "type": "Point",
                "coordinates": [
                    7.507637143135072,
                    44.347364521938786
                ]
            }
        },
        {
            "type": "Feature",
            "properties": {
                "name": "Giordano-Isoardi snc servizioTOTALERG",
                "id": "23540",
                "brand": "Total Erg",
                "amenity": "fuel",
                "operator": "GIORDANO - ISOARDI S.N.C. DI GIORDANO GIOVANNI E ISOARDI ROBERTO"
            },
            "geometry": {
                "type": "Point",
                "coordinates": [
                    7.556501626968386,
                    44.42596315417735
                ]
            }
        },
        {
            "type": "Feature",
            "properties": {
                "name": "DALMASSO ROBERTO ERG",
                "id": "10580",
                "brand": "Total Erg",
                "amenity": "fuel",
                "operator": "DALMASSO ROBERTO"
            },
            "geometry": {
                "type": "Point",
                "coordinates": [
                    7.441680961971316,
                    44.38570175452257
                ]
            }
        },
        {
            "type": "Feature",
            "properties": {
                "name": "totalerg lingua isoardi snc",
                "id": "8879",
                "brand": "Total Erg",
                "amenity": "fuel",
                "operator": "LINGUA MARIO & ISOARDI PIERANGELO S.N.C."
            },
            "geometry": {
                "type": "Point",
                "coordinates": [
                    7.5290633582748105,
                    44.394799733136615
                ]
            }
        },
        {
            "type": "Feature",
            "properties": {
                "name": "TOTAL ERG",
                "id": "30838",
                "brand": "Total Erg",
                "amenity": "fuel",
                "operator": "BONO FEDERICO"
            },
            "geometry": {
                "type": "Point",
                "coordinates": [
                    7.470574626722508,
                    44.3802037714067
                ]
            }
        },
        {
            "type": "Feature",
            "properties": {
                "name": "BORGO SAN DALMAZZO-SS.20 KM. 81+258",
                "id": "11549",
                "brand": "Q8",
                "amenity": "fuel",
                "operator": "SERVIZI & GESTIONI ITALIA S.R.L."
            },
            "geometry": {
                "type": "Point",
                "coordinates": [
                    7.5080475211143485,
                    44.351106400846156
                ]
            }
        },
        {
            "type": "Feature",
            "properties": {
                "name": "ip italia petroli",
                "id": "19109",
                "brand": "Api-Ip",
                "amenity": "fuel",
                "operator": "FANTINO SILVIO"
            },
            "geometry": {
                "type": "Point",
                "coordinates": [
                    7.545760720968247,
                    44.40444221995225
                ]
            }
        },
        {
            "type": "Feature",
            "properties": {
                "name": "CUNEO - VIA DELL AUTOMOBILE CLUB.",
                "id": "7291",
                "brand": "Q8",
                "amenity": "fuel",
                "operator": "SERVIZI & GESTIONI ITALIA S.R.L."
            },
            "geometry": {
                "type": "Point",
                "coordinates": [
                    7.554105073213578,
                    44.42348212715245
                ]
            }
        },
        {
            "type": "Feature",
            "properties": {
                "name": "Reineri Valerio",
                "id": "19629",
                "brand": "Agip Eni",
                "amenity": "fuel",
                "operator": "REINERI VALERIO"
            },
            "geometry": {
                "type": "Point",
                "coordinates": [
                    7.532368791262796,
                    44.374727932883324
                ]
            }
        }
    ]
}