{
    "type": "FeatureCollection",
    "features": [
        {
            "type": "Feature",
            "properties": {
                "name": "totalerg",
                "id": "30737",
                "brand": "Total Erg",
                "amenity": "fuel",
                "operator": "PISTIS ALBINA"
            },
            "geometry": {
                "type": "Point",
                "coordinates": [
                    7.640347480773924,
                    45.12410444000448
                ]
            }
        },
        {
            "type": "Feature",
            "properties": {
                "name": "TORINO - ST. CUORGNE'  FALCHERA",
                "id": "22893",
                "brand": "Api-Ip",
                "amenity": "fuel",
                "operator": "IP SERVICES S.R.L."
            },
            "geometry": {
                "type": "Point",
                "coordinates": [
                    7.703347114086114,
                    45.12189938806275
                ]
            }
        },
        {
            "type": "Feature",
            "properties": {
                "name": "tamoil",
                "id": "5047",
                "brand": "Tamoil",
                "amenity": "fuel",
                "operator": "CROVARA CARBURANTI S.A.S. DI CROVARA PESCE CARMINE & C."
            },
            "geometry": {
                "type": "Point",
                "coordinates": [
                    7.637305250262444,
                    45.099379740676994
                ]
            }
        },
        {
            "type": "Feature",
            "properties": {
                "name": "SOMMESE PETROLI",
                "id": "20284",
                "amenity": "fuel",
                "operator": "DISTRIBUTORE CARBURANTI DI SAVOIA MARIO"
            },
            "geometry": {
                "type": "Point",
                "coordinates": [
                    7.649928126983695,
                    45.099591878886244
                ]
            }
        },
        {
            "type": "Feature",
            "properties": {
                "name": "eni",
                "id": "29622",
                "brand": "Agip Eni",
                "amenity": "fuel",
                "operator": "MASSARO GIUSEPPE"
            },
            "geometry": {
                "type": "Point",
                "coordinates": [
                    7.65360720555725,
                    45.08974784725856
                ]
            }
        },
        {
            "type": "Feature",
            "properties": {
                "name": "STURA",
                "id": "3625",
                "brand": "Agip Eni",
                "amenity": "fuel",
                "operator": "TOTEN DI MAGLIONE ANTONIO E C. S.N.C."
            },
            "geometry": {
                "type": "Point",
                "coordinates": [
                    7.678499221801758,
                    45.128637165461136
                ]
            }
        },
        {
            "type": "Feature",
            "properties": {
                "name": "D'Elia carburanti s.n.c.",
                "id": "15761",
                "brand": "Tamoil",
                "amenity": "fuel",
                "operator": "D'ELIA CARBURANTI S.N.C. DI D'ELIA MICHELE & C."
            },
            "geometry": {
                "type": "Point",
                "coordinates": [
                    7.660939469933512,
                    45.09009108038906
                ]
            }
        },
        {
            "type": "Feature",
            "properties": {
                "name": "CAPPUCCI CARBURANTI BORGARO",
                "id": "24312",
                "brand": "Esso",
                "amenity": "fuel",
                "operator": "CAPPUCCI ALESSIO CARBURANTI & C. S.N.C."
            },
            "geometry": {
                "type": "Point",
                "coordinates": [
                    7.655584301852401,
                    45.14578668551298
                ]
            }
        },
        {
            "type": "Feature",
            "properties": {
                "name": "GIODA AGOSTINO SRL -G.P.L.",
                "id": "31773",
                "amenity": "fuel",
                "operator": "GIODA AGOSTINO S.R.L."
            },
            "geometry": {
                "type": "Point",
                "coordinates": [
                    7.643965626983571,
                    45.120830495575596
                ]
            }
        },
        {
            "type": "Feature",
            "properties": {
                "name": "TOTAL ERG",
                "id": "13556",
                "brand": "Total Erg",
                "amenity": "fuel",
                "operator": "CRICELLI NICOLA"
            },
            "geometry": {
                "type": "Point",
                "coordinates": [
                    7.657414510450734,
                    45.09551435546812
                ]
            }
        },
        {
            "type": "Feature",
            "properties": {
                "name": "TORINO SANSOVINO 153",
                "id": "6394",
                "brand": "Q8",
                "amenity": "fuel",
                "operator": "SERVIZI & GESTIONI ITALIA srl"
            },
            "geometry": {
                "type": "Point",
                "coordinates": [
                    7.6470275484794,
                    45.105801503882
                ]
            }
        },
        {
            "type": "Feature",
            "properties": {
                "name": "essoitaliana",
                "id": "19455",
                "brand": "Esso",
                "amenity": "fuel",
                "operator": "L.G. ELETTRONICA DI CIPRIANI GAETANO"
            },
            "geometry": {
                "type": "Point",
                "coordinates": [
                    7.676153630018234,
                    45.093181769289465
                ]
            }
        },
        {
            "type": "Feature",
            "properties": {
                "name": "DELLE ALPI",
                "id": "20139",
                "brand": "Agip Eni",
                "amenity": "fuel",
                "operator": "D'ASTA MONICA"
            },
            "geometry": {
                "type": "Point",
                "coordinates": [
                    7.645698693917893,
                    45.11099981909937
                ]
            }
        },
        {
            "type": "Feature",
            "properties": {
                "name": "Tamoil",
                "id": "23706",
                "brand": "Tamoil",
                "amenity": "fuel",
                "operator": "ARTUSO MARCO"
            },
            "geometry": {
                "type": "Point",
                "coordinates": [
                    7.707261516532867,
                    45.14574296164795
                ]
            }
        },
        {
            "type": "Feature",
            "properties": {
                "name": "eni 978",
                "id": "5581",
                "brand": "Agip Eni",
                "amenity": "fuel",
                "operator": "D'ELIA GIOVANNI"
            },
            "geometry": {
                "type": "Point",
                "coordinates": [
                    7.618653774261473,
                    45.09454641368477
                ]
            }
        },
        {
            "type": "Feature",
            "properties": {
                "name": "Stazione di Servizio Auchan/Q8",
                "id": "7064",
                "brand": "Q8",
                "amenity": "fuel",
                "operator": "AUCHAN S.P.A."
            },
            "geometry": {
                "type": "Point",
                "coordinates": [
                    7.647604197263718,
                    45.114801034400394
                ]
            }
        },
        {
            "type": "Feature",
            "properties": {
                "name": "TOTALERG di Ferrando Lorenzo",
                "id": "18913",
                "brand": "Total Erg",
                "amenity": "fuel",
                "operator": "FERRANDO LORENZO"
            },
            "geometry": {
                "type": "Point",
                "coordinates": [
                    7.688325481020343,
                    45.08952164242585
                ]
            }
        },
        {
            "type": "Feature",
            "properties": {
                "name": "pettinicchio alfredo",
                "id": "15447",
                "brand": "Tamoil",
                "amenity": "fuel",
                "operator": "PETTINICCHIO ALFREDO"
            },
            "geometry": {
                "type": "Point",
                "coordinates": [
                    7.725770473480222,
                    45.184541412896515
                ]
            }
        },
        {
            "type": "Feature",
            "properties": {
                "name": "TORINO-VIA SANSOVINO/VIA MOLISE",
                "id": "11863",
                "brand": "Q8",
                "amenity": "fuel",
                "operator": "SERVIZI & GESTIONI ITALIA S.R.L."
            },
            "geometry": {
                "type": "Point",
                "coordinates": [
                    7.638726822090122,
                    45.10083029228898
                ]
            }
        },
        {
            "type": "Feature",
            "properties": {
                "name": "STAZIONE DI SERVIZIO ENI",
                "id": "22108",
                "brand": "Agip Eni",
                "amenity": "fuel",
                "operator": "GIGAL DI GIANPIERO GALANTE"
            },
            "geometry": {
                "type": "Point",
                "coordinates": [
                    7.652526050806044,
                    45.16803504575023
                ]
            }
        },
        {
            "type": "Feature",
            "properties": {
                "name": "STURA",
                "id": "3806",
                "brand": "Agip Eni",
                "amenity": "fuel",
                "operator": "F.LLI MAGLIONE S.N.C. DI NICOLA MAGLIONE E C."
            },
            "geometry": {
                "type": "Point",
                "coordinates": [
                    7.690317034721375,
                    45.12860991563682
                ]
            }
        },
        {
            "type": "Feature",
            "properties": {
                "name": "TORINO - AEROPORTO S.P. 325/A Km 8",
                "id": "22300",
                "brand": "Api-Ip",
                "amenity": "fuel",
                "operator": "IP SERVICES S.R.L."
            },
            "geometry": {
                "type": "Point",
                "coordinates": [
                    7.656681224536897,
                    45.13215865911113
                ]
            }
        },
        {
            "type": "Feature",
            "properties": {
                "name": "DRUENTO S.P. TO/DRUENTO KM 10+400",
                "id": "22253",
                "brand": "Q8",
                "amenity": "fuel",
                "operator": "SERVIZI & GESTIONI ITALIA S.R.L."
            },
            "geometry": {
                "type": "Point",
                "coordinates": [
                    7.598684669380987,
                    45.12217330018168
                ]
            }
        },
        {
            "type": "Feature",
            "properties": {
                "name": "COLLEGNO SP 24 LOC. STAZIONETTA",
                "id": "6393",
                "brand": "Q8",
                "amenity": "fuel",
                "operator": "SERVIZI & GESTIONI ITALIA srl"
            },
            "geometry": {
                "type": "Point",
                "coordinates": [
                    7.577296793460844,
                    45.09582544231724
                ]
            }
        },
        {
            "type": "Feature",
            "properties": {
                "name": "totalerg",
                "id": "17869",
                "brand": "Total Erg",
                "amenity": "fuel",
                "operator": "AUTOSERVIZI ROSA DI CARERI ROSA MARIA & C. S.N.C."
            },
            "geometry": {
                "type": "Point",
                "coordinates": [
                    7.636687329331495,
                    45.20385574644981
                ]
            }
        },
        {
            "type": "Feature",
            "properties": {
                "name": "europam",
                "id": "24995",
                "amenity": "fuel",
                "operator": "ALOTTO GIACOMO"
            },
            "geometry": {
                "type": "Point",
                "coordinates": [
                    7.672423575128732,
                    45.10511285705035
                ]
            }
        },
        {
            "type": "Feature",
            "properties": {
                "name": "TORINO",
                "id": "5893",
                "brand": "Total Erg",
                "amenity": "fuel",
                "operator": "TotalErg SpA"
            },
            "geometry": {
                "type": "Point",
                "coordinates": [
                    7.645568046626977,
                    45.10777642785167
                ]
            }
        },
        {
            "type": "Feature",
            "properties": {
                "name": "LUDOIL",
                "id": "22550",
                "amenity": "fuel",
                "operator": "ONORATO DENIS"
            },
            "geometry": {
                "type": "Point",
                "coordinates": [
                    7.657876190213074,
                    45.116723092105836
                ]
            }
        },
        {
            "type": "Feature",
            "properties": {
                "name": "ENI di Costa Fortunato",
                "id": "19595",
                "brand": "Agip Eni",
                "amenity": "fuel",
                "operator": "COSTA FORTUNATO"
            },
            "geometry": {
                "type": "Point",
                "coordinates": [
                    7.722525000572206,
                    45.15623034350962
                ]
            }
        },
        {
            "type": "Feature",
            "properties": {
                "name": "CASELLE TORINESE - C/O CC BENNET.",
                "id": "7301",
                "brand": "Q8",
                "amenity": "fuel",
                "operator": "SERVIZI & GESTIONI ITALIA S.R.L."
            },
            "geometry": {
                "type": "Point",
                "coordinates": [
                    7.653812565641373,
                    45.168705945507725
                ]
            }
        },
        {
            "type": "Feature",
            "properties": {
                "name": "TAMOIL",
                "id": "15575",
                "brand": "Tamoil",
                "amenity": "fuel",
                "operator": "ESPOSITO UGO"
            },
            "geometry": {
                "type": "Point",
                "coordinates": [
                    7.703945338726045,
                    45.12602112735086
                ]
            }
        },
        {
            "type": "Feature",
            "properties": {
                "name": "TORINO",
                "id": "12564",
                "amenity": "fuel",
                "operator": "GO S.R.L."
            },
            "geometry": {
                "type": "Point",
                "coordinates": [
                    7.678233730688476,
                    45.08942752391724
                ]
            }
        },
        {
            "type": "Feature",
            "properties": {
                "name": "ENI CARBURO",
                "id": "29415",
                "brand": "Agip Eni",
                "amenity": "fuel",
                "operator": "CARBURO DI FAMMILUME MICHELE"
            },
            "geometry": {
                "type": "Point",
                "coordinates": [
                    7.69947411045075,
                    45.10065378654696
                ]
            }
        },
        {
            "type": "Feature",
            "properties": {
                "name": "Distributore Tamoil Druento",
                "id": "4413",
                "brand": "Tamoil",
                "amenity": "fuel",
                "operator": "MOTORGAS S.R.L."
            },
            "geometry": {
                "type": "Point",
                "coordinates": [
                    7.59075985999243,
                    45.125119779818554
                ]
            }
        },
        {
            "type": "Feature",
            "properties": {
                "name": "TORINO-CORSO GROSSETO 338 ANGOLO VIA SANSO",
                "id": "11857",
                "brand": "Q8",
                "amenity": "fuel",
                "operator": "SERVIZI & GESTIONI ITALIA S.R.L."
            },
            "geometry": {
                "type": "Point",
                "coordinates": [
                    7.649496152114807,
                    45.10650445294046
                ]
            }
        },
        {
            "type": "Feature",
            "properties": {
                "name": "TOTALERG",
                "id": "7756",
                "brand": "Total Erg",
                "amenity": "fuel",
                "operator": "TOFFEE DI LAURICELLA MARCO & C. S.N.C."
            },
            "geometry": {
                "type": "Point",
                "coordinates": [
                    7.728879153728484,
                    45.10918990927744
                ]
            }
        },
        {
            "type": "Feature",
            "properties": {
                "name": "TORINO C.SO GIULIO CESARE 276",
                "id": "6388",
                "brand": "Q8",
                "amenity": "fuel",
                "operator": "SERVIZI & GESTIONI ITALIA srl"
            },
            "geometry": {
                "type": "Point",
                "coordinates": [
                    7.702447990213044,
                    45.10465583539482
                ]
            }
        },
        {
            "type": "Feature",
            "properties": {
                "name": "Biondi Antonio",
                "id": "9882",
                "brand": "Agip Eni",
                "amenity": "fuel",
                "operator": "BIONDI ANTONIO"
            },
            "geometry": {
                "type": "Point",
                "coordinates": [
                    7.5692018866539,
                    45.187707516842806
                ]
            }
        },
        {
            "type": "Feature",
            "properties": {
                "name": "Stazione di Servizio Auchan/ENI",
                "id": "7063",
                "brand": "Agip Eni",
                "amenity": "fuel",
                "operator": "AUCHAN S.P.A."
            },
            "geometry": {
                "type": "Point",
                "coordinates": [
                    7.71365225315094,
                    45.1192564172801
                ]
            }
        },
        {
            "type": "Feature",
            "properties": {
                "name": "Distributore Carburanti Q8 di Piombino Antonio",
                "id": "5091",
                "brand": "Q8",
                "amenity": "fuel",
                "operator": "PIOMBINO ANTONIO"
            },
            "geometry": {
                "type": "Point",
                "coordinates": [
                    7.620941698551178,
                    45.09892187957469
                ]
            }
        },
        {
            "type": "Feature",
            "properties": {
                "name": "rete leini",
                "id": "10771",
                "brand": "Total Erg",
                "amenity": "fuel",
                "operator": "MARITAN BRUNO & C. S.N.C."
            },
            "geometry": {
                "type": "Point",
                "coordinates": [
                    7.712236046791077,
                    45.16679526785409
                ]
            }
        },
        {
            "type": "Feature",
            "properties": {
                "name": "TORINO - LUNGO STURA LAZIO 150/A",
                "id": "30829",
                "brand": "Q8",
                "amenity": "fuel",
                "operator": "SERVIZI & GESTIONI ITALIA S.R.L."
            },
            "geometry": {
                "type": "Point",
                "coordinates": [
                    7.724811862635079,
                    45.09736978401084
                ]
            }
        },
        {
            "type": "Feature",
            "properties": {
                "name": "TAMOIL Druento Cassagna",
                "id": "23462",
                "brand": "Tamoil",
                "amenity": "fuel",
                "operator": "SA.ADRI S.N.C. DI ACQUAFRESCA SAVERIO E MONFREDO ADRIANO SIGLABILE SA.ADRI S.N.C."
            },
            "geometry": {
                "type": "Point",
                "coordinates": [
                    7.591046333836856,
                    45.11831462382247
                ]
            }
        },
        {
            "type": "Feature",
            "properties": {
                "name": "STAZIONE DI SERVIZIO ESSO DI TESORO M.E D.SNC",
                "id": "8800",
                "brand": "Esso",
                "amenity": "fuel",
                "operator": "TESORO MICHELE E DAVIDE SNC"
            },
            "geometry": {
                "type": "Point",
                "coordinates": [
                    7.663632247885062,
                    45.10890661626723
                ]
            }
        },
        {
            "type": "Feature",
            "properties": {
                "name": "ENI SPA",
                "id": "13163",
                "brand": "Agip Eni",
                "amenity": "fuel",
                "operator": "BOTTO SILVANO"
            },
            "geometry": {
                "type": "Point",
                "coordinates": [
                    7.6374292373657235,
                    45.126624147679344
                ]
            }
        },
        {
            "type": "Feature",
            "properties": {
                "name": "tamoil",
                "id": "16538",
                "brand": "Tamoil",
                "amenity": "fuel",
                "operator": "AUTO STRADELLA S.R.L."
            },
            "geometry": {
                "type": "Point",
                "coordinates": [
                    7.6703443644180425,
                    45.09821694901453
                ]
            }
        },
        {
            "type": "Feature",
            "properties": {
                "name": "MET.AU.TO",
                "id": "12936",
                "amenity": "fuel",
                "operator": "MET.AU.TO. DI GIBERTI MAURO GIOVANNI"
            },
            "geometry": {
                "type": "Point",
                "coordinates": [
                    7.703705281019209,
                    45.1018227673595
                ]
            }
        },
        {
            "type": "Feature",
            "properties": {
                "name": "BORGARO TORINESE-STRAD PROV. TORINO-LANZO",
                "id": "11873",
                "brand": "Q8",
                "amenity": "fuel",
                "operator": "SERVIZI & GESTIONI ITALIA S.R.L."
            },
            "geometry": {
                "type": "Point",
                "coordinates": [
                    7.655451720237692,
                    45.14140756768663
                ]
            }
        },
        {
            "type": "Feature",
            "properties": {
                "name": "AUTOSERVIZI BARCA S.N.C.",
                "id": "12049",
                "brand": "Esso",
                "amenity": "fuel",
                "operator": "AUTOSERVIZI BARCA DI TRIPI ORAZIO & C. S.N.C."
            },
            "geometry": {
                "type": "Point",
                "coordinates": [
                    7.726019798811308,
                    45.10299988583966
                ]
            }
        },
        {
            "type": "Feature",
            "properties": {
                "name": "GIODA AGOSTINO SRL - DISTRIBUTORE",
                "id": "24038",
                "amenity": "fuel",
                "operator": "GIODA AGOSTINO S.R.L."
            },
            "geometry": {
                "type": "Point",
                "coordinates": [
                    7.643681466579437,
                    45.11874065836434
                ]
            }
        },
        {
            "type": "Feature",
            "properties": {
                "name": "Q8 di Piludu",
                "id": "20638",
                "brand": "Q8",
                "amenity": "fuel",
                "operator": "PILUDU MAURO"
            },
            "geometry": {
                "type": "Point",
                "coordinates": [
                    7.714648035490427,
                    45.17944746377771
                ]
            }
        },
        {
            "type": "Feature",
            "properties": {
                "name": "ENI 54301",
                "id": "22778",
                "brand": "Agip Eni",
                "amenity": "fuel",
                "operator": "PALMIERI MICHELE"
            },
            "geometry": {
                "type": "Point",
                "coordinates": [
                    7.642353773117065,
                    45.18970675228741
                ]
            }
        },
        {
            "type": "Feature",
            "properties": {
                "name": "Torino Reiss Romoli",
                "id": "27325",
                "brand": "Total Erg",
                "amenity": "fuel",
                "operator": "GESTIONI EUROPA - SOCIETA' PER AZIONI"
            },
            "geometry": {
                "type": "Point",
                "coordinates": [
                    7.6741862297058105,
                    45.11101141006377
                ]
            }
        },
        {
            "type": "Feature",
            "properties": {
                "name": "TORINO - C.SO VERCELLI",
                "id": "29832",
                "brand": "Api-Ip",
                "amenity": "fuel",
                "operator": "IP SERVICES S.R.L."
            },
            "geometry": {
                "type": "Point",
                "coordinates": [
                    7.6976582407951355,
                    45.11129989195839
                ]
            }
        },
        {
            "type": "Feature",
            "properties": {
                "name": "Petroltermica Druento",
                "id": "21492",
                "amenity": "fuel",
                "operator": "PETROLTERMICA COMAC - OLCEA S.P.A."
            },
            "geometry": {
                "type": "Point",
                "coordinates": [
                    7.586854845285416,
                    45.13065020682192
                ]
            }
        },
        {
            "type": "Feature",
            "properties": {
                "name": "STAZIONE ENI DI ANTONICELLI GIUSEPPE",
                "id": "22471",
                "brand": "Agip Eni",
                "amenity": "fuel",
                "operator": "ANTONICELLI GIUSEPPE"
            },
            "geometry": {
                "type": "Point",
                "coordinates": [
                    7.698214498811352,
                    45.110507213879764
                ]
            }
        },
        {
            "type": "Feature",
            "properties": {
                "name": "Stazione di Servizio Esso Diana Giorgio",
                "id": "6028",
                "brand": "Esso",
                "amenity": "fuel",
                "operator": "DIANA GIORGIO"
            },
            "geometry": {
                "type": "Point",
                "coordinates": [
                    7.592963640544895,
                    45.09678749777045
                ]
            }
        },
        {
            "type": "Feature",
            "properties": {
                "name": "BEYFIN",
                "id": "13257",
                "amenity": "fuel",
                "operator": "SCIALLA FRANCESCO"
            },
            "geometry": {
                "type": "Point",
                "coordinates": [
                    7.710439407076252,
                    45.11815005554939
                ]
            }
        },
        {
            "type": "Feature",
            "properties": {
                "name": "Economy S.r.l - Venaria",
                "id": "25023",
                "brand": "Total Erg",
                "amenity": "fuel",
                "operator": "ECONOMY S.R.L."
            },
            "geometry": {
                "type": "Point",
                "coordinates": [
                    7.618852257728578,
                    45.122207370860366
                ]
            }
        },
        {
            "type": "Feature",
            "properties": {
                "name": "totalerg",
                "id": "14807",
                "brand": "Total Erg",
                "amenity": "fuel",
                "operator": "LAMARCA RAFFAELE"
            },
            "geometry": {
                "type": "Point",
                "coordinates": [
                    7.67093240674592,
                    45.10460418412346
                ]
            }
        },
        {
            "type": "Feature",
            "properties": {
                "name": "SAN MAURIZIO CANAVESE SP TORINO/CASELLE KM 16",
                "id": "21106",
                "brand": "Q8",
                "amenity": "fuel",
                "operator": "SERVIZI & GESTIONI ITALIA S.R.L."
            },
            "geometry": {
                "type": "Point",
                "coordinates": [
                    7.626498770569582,
                    45.194391429784815
                ]
            }
        },
        {
            "type": "Feature",
            "properties": {
                "name": "TORINO-VIA PAOLO VERONESE ANGOLO STRADA LA",
                "id": "11864",
                "brand": "Q8",
                "amenity": "fuel",
                "operator": "SERVIZI & GESTIONI ITALIA S.R.L."
            },
            "geometry": {
                "type": "Point",
                "coordinates": [
                    7.660827987766199,
                    45.111574148101184
                ]
            }
        },
        {
            "type": "Feature",
            "properties": {
                "name": "PIANEZZA VIA TORINO",
                "id": "21859",
                "brand": "Api-Ip",
                "amenity": "fuel",
                "operator": "IP SERVICES S.R.L."
            },
            "geometry": {
                "type": "Point",
                "coordinates": [
                    7.574412077665329,
                    45.10451374765385
                ]
            }
        },
        {
            "type": "Feature",
            "properties": {
                "name": "stazione di servizio agip di dileno",
                "id": "6017",
                "brand": "Agip Eni",
                "amenity": "fuel",
                "operator": "DILENO CIRO MASSIMILIANO"
            },
            "geometry": {
                "type": "Point",
                "coordinates": [
                    7.654982954263688,
                    45.162443918354846
                ]
            }
        },
        {
            "type": "Feature",
            "properties": {
                "name": "ROBASSOMERO-VIA LANZO 16",
                "id": "11854",
                "brand": "Q8",
                "amenity": "fuel",
                "operator": "SERVIZI & GESTIONI ITALIA S.R.L."
            },
            "geometry": {
                "type": "Point",
                "coordinates": [
                    7.563201923942529,
                    45.19373402332862
                ]
            }
        },
        {
            "type": "Feature",
            "properties": {
                "name": "Siclari Paolo Stazione di Servizio Totalerg",
                "id": "13411",
                "brand": "Total Erg",
                "amenity": "fuel",
                "operator": "SICLARI PAOLO"
            },
            "geometry": {
                "type": "Point",
                "coordinates": [
                    7.65925370156765,
                    45.105865626795044
                ]
            }
        },
        {
            "type": "Feature",
            "properties": {
                "name": "CURCIO DANIELE_ STAZ. DI SERV  TAMOIL",
                "id": "8299",
                "brand": "Tamoil",
                "amenity": "fuel",
                "operator": "CURCIO DANIELE"
            },
            "geometry": {
                "type": "Point",
                "coordinates": [
                    7.666619718074799,
                    45.11131503526142
                ]
            }
        },
        {
            "type": "Feature",
            "properties": {
                "name": "BORGARO TORINESE VIA LANZO 18",
                "id": "24891",
                "brand": "Q8",
                "amenity": "fuel",
                "operator": "SERVIZI & GESTIONI ITALIA S.R.L."
            },
            "geometry": {
                "type": "Point",
                "coordinates": [
                    7.6562398460326895,
                    45.136807097666555
                ]
            }
        },
        {
            "type": "Feature",
            "properties": {
                "name": "ESSO Perrone Corrado",
                "id": "9012",
                "brand": "Esso",
                "amenity": "fuel",
                "operator": "PERRONE CORRADO"
            },
            "geometry": {
                "type": "Point",
                "coordinates": [
                    7.634107275150654,
                    45.13119767067611
                ]
            }
        },
        {
            "type": "Feature",
            "properties": {
                "name": "TotalErg",
                "id": "26728",
                "brand": "Total Erg",
                "amenity": "fuel",
                "operator": "ARAMU GIANCARLO"
            },
            "geometry": {
                "type": "Point",
                "coordinates": [
                    7.663553563982418,
                    45.112083147585174
                ]
            }
        },
        {
            "type": "Feature",
            "properties": {
                "name": "TAMOIL",
                "id": "18657",
                "brand": "Tamoil",
                "amenity": "fuel",
                "operator": "CALO' GIUSEPPE"
            },
            "geometry": {
                "type": "Point",
                "coordinates": [
                    7.626004368066789,
                    45.19414769250631
                ]
            }
        },
        {
            "type": "Feature",
            "properties": {
                "name": "DISTRIBUTORE IP-GRUPPO API ESPOSITO NEREO DI CHINO MIRELLA",
                "id": "10162",
                "brand": "Api-Ip",
                "amenity": "fuel",
                "operator": "ESPOSITO NEREO DI CHINO MIRELLA"
            },
            "geometry": {
                "type": "Point",
                "coordinates": [
                    7.648970365727564,
                    45.17409092392256
                ]
            }
        },
        {
            "type": "Feature",
            "properties": {
                "name": "TORINO CORSO TOSCANA 43/A",
                "id": "24636",
                "brand": "Q8",
                "amenity": "fuel",
                "operator": "SERVIZI & GESTIONI ITALIA S.R.L."
            },
            "geometry": {
                "type": "Point",
                "coordinates": [
                    7.6565443681229235,
                    45.096995421680276
                ]
            }
        },
        {
            "type": "Feature",
            "properties": {
                "name": "TERRENO D'HARCOURT SRL IMPIANTO DISTRIBUTORE CARBURANTI",
                "id": "29902",
                "amenity": "fuel",
                "operator": "TERRENO D'HARCOURT S.R.L."
            },
            "geometry": {
                "type": "Point",
                "coordinates": [
                    7.720500909725957,
                    45.097330816830535
                ]
            }
        },
        {
            "type": "Feature",
            "properties": {
                "name": "Bomba S.r.l.",
                "id": "10493",
                "brand": "Socogas",
                "amenity": "fuel",
                "operator": "BOMBA S.R.L."
            },
            "geometry": {
                "type": "Point",
                "coordinates": [
                    7.697324374204981,
                    45.109978333396995
                ]
            }
        },
        {
            "type": "Feature",
            "properties": {
                "name": "PIANEZZA VIA TORINO -  OVEST",
                "id": "21862",
                "brand": "Api-Ip",
                "amenity": "fuel",
                "operator": "IP SERVICES S.R.L."
            },
            "geometry": {
                "type": "Point",
                "coordinates": [
                    7.573900446295738,
                    45.10443063852144
                ]
            }
        },
        {
            "type": "Feature",
            "properties": {
                "name": "TORINO-VIA BOTTICELLI 179",
                "id": "11862",
                "brand": "Q8",
                "amenity": "fuel",
                "operator": "SERVIZI & GESTIONI ITALIA S.R.L."
            },
            "geometry": {
                "type": "Point",
                "coordinates": [
                    7.712364373016386,
                    45.097782811036794
                ]
            }
        },
        {
            "type": "Feature",
            "properties": {
                "name": "PIANEZZA",
                "id": "5902",
                "brand": "Total Erg",
                "amenity": "fuel",
                "operator": "TotalErg SpA"
            },
            "geometry": {
                "type": "Point",
                "coordinates": [
                    7.561967968940733,
                    45.11206084080909
                ]
            }
        },
        {
            "type": "Feature",
            "properties": {
                "name": "Esso",
                "id": "10780",
                "brand": "Esso",
                "amenity": "fuel",
                "operator": "LAIFAMIL DI LAI MIRELLA & C. S.N.C."
            },
            "geometry": {
                "type": "Point",
                "coordinates": [
                    7.708392441272735,
                    45.150387417972844
                ]
            }
        },
        {
            "type": "Feature",
            "properties": {
                "name": "stazione esso dinoco",
                "id": "19824",
                "brand": "Esso",
                "amenity": "fuel",
                "operator": "DINOCO S.N.C. DI MANGIAPANE GIUSEPPE E VISENTIN GIULIANO"
            },
            "geometry": {
                "type": "Point",
                "coordinates": [
                    7.645672495770215,
                    45.10958377702075
                ]
            }
        },
        {
            "type": "Feature",
            "properties": {
                "name": "ENI",
                "id": "27471",
                "brand": "Agip Eni",
                "amenity": "fuel",
                "operator": "EDY & GIOVY SERVICE S.N.C. DI IONCU EDUARD E DASCAL ION"
            },
            "geometry": {
                "type": "Point",
                "coordinates": [
                    7.6772278547287,
                    45.1460274373521
                ]
            }
        },
        {
            "type": "Feature",
            "properties": {
                "name": "Q8 DI LENTINI ANGELA",
                "id": "32141",
                "brand": "Q8",
                "amenity": "fuel",
                "operator": "LENTINI S.A.S. DI LENTINI ANGELA E C."
            },
            "geometry": {
                "type": "Point",
                "coordinates": [
                    7.700567143516538,
                    45.103383109317534
                ]
            }
        },
        {
            "type": "Feature",
            "properties": {
                "name": "Q8",
                "id": "10763",
                "brand": "Q8",
                "amenity": "fuel",
                "operator": "MANGIONE GIANLUCA"
            },
            "geometry": {
                "type": "Point",
                "coordinates": [
                    7.6380139125808455,
                    45.12625014154412
                ]
            }
        },
        {
            "type": "Feature",
            "properties": {
                "name": "Stazione di Servizio TAMOIL",
                "id": "7361",
                "brand": "Tamoil",
                "amenity": "fuel",
                "operator": "SGAMBELLONE MARIA ROSA"
            },
            "geometry": {
                "type": "Point",
                "coordinates": [
                    7.62129843235016,
                    45.20256664566724
                ]
            }
        },
        {
            "type": "Feature",
            "properties": {
                "name": "TARANTO",
                "id": "17479",
                "amenity": "fuel",
                "operator": "DIS-CAR DI SARRA PAOLO & C. S.N.C."
            },
            "geometry": {
                "type": "Point",
                "coordinates": [
                    7.708762145368952,
                    45.097798315455194
                ]
            }
        },
        {
            "type": "Feature",
            "properties": {
                "name": "ENI",
                "id": "19559",
                "brand": "Agip Eni",
                "amenity": "fuel",
                "operator": "CBC DI CARNIGLIA LUIGI E C. S.A.S."
            },
            "geometry": {
                "type": "Point",
                "coordinates": [
                    7.70662149259033,
                    45.10026591042459
                ]
            }
        },
        {
            "type": "Feature",
            "properties": {
                "name": "_IP",
                "id": "4884",
                "brand": "Api-Ip",
                "amenity": "fuel",
                "operator": "DE LUCA ANTONIO"
            },
            "geometry": {
                "type": "Point",
                "coordinates": [
                    7.608423829078675,
                    45.098923394216236
                ]
            }
        },
        {
            "type": "Feature",
            "properties": {
                "name": "bice total di mazzar√† rosanna",
                "id": "13520",
                "brand": "Total Erg",
                "amenity": "fuel",
                "operator": "BICE TOTAL DI MAZZARA' ROSANNA"
            },
            "geometry": {
                "type": "Point",
                "coordinates": [
                    7.686875090003012,
                    45.09453779837736
                ]
            }
        }
    ]
}