{
    "type": "FeatureCollection",
    "features": [
        {
            "type": "Feature",
            "properties": {
                "name": "savidis",
                "id": "6166",
                "amenity": "fuel",
                "operator": "SAVIDIS S.R.L."
            },
            "geometry": {
                "type": "Point",
                "coordinates": [
                    7.646631394516248,
                    44.647990242622264
                ]
            }
        },
        {
            "type": "Feature",
            "properties": {
                "name": "STAZIONE DI SERVIZIO IP",
                "id": "21249",
                "brand": "Api-Ip",
                "amenity": "fuel",
                "operator": "BARRA LIDIA IN PICCA"
            },
            "geometry": {
                "type": "Point",
                "coordinates": [
                    7.653553868647806,
                    44.652428276314026
                ]
            }
        },
        {
            "type": "Feature",
            "properties": {
                "name": "da steu",
                "id": "28961",
                "brand": "Api-Ip",
                "amenity": "fuel",
                "operator": "INGARAMO VALTER"
            },
            "geometry": {
                "type": "Point",
                "coordinates": [
                    7.630196003490937,
                    44.64838730197945
                ]
            }
        },
        {
            "type": "Feature",
            "properties": {
                "name": "GENOLA-VIA MARCONI 48 C/O CC IPER BENNET",
                "id": "11553",
                "brand": "Q8",
                "amenity": "fuel",
                "operator": "SERVIZI & GESTIONI ITALIA S.R.L."
            },
            "geometry": {
                "type": "Point",
                "coordinates": [
                    7.659507840871812,
                    44.592239359918935
                ]
            }
        },
        {
            "type": "Feature",
            "properties": {
                "name": "On The Road snc - Agip",
                "id": "4192",
                "brand": "Socogas",
                "amenity": "fuel",
                "operator": "ON THE ROAD S.N.C. DI CAVALLERO RINALDO & C. SIGLABILE \"ON THE ROAD S.N.C.\""
            },
            "geometry": {
                "type": "Point",
                "coordinates": [
                    7.685021013021469,
                    44.65033106289502
                ]
            }
        },
        {
            "type": "Feature",
            "properties": {
                "name": "CENTRO CALOR SCARNAFIGI",
                "id": "10528",
                "amenity": "fuel",
                "operator": "CENTRO CALOR S.R.L."
            },
            "geometry": {
                "type": "Point",
                "coordinates": [
                    7.571523058930552,
                    44.684481773193966
                ]
            }
        },
        {
            "type": "Feature",
            "properties": {
                "name": "PV 235",
                "id": "25036",
                "brand": "Agip Eni",
                "amenity": "fuel",
                "operator": "GESTIONI INNOVATIVE ITALIA S.R.L."
            },
            "geometry": {
                "type": "Point",
                "coordinates": [
                    7.68406216508174,
                    44.69854343959376
                ]
            }
        },
        {
            "type": "Feature",
            "properties": {
                "name": "Stazione di Servizio C.P.P. Srl",
                "id": "5000",
                "brand": "Q8",
                "amenity": "fuel",
                "operator": "C.P.P. COMPAGNIA PETROLIFERA PIEMONTESE - S.R.L."
            },
            "geometry": {
                "type": "Point",
                "coordinates": [
                    7.661744667984066,
                    44.606349690182746
                ]
            }
        },
        {
            "type": "Feature",
            "properties": {
                "name": "Bragas - Scarnafigi",
                "id": "30282",
                "amenity": "fuel",
                "operator": "BRAGAS S.R.L."
            },
            "geometry": {
                "type": "Point",
                "coordinates": [
                    7.571538090705871,
                    44.68443603643145
                ]
            }
        },
        {
            "type": "Feature",
            "properties": {
                "name": "BOENERGI TOTAL  ERG",
                "id": "32183",
                "brand": "Total Erg",
                "amenity": "fuel",
                "operator": "BOENERGI DI GARCIA ANA VIRTUDES & C. SAS SIGLABILE, OVE CONSENTITO, \"BOENERI SAS\""
            },
            "geometry": {
                "type": "Point",
                "coordinates": [
                    7.708534598350525,
                    44.65559616623955
                ]
            }
        },
        {
            "type": "Feature",
            "properties": {
                "name": "SAVIGLIANO-CORSO INDIPENDENZA 8",
                "id": "11548",
                "brand": "Q8",
                "amenity": "fuel",
                "operator": "SERVIZI & GESTIONI ITALIA S.R.L."
            },
            "geometry": {
                "type": "Point",
                "coordinates": [
                    7.658087611198426,
                    44.64358212482175
                ]
            }
        },
        {
            "type": "Feature",
            "properties": {
                "name": "DELPIANO GABRIELE",
                "id": "17412",
                "brand": "Total Erg",
                "amenity": "fuel",
                "operator": "DELPIANO GABRIELE"
            },
            "geometry": {
                "type": "Point",
                "coordinates": [
                    7.628302621040348,
                    44.677078125645316
                ]
            }
        },
        {
            "type": "Feature",
            "properties": {
                "name": "CENTRO CALOR SAVIGLIANO",
                "id": "10536",
                "amenity": "fuel",
                "operator": "CENTRO CALOR S.R.L."
            },
            "geometry": {
                "type": "Point",
                "coordinates": [
                    7.665626297869836,
                    44.62606282964919
                ]
            }
        },
        {
            "type": "Feature",
            "properties": {
                "name": "STAZIONE DI SERVIZIO TOTALERG",
                "id": "19712",
                "brand": "Total Erg",
                "amenity": "fuel",
                "operator": "FERRERO SILVANO"
            },
            "geometry": {
                "type": "Point",
                "coordinates": [
                    7.560582607984545,
                    44.62962816621576
                ]
            }
        },
        {
            "type": "Feature",
            "properties": {
                "name": "Allocco e Aimetta Savigliano Eni 215",
                "id": "26573",
                "brand": "Agip Eni",
                "amenity": "fuel",
                "operator": "ALLOCCO ERMANNO & AIMETTA MARILENA S.N.C."
            },
            "geometry": {
                "type": "Point",
                "coordinates": [
                    7.662368416786194,
                    44.638479875152
                ]
            }
        },
        {
            "type": "Feature",
            "properties": {
                "name": "Testa Gianluca",
                "id": "18500",
                "amenity": "fuel",
                "operator": "TESTA GIANLUCA"
            },
            "geometry": {
                "type": "Point",
                "coordinates": [
                    7.650681246032718,
                    44.647329785617664
                ]
            }
        },
        {
            "type": "Feature",
            "properties": {
                "name": "maccarone salvatore",
                "id": "22665",
                "brand": "Api-Ip",
                "amenity": "fuel",
                "operator": "MACCARONE SALVATORE"
            },
            "geometry": {
                "type": "Point",
                "coordinates": [
                    7.651997273610731,
                    44.648081393125
                ]
            }
        }
    ]
}