{
    "type": "FeatureCollection",
    "features": [
        {
            "type": "Feature",
            "properties": {
                "name": "distributore carburante agip caffetteria irene",
                "id": "20694",
                "brand": "Agip Eni",
                "amenity": "fuel",
                "operator": "CAFFETTERIA IRENE DI ROMANO GIOVANNA IRENE"
            },
            "geometry": {
                "type": "Point",
                "coordinates": [
                    7.559255585074425,
                    44.90402935332706
                ]
            }
        },
        {
            "type": "Feature",
            "properties": {
                "name": "CARIGNANO",
                "id": "5426",
                "brand": "Agip Eni",
                "amenity": "fuel",
                "operator": "enirete oil&nonoil S.p.A."
            },
            "geometry": {
                "type": "Point",
                "coordinates": [
                    7.670192341928328,
                    44.895604189983466
                ]
            }
        },
        {
            "type": "Feature",
            "properties": {
                "name": "CARMAGNOLA",
                "id": "7296",
                "brand": "Q8",
                "amenity": "fuel",
                "operator": "SERVIZI & GESTIONI ITALIA S.R.L."
            },
            "geometry": {
                "type": "Point",
                "coordinates": [
                    7.732069641351701,
                    44.845411826489986
                ]
            }
        },
        {
            "type": "Feature",
            "properties": {
                "name": "VINOVO-VIA STUPINIGI 32",
                "id": "11884",
                "brand": "Q8",
                "amenity": "fuel",
                "operator": "SERVIZI & GESTIONI ITALIA S.R.L."
            },
            "geometry": {
                "type": "Point",
                "coordinates": [
                    7.627314169311489,
                    44.954278328500635
                ]
            }
        },
        {
            "type": "Feature",
            "properties": {
                "name": "CENTRO CALOR OSASIO",
                "id": "10545",
                "amenity": "fuel",
                "operator": "CENTRO CALOR S.R.L."
            },
            "geometry": {
                "type": "Point",
                "coordinates": [
                    7.608293090429925,
                    44.878496131859194
                ]
            }
        },
        {
            "type": "Feature",
            "properties": {
                "name": "ENI",
                "id": "10411",
                "brand": "Agip Eni",
                "amenity": "fuel",
                "operator": "PRONINO DIEGO"
            },
            "geometry": {
                "type": "Point",
                "coordinates": [
                    7.722544050787292,
                    44.850755593832346
                ]
            }
        },
        {
            "type": "Feature",
            "properties": {
                "name": "PIOBESI TORINESE-VIA DEL MARE 10",
                "id": "11878",
                "brand": "Q8",
                "amenity": "fuel",
                "operator": "SERVIZI & GESTIONI ITALIA S.R.L."
            },
            "geometry": {
                "type": "Point",
                "coordinates": [
                    7.623410672283171,
                    44.92847592146982
                ]
            }
        },
        {
            "type": "Feature",
            "properties": {
                "name": "TOTALERG",
                "id": "14726",
                "brand": "Total Erg",
                "amenity": "fuel",
                "operator": "RO.MA. DI MACRI' ROBERTO"
            },
            "geometry": {
                "type": "Point",
                "coordinates": [
                    7.676573119049069,
                    44.9150884374504
                ]
            }
        },
        {
            "type": "Feature",
            "properties": {
                "name": "GPL&MEC S.N.C. DILEVANTINO MARIO E C.",
                "id": "13044",
                "amenity": "fuel",
                "operator": "LEVANTINO MARIO"
            },
            "geometry": {
                "type": "Point",
                "coordinates": [
                    7.733193486928939,
                    44.877965748101374
                ]
            }
        },
        {
            "type": "Feature",
            "properties": {
                "name": "ESSO DI SOLA E PAGLIERO SNC",
                "id": "8747",
                "brand": "Esso",
                "amenity": "fuel",
                "operator": "SOLA BIAGIO, PAGLIERO CLAUDIO TOMMASO E C. S.N.C."
            },
            "geometry": {
                "type": "Point",
                "coordinates": [
                    7.72464394569397,
                    44.85282424806047
                ]
            }
        },
        {
            "type": "Feature",
            "properties": {
                "name": "tamoil di soldera dario stefano",
                "id": "9549",
                "brand": "Tamoil",
                "amenity": "fuel",
                "operator": "SOLDERA DARIO STEFANO"
            },
            "geometry": {
                "type": "Point",
                "coordinates": [
                    7.731102744705141,
                    44.93238634951321
                ]
            }
        },
        {
            "type": "Feature",
            "properties": {
                "name": "agip",
                "id": "6094",
                "brand": "Agip Eni",
                "amenity": "fuel",
                "operator": "MITTICA DI MITTICA GIOVANNI & C. S.N.C."
            },
            "geometry": {
                "type": "Point",
                "coordinates": [
                    7.720805704593658,
                    44.94561507019417
                ]
            }
        },
        {
            "type": "Feature",
            "properties": {
                "name": "eni",
                "id": "17725",
                "brand": "Agip Eni",
                "amenity": "fuel",
                "operator": "OGLINO MILENA E PILUTZU ANTONIO S.N.C."
            },
            "geometry": {
                "type": "Point",
                "coordinates": [
                    7.72406592965126,
                    44.85629243172837
                ]
            }
        },
        {
            "type": "Feature",
            "properties": {
                "name": "VINOVO",
                "id": "25187",
                "brand": "Api-Ip",
                "amenity": "fuel",
                "operator": "IP SERVICES S.R.L."
            },
            "geometry": {
                "type": "Point",
                "coordinates": [
                    7.627926822090102,
                    44.94493417175195
                ]
            }
        },
        {
            "type": "Feature",
            "properties": {
                "name": "6214",
                "id": "25375",
                "brand": "Tamoil",
                "amenity": "fuel",
                "operator": "T.D.M. S.R.L."
            },
            "geometry": {
                "type": "Point",
                "coordinates": [
                    7.671996771377622,
                    44.90127690605022
                ]
            }
        },
        {
            "type": "Feature",
            "properties": {
                "name": "europam",
                "id": "30116",
                "amenity": "fuel",
                "operator": "SANMARTINO MAURO E MERI S.N.C."
            },
            "geometry": {
                "type": "Point",
                "coordinates": [
                    7.651142030954359,
                    44.90401766964705
                ]
            }
        },
        {
            "type": "Feature",
            "properties": {
                "name": "Stazione di servizio IP di Tartaglia Antonio",
                "id": "8909",
                "brand": "Api-Ip",
                "amenity": "fuel",
                "operator": "TARTAGLIA ANTONIO"
            },
            "geometry": {
                "type": "Point",
                "coordinates": [
                    7.625844776630402,
                    44.9568903138333
                ]
            }
        },
        {
            "type": "Feature",
            "properties": {
                "name": "bottaro pier antonio",
                "id": "14644",
                "brand": "Total Erg",
                "amenity": "fuel",
                "operator": "BOTTARO PIER ANTONIO"
            },
            "geometry": {
                "type": "Point",
                "coordinates": [
                    7.624199241399766,
                    44.940193341807166
                ]
            }
        },
        {
            "type": "Feature",
            "properties": {
                "name": "Totalerg",
                "id": "18012",
                "brand": "Total Erg",
                "amenity": "fuel",
                "operator": "LS1 SERVICE DI SANTOIEMMA LUCA"
            },
            "geometry": {
                "type": "Point",
                "coordinates": [
                    7.708958387374877,
                    44.87133877295011
                ]
            }
        },
        {
            "type": "Feature",
            "properties": {
                "name": "tamoil",
                "id": "22922",
                "brand": "Tamoil",
                "amenity": "fuel",
                "operator": "D'URSO FABIO"
            },
            "geometry": {
                "type": "Point",
                "coordinates": [
                    7.604418592590262,
                    44.96099502101424
                ]
            }
        }
    ]
}