{
    "type": "FeatureCollection",
    "features": [
        {
            "type": "Feature",
            "properties": {
                "name": "ESSO PERRINO E VIGNALI",
                "id": "16776",
                "brand": "Esso",
                "amenity": "fuel",
                "operator": "PERRINO E VIGNALI S.N.C."
            },
            "geometry": {
                "type": "Point",
                "coordinates": [
                    7.617630511522293,
                    43.78922151778829
                ]
            }
        },
        {
            "type": "Feature",
            "properties": {
                "name": "IP",
                "id": "27037",
                "brand": "Api-Ip",
                "amenity": "fuel",
                "operator": "ROMEO STEFANO"
            },
            "geometry": {
                "type": "Point",
                "coordinates": [
                    7.660042184061467,
                    43.78012645046701
                ]
            }
        },
        {
            "type": "Feature",
            "properties": {
                "name": "eni",
                "id": "20947",
                "brand": "Agip Eni",
                "amenity": "fuel",
                "operator": "DE NICOLA ROBERTO"
            },
            "geometry": {
                "type": "Point",
                "coordinates": [
                    7.621181632540925,
                    43.788566639001374
                ]
            }
        },
        {
            "type": "Feature",
            "properties": {
                "name": "Area Servizio IP",
                "id": "27110",
                "brand": "Api-Ip",
                "amenity": "fuel",
                "operator": "AQUA S.R.L."
            },
            "geometry": {
                "type": "Point",
                "coordinates": [
                    7.656904757022858,
                    43.78724030267889
                ]
            }
        },
        {
            "type": "Feature",
            "properties": {
                "name": "TOTALERG",
                "id": "26293",
                "brand": "Total Erg",
                "amenity": "fuel",
                "operator": "CARINGELLA 3 S.A.S. DI CARINGELLA MATTIA, CARINGELLA VERONICA & C"
            },
            "geometry": {
                "type": "Point",
                "coordinates": [
                    7.670883209173668,
                    43.778603733586394
                ]
            }
        },
        {
            "type": "Feature",
            "properties": {
                "name": "BORDIGHERA SUD",
                "id": "3845",
                "brand": "Agip Eni",
                "amenity": "fuel",
                "operator": "ENI RETE OIL&NONOIL S.P.A."
            },
            "geometry": {
                "type": "Point",
                "coordinates": [
                    7.691062688827515,
                    43.798106746246894
                ]
            }
        },
        {
            "type": "Feature",
            "properties": {
                "name": "TOTALERG",
                "id": "15617",
                "brand": "Total Erg",
                "amenity": "fuel",
                "operator": "BUELLI S.R.L."
            },
            "geometry": {
                "type": "Point",
                "coordinates": [
                    7.624922096729279,
                    43.80775059879501
                ]
            }
        },
        {
            "type": "Feature",
            "properties": {
                "name": "BORDIGHERA NORD",
                "id": "3470",
                "brand": "Agip Eni",
                "amenity": "fuel",
                "operator": "DEMORO NATALE"
            },
            "geometry": {
                "type": "Point",
                "coordinates": [
                    7.690971493721008,
                    43.79895082457119
                ]
            }
        },
        {
            "type": "Feature",
            "properties": {
                "name": "TOTALERG",
                "id": "25789",
                "brand": "Total Erg",
                "amenity": "fuel",
                "operator": "M.P.M. S.A.S. DI CARINGELLA MATTIA, VERONICA & C."
            },
            "geometry": {
                "type": "Point",
                "coordinates": [
                    7.632195175843548,
                    43.78926080139202
                ]
            }
        },
        {
            "type": "Feature",
            "properties": {
                "name": "IP",
                "id": "22091",
                "brand": "Api-Ip",
                "amenity": "fuel",
                "operator": "MARENCO WALTER E TURCHI WALMER S.N.C. DI MARENCO VALTER & C. ABBREVIABILE IN MARENCO WALTER E TURCHI WALMER S.N.C."
            },
            "geometry": {
                "type": "Point",
                "coordinates": [
                    7.647919356822969,
                    43.782792011782604
                ]
            }
        },
        {
            "type": "Feature",
            "properties": {
                "name": "IP",
                "id": "25721",
                "brand": "Api-Ip",
                "amenity": "fuel",
                "operator": "EMMEVU DI FIORENTINO MARIO & C. S.N.C."
            },
            "geometry": {
                "type": "Point",
                "coordinates": [
                    7.656152212303142,
                    43.78086586572567
                ]
            }
        },
        {
            "type": "Feature",
            "properties": {
                "name": "ENI",
                "id": "9428",
                "brand": "Agip Eni",
                "amenity": "fuel",
                "operator": "DI MARZIO GIUSEPPE"
            },
            "geometry": {
                "type": "Point",
                "coordinates": [
                    7.600363790988922,
                    43.79962065805811
                ]
            }
        },
        {
            "type": "Feature",
            "properties": {
                "name": "TAMOIL",
                "id": "18295",
                "brand": "Tamoil",
                "amenity": "fuel",
                "operator": "LA LOCOMOTIVA S.A.S. DI MELETTA MARCO & C."
            },
            "geometry": {
                "type": "Point",
                "coordinates": [
                    7.643588440696703,
                    43.78955041739454
                ]
            }
        },
        {
            "type": "Feature",
            "properties": {
                "name": "Esso",
                "id": "26880",
                "brand": "Esso",
                "amenity": "fuel",
                "operator": "RED SNC DI DOLFINI DAVIDE E ROCCIA MAURO"
            },
            "geometry": {
                "type": "Point",
                "coordinates": [
                    7.658178210258483,
                    43.78057085047067
                ]
            }
        },
        {
            "type": "Feature",
            "properties": {
                "name": "IP",
                "id": "25606",
                "brand": "Api-Ip",
                "amenity": "fuel",
                "operator": "MULTISERVICES DI ROMEO ANTONINO & C. S.N.C."
            },
            "geometry": {
                "type": "Point",
                "coordinates": [
                    7.659240258254498,
                    43.78033960386312
                ]
            }
        },
        {
            "type": "Feature",
            "properties": {
                "name": "ENI",
                "id": "7800",
                "brand": "Agip Eni",
                "amenity": "fuel",
                "operator": "MAX PETROLI DI TROIANI MASSIMILIANO"
            },
            "geometry": {
                "type": "Point",
                "coordinates": [
                    7.596590229933097,
                    43.802801428314446
                ]
            }
        },
        {
            "type": "Feature",
            "properties": {
                "name": "Don Bosco",
                "id": "25616",
                "brand": "Api-Ip",
                "amenity": "fuel",
                "operator": "DISTRIBUTORE IP DON BOSCO DI FILIPPI ROBERTO"
            },
            "geometry": {
                "type": "Point",
                "coordinates": [
                    7.643650033251106,
                    43.784452712185676
                ]
            }
        },
        {
            "type": "Feature",
            "properties": {
                "name": "Riva di Bordighera",
                "id": "29635",
                "brand": "Total Erg",
                "amenity": "fuel",
                "operator": "GESTIONI EUROPA - SOCIETA' PER AZIONI"
            },
            "geometry": {
                "type": "Point",
                "coordinates": [
                    7.64972217790978,
                    43.782371921854065
                ]
            }
        }
    ]
}