{
    "type": "FeatureCollection",
    "features": [
        {
            "type": "Feature",
            "properties": {
                "name": "DISTRIOBUTORE EREDI CAMPIDONICO SPA  - CHIERI",
                "id": "23490",
                "brand": "Total Erg",
                "amenity": "fuel",
                "operator": "EREDI CAMPIDONICO - S.P.A."
            },
            "geometry": {
                "type": "Point",
                "coordinates": [
                    7.8389942200396945,
                    44.97848779636749
                ]
            }
        },
        {
            "type": "Feature",
            "properties": {
                "name": "TROFARELLO",
                "id": "24369",
                "brand": "Esso",
                "amenity": "fuel",
                "operator": "S.R. DI SCARPELLI ANGELA CATERINA & C. S.A.S."
            },
            "geometry": {
                "type": "Point",
                "coordinates": [
                    7.7353842290179955,
                    44.9671216127966
                ]
            }
        },
        {
            "type": "Feature",
            "properties": {
                "name": "olicarb",
                "id": "27564",
                "amenity": "fuel",
                "operator": "DISTRIBUZIONE OLI-CARBURANTI S.R.L."
            },
            "geometry": {
                "type": "Point",
                "coordinates": [
                    7.848857045173645,
                    44.999172237395754
                ]
            }
        },
        {
            "type": "Feature",
            "properties": {
                "name": "SERVICE LAMP",
                "id": "22791",
                "brand": "Total Erg",
                "amenity": "fuel",
                "operator": "SERVICE LAMP DI PRIANTE MIRKO"
            },
            "geometry": {
                "type": "Point",
                "coordinates": [
                    7.784773036837577,
                    45.03884672948247
                ]
            }
        },
        {
            "type": "Feature",
            "properties": {
                "name": "RETITALIA",
                "id": "25919",
                "brand": "Retitalia",
                "amenity": "fuel",
                "operator": "VENTRIGLIA MARIA ROSARIA"
            },
            "geometry": {
                "type": "Point",
                "coordinates": [
                    7.857048511505129,
                    44.99585227024587
                ]
            }
        },
        {
            "type": "Feature",
            "properties": {
                "name": "RIVA PRESSO CHIERI - S.S. 10",
                "id": "22128",
                "brand": "Api-Ip",
                "amenity": "fuel",
                "operator": "IP SERVICES S.R.L."
            },
            "geometry": {
                "type": "Point",
                "coordinates": [
                    7.897461354732513,
                    44.9682346944365
                ]
            }
        },
        {
            "type": "Feature",
            "properties": {
                "name": "diemme di Marzola Davide M.",
                "id": "23460",
                "brand": "Tamoil",
                "amenity": "fuel",
                "operator": "DIEMME DI MARZOLA DAVIDE MASSIMILIANO"
            },
            "geometry": {
                "type": "Point",
                "coordinates": [
                    7.736554965376853,
                    44.984663506497675
                ]
            }
        },
        {
            "type": "Feature",
            "properties": {
                "name": "occhio al prezzo",
                "id": "30718",
                "amenity": "fuel",
                "operator": "NUOVA COMA S.R.L."
            },
            "geometry": {
                "type": "Point",
                "coordinates": [
                    7.837151885032655,
                    44.99403477991477
                ]
            }
        },
        {
            "type": "Feature",
            "properties": {
                "name": "PINO TORINESE S.S. 10 KM. 12+400",
                "id": "6392",
                "brand": "Q8",
                "amenity": "fuel",
                "operator": "SERVIZI & GESTIONI ITALIA srl"
            },
            "geometry": {
                "type": "Point",
                "coordinates": [
                    7.7909459527786575,
                    45.03229033944486
                ]
            }
        },
        {
            "type": "Feature",
            "properties": {
                "name": "trofarello Dis-Car",
                "id": "30132",
                "amenity": "fuel",
                "operator": "S.V. SERVIZI S.N.C. DI SARRA PIETRO E C."
            },
            "geometry": {
                "type": "Point",
                "coordinates": [
                    7.755227082131228,
                    44.97759509303843
                ]
            }
        },
        {
            "type": "Feature",
            "properties": {
                "name": "repsol cardinale luca",
                "id": "24720",
                "brand": "Repsol",
                "amenity": "fuel",
                "operator": "CARDINALE LUCA"
            },
            "geometry": {
                "type": "Point",
                "coordinates": [
                    7.847017963398685,
                    45.0472086107322
                ]
            }
        },
        {
            "type": "Feature",
            "properties": {
                "name": "Riva Presso Chieri",
                "id": "29313",
                "brand": "Total Erg",
                "amenity": "fuel",
                "operator": "GESTIONI EUROPA - SOCIETA' PER AZIONI"
            },
            "geometry": {
                "type": "Point",
                "coordinates": [
                    7.866908046627032,
                    44.99079051543573
                ]
            }
        },
        {
            "type": "Feature",
            "properties": {
                "name": "agip laveglia vito",
                "id": "8306",
                "brand": "Agip Eni",
                "amenity": "fuel",
                "operator": "LAVEGLIA VITO"
            },
            "geometry": {
                "type": "Point",
                "coordinates": [
                    7.806217968463897,
                    44.99488469428411
                ]
            }
        },
        {
            "type": "Feature",
            "properties": {
                "name": "Repsol Lancellotti Luca",
                "id": "15826",
                "brand": "Repsol",
                "amenity": "fuel",
                "operator": "LANCELLOTTI LUCA"
            },
            "geometry": {
                "type": "Point",
                "coordinates": [
                    7.754008927237919,
                    45.01698604628569
                ]
            }
        },
        {
            "type": "Feature",
            "properties": {
                "name": "TOTALERG",
                "id": "29827",
                "brand": "Total Erg",
                "amenity": "fuel",
                "operator": "ROSSI GAS SNC DI ROSSI RICCARDO, EZIO & C."
            },
            "geometry": {
                "type": "Point",
                "coordinates": [
                    7.866901606321334,
                    44.99077407827168
                ]
            }
        },
        {
            "type": "Feature",
            "properties": {
                "name": "stazione servizio tamoil di sirito mauro",
                "id": "15441",
                "brand": "Tamoil",
                "amenity": "fuel",
                "operator": "SIRITO MAURO"
            },
            "geometry": {
                "type": "Point",
                "coordinates": [
                    7.83653303795927,
                    45.02090169419868
                ]
            }
        },
        {
            "type": "Feature",
            "properties": {
                "name": "TAMOIL",
                "id": "16856",
                "brand": "Tamoil",
                "amenity": "fuel",
                "operator": "CARDINALE MAURIZIO"
            },
            "geometry": {
                "type": "Point",
                "coordinates": [
                    7.762291990317295,
                    44.97271984190373
                ]
            }
        },
        {
            "type": "Feature",
            "properties": {
                "name": "S.Z.F. STAZIONE DI SERVIZIO ESSO DI SALZA C.",
                "id": "19734",
                "brand": "Esso",
                "amenity": "fuel",
                "operator": "S.Z.F. STAZIONE DI SERVIZIO ESSO DI SALZA C."
            },
            "geometry": {
                "type": "Point",
                "coordinates": [
                    7.831425941759334,
                    45.007845589641256
                ]
            }
        },
        {
            "type": "Feature",
            "properties": {
                "name": "ENI di Gottardello Marco",
                "id": "21098",
                "brand": "Agip Eni",
                "amenity": "fuel",
                "operator": "GOTTARDELLO MARCO"
            },
            "geometry": {
                "type": "Point",
                "coordinates": [
                    7.8515237750243605,
                    45.02729398509244
                ]
            }
        },
        {
            "type": "Feature",
            "properties": {
                "name": "CHIERI-C/O CC IPER COOP",
                "id": "11888",
                "brand": "Q8",
                "amenity": "fuel",
                "operator": "SERVIZI & GESTIONI ITALIA S.R.L."
            },
            "geometry": {
                "type": "Point",
                "coordinates": [
                    7.836089920613744,
                    45.00123891607369
                ]
            }
        },
        {
            "type": "Feature",
            "properties": {
                "name": "TotalErg",
                "id": "29453",
                "brand": "Total Erg",
                "amenity": "fuel",
                "operator": "CERUTTI ALDO"
            },
            "geometry": {
                "type": "Point",
                "coordinates": [
                    7.8116810664785135,
                    45.01997446487324
                ]
            }
        },
        {
            "type": "Feature",
            "properties": {
                "name": "AR.IT.CO.  srl",
                "id": "12030",
                "amenity": "fuel",
                "operator": "AR.IT.CO S.R.L."
            },
            "geometry": {
                "type": "Point",
                "coordinates": [
                    7.739495764804132,
                    44.976106761749534
                ]
            }
        },
        {
            "type": "Feature",
            "properties": {
                "name": "ENI DI ESPOSITO GIORGIO",
                "id": "28762",
                "brand": "Agip Eni",
                "amenity": "fuel",
                "operator": "ESPOSITO GIORGIO"
            },
            "geometry": {
                "type": "Point",
                "coordinates": [
                    7.810032069683077,
                    45.020766294039056
                ]
            }
        },
        {
            "type": "Feature",
            "properties": {
                "name": "API-IPI",
                "id": "17805",
                "brand": "Api-Ip",
                "amenity": "fuel",
                "operator": "ROSSI EZIO"
            },
            "geometry": {
                "type": "Point",
                "coordinates": [
                    7.864774136037453,
                    45.0343436523961
                ]
            }
        },
        {
            "type": "Feature",
            "properties": {
                "name": "autoservizi chieresi",
                "id": "7508",
                "brand": "Agip Eni",
                "amenity": "fuel",
                "operator": "AUTOSERVIZI CHIERESI DI MAZZON ALEX & C. SOCIETA' IN ACCOMANDITA SEMPLICE SIGLABILE AUTOSERVIZI CHIERESI DI MAZZON ALEX & C. S.A.S."
            },
            "geometry": {
                "type": "Point",
                "coordinates": [
                    7.842274904251098,
                    45.00221891172285
                ]
            }
        },
        {
            "type": "Feature",
            "properties": {
                "name": "esso",
                "id": "7436",
                "brand": "Esso",
                "amenity": "fuel",
                "operator": "CATTOZZO PIETRO & CANDEO ANGELO S.N.C."
            },
            "geometry": {
                "type": "Point",
                "coordinates": [
                    7.878938019275664,
                    44.98231321940113
                ]
            }
        }
    ]
}