{
    "type": "FeatureCollection",
    "features": [
        {
            "type": "Feature",
            "properties": {
                "name": "IMPIANTO IP",
                "id": "12470",
                "brand": "Api-Ip",
                "amenity": "fuel",
                "operator": "ACOTTO DIEGO"
            },
            "geometry": {
                "type": "Point",
                "coordinates": [
                    7.8897667441802914,
                    45.30167468874567
                ]
            }
        },
        {
            "type": "Feature",
            "properties": {
                "name": "ENI IMP.544",
                "id": "13383",
                "brand": "Agip Eni",
                "amenity": "fuel",
                "operator": "GIANI DARIO & C. S.N.C. DI GIANI DARIO E MUSIARI ORNELLA SIGLABILE GIANI DARIO & C. S.N.C."
            },
            "geometry": {
                "type": "Point",
                "coordinates": [
                    7.874185144901275,
                    45.30824362420454
                ]
            }
        },
        {
            "type": "Feature",
            "properties": {
                "name": "Tamoil",
                "id": "12019",
                "brand": "Tamoil",
                "amenity": "fuel",
                "operator": "BARBERO S.A.S. DI BARBERO GIAMPIERO & C.   I"
            },
            "geometry": {
                "type": "Point",
                "coordinates": [
                    7.818280245926985,
                    45.269025361020894
                ]
            }
        },
        {
            "type": "Feature",
            "properties": {
                "name": "DISTRIBUTORE REPSOL",
                "id": "4993",
                "brand": "Repsol",
                "amenity": "fuel",
                "operator": "RASTALDO FABIO"
            },
            "geometry": {
                "type": "Point",
                "coordinates": [
                    7.858952074868737,
                    45.22757980675655
                ]
            }
        },
        {
            "type": "Feature",
            "properties": {
                "name": "Gioda",
                "id": "25367",
                "amenity": "fuel",
                "operator": "REGIS DANILO"
            },
            "geometry": {
                "type": "Point",
                "coordinates": [
                    7.885430029430381,
                    45.30869234090931
                ]
            }
        },
        {
            "type": "Feature",
            "properties": {
                "name": "CALUSO-NUOVA CIRCONVALLAZIONE KM 1+39",
                "id": "11875",
                "brand": "Q8",
                "amenity": "fuel",
                "operator": "SERVIZI & GESTIONI ITALIA S.R.L."
            },
            "geometry": {
                "type": "Point",
                "coordinates": [
                    7.87905067205429,
                    45.30341353803404
                ]
            }
        },
        {
            "type": "Feature",
            "properties": {
                "name": "ip",
                "id": "7171",
                "brand": "Api-Ip",
                "amenity": "fuel",
                "operator": "SAPUTO MATTEO"
            },
            "geometry": {
                "type": "Point",
                "coordinates": [
                    7.891086663754323,
                    45.2415159028806
                ]
            }
        },
        {
            "type": "Feature",
            "properties": {
                "name": "Beyfin di Capuano Monica",
                "id": "28357",
                "amenity": "fuel",
                "operator": "STAZIONE DI SERVIZIO BEYFIN CAPUANO MONICA"
            },
            "geometry": {
                "type": "Point",
                "coordinates": [
                    7.74462103843689,
                    45.28087172032889
                ]
            }
        },
        {
            "type": "Feature",
            "properties": {
                "name": "SAN GIUSTO C.SE",
                "id": "15025",
                "brand": "Total Erg",
                "amenity": "fuel",
                "operator": "SUCCA & FIGLI SAS DI SUCCA OSVALDO & C."
            },
            "geometry": {
                "type": "Point",
                "coordinates": [
                    7.808724614646733,
                    45.314610920751335
                ]
            }
        },
        {
            "type": "Feature",
            "properties": {
                "name": "GAD Lombardore",
                "id": "23247",
                "brand": "Tamoil",
                "amenity": "fuel",
                "operator": "G.A.D. S.N.C. DI MARIELLA DARIA CHIATELLO E DAVIDE MASTRODOMENICO & C."
            },
            "geometry": {
                "type": "Point",
                "coordinates": [
                    7.741776555776594,
                    45.249660230268965
                ]
            }
        },
        {
            "type": "Feature",
            "properties": {
                "name": "8255",
                "id": "29812",
                "brand": "Tamoil",
                "amenity": "fuel",
                "operator": "T.D.M. S.R.L."
            },
            "geometry": {
                "type": "Point",
                "coordinates": [
                    7.813349962234497,
                    45.32336469347867
                ]
            }
        },
        {
            "type": "Feature",
            "properties": {
                "name": "G.A.D.",
                "id": "23248",
                "brand": "Tamoil",
                "amenity": "fuel",
                "operator": "G.A.D. S.N.C. DI MARIELLA DARIA CHIATELLO E DAVIDE MASTRODOMENICO & C."
            },
            "geometry": {
                "type": "Point",
                "coordinates": [
                    7.7462114391970545,
                    45.29417078191029
                ]
            }
        },
        {
            "type": "Feature",
            "properties": {
                "name": "CANDIA",
                "id": "7654",
                "amenity": "fuel",
                "operator": "GO S.R.L."
            },
            "geometry": {
                "type": "Point",
                "coordinates": [
                    7.8789754087363235,
                    45.322748842880046
                ]
            }
        },
        {
            "type": "Feature",
            "properties": {
                "name": "TAMOIL LOI GIANLUIGI",
                "id": "29580",
                "brand": "Tamoil",
                "amenity": "fuel",
                "operator": "SAGIAN SERVIZI SAS DI LOI GIANLUIGI & C."
            },
            "geometry": {
                "type": "Point",
                "coordinates": [
                    7.8120211226844285,
                    45.31720868352768
                ]
            }
        },
        {
            "type": "Feature",
            "properties": {
                "name": "VILLANI & FIGLI SNC",
                "id": "11025",
                "brand": "Agip Eni",
                "amenity": "fuel",
                "operator": "VILLANI & FIGLI S.N.C. DI VILLANI VINCENZO E C."
            },
            "geometry": {
                "type": "Point",
                "coordinates": [
                    7.782952487468719,
                    45.21744116639873
                ]
            }
        }
    ]
}