{
    "type": "FeatureCollection",
    "features": [
        {
            "type": "Feature",
            "properties": {
                "name": "MONTEU DA PO",
                "id": "27124",
                "amenity": "fuel",
                "operator": "MENEVERI MARCO"
            },
            "geometry": {
                "type": "Point",
                "coordinates": [
                    8.030737638473509,
                    45.15853594953852
                ]
            }
        },
        {
            "type": "Feature",
            "properties": {
                "name": "CATANIA GIUSEPPE",
                "id": "21772",
                "brand": "Total Erg",
                "amenity": "fuel",
                "operator": "CATANIA GIUSEPPE"
            },
            "geometry": {
                "type": "Point",
                "coordinates": [
                    7.955744415521623,
                    45.16892562302947
                ]
            }
        },
        {
            "type": "Feature",
            "properties": {
                "name": "STAZIONE SERVIZIO TOTALERG",
                "id": "25714",
                "brand": "Total Erg",
                "amenity": "fuel",
                "operator": "PARASACCO MARTINA"
            },
            "geometry": {
                "type": "Point",
                "coordinates": [
                    8.06098759174347,
                    45.156066167178665
                ]
            }
        },
        {
            "type": "Feature",
            "properties": {
                "name": "ENI",
                "id": "8339",
                "brand": "Agip Eni",
                "amenity": "fuel",
                "operator": "AMBROSINI FILIPPO"
            },
            "geometry": {
                "type": "Point",
                "coordinates": [
                    7.918273955583574,
                    45.1957966534522
                ]
            }
        },
        {
            "type": "Feature",
            "properties": {
                "name": "IP di Nofri Fabrizio",
                "id": "10192",
                "brand": "Api-Ip",
                "amenity": "fuel",
                "operator": "NOFRI FABRIZIO"
            },
            "geometry": {
                "type": "Point",
                "coordinates": [
                    7.960393381006952,
                    45.18998681506847
                ]
            }
        },
        {
            "type": "Feature",
            "properties": {
                "name": "olicarb",
                "id": "12981",
                "amenity": "fuel",
                "operator": "DISTRIBUZIONE OLI-CARBURANTI S.R.L."
            },
            "geometry": {
                "type": "Point",
                "coordinates": [
                    7.921481830932636,
                    45.196782616117474
                ]
            }
        },
        {
            "type": "Feature",
            "properties": {
                "name": "Total Erg",
                "id": "6844",
                "brand": "Total Erg",
                "amenity": "fuel",
                "operator": "GABRIELE COSIMO"
            },
            "geometry": {
                "type": "Point",
                "coordinates": [
                    8.06898057460785,
                    45.19347743404637
                ]
            }
        },
        {
            "type": "Feature",
            "properties": {
                "name": "TOTALERG",
                "id": "30297",
                "brand": "Total Erg",
                "amenity": "fuel",
                "operator": "PARASACCO MARTINA"
            },
            "geometry": {
                "type": "Point",
                "coordinates": [
                    8.052128925919533,
                    45.1515751559952
                ]
            }
        },
        {
            "type": "Feature",
            "properties": {
                "name": "Tamoil",
                "id": "19695",
                "brand": "Tamoil",
                "amenity": "fuel",
                "operator": "BRISACANI PIETRO"
            },
            "geometry": {
                "type": "Point",
                "coordinates": [
                    7.910684645175933,
                    45.19432423415675
                ]
            }
        }
    ]
}