{
    "type": "FeatureCollection",
    "features": [
        {
            "type": "Feature",
            "properties": {
                "name": "ENI",
                "id": "18528",
                "brand": "Agip Eni",
                "amenity": "fuel",
                "operator": "MARASCO GIAN LUIGI"
            },
            "geometry": {
                "type": "Point",
                "coordinates": [
                    8.008281514048576,
                    43.87134400359603
                ]
            }
        },
        {
            "type": "Feature",
            "properties": {
                "name": "eni ramoino a e c snc",
                "id": "7930",
                "brand": "Agip Eni",
                "amenity": "fuel",
                "operator": "RAMOINO ALBERTO E C. S.N.C."
            },
            "geometry": {
                "type": "Point",
                "coordinates": [
                    8.03880035877228,
                    43.89611347341122
                ]
            }
        },
        {
            "type": "Feature",
            "properties": {
                "name": "eni",
                "id": "4746",
                "brand": "Agip Eni",
                "amenity": "fuel",
                "operator": "LE CAVE S.R.L."
            },
            "geometry": {
                "type": "Point",
                "coordinates": [
                    8.024973571300507,
                    43.921234505240506
                ]
            }
        },
        {
            "type": "Feature",
            "properties": {
                "name": "DISTRIBUTORE DI CARBURANTI MARINA DEGLI AREGAI",
                "id": "28030",
                "amenity": "fuel",
                "operator": "MARINA DEGLI AREGAI S.R.L."
            },
            "geometry": {
                "type": "Point",
                "coordinates": [
                    7.911331057548524,
                    43.83719983193801
                ]
            }
        },
        {
            "type": "Feature",
            "properties": {
                "name": "ENI 01222",
                "id": "16837",
                "brand": "Agip Eni",
                "amenity": "fuel",
                "operator": "AMORETTI ANTONELLO"
            },
            "geometry": {
                "type": "Point",
                "coordinates": [
                    8.034088420237708,
                    43.889997395924695
                ]
            }
        },
        {
            "type": "Feature",
            "properties": {
                "name": "DIANO MARINA-VIA C. BATTISTI 62",
                "id": "11616",
                "brand": "Q8",
                "amenity": "fuel",
                "operator": "SERVIZI & GESTIONI ITALIA S.R.L."
            },
            "geometry": {
                "type": "Point",
                "coordinates": [
                    8.077945597553253,
                    43.912530916198136
                ]
            }
        },
        {
            "type": "Feature",
            "properties": {
                "name": "IM GARESSIO",
                "id": "17681",
                "brand": "Api-Ip",
                "amenity": "fuel",
                "operator": "IP SERVICES S.R.L."
            },
            "geometry": {
                "type": "Point",
                "coordinates": [
                    8.039629504299228,
                    43.892567140539995
                ]
            }
        },
        {
            "type": "Feature",
            "properties": {
                "name": "imperia-on",
                "id": "31330",
                "brand": "Esso",
                "amenity": "fuel",
                "operator": "MULTISERVICE DI MACCARONE MARTINA"
            },
            "geometry": {
                "type": "Point",
                "coordinates": [
                    8.03346526137693,
                    43.8899030220822
                ]
            }
        },
        {
            "type": "Feature",
            "properties": {
                "name": "Esso",
                "id": "19742",
                "brand": "Esso",
                "amenity": "fuel",
                "operator": "C.V.S. DI CLAUDIO CAMPAZZI & C.  SOCIETA' IN ACCOMANDITA SEMPLICE"
            },
            "geometry": {
                "type": "Point",
                "coordinates": [
                    8.033459868122918,
                    43.889893588133596
                ]
            }
        },
        {
            "type": "Feature",
            "properties": {
                "name": "Imperia",
                "id": "29312",
                "brand": "Total Erg",
                "amenity": "fuel",
                "operator": "GESTIONI EUROPA - SOCIETA' PER AZIONI"
            },
            "geometry": {
                "type": "Point",
                "coordinates": [
                    8.017614930868149,
                    43.875605502602205
                ]
            }
        },
        {
            "type": "Feature",
            "properties": {
                "name": "stazione di servizio esso di barberis gianpiero",
                "id": "16726",
                "brand": "Esso",
                "amenity": "fuel",
                "operator": "BARBERIS GIAN PIERO"
            },
            "geometry": {
                "type": "Point",
                "coordinates": [
                    7.9580903188521,
                    43.90262991525253
                ]
            }
        },
        {
            "type": "Feature",
            "properties": {
                "name": "Area sas di Massimo Durante",
                "id": "24817",
                "brand": "Agip Eni",
                "amenity": "fuel",
                "operator": "AREA S.A.S. DI MASSIMO DURANTE E C."
            },
            "geometry": {
                "type": "Point",
                "coordinates": [
                    8.017967641353607,
                    43.92852998439849
                ]
            }
        },
        {
            "type": "Feature",
            "properties": {
                "name": "riviera ponente services",
                "id": "8282",
                "brand": "Agip Eni",
                "amenity": "fuel",
                "operator": "RIVIERA PONENTE SERVICES DI GRANCHELLI GIANNI"
            },
            "geometry": {
                "type": "Point",
                "coordinates": [
                    8.030743002891539,
                    43.886364431475464
                ]
            }
        },
        {
            "type": "Feature",
            "properties": {
                "name": "M.I.A DI MAGGIALETTI ANTONIO",
                "id": "19381",
                "brand": "Tamoil",
                "amenity": "fuel",
                "operator": "M.I.A. DI MAGGIALETTI ANTONIO"
            },
            "geometry": {
                "type": "Point",
                "coordinates": [
                    7.999752089381217,
                    43.88087974905931
                ]
            }
        }
    ]
}