{
    "type": "FeatureCollection",
    "features": [
        {
            "type": "Feature",
            "properties": {
                "name": "Kerotris - Barbaresco",
                "id": "19710",
                "amenity": "fuel",
                "operator": "GIORDANO CLAUDIO"
            },
            "geometry": {
                "type": "Point",
                "coordinates": [
                    8.064023840208506,
                    44.702511456269484
                ]
            }
        },
        {
            "type": "Feature",
            "properties": {
                "name": "BARBERO GIACOMO",
                "id": "11095",
                "brand": "Agip Eni",
                "amenity": "fuel",
                "operator": "BARBERO GIACOMO"
            },
            "geometry": {
                "type": "Point",
                "coordinates": [
                    8.040391008004008,
                    44.70015921392971
                ]
            }
        },
        {
            "type": "Feature",
            "properties": {
                "name": "Imp.Agip 10221 di Vokshi Armando",
                "id": "15886",
                "brand": "Agip Eni",
                "amenity": "fuel",
                "operator": "VOKSHI ARMANDO"
            },
            "geometry": {
                "type": "Point",
                "coordinates": [
                    8.002037331461906,
                    44.68230813879486
                ]
            }
        },
        {
            "type": "Feature",
            "properties": {
                "name": "Manfredi Margherita",
                "id": "27300",
                "brand": "Total Erg",
                "amenity": "fuel",
                "operator": "MANFREDI MARGHERITA"
            },
            "geometry": {
                "type": "Point",
                "coordinates": [
                    8.040965291015596,
                    44.67239097539834
                ]
            }
        },
        {
            "type": "Feature",
            "properties": {
                "name": "RAINERO MAURO",
                "id": "24271",
                "brand": "Agip Eni",
                "amenity": "fuel",
                "operator": "RAINERO MAURO"
            },
            "geometry": {
                "type": "Point",
                "coordinates": [
                    7.913358807563782,
                    44.69411071146274
                ]
            }
        },
        {
            "type": "Feature",
            "properties": {
                "name": "Staz. di servizio Eni 10245",
                "id": "24460",
                "brand": "Agip Eni",
                "amenity": "fuel",
                "operator": "IVANO MOLINARI"
            },
            "geometry": {
                "type": "Point",
                "coordinates": [
                    8.014518320560455,
                    44.69504651551231
                ]
            }
        },
        {
            "type": "Feature",
            "properties": {
                "name": "TOTALERG",
                "id": "13314",
                "brand": "Total Erg",
                "amenity": "fuel",
                "operator": "TIERRE SNC DI TROISI GIOVANNI & ROSSI CARMEN"
            },
            "geometry": {
                "type": "Point",
                "coordinates": [
                    7.944137156009675,
                    44.683333384071204
                ]
            }
        },
        {
            "type": "Feature",
            "properties": {
                "name": "franzero maurizio",
                "id": "10236",
                "brand": "Agip Eni",
                "amenity": "fuel",
                "operator": "FRANZERO MAURIZIO"
            },
            "geometry": {
                "type": "Point",
                "coordinates": [
                    8.028967380523682,
                    44.70193988236681
                ]
            }
        },
        {
            "type": "Feature",
            "properties": {
                "name": "CPP SANTA VITTORIA D'ALBA",
                "id": "24723",
                "brand": "Agip Eni",
                "amenity": "fuel",
                "operator": "C.P.P. COMPAGNIA PETROLIFERA PIEMONTESE - S.R.L."
            },
            "geometry": {
                "type": "Point",
                "coordinates": [
                    7.950208336114885,
                    44.696219871995055
                ]
            }
        },
        {
            "type": "Feature",
            "properties": {
                "name": "ALBA - EUROPA",
                "id": "24806",
                "brand": "Api-Ip",
                "amenity": "fuel",
                "operator": "IP SERVICES S.R.L."
            },
            "geometry": {
                "type": "Point",
                "coordinates": [
                    8.023799999999937,
                    44.693686652957126
                ]
            }
        },
        {
            "type": "Feature",
            "properties": {
                "name": "Nuova No.Al. Snc",
                "id": "17925",
                "brand": "Total Erg",
                "amenity": "fuel",
                "operator": "NUOVA NO.AL. S.N.C. DI ALLEGRANZA BARBARA & C."
            },
            "geometry": {
                "type": "Point",
                "coordinates": [
                    7.99755,
                    44.688199999999995
                ]
            }
        },
        {
            "type": "Feature",
            "properties": {
                "name": "PREZZI PV 35",
                "id": "26507",
                "brand": "Api-Ip",
                "amenity": "fuel",
                "operator": "DE LEO FRANCESCO"
            },
            "geometry": {
                "type": "Point",
                "coordinates": [
                    7.930283546447755,
                    44.64365407026063
                ]
            }
        },
        {
            "type": "Feature",
            "properties": {
                "name": "Alba Loc. Biglini",
                "id": "25963",
                "brand": "Total Erg",
                "amenity": "fuel",
                "operator": "GESTIONI EUROPA - SOCIETA' PER AZIONI"
            },
            "geometry": {
                "type": "Point",
                "coordinates": [
                    7.985858917236329,
                    44.70439533644952
                ]
            }
        },
        {
            "type": "Feature",
            "properties": {
                "name": "STAZIONE DI SERVIZIO IP GRUPPO API",
                "id": "16976",
                "brand": "Api-Ip",
                "amenity": "fuel",
                "operator": "MCI GESTIONI DI MARENDA CLAUDIO E C. S.A.S. SIGLABILE OVE CONSENTITO MCI GESTIONI S.A.S."
            },
            "geometry": {
                "type": "Point",
                "coordinates": [
                    8.041707202792168,
                    44.71503170215848
                ]
            }
        },
        {
            "type": "Feature",
            "properties": {
                "name": "TotalErg",
                "id": "13056",
                "brand": "Total Erg",
                "amenity": "fuel",
                "operator": "GIACOSA CLAUDIO"
            },
            "geometry": {
                "type": "Point",
                "coordinates": [
                    7.990086078643799,
                    44.67644657578109
                ]
            }
        },
        {
            "type": "Feature",
            "properties": {
                "name": "SANTA VITTORIA D'ALBA - SS231.",
                "id": "7275",
                "brand": "Shell",
                "amenity": "fuel",
                "operator": "SERVIZI & GESTIONI ITALIA S.R.L."
            },
            "geometry": {
                "type": "Point",
                "coordinates": [
                    7.939960761901829,
                    44.69336274615164
                ]
            }
        },
        {
            "type": "Feature",
            "properties": {
                "name": "Staz. di servizio Totalerg - Gierre snc",
                "id": "4759",
                "brand": "Total Erg",
                "amenity": "fuel",
                "operator": "GIERRE SNC DI RABEZZANA GIAMPIERO E BELIO ROBERTO"
            },
            "geometry": {
                "type": "Point",
                "coordinates": [
                    8.016868604251158,
                    44.694062464975694
                ]
            }
        },
        {
            "type": "Feature",
            "properties": {
                "name": "Autosplash",
                "id": "6983",
                "brand": "Tamoil",
                "amenity": "fuel",
                "operator": "AUTOSPLASH S.N.C. DI COLLINO LUIGI & C."
            },
            "geometry": {
                "type": "Point",
                "coordinates": [
                    8.031314313411713,
                    44.714141013216306
                ]
            }
        },
        {
            "type": "Feature",
            "properties": {
                "name": "totalerg",
                "id": "13276",
                "brand": "Total Erg",
                "amenity": "fuel",
                "operator": "DELMONTE PATRIZIA"
            },
            "geometry": {
                "type": "Point",
                "coordinates": [
                    7.955061664294135,
                    44.71368007457234
                ]
            }
        },
        {
            "type": "Feature",
            "properties": {
                "name": "DISTRIBUTORE Q8 MARENGO GIOVANNI",
                "id": "21577",
                "brand": "Q8",
                "amenity": "fuel",
                "operator": "MARENGO GIOVANNI"
            },
            "geometry": {
                "type": "Point",
                "coordinates": [
                    7.981820181012154,
                    44.663949439299685
                ]
            }
        },
        {
            "type": "Feature",
            "properties": {
                "name": "ALBA-CORSO CANALE 26",
                "id": "11556",
                "brand": "Q8",
                "amenity": "fuel",
                "operator": "SERVIZI & GESTIONI ITALIA S.R.L."
            },
            "geometry": {
                "type": "Point",
                "coordinates": [
                    8.02199731779092,
                    44.712886657382924
                ]
            }
        },
        {
            "type": "Feature",
            "properties": {
                "name": "DIANO D'ALBA-SS. 29 KM. 65+805",
                "id": "11552",
                "brand": "Q8",
                "amenity": "fuel",
                "operator": "SERVIZI & GESTIONI ITALIA S.R.L."
            },
            "geometry": {
                "type": "Point",
                "coordinates": [
                    8.05237904191017,
                    44.651825695591164
                ]
            }
        }
    ]
}