{
    "type": "FeatureCollection",
    "features": [
        {
            "type": "Feature",
            "properties": {
                "name": "IMPIANTO AGIP DI SERRAO CARMELO",
                "id": "18724",
                "brand": "Agip Eni",
                "amenity": "fuel",
                "operator": "SERRAO CARMELO"
            },
            "geometry": {
                "type": "Point",
                "coordinates": [
                    8.195103313614027,
                    44.89547093063033
                ]
            }
        },
        {
            "type": "Feature",
            "properties": {
                "name": "stazione di servizio tamoil di sandri bruno",
                "id": "9013",
                "brand": "Tamoil",
                "amenity": "fuel",
                "operator": "SANDRI BRUNO"
            },
            "geometry": {
                "type": "Point",
                "coordinates": [
                    8.193196009787016,
                    44.89835580061598
                ]
            }
        },
        {
            "type": "Feature",
            "properties": {
                "name": "ASTI SS 10 KM.55+500",
                "id": "22870",
                "brand": "Q8",
                "amenity": "fuel",
                "operator": "SERVIZI & GESTIONI ITALIA S.R.L."
            },
            "geometry": {
                "type": "Point",
                "coordinates": [
                    8.179809180425991,
                    44.90494660696766
                ]
            }
        },
        {
            "type": "Feature",
            "properties": {
                "name": "IP",
                "id": "14276",
                "brand": "Api-Ip",
                "amenity": "fuel",
                "operator": "GAMBINO ANTONINO"
            },
            "geometry": {
                "type": "Point",
                "coordinates": [
                    8.200667207934542,
                    44.905152400509664
                ]
            }
        },
        {
            "type": "Feature",
            "properties": {
                "name": "ASTI FRAZ.S.MARZANOTTO SP 59 KM 5",
                "id": "6402",
                "brand": "Q8",
                "amenity": "fuel",
                "operator": "SERVIZI & GESTIONI ITALIA srl"
            },
            "geometry": {
                "type": "Point",
                "coordinates": [
                    8.197297301852359,
                    44.85211923799133
                ]
            }
        },
        {
            "type": "Feature",
            "properties": {
                "name": "Stazione Servizio Esso di Binello Luciano",
                "id": "17898",
                "brand": "Esso",
                "amenity": "fuel",
                "operator": "BINELLO LUCIANO"
            },
            "geometry": {
                "type": "Point",
                "coordinates": [
                    8.19372072815895,
                    44.90004888656083
                ]
            }
        },
        {
            "type": "Feature",
            "properties": {
                "name": "FORMIGLIO sessant",
                "id": "16648",
                "brand": "Esso",
                "amenity": "fuel",
                "operator": "FORMIGLIO CLAUDIO"
            },
            "geometry": {
                "type": "Point",
                "coordinates": [
                    8.16255180481437,
                    44.931847667159275
                ]
            }
        },
        {
            "type": "Feature",
            "properties": {
                "name": "Stazione di servizio La Rondine SNC",
                "id": "27079",
                "brand": "Api-Ip",
                "amenity": "fuel",
                "operator": "LA RONDINE DI GIARRATANO VINCENZA & C. S.N.C."
            },
            "geometry": {
                "type": "Point",
                "coordinates": [
                    8.231962823838103,
                    44.90567357869329
                ]
            }
        },
        {
            "type": "Feature",
            "properties": {
                "name": "ASTI-CORSO ALESSANDRIA 380",
                "id": "11469",
                "brand": "Q8",
                "amenity": "fuel",
                "operator": "SERVIZI & GESTIONI ITALIA S.R.L."
            },
            "geometry": {
                "type": "Point",
                "coordinates": [
                    8.235853055572534,
                    44.90602553804387
                ]
            }
        },
        {
            "type": "Feature",
            "properties": {
                "name": "agip eni",
                "id": "14338",
                "brand": "Agip Eni",
                "amenity": "fuel",
                "operator": "GAMBINO LUIGI"
            },
            "geometry": {
                "type": "Point",
                "coordinates": [
                    8.21991883068847,
                    44.91183783566107
                ]
            }
        },
        {
            "type": "Feature",
            "properties": {
                "name": "Stazione Q8 di GABY",
                "id": "22660",
                "brand": "Q8",
                "amenity": "fuel",
                "operator": "GABY DI MICHELA GABUTTI"
            },
            "geometry": {
                "type": "Point",
                "coordinates": [
                    8.196191042661667,
                    44.90527531208844
                ]
            }
        },
        {
            "type": "Feature",
            "properties": {
                "name": "ASTI-VIA P. MICCA 2",
                "id": "11475",
                "brand": "Q8",
                "amenity": "fuel",
                "operator": "SERVIZI & GESTIONI ITALIA S.R.L."
            },
            "geometry": {
                "type": "Point",
                "coordinates": [
                    8.20888314847946,
                    44.90318808151228
                ]
            }
        },
        {
            "type": "Feature",
            "properties": {
                "name": "Platania Marco",
                "id": "19306",
                "brand": "Total Erg",
                "amenity": "fuel",
                "operator": "PLATANIA MARCO"
            },
            "geometry": {
                "type": "Point",
                "coordinates": [
                    8.194496557116508,
                    44.88868266844739
                ]
            }
        },
        {
            "type": "Feature",
            "properties": {
                "name": "ASTI-CORSO ALBA 19",
                "id": "11474",
                "brand": "Q8",
                "amenity": "fuel",
                "operator": "SERVIZI & GESTIONI ITALIA S.R.L."
            },
            "geometry": {
                "type": "Point",
                "coordinates": [
                    8.195586238098144,
                    44.89155082624394
                ]
            }
        },
        {
            "type": "Feature",
            "properties": {
                "name": "Montanella & c. snc  Eni imp. 51066",
                "id": "4225",
                "brand": "Agip Eni",
                "amenity": "fuel",
                "operator": "MONTANELLA & C. SNC DI MONTANELLA LUIGI & FRANCA & C."
            },
            "geometry": {
                "type": "Point",
                "coordinates": [
                    8.214391786508145,
                    44.90297583782333
                ]
            }
        },
        {
            "type": "Feature",
            "properties": {
                "name": "TAMOIL ASTI CORSO TORINO",
                "id": "19694",
                "brand": "Tamoil",
                "amenity": "fuel",
                "operator": "TOSCANO ENRICO"
            },
            "geometry": {
                "type": "Point",
                "coordinates": [
                    8.18129202698367,
                    44.90494780896889
                ]
            }
        },
        {
            "type": "Feature",
            "properties": {
                "name": "ASTI-CORSO SAVONA 156",
                "id": "11472",
                "brand": "Q8",
                "amenity": "fuel",
                "operator": "SERVIZI & GESTIONI ITALIA S.R.L."
            },
            "geometry": {
                "type": "Point",
                "coordinates": [
                    8.211141749668057,
                    44.889971496304256
                ]
            }
        },
        {
            "type": "Feature",
            "properties": {
                "name": "montanella & c. snc 11418",
                "id": "4223",
                "brand": "Agip Eni",
                "amenity": "fuel",
                "operator": "MONTANELLA & C. SNC DI MONTANELLA LUIGI & FRANCA & C."
            },
            "geometry": {
                "type": "Point",
                "coordinates": [
                    8.251360058784485,
                    44.9065583828579
                ]
            }
        },
        {
            "type": "Feature",
            "properties": {
                "name": "IP",
                "id": "19474",
                "brand": "Api-Ip",
                "amenity": "fuel",
                "operator": "BUTERA DI BUTERA CALOGERO & C. S.A.S."
            },
            "geometry": {
                "type": "Point",
                "coordinates": [
                    8.22592296679534,
                    44.90546821764016
                ]
            }
        },
        {
            "type": "Feature",
            "properties": {
                "name": "ASTI",
                "id": "10079",
                "brand": "Total Erg",
                "amenity": "fuel",
                "operator": "GESTIONI EUROPA - SOCIETA' PER AZIONI"
            },
            "geometry": {
                "type": "Point",
                "coordinates": [
                    8.21744754910469,
                    44.907743212850384
                ]
            }
        },
        {
            "type": "Feature",
            "properties": {
                "name": "tamoil",
                "id": "4726",
                "brand": "Tamoil",
                "amenity": "fuel",
                "operator": "BALDI ALESSANDRO"
            },
            "geometry": {
                "type": "Point",
                "coordinates": [
                    8.22204887866974,
                    44.91581942814244
                ]
            }
        },
        {
            "type": "Feature",
            "properties": {
                "name": "digital city di g.j. total erg",
                "id": "20693",
                "brand": "Total Erg",
                "amenity": "fuel",
                "operator": "DIGITAL CITY DI G. J."
            },
            "geometry": {
                "type": "Point",
                "coordinates": [
                    8.218704689549213,
                    44.90568738077766
                ]
            }
        },
        {
            "type": "Feature",
            "properties": {
                "name": "ASTI CORSO VOLTA/STRADA VALMANERA",
                "id": "6546",
                "brand": "Q8",
                "amenity": "fuel",
                "operator": "SERVIZI & GESTIONI ITALIA srl"
            },
            "geometry": {
                "type": "Point",
                "coordinates": [
                    8.21228235833587,
                    44.90538018592765
                ]
            }
        },
        {
            "type": "Feature",
            "properties": {
                "name": "Shell",
                "id": "5248",
                "brand": "Shell",
                "amenity": "fuel",
                "operator": "A.M.P. S.A.S. DI DELSANTO PAOLA & DIRASCO MICHELE"
            },
            "geometry": {
                "type": "Point",
                "coordinates": [
                    8.205069154500961,
                    44.86521481926581
                ]
            }
        },
        {
            "type": "Feature",
            "properties": {
                "name": "FORMIGLIO CLAUDIO",
                "id": "16663",
                "brand": "Esso",
                "amenity": "fuel",
                "operator": "FORMIGLIO CLAUDIO"
            },
            "geometry": {
                "type": "Point",
                "coordinates": [
                    8.19835432579498,
                    44.90732890982912
                ]
            }
        },
        {
            "type": "Feature",
            "properties": {
                "name": "ASTI",
                "id": "5769",
                "brand": "Total Erg",
                "amenity": "fuel",
                "operator": "TotalErg SpA"
            },
            "geometry": {
                "type": "Point",
                "coordinates": [
                    8.206060411045087,
                    44.86520170319537
                ]
            }
        },
        {
            "type": "Feature",
            "properties": {
                "name": "Staz.di servizio AutogasNord di Inzirillo Salvatore Roberto (distributore ESSO)",
                "id": "7860",
                "brand": "Api-Ip",
                "amenity": "fuel",
                "operator": "INZIRILLO SALVATORE ROBERTO"
            },
            "geometry": {
                "type": "Point",
                "coordinates": [
                    8.166682720184328,
                    44.90175650374798
                ]
            }
        },
        {
            "type": "Feature",
            "properties": {
                "name": "ASTI-VIA UGO FOSCOLO 3",
                "id": "11476",
                "brand": "Q8",
                "amenity": "fuel",
                "operator": "SERVIZI & GESTIONI ITALIA S.R.L."
            },
            "geometry": {
                "type": "Point",
                "coordinates": [
                    8.204469737434351,
                    44.9117683829976
                ]
            }
        },
        {
            "type": "Feature",
            "properties": {
                "name": "ASTI CORSO ALESSANDRIA 397 S.S.10",
                "id": "6401",
                "brand": "Q8",
                "amenity": "fuel",
                "operator": "SERVIZI & GESTIONI ITALIA srl"
            },
            "geometry": {
                "type": "Point",
                "coordinates": [
                    8.233573549073753,
                    44.905684581625096
                ]
            }
        },
        {
            "type": "Feature",
            "properties": {
                "name": "Q8 MASER DI SCARABELLO MATTEO E CAMPANER SERGIO S.N.C",
                "id": "19183",
                "brand": "Q8",
                "amenity": "fuel",
                "operator": "MASER DI SCARABELLO MATTEO E CAMPANER SERGIO S.N.C. SIGALBILE IN MASER S.N.C."
            },
            "geometry": {
                "type": "Point",
                "coordinates": [
                    8.19421264246671,
                    44.896373393168076
                ]
            }
        },
        {
            "type": "Feature",
            "properties": {
                "name": "ESSO CORSO CASALE",
                "id": "10756",
                "brand": "Esso",
                "amenity": "fuel",
                "operator": "PONASSI S.N.C. DI PONASSI MASSIMIGLIANO & C."
            },
            "geometry": {
                "type": "Point",
                "coordinates": [
                    8.221878558397293,
                    44.914824517664606
                ]
            }
        },
        {
            "type": "Feature",
            "properties": {
                "name": "StarOil",
                "id": "27367",
                "amenity": "fuel",
                "operator": "GENTILE VALERIO"
            },
            "geometry": {
                "type": "Point",
                "coordinates": [
                    8.211207389831543,
                    44.897254045314725
                ]
            }
        },
        {
            "type": "Feature",
            "properties": {
                "name": "ASTI-C.SO XXV APRILE 217",
                "id": "11473",
                "brand": "Q8",
                "amenity": "fuel",
                "operator": "SERVIZI & GESTIONI ITALIA S.R.L."
            },
            "geometry": {
                "type": "Point",
                "coordinates": [
                    8.186593877315543,
                    44.90652105019706
                ]
            }
        },
        {
            "type": "Feature",
            "properties": {
                "name": "ASTI OIL ITALIA",
                "id": "30932",
                "brand": "Oil Italia",
                "amenity": "fuel",
                "operator": "OIL ITALIA SRL % OIL ITALIA GMBH"
            },
            "geometry": {
                "type": "Point",
                "coordinates": [
                    8.190452456474304,
                    44.90287607887991
                ]
            }
        }
    ]
}