{
    "type": "FeatureCollection",
    "features": [
        {
            "type": "Feature",
            "properties": {
                "name": "EUROPAM NEIVE",
                "id": "28714",
                "brand": "Api-Ip",
                "amenity": "fuel",
                "operator": "EUROPAM S.P.A."
            },
            "geometry": {
                "type": "Point",
                "coordinates": [
                    8.120461746032673,
                    44.7254085851457
                ]
            }
        },
        {
            "type": "Feature",
            "properties": {
                "name": "total erg",
                "id": "24747",
                "brand": "Total Erg",
                "amenity": "fuel",
                "operator": "CERRATO GIANLUCA"
            },
            "geometry": {
                "type": "Point",
                "coordinates": [
                    8.190544189163234,
                    44.82740907982533
                ]
            }
        },
        {
            "type": "Feature",
            "properties": {
                "name": "TAMOIL MONTEGROSSO",
                "id": "25402",
                "brand": "Tamoil",
                "amenity": "fuel",
                "operator": "TOSCANO ENRICO"
            },
            "geometry": {
                "type": "Point",
                "coordinates": [
                    8.241065740585327,
                    44.81608290824377
                ]
            }
        },
        {
            "type": "Feature",
            "properties": {
                "name": "TOTALERG",
                "id": "9280",
                "brand": "Total Erg",
                "amenity": "fuel",
                "operator": "DEMURO SIMONA"
            },
            "geometry": {
                "type": "Point",
                "coordinates": [
                    8.089535683393478,
                    44.77632037664041
                ]
            }
        },
        {
            "type": "Feature",
            "properties": {
                "name": "AGLIANO VIA ASTI MARE N.14",
                "id": "6403",
                "brand": "Q8",
                "amenity": "fuel",
                "operator": "SERVIZI & GESTIONI ITALIA S.R.L."
            },
            "geometry": {
                "type": "Point",
                "coordinates": [
                    8.261148650926202,
                    44.7894444211859
                ]
            }
        },
        {
            "type": "Feature",
            "properties": {
                "name": "Retitalia Isola",
                "id": "28733",
                "brand": "Retitalia",
                "amenity": "fuel",
                "operator": "BRIXIA FINANZIARIA S.R.L."
            },
            "geometry": {
                "type": "Point",
                "coordinates": [
                    8.1541608273983,
                    44.81572272854184
                ]
            }
        },
        {
            "type": "Feature",
            "properties": {
                "name": "Esso",
                "id": "22005",
                "brand": "Esso",
                "amenity": "fuel",
                "operator": "TERZUOLO VINCENZA"
            },
            "geometry": {
                "type": "Point",
                "coordinates": [
                    8.203540965914726,
                    44.759823496057166
                ]
            }
        },
        {
            "type": "Feature",
            "properties": {
                "name": "GOVONE-S.S. 231 KM. 16+590",
                "id": "11555",
                "brand": "Q8",
                "amenity": "fuel",
                "operator": "SERVIZI & GESTIONI ITALIA S.R.L."
            },
            "geometry": {
                "type": "Point",
                "coordinates": [
                    8.11144291534424,
                    44.792553296978795
                ]
            }
        },
        {
            "type": "Feature",
            "properties": {
                "name": "COSTIGLIOLE D'ASTI-S.P.59 KM 13+542 VIA ASTI 11/B",
                "id": "11479",
                "brand": "Q8",
                "amenity": "fuel",
                "operator": "SERVIZI & GESTIONI ITALIA S.R.L."
            },
            "geometry": {
                "type": "Point",
                "coordinates": [
                    8.186667813491795,
                    44.787595181387005
                ]
            }
        },
        {
            "type": "Feature",
            "properties": {
                "name": "Dik Fuel",
                "id": "4128",
                "amenity": "fuel",
                "operator": "DIK FUEL S.R.L."
            },
            "geometry": {
                "type": "Point",
                "coordinates": [
                    8.254015445709229,
                    44.80362848086318
                ]
            }
        },
        {
            "type": "Feature",
            "properties": {
                "name": "FRAZIONE MOTTA",
                "id": "13791",
                "brand": "Total Erg",
                "amenity": "fuel",
                "operator": "BOS S.A.S. DI BOSIA FRANCA & C. SIGLABILE    BOS S.A.S."
            },
            "geometry": {
                "type": "Point",
                "coordinates": [
                    8.14618930220604,
                    44.808677938339045
                ]
            }
        },
        {
            "type": "Feature",
            "properties": {
                "name": "CASTAGNOLE LANZE-FZ. S. BARTOLOMEO",
                "id": "11478",
                "brand": "Q8",
                "amenity": "fuel",
                "operator": "SERVIZI & GESTIONI ITALIA S.R.L."
            },
            "geometry": {
                "type": "Point",
                "coordinates": [
                    8.15187893807888,
                    44.750768594775664
                ]
            }
        },
        {
            "type": "Feature",
            "properties": {
                "name": "2490",
                "id": "14624",
                "brand": "Tamoil",
                "amenity": "fuel",
                "operator": "GIORDANO SILVIA"
            },
            "geometry": {
                "type": "Point",
                "coordinates": [
                    8.145689070224762,
                    44.74460134534329
                ]
            }
        }
    ]
}