{
    "type": "FeatureCollection",
    "features": [
        {
            "type": "Feature",
            "properties": {
                "name": "beltrame e mander",
                "id": "16809",
                "brand": "Q8",
                "amenity": "fuel",
                "operator": "BELTRAME E MANDER DI BELTRAME DANIELA E C. - S.N.C."
            },
            "geometry": {
                "type": "Point",
                "coordinates": [
                    8.138452470302582,
                    43.96454684055129
                ]
            }
        },
        {
            "type": "Feature",
            "properties": {
                "name": "punto agip di alfano carla",
                "id": "8213",
                "brand": "Agip Eni",
                "amenity": "fuel",
                "operator": "ALFANO CARLA"
            },
            "geometry": {
                "type": "Point",
                "coordinates": [
                    8.194888830184937,
                    44.05617708338033
                ]
            }
        },
        {
            "type": "Feature",
            "properties": {
                "name": "IP",
                "id": "17773",
                "brand": "Api-Ip",
                "amenity": "fuel",
                "operator": "S. & B. - S.N.C. DI SOLETI NICOLA E BOLLA MARCO"
            },
            "geometry": {
                "type": "Point",
                "coordinates": [
                    8.193112611770632,
                    44.017243523946455
                ]
            }
        },
        {
            "type": "Feature",
            "properties": {
                "name": "STAZIONE DI SERVIZIO IP",
                "id": "7488",
                "brand": "Api-Ip",
                "amenity": "fuel",
                "operator": "ROSSI REMO"
            },
            "geometry": {
                "type": "Point",
                "coordinates": [
                    8.21531116962433,
                    44.06879799560204
                ]
            }
        },
        {
            "type": "Feature",
            "properties": {
                "name": "Ghisolfo Marco",
                "id": "8681",
                "brand": "Api-Ip",
                "amenity": "fuel",
                "operator": "GHISOLFO MARCO"
            },
            "geometry": {
                "type": "Point",
                "coordinates": [
                    8.18504512310028,
                    44.05780741816741
                ]
            }
        },
        {
            "type": "Feature",
            "properties": {
                "name": "Stazione di servizio Eni 51611",
                "id": "20074",
                "brand": "Agip Eni",
                "amenity": "fuel",
                "operator": "SALDO PIETRO ANTONIO S.A.S."
            },
            "geometry": {
                "type": "Point",
                "coordinates": [
                    8.213421939950537,
                    44.05279783430659
                ]
            }
        },
        {
            "type": "Feature",
            "properties": {
                "name": "totalerg",
                "id": "25749",
                "brand": "Total Erg",
                "amenity": "fuel",
                "operator": "A.S.A. SERVICE S.N.C. DI ZURZOLO ANTONIO & C."
            },
            "geometry": {
                "type": "Point",
                "coordinates": [
                    8.165399552963208,
                    43.999121817189
                ]
            }
        },
        {
            "type": "Feature",
            "properties": {
                "name": "ip",
                "id": "23160",
                "brand": "Api-Ip",
                "amenity": "fuel",
                "operator": "GALLO SIMONE"
            },
            "geometry": {
                "type": "Point",
                "coordinates": [
                    8.158109709620476,
                    43.976373506891456
                ]
            }
        },
        {
            "type": "Feature",
            "properties": {
                "name": "Zanardini Romano",
                "id": "13147",
                "brand": "Esso",
                "amenity": "fuel",
                "operator": "ZANARDINI ROMANO"
            },
            "geometry": {
                "type": "Point",
                "coordinates": [
                    8.201159834861755,
                    44.0560032145447
                ]
            }
        },
        {
            "type": "Feature",
            "properties": {
                "name": "ALBENGA",
                "id": "5977",
                "brand": "Total Erg",
                "amenity": "fuel",
                "operator": "GESTIONI EUROPA S.p.A."
            },
            "geometry": {
                "type": "Point",
                "coordinates": [
                    8.197745018583305,
                    44.05397111846674
                ]
            }
        },
        {
            "type": "Feature",
            "properties": {
                "name": "TOTALERG",
                "id": "18623",
                "brand": "Total Erg",
                "amenity": "fuel",
                "operator": "CAMPANA ENRICO"
            },
            "geometry": {
                "type": "Point",
                "coordinates": [
                    8.142511773720685,
                    44.045429859379425
                ]
            }
        },
        {
            "type": "Feature",
            "properties": {
                "name": "Stazione di servizio Eni 01339",
                "id": "20073",
                "brand": "Agip Eni",
                "amenity": "fuel",
                "operator": "SALDO PIETRO ANTONIO S.A.S."
            },
            "geometry": {
                "type": "Point",
                "coordinates": [
                    8.168962344180272,
                    44.00477200052126
                ]
            }
        },
        {
            "type": "Feature",
            "properties": {
                "name": "Stazione di Servizio Q8",
                "id": "25347",
                "brand": "Q8",
                "amenity": "fuel",
                "operator": "ISDL AUTO SERVICE S.A.S. DI GIOVANNI MARASCO E UMBERTO GANDOLFO"
            },
            "geometry": {
                "type": "Point",
                "coordinates": [
                    8.21357960444334,
                    44.05425422044412
                ]
            }
        },
        {
            "type": "Feature",
            "properties": {
                "name": "1337",
                "id": "17492",
                "brand": "Agip Eni",
                "amenity": "fuel",
                "operator": "WAKA WAKA DI ILENIA TAIBI &  C. S.A.S."
            },
            "geometry": {
                "type": "Point",
                "coordinates": [
                    8.212970703041035,
                    44.04606031464665
                ]
            }
        },
        {
            "type": "Feature",
            "properties": {
                "name": "gas auto albenga snc",
                "id": "10500",
                "amenity": "fuel",
                "operator": "GAS AUTO ALBENGA DI GRAVELLONE PIERLUIGI E C. - S.N.C."
            },
            "geometry": {
                "type": "Point",
                "coordinates": [
                    8.206202387809753,
                    44.044506484769926
                ]
            }
        },
        {
            "type": "Feature",
            "properties": {
                "name": "Eni Albenga",
                "id": "8140",
                "brand": "Agip Eni",
                "amenity": "fuel",
                "operator": "PIOPPO - PANNOCCHIA S.N.C. DI PIOPPO RICCARDO E PANNOCCHIA RICCAR DO"
            },
            "geometry": {
                "type": "Point",
                "coordinates": [
                    8.20530116558075,
                    44.05496076038043
                ]
            }
        },
        {
            "type": "Feature",
            "properties": {
                "name": "ESSO",
                "id": "20535",
                "brand": "Esso",
                "amenity": "fuel",
                "operator": "PISEDDU ENNIO & C. S.N.C."
            },
            "geometry": {
                "type": "Point",
                "coordinates": [
                    8.19734238088131,
                    44.056329555717475
                ]
            }
        },
        {
            "type": "Feature",
            "properties": {
                "name": "Baldini gianni snc",
                "id": "11983",
                "brand": "Esso",
                "amenity": "fuel",
                "operator": "BALDINI GIANNI - S.N.C."
            },
            "geometry": {
                "type": "Point",
                "coordinates": [
                    8.191903531551361,
                    44.05613467637209
                ]
            }
        }
    ]
}