{
    "type": "FeatureCollection",
    "features": [
        {
            "type": "Feature",
            "properties": {
                "name": "STAZIONE DI SERVIZIO IP MICHELA D'ABBIERO",
                "id": "26394",
                "brand": "Api-Ip",
                "amenity": "fuel",
                "operator": "D'ABBIERO MICHELA"
            },
            "geometry": {
                "type": "Point",
                "coordinates": [
                    8.24894204735756,
                    44.1187313747533
                ]
            }
        },
        {
            "type": "Feature",
            "properties": {
                "name": "IP via Aurelia 152",
                "id": "27837",
                "brand": "Api-Ip",
                "amenity": "fuel",
                "operator": "FRATELLI CONDELLO S.N.C. DI ANTONIO CONDELLO & C."
            },
            "geometry": {
                "type": "Point",
                "coordinates": [
                    8.229225114086146,
                    44.091690915339946
                ]
            }
        },
        {
            "type": "Feature",
            "properties": {
                "name": "TOTALERG",
                "id": "22048",
                "brand": "Total Erg",
                "amenity": "fuel",
                "operator": "PANIZZA RINALDO"
            },
            "geometry": {
                "type": "Point",
                "coordinates": [
                    8.236494585871696,
                    44.112020051120524
                ]
            }
        },
        {
            "type": "Feature",
            "properties": {
                "name": "IP",
                "id": "21516",
                "brand": "Api-Ip",
                "amenity": "fuel",
                "operator": "CIURLEO ANGELO"
            },
            "geometry": {
                "type": "Point",
                "coordinates": [
                    8.230758861933055,
                    44.09467002972675
                ]
            }
        },
        {
            "type": "Feature",
            "properties": {
                "name": "esso",
                "id": "19153",
                "brand": "Esso",
                "amenity": "fuel",
                "operator": "F.LLI MERLINO S.N.C. DI MERLINO ERIK E MERLINO MICHEL"
            },
            "geometry": {
                "type": "Point",
                "coordinates": [
                    8.211779370903969,
                    44.12371623249489
                ]
            }
        },
        {
            "type": "Feature",
            "properties": {
                "name": "ESSO - PREVE MATTIA",
                "id": "13761",
                "brand": "Esso",
                "amenity": "fuel",
                "operator": "PREVE MATTIA"
            },
            "geometry": {
                "type": "Point",
                "coordinates": [
                    8.128156810998917,
                    44.09251664722749
                ]
            }
        },
        {
            "type": "Feature",
            "properties": {
                "name": "CERIALE SUD",
                "id": "3850",
                "brand": "Agip Eni",
                "amenity": "fuel",
                "operator": "ENI RETE OIL&NONOIL S.P.A."
            },
            "geometry": {
                "type": "Point",
                "coordinates": [
                    8.207377195358276,
                    44.08857912961914
                ]
            }
        },
        {
            "type": "Feature",
            "properties": {
                "name": "IP",
                "id": "26420",
                "brand": "Api-Ip",
                "amenity": "fuel",
                "operator": "TAFURI CATERINA"
            },
            "geometry": {
                "type": "Point",
                "coordinates": [
                    8.25411056943426,
                    44.12361380613402
                ]
            }
        },
        {
            "type": "Feature",
            "properties": {
                "name": "totalerg",
                "id": "23549",
                "brand": "Total Erg",
                "amenity": "fuel",
                "operator": "STAZIONE DI SERVIZIO TOTAL S.N.C. DI FURLANO & C."
            },
            "geometry": {
                "type": "Point",
                "coordinates": [
                    8.23114772883605,
                    44.09563817835462
                ]
            }
        },
        {
            "type": "Feature",
            "properties": {
                "name": "ENI",
                "id": "7678",
                "brand": "Agip Eni",
                "amenity": "fuel",
                "operator": "BURASTERO MARCO"
            },
            "geometry": {
                "type": "Point",
                "coordinates": [
                    8.259127736091614,
                    44.129724497808006
                ]
            }
        },
        {
            "type": "Feature",
            "properties": {
                "name": "CERIALE",
                "id": "26580",
                "brand": "Esso",
                "amenity": "fuel",
                "operator": "CERIALE NORD S.A.S. DI FABIO LANGELLOTTO E C."
            },
            "geometry": {
                "type": "Point",
                "coordinates": [
                    8.20589844002825,
                    44.08850696152076
                ]
            }
        },
        {
            "type": "Feature",
            "properties": {
                "name": "f.lli visca sas",
                "id": "6308",
                "brand": "Esso",
                "amenity": "fuel",
                "operator": "F.LLI VISCA DI VISCA ANDREA E DANIELE & C. S.A.S."
            },
            "geometry": {
                "type": "Point",
                "coordinates": [
                    8.255195617675781,
                    44.125356836264935
                ]
            }
        },
        {
            "type": "Feature",
            "properties": {
                "name": "Distributore ESSO",
                "id": "13528",
                "brand": "Esso",
                "amenity": "fuel",
                "operator": "MA.GI. S.N.C. DI MARCHESE MARIA ANGELA & C."
            },
            "geometry": {
                "type": "Point",
                "coordinates": [
                    8.246032521128654,
                    44.13014957963564
                ]
            }
        },
        {
            "type": "Feature",
            "properties": {
                "name": "IP GRUPPO api",
                "id": "7086",
                "brand": "Api-Ip",
                "amenity": "fuel",
                "operator": "CAR-SERVICE S.N.C. DI BRIOZZO PAOLO & CAVESTRO ROBERTA"
            },
            "geometry": {
                "type": "Point",
                "coordinates": [
                    8.2451856136322,
                    44.1135533318445
                ]
            }
        }
    ]
}