{
    "type": "FeatureCollection",
    "features": [
        {
            "type": "Feature",
            "properties": {
                "name": "totalerg di francesca ivaldi",
                "id": "31861",
                "brand": "Total Erg",
                "amenity": "fuel",
                "operator": "IVALDI FRANCESCA"
            },
            "geometry": {
                "type": "Point",
                "coordinates": [
                    8.367672127647436,
                    44.778893843525786
                ]
            }
        },
        {
            "type": "Feature",
            "properties": {
                "name": "IP",
                "id": "30191",
                "brand": "Api-Ip",
                "amenity": "fuel",
                "operator": "TERZANO PIER ANDREA"
            },
            "geometry": {
                "type": "Point",
                "coordinates": [
                    8.386697215040954,
                    44.742923670706396
                ]
            }
        },
        {
            "type": "Feature",
            "properties": {
                "name": "Ip",
                "id": "30901",
                "brand": "Api-Ip",
                "amenity": "fuel",
                "operator": "SCARLATA DAMIANA"
            },
            "geometry": {
                "type": "Point",
                "coordinates": [
                    8.295979071532884,
                    44.72077008258085
                ]
            }
        },
        {
            "type": "Feature",
            "properties": {
                "name": "SCAGLIONE MARCO",
                "id": "21022",
                "amenity": "fuel",
                "operator": "SCAGLIONE MARCO GIAN PIERO"
            },
            "geometry": {
                "type": "Point",
                "coordinates": [
                    8.269067332148552,
                    44.76845804344313
                ]
            }
        },
        {
            "type": "Feature",
            "properties": {
                "name": "eridis-totalerg",
                "id": "25805",
                "brand": "Total Erg",
                "amenity": "fuel",
                "operator": "ERIDIS S.R.L."
            },
            "geometry": {
                "type": "Point",
                "coordinates": [
                    8.352300192233315,
                    44.76138890358728
                ]
            }
        },
        {
            "type": "Feature",
            "properties": {
                "name": "RETITALIA",
                "id": "31377",
                "brand": "Retitalia",
                "amenity": "fuel",
                "operator": "LA ROTONDA DI BORAGGINI PIERALDO E C. S.N.C."
            },
            "geometry": {
                "type": "Point",
                "coordinates": [
                    8.292099778573629,
                    44.72126963395268
                ]
            }
        },
        {
            "type": "Feature",
            "properties": {
                "name": "esso",
                "id": "22968",
                "brand": "Esso",
                "amenity": "fuel",
                "operator": "DI MARCO MARIA"
            },
            "geometry": {
                "type": "Point",
                "coordinates": [
                    8.295969047283506,
                    44.717616915648314
                ]
            }
        },
        {
            "type": "Feature",
            "properties": {
                "name": "TAMOIL GIACCHETTO MAURIZIO",
                "id": "13299",
                "brand": "Tamoil",
                "amenity": "fuel",
                "operator": "GIACCHETTO MAURIZIO"
            },
            "geometry": {
                "type": "Point",
                "coordinates": [
                    8.280512988567352,
                    44.77709739293642
                ]
            }
        },
        {
            "type": "Feature",
            "properties": {
                "name": "stazione di servizio esso FURLANETTO GIANLUCA__",
                "id": "7325",
                "brand": "Esso",
                "amenity": "fuel",
                "operator": "FURLANETTO GIANLUCA"
            },
            "geometry": {
                "type": "Point",
                "coordinates": [
                    8.284868896007538,
                    44.822860640026775
                ]
            }
        },
        {
            "type": "Feature",
            "properties": {
                "name": "PAGLIARINO MASSIMO",
                "id": "26056",
                "brand": "Api-Ip",
                "amenity": "fuel",
                "operator": "PAGLIARINO MASSIMO"
            },
            "geometry": {
                "type": "Point",
                "coordinates": [
                    8.296737670898438,
                    44.72109614213879
                ]
            }
        },
        {
            "type": "Feature",
            "properties": {
                "name": "RETEITALIA",
                "id": "25975",
                "brand": "Retitalia",
                "amenity": "fuel",
                "operator": "ALL IN ONE S.A.S. DI NAVONE ANDREA VINCENZO & C."
            },
            "geometry": {
                "type": "Point",
                "coordinates": [
                    8.370283842086792,
                    44.771299125353764
                ]
            }
        },
        {
            "type": "Feature",
            "properties": {
                "name": "NICOLA UGO SNC",
                "id": "14847",
                "brand": "Api-Ip",
                "amenity": "fuel",
                "operator": "NICOLA UGO DI NICOLA UGO & C. S.N.C."
            },
            "geometry": {
                "type": "Point",
                "coordinates": [
                    8.293501498081696,
                    44.82300457766425
                ]
            }
        },
        {
            "type": "Feature",
            "properties": {
                "name": "NIZZA  MONFERRATO",
                "id": "25342",
                "brand": "Api-Ip",
                "amenity": "fuel",
                "operator": "IP SERVICES S.R.L."
            },
            "geometry": {
                "type": "Point",
                "coordinates": [
                    8.360626822090126,
                    44.77538667180025
                ]
            }
        },
        {
            "type": "Feature",
            "properties": {
                "name": "TAMOIL GIACCHETTO MAURIZIO",
                "id": "29928",
                "brand": "Tamoil",
                "amenity": "fuel",
                "operator": "GIACCHETTO MAURIZIO"
            },
            "geometry": {
                "type": "Point",
                "coordinates": [
                    8.295266241664194,
                    44.73196076897693
                ]
            }
        },
        {
            "type": "Feature",
            "properties": {
                "name": "Petrol Nizza - Q8",
                "id": "27952",
                "brand": "Q8",
                "amenity": "fuel",
                "operator": "PETROL NIZZA DI GIOVANNI CARLO CHIOLA E ALDO SALIERNO SNC"
            },
            "geometry": {
                "type": "Point",
                "coordinates": [
                    8.368992390212952,
                    44.77093132454385
                ]
            }
        },
        {
            "type": "Feature",
            "properties": {
                "name": "PAGLIARINO CLAUDIO",
                "id": "25559",
                "brand": "Api-Ip",
                "amenity": "fuel",
                "operator": "PAGLIARINO CLAUDIO BARTOLOMEO"
            },
            "geometry": {
                "type": "Point",
                "coordinates": [
                    8.281722664833067,
                    44.75692090139906
                ]
            }
        },
        {
            "type": "Feature",
            "properties": {
                "name": "IP",
                "id": "4944",
                "brand": "Api-Ip",
                "amenity": "fuel",
                "operator": "PALMERI GIUSEPPE"
            },
            "geometry": {
                "type": "Point",
                "coordinates": [
                    8.352873623371124,
                    44.76596569782801
                ]
            }
        },
        {
            "type": "Feature",
            "properties": {
                "name": "TAMOIL",
                "id": "27245",
                "brand": "Tamoil",
                "amenity": "fuel",
                "operator": "BOLLE BLU DI MARIA GRAZIA MODEO"
            },
            "geometry": {
                "type": "Point",
                "coordinates": [
                    8.294662982225418,
                    44.72005326912477
                ]
            }
        },
        {
            "type": "Feature",
            "properties": {
                "name": "speed-oil-service",
                "id": "30847",
                "brand": "Ies",
                "amenity": "fuel",
                "operator": "SPEED OIL SERVICE S.N.C. DI PRONZATO PAOLO E C."
            },
            "geometry": {
                "type": "Point",
                "coordinates": [
                    8.376259803771973,
                    44.79902927252189
                ]
            }
        },
        {
            "type": "Feature",
            "properties": {
                "name": "TOTAL ERG",
                "id": "11123",
                "brand": "Total Erg",
                "amenity": "fuel",
                "operator": "MARASCO GIUSEPPE"
            },
            "geometry": {
                "type": "Point",
                "coordinates": [
                    8.349747802238426,
                    44.7728424658874
                ]
            }
        },
        {
            "type": "Feature",
            "properties": {
                "name": "CANELLI-VIALE ITALIA 12",
                "id": "11477",
                "brand": "Shell",
                "amenity": "fuel",
                "operator": "SERVIZI & GESTIONI ITALIA S.R.L."
            },
            "geometry": {
                "type": "Point",
                "coordinates": [
                    8.295245597553276,
                    44.72042769142002
                ]
            }
        },
        {
            "type": "Feature",
            "properties": {
                "name": "TAMOIL",
                "id": "17884",
                "brand": "Tamoil",
                "amenity": "fuel",
                "operator": "GAVRILOVA JOVANKA"
            },
            "geometry": {
                "type": "Point",
                "coordinates": [
                    8.342961519956589,
                    44.74150575722509
                ]
            }
        },
        {
            "type": "Feature",
            "properties": {
                "name": "ip",
                "id": "31668",
                "brand": "Api-Ip",
                "amenity": "fuel",
                "operator": "SCARLATA DAMIANA"
            },
            "geometry": {
                "type": "Point",
                "coordinates": [
                    8.386695974158215,
                    44.74292679597553
                ]
            }
        },
        {
            "type": "Feature",
            "properties": {
                "name": "TAMOIL IZZO ORTENSIO",
                "id": "15848",
                "brand": "Tamoil",
                "amenity": "fuel",
                "operator": "IZZO ORTENSIO"
            },
            "geometry": {
                "type": "Point",
                "coordinates": [
                    8.36767547063903,
                    44.77888221565448
                ]
            }
        }
    ]
}