{
    "type": "FeatureCollection",
    "features": [
        {
            "type": "Feature",
            "properties": {
                "name": "totalerg",
                "id": "12106",
                "brand": "Total Erg",
                "amenity": "fuel",
                "operator": "F.LLI ZAVATTARO S.N.C. DI MASSIMO E ROBERTO"
            },
            "geometry": {
                "type": "Point",
                "coordinates": [
                    8.380368624734501,
                    45.3242404360057
                ]
            }
        },
        {
            "type": "Feature",
            "properties": {
                "name": "Repsol_Desana_ (VC001)",
                "id": "19887",
                "brand": "Repsol",
                "amenity": "fuel",
                "operator": "REPSOL ITALIA S.P.A."
            },
            "geometry": {
                "type": "Point",
                "coordinates": [
                    8.344625965606724,
                    45.25242792962942
                ]
            }
        },
        {
            "type": "Feature",
            "properties": {
                "name": "VERCELLI",
                "id": "5911",
                "brand": "Total Erg",
                "amenity": "fuel",
                "operator": "TotalErg SpA"
            },
            "geometry": {
                "type": "Point",
                "coordinates": [
                    8.391955779098453,
                    45.30029492324278
                ]
            }
        },
        {
            "type": "Feature",
            "properties": {
                "name": "VERCELLI CORSO PRESTINARI 191",
                "id": "6830",
                "brand": "Q8",
                "amenity": "fuel",
                "operator": "SERVIZI & GESTIONI ITALIA srl"
            },
            "geometry": {
                "type": "Point",
                "coordinates": [
                    8.407752127647427,
                    45.323642482663296
                ]
            }
        },
        {
            "type": "Feature",
            "properties": {
                "name": "D'Adamo Massimo",
                "id": "14710",
                "brand": "Agip Eni",
                "amenity": "fuel",
                "operator": "D'ADAMO MASSIMO"
            },
            "geometry": {
                "type": "Point",
                "coordinates": [
                    8.425800051587887,
                    45.321292972643676
                ]
            }
        },
        {
            "type": "Feature",
            "properties": {
                "name": "Vercelli Tangenziale Sud",
                "id": "25121",
                "brand": "Total Erg",
                "amenity": "fuel",
                "operator": "GESTIONI EUROPA - SOCIETA' PER AZIONI"
            },
            "geometry": {
                "type": "Point",
                "coordinates": [
                    8.395105004310608,
                    45.31629863734204
                ]
            }
        },
        {
            "type": "Feature",
            "properties": {
                "name": "VERCELLI PIAZZA SARDEGNA",
                "id": "6413",
                "brand": "Q8",
                "amenity": "fuel",
                "operator": "SERVIZI & GESTIONI ITALIA srl"
            },
            "geometry": {
                "type": "Point",
                "coordinates": [
                    8.426893438028742,
                    45.31460273813582
                ]
            }
        },
        {
            "type": "Feature",
            "properties": {
                "name": "Tamoil 4129",
                "id": "7163",
                "brand": "Tamoil",
                "amenity": "fuel",
                "operator": "BELLINI MAURO"
            },
            "geometry": {
                "type": "Point",
                "coordinates": [
                    8.415392006072352,
                    45.32365817444303
                ]
            }
        },
        {
            "type": "Feature",
            "properties": {
                "name": "Tamoil",
                "id": "25396",
                "brand": "Tamoil",
                "amenity": "fuel",
                "operator": "RAPOLLA IGNAZIO"
            },
            "geometry": {
                "type": "Point",
                "coordinates": [
                    8.390297144651413,
                    45.321154028854515
                ]
            }
        },
        {
            "type": "Feature",
            "properties": {
                "name": "esso di zucca davide",
                "id": "24847",
                "brand": "Esso",
                "amenity": "fuel",
                "operator": "ZUCCA DAVIDE"
            },
            "geometry": {
                "type": "Point",
                "coordinates": [
                    8.431314645249131,
                    45.32475441167898
                ]
            }
        },
        {
            "type": "Feature",
            "properties": {
                "name": "VERCELLI-CORSO PRESTINARI 168",
                "id": "11933",
                "brand": "Q8",
                "amenity": "fuel",
                "operator": "SERVIZI & GESTIONI ITALIA S.R.L."
            },
            "geometry": {
                "type": "Point",
                "coordinates": [
                    8.405681982803346,
                    45.32392446659074
                ]
            }
        },
        {
            "type": "Feature",
            "properties": {
                "name": "Totalerg",
                "id": "12252",
                "brand": "Total Erg",
                "amenity": "fuel",
                "operator": "FOSCHINI NADIA"
            },
            "geometry": {
                "type": "Point",
                "coordinates": [
                    8.433970009192649,
                    45.325166436411436
                ]
            }
        },
        {
            "type": "Feature",
            "properties": {
                "name": "VERCELLI",
                "id": "10100",
                "brand": "Total Erg",
                "amenity": "fuel",
                "operator": "GESTIONI EUROPA - SOCIETA' PER AZIONI"
            },
            "geometry": {
                "type": "Point",
                "coordinates": [
                    8.430920541286469,
                    45.317867858483226
                ]
            }
        }
    ]
}