{
    "type": "FeatureCollection",
    "features": [
        {
            "type": "Feature",
            "properties": {
                "name": "GATTINARA-C.S VALSESIA 299",
                "id": "11936",
                "brand": "Q8",
                "amenity": "fuel",
                "operator": "SERVIZI & GESTIONI ITALIA S.R.L."
            },
            "geometry": {
                "type": "Point",
                "coordinates": [
                    8.371957084655833,
                    45.63411500401757
                ]
            }
        },
        {
            "type": "Feature",
            "properties": {
                "name": "ESSO BUI GIAMPAOLO",
                "id": "25430",
                "brand": "Esso",
                "amenity": "fuel",
                "operator": "BUI GIAMPAOLO"
            },
            "geometry": {
                "type": "Point",
                "coordinates": [
                    8.34009849933625,
                    45.67927854941927
                ]
            }
        },
        {
            "type": "Feature",
            "properties": {
                "name": "ROMAGNANO SESIA-C/O CENTRO COMMLE BENNET",
                "id": "11749",
                "brand": "Q8",
                "amenity": "fuel",
                "operator": "SERVIZI & GESTIONI ITALIA S.R.L."
            },
            "geometry": {
                "type": "Point",
                "coordinates": [
                    8.403135626983612,
                    45.61891500808657
                ]
            }
        },
        {
            "type": "Feature",
            "properties": {
                "name": "BOCA S.S. 142 BIELLESE KM 37+860 snc",
                "id": "23945",
                "brand": "Total Erg",
                "amenity": "fuel",
                "operator": "TOTALERG S.P.A."
            },
            "geometry": {
                "type": "Point",
                "coordinates": [
                    8.435382395982742,
                    45.66092738958532
                ]
            }
        },
        {
            "type": "Feature",
            "properties": {
                "name": "Stazione ENI 51379",
                "id": "15487",
                "brand": "Agip Eni",
                "amenity": "fuel",
                "operator": "VASTA MARIO GIOVANNI"
            },
            "geometry": {
                "type": "Point",
                "coordinates": [
                    8.311944169311573,
                    45.6829625590261
                ]
            }
        },
        {
            "type": "Feature",
            "properties": {
                "name": "DUEMME SERVICE SNC di Delmastro Mussa Michela & C.",
                "id": "26850",
                "brand": "Esso",
                "amenity": "fuel",
                "operator": "DUEMME SERVICE SNC DI DELMASTRO MUSSA MICHELA & C."
            },
            "geometry": {
                "type": "Point",
                "coordinates": [
                    8.28647956252098,
                    45.6973578399154
                ]
            }
        },
        {
            "type": "Feature",
            "properties": {
                "name": "EUROPAM",
                "id": "31714",
                "amenity": "fuel",
                "operator": "LA 17 VENTIDUE SRL"
            },
            "geometry": {
                "type": "Point",
                "coordinates": [
                    8.370753228664398,
                    45.60104903289458
                ]
            }
        },
        {
            "type": "Feature",
            "properties": {
                "name": "ENI 397",
                "id": "8278",
                "brand": "Agip Eni",
                "amenity": "fuel",
                "operator": "ROVELLOTTI FLORIANO"
            },
            "geometry": {
                "type": "Point",
                "coordinates": [
                    8.429453372955322,
                    45.587958163623924
                ]
            }
        },
        {
            "type": "Feature",
            "properties": {
                "name": "REPSOL",
                "id": "15631",
                "brand": "Repsol",
                "amenity": "fuel",
                "operator": "COMBIGAS S.R.L."
            },
            "geometry": {
                "type": "Point",
                "coordinates": [
                    8.29929381608963,
                    45.69234893538859
                ]
            }
        },
        {
            "type": "Feature",
            "properties": {
                "name": "TAMOIL",
                "id": "15107",
                "brand": "Tamoil",
                "amenity": "fuel",
                "operator": "URGO CANIO"
            },
            "geometry": {
                "type": "Point",
                "coordinates": [
                    8.42792845171357,
                    45.58961793805023
                ]
            }
        },
        {
            "type": "Feature",
            "properties": {
                "name": "q8 ghemme",
                "id": "23527",
                "brand": "Q8",
                "amenity": "fuel",
                "operator": "ANTONIONE IVAN"
            },
            "geometry": {
                "type": "Point",
                "coordinates": [
                    8.426356644317137,
                    45.59500314448789
                ]
            }
        },
        {
            "type": "Feature",
            "properties": {
                "name": "eni di mauro masserano",
                "id": "25502",
                "brand": "Agip Eni",
                "amenity": "fuel",
                "operator": "MASSERANO MAURO"
            },
            "geometry": {
                "type": "Point",
                "coordinates": [
                    8.345312476158142,
                    45.673938631507056
                ]
            }
        },
        {
            "type": "Feature",
            "properties": {
                "name": "TotalErg",
                "id": "5760",
                "brand": "Total Erg",
                "amenity": "fuel",
                "operator": "SPEED CAR S.N.C. DI GRASSI COSIMO E DI MICCO ANTONIO"
            },
            "geometry": {
                "type": "Point",
                "coordinates": [
                    8.361800014972687,
                    45.65685522574802
                ]
            }
        },
        {
            "type": "Feature",
            "properties": {
                "name": "Boca (No)",
                "id": "20786",
                "brand": "Q8",
                "amenity": "fuel",
                "operator": "SELF PIES S.R.L."
            },
            "geometry": {
                "type": "Point",
                "coordinates": [
                    8.409621119499207,
                    45.67827978757978
                ]
            }
        },
        {
            "type": "Feature",
            "properties": {
                "name": "EREDI NEDO FERRARIS",
                "id": "14142",
                "brand": "Tamoil",
                "amenity": "fuel",
                "operator": "EREDI NEDO FERRARIS DI FERRARIS LAURA E C. S.A.S."
            },
            "geometry": {
                "type": "Point",
                "coordinates": [
                    8.377231433987617,
                    45.63957738733469
                ]
            }
        },
        {
            "type": "Feature",
            "properties": {
                "name": "Repsol_Grignasco (NO002)",
                "id": "30533",
                "brand": "Repsol",
                "amenity": "fuel",
                "operator": "REPSOL ITALIA S.P.A."
            },
            "geometry": {
                "type": "Point",
                "coordinates": [
                    8.33914822453687,
                    45.68036558005834
                ]
            }
        },
        {
            "type": "Feature",
            "properties": {
                "name": "ENI",
                "id": "25603",
                "brand": "Agip Eni",
                "amenity": "fuel",
                "operator": "DUO' MARCO"
            },
            "geometry": {
                "type": "Point",
                "coordinates": [
                    8.365768661376935,
                    45.61466332159521
                ]
            }
        },
        {
            "type": "Feature",
            "properties": {
                "name": "saglietti luisella",
                "id": "30295",
                "amenity": "fuel",
                "operator": "SAGLIETTI LUISELLA"
            },
            "geometry": {
                "type": "Point",
                "coordinates": [
                    8.377632770500213,
                    45.63820006525249
                ]
            }
        }
    ]
}