{
    "type": "FeatureCollection",
    "features": [
        {
            "type": "Feature",
            "properties": {
                "name": "SALVATORICO PIANA",
                "id": "17617",
                "brand": "Tamoil",
                "amenity": "fuel",
                "operator": "PIANA SALVATORICO"
            },
            "geometry": {
                "type": "Point",
                "coordinates": [
                    8.522446900606155,
                    40.802571842446184
                ]
            }
        },
        {
            "type": "Feature",
            "properties": {
                "name": "SASSARI",
                "id": "5887",
                "brand": "Total Erg",
                "amenity": "fuel",
                "operator": "TotalErg SpA"
            },
            "geometry": {
                "type": "Point",
                "coordinates": [
                    8.528368271163911,
                    40.740454225676636
                ]
            }
        },
        {
            "type": "Feature",
            "properties": {
                "name": "DISTRIBUTORE Q8 S. MARIA DI COCCO TORE",
                "id": "25758",
                "brand": "Q8",
                "amenity": "fuel",
                "operator": "DISTRIBUTORE Q8 S. MARIA DI COCCO TORE"
            },
            "geometry": {
                "type": "Point",
                "coordinates": [
                    8.556475760022865,
                    40.72542465503704
                ]
            }
        },
        {
            "type": "Feature",
            "properties": {
                "name": "TotalErg di Idini Alessandro",
                "id": "9702",
                "brand": "Total Erg",
                "amenity": "fuel",
                "operator": "IDINI ALESSANDRO"
            },
            "geometry": {
                "type": "Point",
                "coordinates": [
                    8.551276624202728,
                    40.73190400621792
                ]
            }
        },
        {
            "type": "Feature",
            "properties": {
                "name": "Eni",
                "id": "7937",
                "brand": "Agip Eni",
                "amenity": "fuel",
                "operator": "MURINEDDU ANTONIO"
            },
            "geometry": {
                "type": "Point",
                "coordinates": [
                    8.548672199249268,
                    40.733024717545284
                ]
            }
        },
        {
            "type": "Feature",
            "properties": {
                "name": "PORTO TORRES SS 131 KM 229+825",
                "id": "6682",
                "brand": "Q8",
                "amenity": "fuel",
                "operator": "SERVIZI & GESTIONI ITALIA srl"
            },
            "geometry": {
                "type": "Point",
                "coordinates": [
                    8.442750191505866,
                    40.806344823098435
                ]
            }
        },
        {
            "type": "Feature",
            "properties": {
                "name": "SILVETTI & C. DI MARIO SILVETTI & C. S.A.S.",
                "id": "21278",
                "brand": "Esso",
                "amenity": "fuel",
                "operator": "SILVETTI & C. DI MARIO SILVETTI & C. S.A.S. *"
            },
            "geometry": {
                "type": "Point",
                "coordinates": [
                    8.548544166470265,
                    40.728667981222706
                ]
            }
        },
        {
            "type": "Feature",
            "properties": {
                "name": "Q8",
                "id": "10793",
                "brand": "Q8",
                "amenity": "fuel",
                "operator": "FOIS NINO"
            },
            "geometry": {
                "type": "Point",
                "coordinates": [
                    8.574532529413089,
                    40.796675912326336
                ]
            }
        },
        {
            "type": "Feature",
            "properties": {
                "name": "ONIDA",
                "id": "14341",
                "brand": "Esso",
                "amenity": "fuel",
                "operator": "ONIDA F.LLI S.N.C. DI ONIDA PIETRO E C."
            },
            "geometry": {
                "type": "Point",
                "coordinates": [
                    8.560327553967227,
                    40.7440840616796
                ]
            }
        },
        {
            "type": "Feature",
            "properties": {
                "name": "consulenze e gestioni srl",
                "id": "9561",
                "brand": "Esso",
                "amenity": "fuel",
                "operator": "CONSULENZE E GESTIONI S.R.L."
            },
            "geometry": {
                "type": "Point",
                "coordinates": [
                    8.53933274745941,
                    40.73482789720996
                ]
            }
        },
        {
            "type": "Feature",
            "properties": {
                "name": "NONNAISA STATION",
                "id": "27872",
                "brand": "NonnaIsa Station",
                "amenity": "fuel",
                "operator": "CAMPOROSSO S.R.L."
            },
            "geometry": {
                "type": "Point",
                "coordinates": [
                    8.54210615158081,
                    40.72921007552906
                ]
            }
        },
        {
            "type": "Feature",
            "properties": {
                "name": "54536 SASSARI PASCOLI",
                "id": "26108",
                "brand": "Agip Eni",
                "amenity": "fuel",
                "operator": "ENI RETE OIL&NONOIL S.P.A."
            },
            "geometry": {
                "type": "Point",
                "coordinates": [
                    8.561055501851683,
                    40.73563186191682
                ]
            }
        },
        {
            "type": "Feature",
            "properties": {
                "name": "Ditta Simula & Pilo",
                "id": "14879",
                "brand": "Api-Ip",
                "amenity": "fuel",
                "operator": "SIMULA & PILO DI COSTANTINO PILO & C. S.N.C."
            },
            "geometry": {
                "type": "Point",
                "coordinates": [
                    8.553231954574585,
                    40.71582295198386
                ]
            }
        },
        {
            "type": "Feature",
            "properties": {
                "name": "Self Area ENI di Murgia Sabina",
                "id": "17076",
                "brand": "Agip Eni",
                "amenity": "fuel",
                "operator": "SELF AREA ENI DI MURGIA SABINA"
            },
            "geometry": {
                "type": "Point",
                "coordinates": [
                    8.55135440826416,
                    40.7484375625966
                ]
            }
        },
        {
            "type": "Feature",
            "properties": {
                "name": "ON CARBURANTI",
                "id": "32101",
                "amenity": "fuel",
                "operator": "ON STAZIONI DI SERVIZIO S.R.L."
            },
            "geometry": {
                "type": "Point",
                "coordinates": [
                    8.529434502580216,
                    40.745039506323224
                ]
            }
        },
        {
            "type": "Feature",
            "properties": {
                "name": "7871 SASSARI PASCOLI",
                "id": "26109",
                "brand": "Agip Eni",
                "amenity": "fuel",
                "operator": "ENI RETE OIL&NONOIL S.P.A."
            },
            "geometry": {
                "type": "Point",
                "coordinates": [
                    8.560530245304108,
                    40.736038796781386
                ]
            }
        },
        {
            "type": "Feature",
            "properties": {
                "name": "Stazione di servizio ESSO di ALMERINDO ALBERTO CICCOTTI",
                "id": "17015",
                "brand": "Esso",
                "amenity": "fuel",
                "operator": "CICCOTTI A. ALBERTO - STAZIONE SERVIZIO ESSO -"
            },
            "geometry": {
                "type": "Point",
                "coordinates": [
                    8.572508321365376,
                    40.71838181131423
                ]
            }
        },
        {
            "type": "Feature",
            "properties": {
                "name": "IES - ZI.P. SERVICE SRL",
                "id": "15706",
                "brand": "Ies",
                "amenity": "fuel",
                "operator": "ZI.P. SERVICE S.R.L."
            },
            "geometry": {
                "type": "Point",
                "coordinates": [
                    8.532549810234059,
                    40.722399175729315
                ]
            }
        },
        {
            "type": "Feature",
            "properties": {
                "name": "erg via carlo felice",
                "id": "9565",
                "brand": "Total Erg",
                "amenity": "fuel",
                "operator": "TRANSPORT S.A.S. DI TAULA VITTORIO & C. *"
            },
            "geometry": {
                "type": "Point",
                "coordinates": [
                    8.577968311657743,
                    40.715843616001266
                ]
            }
        },
        {
            "type": "Feature",
            "properties": {
                "name": "Q8",
                "id": "29493",
                "brand": "Q8",
                "amenity": "fuel",
                "operator": "DISTRIBUTORE CARBURANTI S.N.C. DI GIANLUCA RU E COSTANZO SANNA"
            },
            "geometry": {
                "type": "Point",
                "coordinates": [
                    8.552521167983969,
                    40.731551462770106
                ]
            }
        },
        {
            "type": "Feature",
            "properties": {
                "name": "7844 SASSARI SANTA MARIA",
                "id": "26106",
                "brand": "Agip Eni",
                "amenity": "fuel",
                "operator": "ENI RETE OIL&NONOIL S.P.A."
            },
            "geometry": {
                "type": "Point",
                "coordinates": [
                    8.554570376873016,
                    40.7270937166781
                ]
            }
        },
        {
            "type": "Feature",
            "properties": {
                "name": "esso corso angioy",
                "id": "9564",
                "brand": "Esso",
                "amenity": "fuel",
                "operator": "TAULA FRANCESCA & C.- SOCIETA' IN ACCOMANDITA SEMPLICE *"
            },
            "geometry": {
                "type": "Point",
                "coordinates": [
                    8.557664304971695,
                    40.72463945289186
                ]
            }
        },
        {
            "type": "Feature",
            "properties": {
                "name": "Q8 PENSE MARCO",
                "id": "29637",
                "brand": "Q8",
                "amenity": "fuel",
                "operator": "PENSE' MARCO"
            },
            "geometry": {
                "type": "Point",
                "coordinates": [
                    8.45816507935524,
                    40.734695383843814
                ]
            }
        },
        {
            "type": "Feature",
            "properties": {
                "name": "erg piazza porrino",
                "id": "9562",
                "brand": "Total Erg",
                "amenity": "fuel",
                "operator": "TAULA FRANCESCA & C.- SOCIETA' IN ACCOMANDITA SEMPLICE *"
            },
            "geometry": {
                "type": "Point",
                "coordinates": [
                    8.570137917995453,
                    40.723790582624424
                ]
            }
        },
        {
            "type": "Feature",
            "properties": {
                "name": "STAZIONE SERVIZIO IP",
                "id": "21335",
                "brand": "Api-Ip",
                "amenity": "fuel",
                "operator": "F.LLI SPISSU DI ROBERTO SPISSU & C. S.A.S."
            },
            "geometry": {
                "type": "Point",
                "coordinates": [
                    8.581300602516194,
                    40.71470810529163
                ]
            }
        },
        {
            "type": "Feature",
            "properties": {
                "name": "stazione di servizio ESSO Marongiu Giovanni",
                "id": "13185",
                "brand": "Esso",
                "amenity": "fuel",
                "operator": "MARONGIU GIOVANNI"
            },
            "geometry": {
                "type": "Point",
                "coordinates": [
                    8.469589948654175,
                    40.78533932623088
                ]
            }
        },
        {
            "type": "Feature",
            "properties": {
                "name": "q8 di andrea mossa",
                "id": "25778",
                "brand": "Q8",
                "amenity": "fuel",
                "operator": "MOSSA ANDREA"
            },
            "geometry": {
                "type": "Point",
                "coordinates": [
                    8.56145828962326,
                    40.718145401150025
                ]
            }
        },
        {
            "type": "Feature",
            "properties": {
                "name": "stazione IP marceddu andrea",
                "id": "19494",
                "brand": "Api-Ip",
                "amenity": "fuel",
                "operator": "MARCEDDU ANDREA"
            },
            "geometry": {
                "type": "Point",
                "coordinates": [
                    8.565365083497227,
                    40.72153832400471
                ]
            }
        },
        {
            "type": "Feature",
            "properties": {
                "name": "Mulas Giuseppe Distributore IP",
                "id": "29476",
                "brand": "Api-Ip",
                "amenity": "fuel",
                "operator": "MULAS GIUSEPPE"
            },
            "geometry": {
                "type": "Point",
                "coordinates": [
                    8.570611327886581,
                    40.71871258358523
                ]
            }
        },
        {
            "type": "Feature",
            "properties": {
                "name": "7891 BUDDI BUDDI SASSARI",
                "id": "26105",
                "brand": "Agip Eni",
                "amenity": "fuel",
                "operator": "ENI RETE OIL&NONOIL S.P.A."
            },
            "geometry": {
                "type": "Point",
                "coordinates": [
                    8.542001545429228,
                    40.75413462717159
                ]
            }
        },
        {
            "type": "Feature",
            "properties": {
                "name": "SASSARI VIA CARLO FELICE",
                "id": "23647",
                "brand": "Q8",
                "amenity": "fuel",
                "operator": "SERVIZI & GESTIONI ITALIA S.R.L."
            },
            "geometry": {
                "type": "Point",
                "coordinates": [
                    8.582475760118882,
                    40.71414486389693
                ]
            }
        },
        {
            "type": "Feature",
            "properties": {
                "name": "impianto agip di giuliani edoardo",
                "id": "18763",
                "brand": "Agip Eni",
                "amenity": "fuel",
                "operator": "IMPIANTO AGIP DI GIULIANI EDOARDO"
            },
            "geometry": {
                "type": "Point",
                "coordinates": [
                    8.552670031785963,
                    40.723514128278424
                ]
            }
        },
        {
            "type": "Feature",
            "properties": {
                "name": "CENTRO ESSO DI ZIDDA GIOVANNI",
                "id": "17408",
                "brand": "Esso",
                "amenity": "fuel",
                "operator": "CENTRO ESSO DI ZIDDA GIOVANNI"
            },
            "geometry": {
                "type": "Point",
                "coordinates": [
                    8.568606752312236,
                    40.71686268860988
                ]
            }
        },
        {
            "type": "Feature",
            "properties": {
                "name": "eni",
                "id": "23015",
                "brand": "Agip Eni",
                "amenity": "fuel",
                "operator": "SOLINAS MARIO EREDI S.A.S. DI SOLINAS GIUSEPPE"
            },
            "geometry": {
                "type": "Point",
                "coordinates": [
                    8.588462769985199,
                    40.78815831330134
                ]
            }
        }
    ]
}