{
    "type": "FeatureCollection",
    "features": [
        {
            "type": "Feature",
            "properties": {
                "name": "eni",
                "id": "17453",
                "brand": "Agip Eni",
                "amenity": "fuel",
                "operator": "TOM-CAR S.N.C. DI TOMASINI PAOLO & CARRETTA PAOLA"
            },
            "geometry": {
                "type": "Point",
                "coordinates": [
                    8.578372299671173,
                    45.426952529698404
                ]
            }
        },
        {
            "type": "Feature",
            "properties": {
                "name": "carretta paola",
                "id": "23851",
                "brand": "Agip Eni",
                "amenity": "fuel",
                "operator": "CARRETTA PAOLA"
            },
            "geometry": {
                "type": "Point",
                "coordinates": [
                    8.60556548161469,
                    45.437178556296836
                ]
            }
        },
        {
            "type": "Feature",
            "properties": {
                "name": "Economy S.r.l - San Pietro Mosezzo",
                "id": "31509",
                "brand": "Total Erg",
                "amenity": "fuel",
                "operator": "ECONOMY S.R.L."
            },
            "geometry": {
                "type": "Point",
                "coordinates": [
                    8.561218231916428,
                    45.453802476752315
                ]
            }
        },
        {
            "type": "Feature",
            "properties": {
                "name": "totalerg new world snc 8213",
                "id": "24880",
                "brand": "Total Erg",
                "amenity": "fuel",
                "operator": "NEW WORLD S.N.C. DI QUAGLIOTTI CRISTIANO & C"
            },
            "geometry": {
                "type": "Point",
                "coordinates": [
                    8.584481527758726,
                    45.42058679003904
                ]
            }
        },
        {
            "type": "Feature",
            "properties": {
                "name": "ESSO",
                "id": "4249",
                "brand": "Esso",
                "amenity": "fuel",
                "operator": "BOTTURI EMMA"
            },
            "geometry": {
                "type": "Point",
                "coordinates": [
                    8.59403371810913,
                    45.43198364476322
                ]
            }
        },
        {
            "type": "Feature",
            "properties": {
                "name": "ANDREELLO EUGENIO",
                "id": "15627",
                "brand": "Api-Ip",
                "amenity": "fuel",
                "operator": "ANDREELLO EUGENIO"
            },
            "geometry": {
                "type": "Point",
                "coordinates": [
                    8.543924018740654,
                    45.39930954115237
                ]
            }
        },
        {
            "type": "Feature",
            "properties": {
                "name": "ENI 393 novara",
                "id": "21797",
                "brand": "Agip Eni",
                "amenity": "fuel",
                "operator": "EMMECI. 1 S.N.C. DI CAZZOLA TIZIANO & C."
            },
            "geometry": {
                "type": "Point",
                "coordinates": [
                    8.600324168801306,
                    45.45487004508751
                ]
            }
        },
        {
            "type": "Feature",
            "properties": {
                "name": "TAMOIL di Marco Vallese",
                "id": "5606",
                "brand": "Tamoil",
                "amenity": "fuel",
                "operator": "VALLESE MARCO"
            },
            "geometry": {
                "type": "Point",
                "coordinates": [
                    8.454121649265288,
                    45.34759600748439
                ]
            }
        },
        {
            "type": "Feature",
            "properties": {
                "name": "EURO VELE SNC",
                "id": "7775",
                "brand": "Q8",
                "amenity": "fuel",
                "operator": "EURO VELE S.N.C. DI BANDERA MAURIZIO E BERLANGIERI RENATO"
            },
            "geometry": {
                "type": "Point",
                "coordinates": [
                    8.606282698286465,
                    45.43754204018661
                ]
            }
        },
        {
            "type": "Feature",
            "properties": {
                "name": "000427 ENI",
                "id": "26731",
                "brand": "Agip Eni",
                "amenity": "fuel",
                "operator": "CO.FI.IM. RAVARO S.R.L."
            },
            "geometry": {
                "type": "Point",
                "coordinates": [
                    8.578663825872809,
                    45.379230913197226
                ]
            }
        },
        {
            "type": "Feature",
            "properties": {
                "name": "BOLZONI GIORDANO ENI",
                "id": "29478",
                "brand": "Agip Eni",
                "amenity": "fuel",
                "operator": "BOLZONI GIORDANO"
            },
            "geometry": {
                "type": "Point",
                "coordinates": [
                    8.60190935432911,
                    45.450312888764024
                ]
            }
        },
        {
            "type": "Feature",
            "properties": {
                "name": "totalerg",
                "id": "18893",
                "brand": "Total Erg",
                "amenity": "fuel",
                "operator": "ALBANESE MARIA"
            },
            "geometry": {
                "type": "Point",
                "coordinates": [
                    8.46357375383377,
                    45.456732126385624
                ]
            }
        },
        {
            "type": "Feature",
            "properties": {
                "name": "NOVARA-VIA G.CESARE 241",
                "id": "11746",
                "brand": "Q8",
                "amenity": "fuel",
                "operator": "SERVIZI & GESTIONI ITALIA S.R.L."
            },
            "geometry": {
                "type": "Point",
                "coordinates": [
                    8.613105364418061,
                    45.434943289608206
                ]
            }
        },
        {
            "type": "Feature",
            "properties": {
                "name": "Adg Sas",
                "id": "18952",
                "brand": "Total Erg",
                "amenity": "fuel",
                "operator": "ADG S.A.S. DI ALBERTO DONDI & C."
            },
            "geometry": {
                "type": "Point",
                "coordinates": [
                    8.599265863848814,
                    45.442714708333156
                ]
            }
        },
        {
            "type": "Feature",
            "properties": {
                "name": "NOVARA-CORSO VERCELLI 24",
                "id": "11747",
                "brand": "Q8",
                "amenity": "fuel",
                "operator": "SERVIZI & GESTIONI ITALIA S.R.L."
            },
            "geometry": {
                "type": "Point",
                "coordinates": [
                    8.60421183795927,
                    45.43660113694154
                ]
            }
        }
    ]
}