{
    "type": "FeatureCollection",
    "features": [
        {
            "type": "Feature",
            "properties": {
                "name": "eni 02854 Masini Franco",
                "id": "10324",
                "brand": "Agip Eni",
                "amenity": "fuel",
                "operator": "MASINI FRANCO"
            },
            "geometry": {
                "type": "Point",
                "coordinates": [
                    8.612532596364645,
                    45.81430906946226
                ]
            }
        },
        {
            "type": "Feature",
            "properties": {
                "name": "GAS AUTO CASTELLETTO TICINO",
                "id": "26820",
                "amenity": "fuel",
                "operator": "ORTENZI ROBERTO"
            },
            "geometry": {
                "type": "Point",
                "coordinates": [
                    8.592166900634766,
                    45.71871558607543
                ]
            }
        },
        {
            "type": "Feature",
            "properties": {
                "name": "stazione di servizio iudici giovanni",
                "id": "15391",
                "amenity": "fuel",
                "operator": "IUDICI GIOVANNI"
            },
            "geometry": {
                "type": "Point",
                "coordinates": [
                    8.43916113267619,
                    45.8214898205647
                ]
            }
        },
        {
            "type": "Feature",
            "properties": {
                "name": "Q8 AUTOSERVICE SRL",
                "id": "9956",
                "brand": "Q8",
                "amenity": "fuel",
                "operator": "AUTOSERVICE S.R.L."
            },
            "geometry": {
                "type": "Point",
                "coordinates": [
                    8.485216498374939,
                    45.75934670075717
                ]
            }
        },
        {
            "type": "Feature",
            "properties": {
                "name": "VEGA PARUZZARO",
                "id": "31442",
                "brand": "Vega",
                "amenity": "fuel",
                "operator": "VEGA CARBURANTI S.P.A."
            },
            "geometry": {
                "type": "Point",
                "coordinates": [
                    8.497560024261475,
                    45.72843463993083
                ]
            }
        },
        {
            "type": "Feature",
            "properties": {
                "name": "BRIGA NOVARESE VIA BORGOMANERO 47",
                "id": "6422",
                "brand": "Q8",
                "amenity": "fuel",
                "operator": "SERVIZI & GESTIONI ITALIA srl"
            },
            "geometry": {
                "type": "Point",
                "coordinates": [
                    8.445178175532533,
                    45.72709842255115
                ]
            }
        },
        {
            "type": "Feature",
            "properties": {
                "name": "PREALPINA DISTRIBUZIONE CARBURANTI SRL",
                "id": "9983",
                "amenity": "fuel",
                "operator": "PREALPINA DISTRIBUZIONE CARBURANTI S.R.L."
            },
            "geometry": {
                "type": "Point",
                "coordinates": [
                    8.563799858093262,
                    45.750607015421714
                ]
            }
        },
        {
            "type": "Feature",
            "properties": {
                "name": "CISCO WASH DI PEROSPADO FRANCESCO",
                "id": "14125",
                "brand": "Api-Ip",
                "amenity": "fuel",
                "operator": "CISCO WASH DI PEROSPADO FRANCESCO"
            },
            "geometry": {
                "type": "Point",
                "coordinates": [
                    8.584567976057428,
                    45.774527483189395
                ]
            }
        },
        {
            "type": "Feature",
            "properties": {
                "name": "BALZARINI E BROVELLI SNC",
                "id": "14404",
                "brand": "Total Erg",
                "amenity": "fuel",
                "operator": "BALZARINI E BROVELLI DI LORENZO E LUCA BALZARINI & C. S.N.C"
            },
            "geometry": {
                "type": "Point",
                "coordinates": [
                    8.588541429430393,
                    45.77627912522749
                ]
            }
        },
        {
            "type": "Feature",
            "properties": {
                "name": "NEBBIUNO",
                "id": "22073",
                "amenity": "fuel",
                "operator": "GO S.R.L."
            },
            "geometry": {
                "type": "Point",
                "coordinates": [
                    8.522338542327816,
                    45.79520194979169
                ]
            }
        },
        {
            "type": "Feature",
            "properties": {
                "name": "F.lli Gherpù snc di Gianni e Alessandro Gherpù & C.",
                "id": "5136",
                "brand": "Agip Eni",
                "amenity": "fuel",
                "operator": "F.LLI GHERPU' S.N.C. DI GIANNI E ALESSANDRO GHERPU' & C."
            },
            "geometry": {
                "type": "Point",
                "coordinates": [
                    8.52228730916977,
                    45.7458327351878
                ]
            }
        },
        {
            "type": "Feature",
            "properties": {
                "name": "GATTICO-S.S. 32 DIR",
                "id": "11748",
                "brand": "Q8",
                "amenity": "fuel",
                "operator": "SERVIZI & GESTIONI ITALIA S.R.L."
            },
            "geometry": {
                "type": "Point",
                "coordinates": [
                    8.525826822090153,
                    45.70935618949664
                ]
            }
        },
        {
            "type": "Feature",
            "properties": {
                "name": "TAMOIL",
                "id": "4577",
                "brand": "Tamoil",
                "amenity": "fuel",
                "operator": "MORETTI CARLO & C. S.N.C."
            },
            "geometry": {
                "type": "Point",
                "coordinates": [
                    8.550475938692443,
                    45.75522792833884
                ]
            }
        },
        {
            "type": "Feature",
            "properties": {
                "name": "BORGOMANERO -VIALE KENNEDY - VIA GOZZANO",
                "id": "11750",
                "brand": "Q8",
                "amenity": "fuel",
                "operator": "SERVIZI & GESTIONI ITALIA S.R.L."
            },
            "geometry": {
                "type": "Point",
                "coordinates": [
                    8.456394262017966,
                    45.70641961491004
                ]
            }
        },
        {
            "type": "Feature",
            "properties": {
                "name": "OCCHIO AL PREZZO",
                "id": "29796",
                "amenity": "fuel",
                "operator": "ZANOTTO PIERLUIGI"
            },
            "geometry": {
                "type": "Point",
                "coordinates": [
                    8.552495017647743,
                    45.767113953003246
                ]
            }
        },
        {
            "type": "Feature",
            "properties": {
                "name": "QUI24",
                "id": "9175",
                "amenity": "fuel",
                "operator": "BACCHETTA MASSIMO"
            },
            "geometry": {
                "type": "Point",
                "coordinates": [
                    8.565547322090199,
                    45.74527737813549
                ]
            }
        },
        {
            "type": "Feature",
            "properties": {
                "name": "AUTORIPARAZIONI GARAGE ESSO",
                "id": "7418",
                "brand": "Esso",
                "amenity": "fuel",
                "operator": "AGHINA NAZZARO"
            },
            "geometry": {
                "type": "Point",
                "coordinates": [
                    8.505059459979975,
                    45.78744549192845
                ]
            }
        },
        {
            "type": "Feature",
            "properties": {
                "name": "Staz.Servizio TOTALERG",
                "id": "7479",
                "brand": "Total Erg",
                "amenity": "fuel",
                "operator": "STAZIONE SERVIZIO ERG DI PONTIROLI STEFANO"
            },
            "geometry": {
                "type": "Point",
                "coordinates": [
                    8.567141890525818,
                    45.74271055287521
                ]
            }
        },
        {
            "type": "Feature",
            "properties": {
                "name": "DORMELLETTO VIA CAVOUR  90",
                "id": "6417",
                "brand": "Q8",
                "amenity": "fuel",
                "operator": "SERVIZI & GESTIONI ITALIA srl"
            },
            "geometry": {
                "type": "Point",
                "coordinates": [
                    8.574434820901502,
                    45.73356160532969
                ]
            }
        },
        {
            "type": "Feature",
            "properties": {
                "name": "Repsol",
                "id": "24066",
                "brand": "Repsol",
                "amenity": "fuel",
                "operator": "ANTICHI SAPORI DI CALI' FILIPPO"
            },
            "geometry": {
                "type": "Point",
                "coordinates": [
                    8.575593531131746,
                    45.732566747766114
                ]
            }
        },
        {
            "type": "Feature",
            "properties": {
                "name": "Tinivella Corrado",
                "id": "16377",
                "brand": "Esso",
                "amenity": "fuel",
                "operator": "TINIVELLA CORRADO"
            },
            "geometry": {
                "type": "Point",
                "coordinates": [
                    8.470612563208988,
                    45.708484779918386
                ]
            }
        },
        {
            "type": "Feature",
            "properties": {
                "name": "IP ANGERA",
                "id": "24360",
                "brand": "Api-Ip",
                "amenity": "fuel",
                "operator": "FARINOLA VINCENZO"
            },
            "geometry": {
                "type": "Point",
                "coordinates": [
                    8.594263717532158,
                    45.7702488023388
                ]
            }
        },
        {
            "type": "Feature",
            "properties": {
                "name": "2527",
                "id": "29804",
                "brand": "Tamoil",
                "amenity": "fuel",
                "operator": "T.D.M. S.R.L."
            },
            "geometry": {
                "type": "Point",
                "coordinates": [
                    8.439315855503082,
                    45.73764767924596
                ]
            }
        },
        {
            "type": "Feature",
            "properties": {
                "name": "Nautica Sbirry",
                "id": "17610",
                "amenity": "fuel",
                "operator": "NAUTICA SBIRRY LAGO MAGGIORE S.N.C. DI VIDOLI MARCO E C."
            },
            "geometry": {
                "type": "Point",
                "coordinates": [
                    8.61201524734497,
                    45.72437974705862
                ]
            }
        },
        {
            "type": "Feature",
            "properties": {
                "name": "Gattico S.S.142 DEL BIELLESE",
                "id": "23939",
                "brand": "Total Erg",
                "amenity": "fuel",
                "operator": "TOTALERG S.P.A."
            },
            "geometry": {
                "type": "Point",
                "coordinates": [
                    8.494051694869995,
                    45.72562193560618
                ]
            }
        },
        {
            "type": "Feature",
            "properties": {
                "name": "CASTELLETTO  TICINO",
                "id": "5532",
                "brand": "Total Erg",
                "amenity": "fuel",
                "operator": "GESTIONI EUROPA S.p.A."
            },
            "geometry": {
                "type": "Point",
                "coordinates": [
                    8.608878411045112,
                    45.71927036325096
                ]
            }
        },
        {
            "type": "Feature",
            "properties": {
                "name": "ARONA VIA MILANO 39/A",
                "id": "6418",
                "brand": "Q8",
                "amenity": "fuel",
                "operator": "SERVIZI & GESTIONI ITALIA srl"
            },
            "geometry": {
                "type": "Point",
                "coordinates": [
                    8.55879885463105,
                    45.75379430657865
                ]
            }
        }
    ]
}