{
    "type": "FeatureCollection",
    "features": [
        {
            "type": "Feature",
            "properties": {
                "name": "cannas federica",
                "id": "10170",
                "brand": "Api-Ip",
                "amenity": "fuel",
                "operator": "CANNAS FEDERICA"
            },
            "geometry": {
                "type": "Point",
                "coordinates": [
                    8.525353074073792,
                    39.16194472285508
                ]
            }
        },
        {
            "type": "Feature",
            "properties": {
                "name": "CARBONIA VIA LUBIANA P.V. Q8",
                "id": "6690",
                "brand": "Q8",
                "amenity": "fuel",
                "operator": "SERVIZI & GESTIONI ITALIA srl"
            },
            "geometry": {
                "type": "Point",
                "coordinates": [
                    8.513282146661822,
                    39.152957516273396
                ]
            }
        },
        {
            "type": "Feature",
            "properties": {
                "name": "balia raffaele",
                "id": "14728",
                "brand": "Api-Ip",
                "amenity": "fuel",
                "operator": "BALIA RAFFAELE"
            },
            "geometry": {
                "type": "Point",
                "coordinates": [
                    8.516271114349363,
                    39.15397594477428
                ]
            }
        },
        {
            "type": "Feature",
            "properties": {
                "name": "esso di daniele melis & c.sas",
                "id": "8396",
                "brand": "Esso",
                "amenity": "fuel",
                "operator": "ESSO DI DANIELE MELIS  &  C.  S.A.S."
            },
            "geometry": {
                "type": "Point",
                "coordinates": [
                    8.51115882396698,
                    39.1493358968925
                ]
            }
        },
        {
            "type": "Feature",
            "properties": {
                "name": "CARBONIA VIA DALMAZIA",
                "id": "12443",
                "brand": "Q8",
                "amenity": "fuel",
                "operator": "SERVIZI & GESTIONI ITALIA S.R.L."
            },
            "geometry": {
                "type": "Point",
                "coordinates": [
                    8.504071086645126,
                    39.18222188276986
                ]
            }
        },
        {
            "type": "Feature",
            "properties": {
                "name": "IP",
                "id": "10184",
                "brand": "Api-Ip",
                "amenity": "fuel",
                "operator": "SULCIS PETROLI S.A.S. DI STEFANIA FIGUS"
            },
            "geometry": {
                "type": "Point",
                "coordinates": [
                    8.526039719581604,
                    39.10808119036583
                ]
            }
        },
        {
            "type": "Feature",
            "properties": {
                "name": "Eni 17511 Gessa & Figli Carbonia",
                "id": "12581",
                "brand": "Agip Eni",
                "amenity": "fuel",
                "operator": "GESSA PAOLO &  FIGLI DI GESSA PAOLO E GESSA IVAN S.N.C."
            },
            "geometry": {
                "type": "Point",
                "coordinates": [
                    8.52224876583932,
                    39.17197761048335
                ]
            }
        },
        {
            "type": "Feature",
            "properties": {
                "name": "8450",
                "id": "30823",
                "brand": "Tamoil",
                "amenity": "fuel",
                "operator": "T.D.M. S.R.L."
            },
            "geometry": {
                "type": "Point",
                "coordinates": [
                    8.51173147559166,
                    39.12645420836387
                ]
            }
        },
        {
            "type": "Feature",
            "properties": {
                "name": "Eni F.lli Bindo - Flumentepido -",
                "id": "15492",
                "brand": "Agip Eni",
                "amenity": "fuel",
                "operator": "F.LLI BINDO ORLANDO E GIAMPIERO E C. S.A.S."
            },
            "geometry": {
                "type": "Point",
                "coordinates": [
                    8.475147485733032,
                    39.184081811197814
                ]
            }
        },
        {
            "type": "Feature",
            "properties": {
                "name": "CONAD SUPERSTORE CARBONIA",
                "id": "31677",
                "brand": "CONAD",
                "amenity": "fuel",
                "operator": "EURALCOOP SOCIETA' COOPERATIVA"
            },
            "geometry": {
                "type": "Point",
                "coordinates": [
                    8.510837629437447,
                    39.1693677795798
                ]
            }
        },
        {
            "type": "Feature",
            "properties": {
                "name": "Eni F.lli Bindo - Carbonia -",
                "id": "16227",
                "brand": "Agip Eni",
                "amenity": "fuel",
                "operator": "F.LLI BINDO ORLANDO E GIAMPIERO E C. S.A.S."
            },
            "geometry": {
                "type": "Point",
                "coordinates": [
                    8.525817096233368,
                    39.16695160291298
                ]
            }
        },
        {
            "type": "Feature",
            "properties": {
                "name": "balia & fenu sas",
                "id": "18947",
                "brand": "Agip Eni",
                "amenity": "fuel",
                "operator": "BALIA & FENU DI FENU MARIO S.A.S."
            },
            "geometry": {
                "type": "Point",
                "coordinates": [
                    8.499603867530823,
                    39.18602360212435
                ]
            }
        },
        {
            "type": "Feature",
            "properties": {
                "name": "PV 07582 San Giovanni Suergiu",
                "id": "30175",
                "brand": "Agip Eni",
                "amenity": "fuel",
                "operator": "ENI RETE OIL&NONOIL S.P.A."
            },
            "geometry": {
                "type": "Point",
                "coordinates": [
                    8.522499203681946,
                    39.11273248966879
                ]
            }
        }
    ]
}