{
    "type": "FeatureCollection",
    "features": [
        {
            "type": "Feature",
            "properties": {
                "name": "stazione di servizio Totalerg",
                "id": "9744",
                "brand": "Total Erg",
                "amenity": "fuel",
                "operator": "CORRADI STEFANO"
            },
            "geometry": {
                "type": "Point",
                "coordinates": [
                    8.726909805812852,
                    45.52066655447551
                ]
            }
        },
        {
            "type": "Feature",
            "properties": {
                "name": "56491 CAIO MERISI SNC",
                "id": "8194",
                "brand": "Agip Eni",
                "amenity": "fuel",
                "operator": "CAIO MARIA E MERISI MAURO - S.N.C."
            },
            "geometry": {
                "type": "Point",
                "coordinates": [
                    8.699463652778604,
                    45.48103931320432
                ]
            }
        },
        {
            "type": "Feature",
            "properties": {
                "name": "QUI SNC",
                "id": "22495",
                "amenity": "fuel",
                "operator": "QUI  S.N.C. DI DEMALDE' BARBARA E ZERBIN PAOLO"
            },
            "geometry": {
                "type": "Point",
                "coordinates": [
                    8.625941527647456,
                    45.46472232438959
                ]
            }
        },
        {
            "type": "Feature",
            "properties": {
                "name": "imp.eni perrone nicola",
                "id": "27877",
                "brand": "Agip Eni",
                "amenity": "fuel",
                "operator": "PERRONE NICOLA"
            },
            "geometry": {
                "type": "Point",
                "coordinates": [
                    8.785637319087982,
                    45.55032166802931
                ]
            }
        },
        {
            "type": "Feature",
            "properties": {
                "name": "Dali Snc di Giorgio Daniele & c. - ENI",
                "id": "7835",
                "brand": "Agip Eni",
                "amenity": "fuel",
                "operator": "DALI S.N.C. DI GIORGIO DANIELE & C."
            },
            "geometry": {
                "type": "Point",
                "coordinates": [
                    8.6136594414711,
                    45.47274119310749
                ]
            }
        },
        {
            "type": "Feature",
            "properties": {
                "name": "Fiorani Margherita",
                "id": "16918",
                "brand": "Agip Eni",
                "amenity": "fuel",
                "operator": "FIORANI MARGHERITA"
            },
            "geometry": {
                "type": "Point",
                "coordinates": [
                    8.685959944705246,
                    45.469664235497866
                ]
            }
        },
        {
            "type": "Feature",
            "properties": {
                "name": "NOVARA NORD",
                "id": "3875",
                "brand": "Total Erg",
                "amenity": "fuel",
                "operator": "TOTALERG S.P.A."
            },
            "geometry": {
                "type": "Point",
                "coordinates": [
                    8.657559156417848,
                    45.46949730788831
                ]
            }
        },
        {
            "type": "Feature",
            "properties": {
                "name": "ENI",
                "id": "4450",
                "brand": "Agip Eni",
                "amenity": "fuel",
                "operator": "COMBIGAS S.R.L."
            },
            "geometry": {
                "type": "Point",
                "coordinates": [
                    8.638148009777069,
                    45.54254645360378
                ]
            }
        },
        {
            "type": "Feature",
            "properties": {
                "name": "NOVARA NORD",
                "id": "31411",
                "brand": "Q8",
                "amenity": "fuel",
                "operator": "M C - S.N.C. DI MAGGIORI BRUNO E  MAGGIORI ROBERTO"
            },
            "geometry": {
                "type": "Point",
                "coordinates": [
                    8.657451868057251,
                    45.46944614466568
                ]
            }
        },
        {
            "type": "Feature",
            "properties": {
                "name": "CAMERI",
                "id": "13910",
                "brand": "Tamoil",
                "amenity": "fuel",
                "operator": "AUTO 3 S.A.S. DI TANTARDINI GIOVANNI E SILVANA & C."
            },
            "geometry": {
                "type": "Point",
                "coordinates": [
                    8.672983199357986,
                    45.49330051539579
                ]
            }
        },
        {
            "type": "Feature",
            "properties": {
                "name": "stazione di servizio IP",
                "id": "25584",
                "brand": "Api-Ip",
                "amenity": "fuel",
                "operator": "OFFICINA RIPARAZIONI CARDANI DI CARDANI PIETRO"
            },
            "geometry": {
                "type": "Point",
                "coordinates": [
                    8.771337121725082,
                    45.52870273846984
                ]
            }
        },
        {
            "type": "Feature",
            "properties": {
                "name": "stazione di servizio Esso",
                "id": "9743",
                "brand": "Esso",
                "amenity": "fuel",
                "operator": "CORRADI STEFANO"
            },
            "geometry": {
                "type": "Point",
                "coordinates": [
                    8.735955047151947,
                    45.53658495947241
                ]
            }
        },
        {
            "type": "Feature",
            "properties": {
                "name": "SOMMESE CARBURANTE",
                "id": "30044",
                "brand": "Total Erg",
                "amenity": "fuel",
                "operator": "SOMMESE CARBURANTE S.R.L."
            },
            "geometry": {
                "type": "Point",
                "coordinates": [
                    8.634934723377228,
                    45.565715643246314
                ]
            }
        },
        {
            "type": "Feature",
            "properties": {
                "name": "ESSO Stefano Pariani",
                "id": "25858",
                "brand": "Esso",
                "amenity": "fuel",
                "operator": "PARIANI STEFANO"
            },
            "geometry": {
                "type": "Point",
                "coordinates": [
                    8.78672739510148,
                    45.550257131609875
                ]
            }
        },
        {
            "type": "Feature",
            "properties": {
                "name": "Impianto ENI 494",
                "id": "21956",
                "brand": "Agip Eni",
                "amenity": "fuel",
                "operator": "POLETTI S.N.C. DI POLETTI AURELIO, RENATO E ROBERTO"
            },
            "geometry": {
                "type": "Point",
                "coordinates": [
                    8.65576945245266,
                    45.494093957931845
                ]
            }
        },
        {
            "type": "Feature",
            "properties": {
                "name": "NOVARA-C.SO DELLA VITTORIA 95",
                "id": "11743",
                "brand": "Q8",
                "amenity": "fuel",
                "operator": "SERVIZI & GESTIONI ITALIA S.R.L."
            },
            "geometry": {
                "type": "Point",
                "coordinates": [
                    8.625396152114831,
                    45.46398435665939
                ]
            }
        },
        {
            "type": "Feature",
            "properties": {
                "name": "NOVARA SUD",
                "id": "3925",
                "brand": "Total Erg",
                "amenity": "fuel",
                "operator": "GESTIONI EUROPA SPA"
            },
            "geometry": {
                "type": "Point",
                "coordinates": [
                    8.659546999999975,
                    45.4684482379234
                ]
            }
        },
        {
            "type": "Feature",
            "properties": {
                "name": "ENI",
                "id": "24653",
                "brand": "Agip Eni",
                "amenity": "fuel",
                "operator": "VEZZETTI VITALIANO"
            },
            "geometry": {
                "type": "Point",
                "coordinates": [
                    8.640069782237106,
                    45.57537575405063
                ]
            }
        },
        {
            "type": "Feature",
            "properties": {
                "name": "AUTOGAS S.R.L.",
                "id": "13995",
                "amenity": "fuel",
                "operator": "AUTOGAS S.R.L."
            },
            "geometry": {
                "type": "Point",
                "coordinates": [
                    8.782518851759278,
                    45.5651800021327
                ]
            }
        },
        {
            "type": "Feature",
            "properties": {
                "name": "NOVARA",
                "id": "5836",
                "brand": "Total Erg",
                "amenity": "fuel",
                "operator": "TotalErg SpA"
            },
            "geometry": {
                "type": "Point",
                "coordinates": [
                    8.64949373743434,
                    45.47388819143496
                ]
            }
        },
        {
            "type": "Feature",
            "properties": {
                "name": "Esso Vanzaghello",
                "id": "31555",
                "brand": "Esso",
                "amenity": "fuel",
                "operator": "GAVAZZI MARCO"
            },
            "geometry": {
                "type": "Point",
                "coordinates": [
                    8.778502643108368,
                    45.57986638585136
                ]
            }
        },
        {
            "type": "Feature",
            "properties": {
                "name": "ENER FUEL",
                "id": "23467",
                "amenity": "fuel",
                "operator": "ENERGAS S.P.A"
            },
            "geometry": {
                "type": "Point",
                "coordinates": [
                    8.693452554175563,
                    45.4687719482225
                ]
            }
        },
        {
            "type": "Feature",
            "properties": {
                "name": "Stazione Agip di Sanna Francesca",
                "id": "8470",
                "brand": "Agip Eni",
                "amenity": "fuel",
                "operator": "SANNA FRANCESCA"
            },
            "geometry": {
                "type": "Point",
                "coordinates": [
                    8.78180980682373,
                    45.54313030807375
                ]
            }
        }
    ]
}