{
    "type": "FeatureCollection",
    "features": [
        {
            "type": "Feature",
            "properties": {
                "name": "totalerg",
                "id": "23023",
                "brand": "Total Erg",
                "amenity": "fuel",
                "operator": "D'AMICO S.A.S. DI D'AMICO DANIELE E ROSARIA"
            },
            "geometry": {
                "type": "Point",
                "coordinates": [
                    8.774943351745605,
                    44.427384065524315
                ]
            }
        },
        {
            "type": "Feature",
            "properties": {
                "name": "stazione di servizio Total Erg",
                "id": "24398",
                "brand": "Total Erg",
                "amenity": "fuel",
                "operator": "C.A.S.T.O.M. SERVICE - SOCIETA' IN NOME COLLETTIVO DI COSTANZO IS ABELLA E SAMBIASE DOMENICO"
            },
            "geometry": {
                "type": "Point",
                "coordinates": [
                    8.745968118309976,
                    44.428306739160774
                ]
            }
        },
        {
            "type": "Feature",
            "properties": {
                "name": "PIANI D'INVREA NORD",
                "id": "3712",
                "brand": "Q8",
                "amenity": "fuel",
                "operator": "Testa Vincenzo & c. snc"
            },
            "geometry": {
                "type": "Point",
                "coordinates": [
                    8.616323295631448,
                    44.37188142982485
                ]
            }
        },
        {
            "type": "Feature",
            "properties": {
                "name": "1018 GENOVA VOLTRI",
                "id": "5509",
                "brand": "Agip Eni",
                "amenity": "fuel",
                "operator": "enirete oil&nonoil S.p.A."
            },
            "geometry": {
                "type": "Point",
                "coordinates": [
                    8.76887469444273,
                    44.42622721082394
                ]
            }
        },
        {
            "type": "Feature",
            "properties": {
                "name": "Stazione IP di Bona Riccardo (Benzine & Tabacchi)",
                "id": "18979",
                "brand": "Api-Ip",
                "amenity": "fuel",
                "operator": "BONA RICCARDO"
            },
            "geometry": {
                "type": "Point",
                "coordinates": [
                    8.751386851072311,
                    44.431412155780265
                ]
            }
        },
        {
            "type": "Feature",
            "properties": {
                "name": "bruzzone giacomo esso",
                "id": "9847",
                "brand": "Esso",
                "amenity": "fuel",
                "operator": "BRUZZONE GIACOMO"
            },
            "geometry": {
                "type": "Point",
                "coordinates": [
                    8.637053668498993,
                    44.383714634644825
                ]
            }
        },
        {
            "type": "Feature",
            "properties": {
                "name": "dueaservice snc",
                "id": "12022",
                "brand": "Total Erg",
                "amenity": "fuel",
                "operator": "DUEASERVICE S.N.C. DI CASARINO A. E SCARSI A."
            },
            "geometry": {
                "type": "Point",
                "coordinates": [
                    8.747459274235553,
                    44.428647921843194
                ]
            }
        },
        {
            "type": "Feature",
            "properties": {
                "name": "TURCHINO EST",
                "id": "3718",
                "brand": "Shell",
                "amenity": "fuel",
                "operator": "TURCHINO S.A.S. DI LANZA BRUNO & C."
            },
            "geometry": {
                "type": "Point",
                "coordinates": [
                    8.745224635581964,
                    44.454261266814584
                ]
            }
        },
        {
            "type": "Feature",
            "properties": {
                "name": "STAZIONE DI SERVIZIO IP DI VALLARINO G.B.",
                "id": "18004",
                "brand": "Api-Ip",
                "amenity": "fuel",
                "operator": "VALLARINO GIOVANNI BATTISTA"
            },
            "geometry": {
                "type": "Point",
                "coordinates": [
                    8.680866211652756,
                    44.39658864186512
                ]
            }
        },
        {
            "type": "Feature",
            "properties": {
                "name": "Giusto Mariella  TOTALERG",
                "id": "21624",
                "brand": "Total Erg",
                "amenity": "fuel",
                "operator": "GIUSTO MARIELLA"
            },
            "geometry": {
                "type": "Point",
                "coordinates": [
                    8.648578450083733,
                    44.38974201131239
                ]
            }
        },
        {
            "type": "Feature",
            "properties": {
                "name": "TURCHINO OVEST",
                "id": "3820",
                "brand": "Total Erg",
                "amenity": "fuel",
                "operator": "EMMETRE DI MENSI LUCA E MENSI DAVIDE & C. S.A.S."
            },
            "geometry": {
                "type": "Point",
                "coordinates": [
                    8.744333982467651,
                    44.45510809976092
                ]
            }
        },
        {
            "type": "Feature",
            "properties": {
                "name": "Vigo Angelo & C. s.a.s.",
                "id": "23513",
                "brand": "Esso",
                "amenity": "fuel",
                "operator": "VIGO ANGELO & C. S.A.S"
            },
            "geometry": {
                "type": "Point",
                "coordinates": [
                    8.685464262962343,
                    44.40269729524146
                ]
            }
        },
        {
            "type": "Feature",
            "properties": {
                "name": "stazione di servizio eni 1005",
                "id": "8576",
                "brand": "Agip Eni",
                "amenity": "fuel",
                "operator": "LANFRANCONI EDOARDO"
            },
            "geometry": {
                "type": "Point",
                "coordinates": [
                    8.679231405258179,
                    44.40096609440245
                ]
            }
        },
        {
            "type": "Feature",
            "properties": {
                "name": "ENI 01082",
                "id": "7348",
                "brand": "Agip Eni",
                "amenity": "fuel",
                "operator": "GIOVINAZZO CLAUDIO"
            },
            "geometry": {
                "type": "Point",
                "coordinates": [
                    8.777647018432617,
                    44.42734728850536
                ]
            }
        },
        {
            "type": "Feature",
            "properties": {
                "name": "voltri1118",
                "id": "15440",
                "brand": "Agip Eni",
                "amenity": "fuel",
                "operator": "VOLTRI 1118 S.A.S. DI BRUNO  LANZA & C."
            },
            "geometry": {
                "type": "Point",
                "coordinates": [
                    8.758706476512884,
                    44.4287144447652
                ]
            }
        }
    ]
}