{
    "type": "FeatureCollection",
    "features": [
        {
            "type": "Feature",
            "properties": {
                "name": "PV 11482 ENI",
                "id": "27276",
                "brand": "Agip Eni",
                "amenity": "fuel",
                "operator": "B+B DI BONALDO GIANCARLO E C. S.A.S."
            },
            "geometry": {
                "type": "Point",
                "coordinates": [
                    8.63601985515595,
                    44.909077560352934
                ]
            }
        },
        {
            "type": "Feature",
            "properties": {
                "name": "ALESSANDRIA",
                "id": "5767",
                "brand": "Total Erg",
                "amenity": "fuel",
                "operator": "TotalErg SpA"
            },
            "geometry": {
                "type": "Point",
                "coordinates": [
                    8.614796915344186,
                    44.88665040571322
                ]
            }
        },
        {
            "type": "Feature",
            "properties": {
                "name": "R&C DI FRONTINO NUNZIO",
                "id": "29129",
                "brand": "Esso",
                "amenity": "fuel",
                "operator": "R&C DI FRONTINO NUNZIO"
            },
            "geometry": {
                "type": "Point",
                "coordinates": [
                    8.649230897426605,
                    44.90359629631582
                ]
            }
        },
        {
            "type": "Feature",
            "properties": {
                "name": "distributore tamoil 2232",
                "id": "31091",
                "brand": "Tamoil",
                "amenity": "fuel",
                "operator": "SPINNATO ALESSANDRO"
            },
            "geometry": {
                "type": "Point",
                "coordinates": [
                    8.688926418771416,
                    44.906994136539744
                ]
            }
        },
        {
            "type": "Feature",
            "properties": {
                "name": "impianto 51014",
                "id": "10587",
                "brand": "Agip Eni",
                "amenity": "fuel",
                "operator": "QUINTO CABELLA DI MASSIMO E SERGIO CABELLA - S.N.C."
            },
            "geometry": {
                "type": "Point",
                "coordinates": [
                    8.628135323524475,
                    44.91049176464411
                ]
            }
        },
        {
            "type": "Feature",
            "properties": {
                "name": "STAZIONE ENI",
                "id": "10739",
                "brand": "Agip Eni",
                "amenity": "fuel",
                "operator": "AL. BE. DI COSTA ALESSANDRO E C. S.N.C."
            },
            "geometry": {
                "type": "Point",
                "coordinates": [
                    8.618476700794531,
                    44.90748551782488
                ]
            }
        },
        {
            "type": "Feature",
            "properties": {
                "name": "IP",
                "id": "25683",
                "brand": "Api-Ip",
                "amenity": "fuel",
                "operator": "MALFATTO MAURIZIO"
            },
            "geometry": {
                "type": "Point",
                "coordinates": [
                    8.625545285301087,
                    44.91015310106215
                ]
            }
        },
        {
            "type": "Feature",
            "properties": {
                "name": "tamoil 6005",
                "id": "31478",
                "brand": "Tamoil",
                "amenity": "fuel",
                "operator": "SPINNATO ALESSANDRO"
            },
            "geometry": {
                "type": "Point",
                "coordinates": [
                    8.699665983667046,
                    44.91853925849381
                ]
            }
        },
        {
            "type": "Feature",
            "properties": {
                "name": "ies",
                "id": "29713",
                "brand": "Ies",
                "amenity": "fuel",
                "operator": "LEO GAS DI LEON CALDERON CARLOS ARMANDO"
            },
            "geometry": {
                "type": "Point",
                "coordinates": [
                    8.641272783279419,
                    44.90703041942422
                ]
            }
        },
        {
            "type": "Feature",
            "properties": {
                "name": "ALESSANDRIA - FZ.SPINETTA MARENGO SS. 10",
                "id": "30831",
                "brand": "Q8",
                "amenity": "fuel",
                "operator": "SERVIZI & GESTIONI ITALIA S.R.L."
            },
            "geometry": {
                "type": "Point",
                "coordinates": [
                    8.672091364860535,
                    44.8938111309523
                ]
            }
        },
        {
            "type": "Feature",
            "properties": {
                "name": "IP",
                "id": "10209",
                "brand": "Api-Ip",
                "amenity": "fuel",
                "operator": "CARUGIA & ODDINO E C. S.N.C. DI CARUGIA MAURIZIO"
            },
            "geometry": {
                "type": "Point",
                "coordinates": [
                    8.625420928001404,
                    44.93263457006159
                ]
            }
        },
        {
            "type": "Feature",
            "properties": {
                "name": "ESSO",
                "id": "31460",
                "brand": "Esso",
                "amenity": "fuel",
                "operator": "ESSEGIESSE SERVICE S.R.L."
            },
            "geometry": {
                "type": "Point",
                "coordinates": [
                    8.641318380832672,
                    44.907078518120436
                ]
            }
        },
        {
            "type": "Feature",
            "properties": {
                "name": "ALESSANDRIA - CC PANORAMA",
                "id": "7292",
                "brand": "Q8",
                "amenity": "fuel",
                "operator": "SERVIZI & GESTIONI ITALIA S.R.L."
            },
            "geometry": {
                "type": "Point",
                "coordinates": [
                    8.630873858928679,
                    44.90220486835905
                ]
            }
        },
        {
            "type": "Feature",
            "properties": {
                "name": "PASTORE BRUNA",
                "id": "14737",
                "brand": "Agip Eni",
                "amenity": "fuel",
                "operator": "PASTORE BRUNA"
            },
            "geometry": {
                "type": "Point",
                "coordinates": [
                    8.666316568851471,
                    44.89613265064867
                ]
            }
        },
        {
            "type": "Feature",
            "properties": {
                "name": "Eni di Mazzoleni Federico 1410",
                "id": "6878",
                "brand": "Agip Eni",
                "amenity": "fuel",
                "operator": "MAZZOLENI FEDERICO"
            },
            "geometry": {
                "type": "Point",
                "coordinates": [
                    8.631437122821808,
                    44.90949182294023
                ]
            }
        },
        {
            "type": "Feature",
            "properties": {
                "name": "keropetrol spinetta m.",
                "id": "8088",
                "amenity": "fuel",
                "operator": "P. & P. S.R.L."
            },
            "geometry": {
                "type": "Point",
                "coordinates": [
                    8.68743360042572,
                    44.889631095081505
                ]
            }
        },
        {
            "type": "Feature",
            "properties": {
                "name": "VALFUEL snc",
                "id": "5762",
                "brand": "Total Erg",
                "amenity": "fuel",
                "operator": "VALFUEL S.N.C. DI TIMPANARO CRISTIAN E RUSSO PAOLO GIUSEPPE"
            },
            "geometry": {
                "type": "Point",
                "coordinates": [
                    8.624820113182068,
                    44.93864445373909
                ]
            }
        },
        {
            "type": "Feature",
            "properties": {
                "name": "IP CASCINAGROSSA",
                "id": "29196",
                "brand": "Api-Ip",
                "amenity": "fuel",
                "operator": "SPERIFERO ADRIANO"
            },
            "geometry": {
                "type": "Point",
                "coordinates": [
                    8.713609278202057,
                    44.88479853573568
                ]
            }
        },
        {
            "type": "Feature",
            "properties": {
                "name": "UNION PETROLI SRL",
                "id": "18379",
                "amenity": "fuel",
                "operator": "UNION PETROLI S.R.L"
            },
            "geometry": {
                "type": "Point",
                "coordinates": [
                    8.615428358316422,
                    44.88635457672275
                ]
            }
        },
        {
            "type": "Feature",
            "properties": {
                "name": "ESSO NEW PETROL SNC",
                "id": "15622",
                "brand": "Esso",
                "amenity": "fuel",
                "operator": "NEW PETROL S.N.C. DI PACE LUIGI E SCIOMMARELLO SALVATORE"
            },
            "geometry": {
                "type": "Point",
                "coordinates": [
                    8.63291489603614,
                    44.90916611966228
                ]
            }
        }
    ]
}