{
    "type": "FeatureCollection",
    "features": [
        {
            "type": "Feature",
            "properties": {
                "name": "TOTALERG",
                "id": "6197",
                "brand": "Total Erg",
                "amenity": "fuel",
                "operator": "S. & S. SNC DI SANFELICI CLAUDIO E JAMES"
            },
            "geometry": {
                "type": "Point",
                "coordinates": [
                    8.69967520236969,
                    45.8385738843603
                ]
            }
        },
        {
            "type": "Feature",
            "properties": {
                "name": "CAVASSI LUCIANO",
                "id": "10815",
                "brand": "Total Erg",
                "amenity": "fuel",
                "operator": "CAVASSI LUCIANO"
            },
            "geometry": {
                "type": "Point",
                "coordinates": [
                    8.73167395591736,
                    45.834666778866215
                ]
            }
        },
        {
            "type": "Feature",
            "properties": {
                "name": "sommese petroli",
                "id": "16704",
                "amenity": "fuel",
                "operator": "STAZIONE DI SERVIZIO FINA - OFFICINA MECCANICA DI CATURANO FRANC ESCO"
            },
            "geometry": {
                "type": "Point",
                "coordinates": [
                    8.737414957008355,
                    45.84170169974966
                ]
            }
        },
        {
            "type": "Feature",
            "properties": {
                "name": "BESOZZO-VIA RONCARI 65",
                "id": "11918",
                "brand": "Q8",
                "amenity": "fuel",
                "operator": "SERVIZI & GESTIONI ITALIA S.R.L."
            },
            "geometry": {
                "type": "Point",
                "coordinates": [
                    8.670674093254094,
                    45.843878578372134
                ]
            }
        },
        {
            "type": "Feature",
            "properties": {
                "name": "BREBBIA-STRADA PROVINCIALE 59",
                "id": "11924",
                "brand": "Q8",
                "amenity": "fuel",
                "operator": "SERVIZI & GESTIONI ITALIA S.R.L."
            },
            "geometry": {
                "type": "Point",
                "coordinates": [
                    8.628605364418036,
                    45.839450452711134
                ]
            }
        },
        {
            "type": "Feature",
            "properties": {
                "name": "06482",
                "id": "31137",
                "brand": "Total Erg",
                "amenity": "fuel",
                "operator": "GIACOMETTI GIAN LUCA"
            },
            "geometry": {
                "type": "Point",
                "coordinates": [
                    8.649721076057402,
                    45.875089038052835
                ]
            }
        },
        {
            "type": "Feature",
            "properties": {
                "name": "Q8",
                "id": "7149",
                "brand": "Q8",
                "amenity": "fuel",
                "operator": "GUGGIROLI DOMENICO"
            },
            "geometry": {
                "type": "Point",
                "coordinates": [
                    8.634202480316162,
                    45.89108498736946
                ]
            }
        },
        {
            "type": "Feature",
            "properties": {
                "name": "Impianto Retitalia Gemonio",
                "id": "31607",
                "brand": "Retitalia",
                "amenity": "fuel",
                "operator": "PROGETTO E SVILUPPO S.R.L."
            },
            "geometry": {
                "type": "Point",
                "coordinates": [
                    8.671992637417816,
                    45.88065505631293
                ]
            }
        },
        {
            "type": "Feature",
            "properties": {
                "name": "distributore esso di maran luigi",
                "id": "15529",
                "brand": "Esso",
                "amenity": "fuel",
                "operator": "AUTOSALONE INTERNAZIONALE DI MARAN LUIGI"
            },
            "geometry": {
                "type": "Point",
                "coordinates": [
                    8.731619641184807,
                    45.90414995296124
                ]
            }
        },
        {
            "type": "Feature",
            "properties": {
                "name": "BESOZZO SUPERIORE STR.PROV.VERGIATE/LUINO",
                "id": "22847",
                "brand": "Q8",
                "amenity": "fuel",
                "operator": "SERVIZI & GESTIONI ITALIA S.R.L."
            },
            "geometry": {
                "type": "Point",
                "coordinates": [
                    8.670587686508156,
                    45.85984725164984
                ]
            }
        },
        {
            "type": "Feature",
            "properties": {
                "name": "TAM SERVICE",
                "id": "30784",
                "brand": "Tam service",
                "amenity": "fuel",
                "operator": "CROSTA MARIA ANTONIA"
            },
            "geometry": {
                "type": "Point",
                "coordinates": [
                    8.721613101852427,
                    45.84104084010074
                ]
            }
        },
        {
            "type": "Feature",
            "properties": {
                "name": "mezzanotte",
                "id": "14100",
                "brand": "Q8",
                "amenity": "fuel",
                "operator": "MEZZANOTTE GUIDO"
            },
            "geometry": {
                "type": "Point",
                "coordinates": [
                    8.623205295700814,
                    45.908161290371055
                ]
            }
        },
        {
            "type": "Feature",
            "properties": {
                "name": "STAZIONE ESSO",
                "id": "12844",
                "brand": "Esso",
                "amenity": "fuel",
                "operator": "F.LLI CARMINATI SAS DI CARMINATI MARCO E MAURO"
            },
            "geometry": {
                "type": "Point",
                "coordinates": [
                    8.62151215707786,
                    45.90905365169379
                ]
            }
        },
        {
            "type": "Feature",
            "properties": {
                "name": "TotalErg di Mazzucchelli Giancarlo",
                "id": "28294",
                "brand": "Total Erg",
                "amenity": "fuel",
                "operator": "MAZZUCCHELLI GIANCARLO"
            },
            "geometry": {
                "type": "Point",
                "coordinates": [
                    8.6698197067459,
                    45.892613855578034
                ]
            }
        },
        {
            "type": "Feature",
            "properties": {
                "name": "Q8",
                "id": "7939",
                "brand": "Q8",
                "amenity": "fuel",
                "operator": "B. & B. SNC DI BELLOTTI SIMONE E ALESSANDRO"
            },
            "geometry": {
                "type": "Point",
                "coordinates": [
                    8.723390784130856,
                    45.90627334870608
                ]
            }
        },
        {
            "type": "Feature",
            "properties": {
                "name": "PV3581 di Bardelli Maria",
                "id": "9805",
                "brand": "Q8",
                "amenity": "fuel",
                "operator": "BARDELLI MARIA"
            },
            "geometry": {
                "type": "Point",
                "coordinates": [
                    8.65241602063179,
                    45.83084462139552
                ]
            }
        },
        {
            "type": "Feature",
            "properties": {
                "name": "CITTIGLIO-VIA PROVINCIALE 34",
                "id": "11926",
                "brand": "Q8",
                "amenity": "fuel",
                "operator": "SERVIZI & GESTIONI ITALIA S.R.L."
            },
            "geometry": {
                "type": "Point",
                "coordinates": [
                    8.669715233135207,
                    45.893385264308144
                ]
            }
        },
        {
            "type": "Feature",
            "properties": {
                "name": "TAMOIL",
                "id": "24793",
                "brand": "Tamoil",
                "amenity": "fuel",
                "operator": "CASSANI S.A.S. DI FARANO MARICA & C."
            },
            "geometry": {
                "type": "Point",
                "coordinates": [
                    8.703123465836143,
                    45.852703019461664
                ]
            }
        },
        {
            "type": "Feature",
            "properties": {
                "name": "Stop and Go di Claudio Piccinelli",
                "id": "9138",
                "amenity": "fuel",
                "operator": "STOP AND GO DI PICCINELLI CLAUDIO"
            },
            "geometry": {
                "type": "Point",
                "coordinates": [
                    8.788100797679702,
                    45.88972406012172
                ]
            }
        },
        {
            "type": "Feature",
            "properties": {
                "name": "FRS",
                "id": "6803",
                "brand": "Total Erg",
                "amenity": "fuel",
                "operator": "FRS S.A.S. DI FERRARO FABIO & C."
            },
            "geometry": {
                "type": "Point",
                "coordinates": [
                    8.761451840400696,
                    45.840039632101885
                ]
            }
        }
    ]
}