{
    "type": "FeatureCollection",
    "features": [
        {
            "type": "Feature",
            "properties": {
                "name": "PV 2900",
                "id": "25031",
                "brand": "Agip Eni",
                "amenity": "fuel",
                "operator": "GESTIONI INNOVATIVE ITALIA S.R.L."
            },
            "geometry": {
                "type": "Point",
                "coordinates": [
                    8.679628372192383,
                    45.73636681885463
                ]
            }
        },
        {
            "type": "Feature",
            "properties": {
                "name": "rodiliauto",
                "id": "17091",
                "brand": "Api-Ip",
                "amenity": "fuel",
                "operator": "RODILI AUTO S.N.C. DI RODILI MARCO & EMANUELE"
            },
            "geometry": {
                "type": "Point",
                "coordinates": [
                    8.743231038345357,
                    45.82517157741122
                ]
            }
        },
        {
            "type": "Feature",
            "properties": {
                "name": "Q8",
                "id": "16459",
                "brand": "Q8",
                "amenity": "fuel",
                "operator": "DE ROMERI ALBINO"
            },
            "geometry": {
                "type": "Point",
                "coordinates": [
                    8.679239451885223,
                    45.77803118576185
                ]
            }
        },
        {
            "type": "Feature",
            "properties": {
                "name": "TOTALERG",
                "id": "14690",
                "brand": "Total Erg",
                "amenity": "fuel",
                "operator": "SEMERARO LIVIANO"
            },
            "geometry": {
                "type": "Point",
                "coordinates": [
                    8.69852242460638,
                    45.785500907588876
                ]
            }
        },
        {
            "type": "Feature",
            "properties": {
                "name": "CROSIO",
                "id": "13857",
                "brand": "Agip Eni",
                "amenity": "fuel",
                "operator": "ALESSANDRO GALLIVANONE"
            },
            "geometry": {
                "type": "Point",
                "coordinates": [
                    8.766430333590733,
                    45.762417362509005
                ]
            }
        },
        {
            "type": "Feature",
            "properties": {
                "name": "Tamoil",
                "id": "13446",
                "brand": "Tamoil",
                "amenity": "fuel",
                "operator": "SARTI RENZA"
            },
            "geometry": {
                "type": "Point",
                "coordinates": [
                    8.637180891332264,
                    45.719338054557134
                ]
            }
        },
        {
            "type": "Feature",
            "properties": {
                "name": "occhio al prezzo",
                "id": "30791",
                "amenity": "fuel",
                "operator": "NUOVA COMA S.R.L."
            },
            "geometry": {
                "type": "Point",
                "coordinates": [
                    8.679724931716919,
                    45.78196546045858
                ]
            }
        },
        {
            "type": "Feature",
            "properties": {
                "name": "staz serv TOTAL ERG",
                "id": "28170",
                "brand": "Total Erg",
                "amenity": "fuel",
                "operator": "AUTO 3 S.A.S. DI TANTARDINI GIOVANNI & C."
            },
            "geometry": {
                "type": "Point",
                "coordinates": [
                    8.639075101852427,
                    45.71413770063716
                ]
            }
        },
        {
            "type": "Feature",
            "properties": {
                "name": "Pavan Sergio-Impianto api",
                "id": "7313",
                "brand": "Api-Ip",
                "amenity": "fuel",
                "operator": "PAVAN SERGIO"
            },
            "geometry": {
                "type": "Point",
                "coordinates": [
                    8.634811576721177,
                    45.72578493837854
                ]
            }
        },
        {
            "type": "Feature",
            "properties": {
                "name": "Cairo s.n.c.",
                "id": "4382",
                "amenity": "fuel",
                "operator": "CAIRO S.N.C. DI CAIRO ENRICO E STEFANO"
            },
            "geometry": {
                "type": "Point",
                "coordinates": [
                    8.645334110450676,
                    45.7988936596439
                ]
            }
        },
        {
            "type": "Feature",
            "properties": {
                "name": "totalerg",
                "id": "8354",
                "brand": "Total Erg",
                "amenity": "fuel",
                "operator": "FANTONI ANTONIO"
            },
            "geometry": {
                "type": "Point",
                "coordinates": [
                    8.769640624523163,
                    45.76554487185712
                ]
            }
        },
        {
            "type": "Feature",
            "properties": {
                "name": "STAZIONE DI SERVIZIO IP",
                "id": "12159",
                "brand": "Api-Ip",
                "amenity": "fuel",
                "operator": "CORTI GIOELE"
            },
            "geometry": {
                "type": "Point",
                "coordinates": [
                    8.75347651104505,
                    45.790718867136135
                ]
            }
        },
        {
            "type": "Feature",
            "properties": {
                "name": "antonio soldi",
                "id": "13950",
                "brand": "Total Erg",
                "amenity": "fuel",
                "operator": "ANTONIO SOLDI"
            },
            "geometry": {
                "type": "Point",
                "coordinates": [
                    8.646971136331556,
                    45.724164786046096
                ]
            }
        },
        {
            "type": "Feature",
            "properties": {
                "name": "Il Distributore di Travedona di Alessandro serri",
                "id": "31018",
                "brand": "Total Erg",
                "amenity": "fuel",
                "operator": "IL DISTRIBUTORE DI TRAVEDONA DI SERRI ALESSANDRO"
            },
            "geometry": {
                "type": "Point",
                "coordinates": [
                    8.676310338623011,
                    45.80375053235457
                ]
            }
        },
        {
            "type": "Feature",
            "properties": {
                "name": "MARINA DI VERBELLA SRL",
                "id": "6142",
                "amenity": "fuel",
                "operator": "MARINA DI VERBELLA S.R.L."
            },
            "geometry": {
                "type": "Point",
                "coordinates": [
                    8.614729642868042,
                    45.7285859250927
                ]
            }
        },
        {
            "type": "Feature",
            "properties": {
                "name": "marreddu stefano",
                "id": "15477",
                "brand": "Total Erg",
                "amenity": "fuel",
                "operator": "MARREDDU STEFANO"
            },
            "geometry": {
                "type": "Point",
                "coordinates": [
                    8.747212027368164,
                    45.82079841397407
                ]
            }
        },
        {
            "type": "Feature",
            "properties": {
                "name": "BELLONI MASSIMILIANO",
                "id": "27987",
                "brand": "Esso",
                "amenity": "fuel",
                "operator": "BELLONI MASSIMILIANO"
            },
            "geometry": {
                "type": "Point",
                "coordinates": [
                    8.679735660552979,
                    45.7768691074403
                ]
            }
        },
        {
            "type": "Feature",
            "properties": {
                "name": "tamoil 4093",
                "id": "32166",
                "brand": "Tamoil",
                "amenity": "fuel",
                "operator": "CAMPEGGIO LA SFINGE DI FAVARON EDOARDO & C. S.N.C."
            },
            "geometry": {
                "type": "Point",
                "coordinates": [
                    8.619403722615061,
                    45.73021172025009
                ]
            }
        },
        {
            "type": "Feature",
            "properties": {
                "name": "CASTELLETTO TICINO STRADA CROCE PIETRA",
                "id": "6420",
                "brand": "Q8",
                "amenity": "fuel",
                "operator": "SERVIZI & GESTIONI ITALIA srl"
            },
            "geometry": {
                "type": "Point",
                "coordinates": [
                    8.642468963229362,
                    45.712931174934454
                ]
            }
        },
        {
            "type": "Feature",
            "properties": {
                "name": "IP TERNATE",
                "id": "31075",
                "brand": "Api-Ip",
                "amenity": "fuel",
                "operator": "FARINOLA VINCENZO"
            },
            "geometry": {
                "type": "Point",
                "coordinates": [
                    8.699254992625015,
                    45.78730132039668
                ]
            }
        },
        {
            "type": "Feature",
            "properties": {
                "name": "IP di F.LLI ZANCHIN",
                "id": "8521",
                "brand": "Api-Ip",
                "amenity": "fuel",
                "operator": "F.LLI ZANCHIN DI ZANCHIN VALENTINO E C. - S.N.C."
            },
            "geometry": {
                "type": "Point",
                "coordinates": [
                    8.643170404928242,
                    45.825231273348926
                ]
            }
        },
        {
            "type": "Feature",
            "properties": {
                "name": "retitalia",
                "id": "31792",
                "brand": "Retitalia",
                "amenity": "fuel",
                "operator": "BARONE PIETRO"
            },
            "geometry": {
                "type": "Point",
                "coordinates": [
                    8.660136088728905,
                    45.72257464828949
                ]
            }
        },
        {
            "type": "Feature",
            "properties": {
                "name": "Impianto Retitalia Cadrezzate",
                "id": "31608",
                "brand": "Retitalia",
                "amenity": "fuel",
                "operator": "PROGETTO E SVILUPPO S.R.L."
            },
            "geometry": {
                "type": "Point",
                "coordinates": [
                    8.629799066053808,
                    45.80270947489052
                ]
            }
        },
        {
            "type": "Feature",
            "properties": {
                "name": "TOTAL ERG",
                "id": "30388",
                "brand": "Total Erg",
                "amenity": "fuel",
                "operator": "ADRELIA S.A.S. DI BALSAMO ELIANA  &  C."
            },
            "geometry": {
                "type": "Point",
                "coordinates": [
                    8.747226744890213,
                    45.73922353522647
                ]
            }
        }
    ]
}