{
    "type": "FeatureCollection",
    "features": [
        {
            "type": "Feature",
            "properties": {
                "name": "FREMAR",
                "id": "15598",
                "amenity": "fuel",
                "operator": "AURELI ANDREA"
            },
            "geometry": {
                "type": "Point",
                "coordinates": [
                    8.92468973994255,
                    45.40379624236165
                ]
            }
        },
        {
            "type": "Feature",
            "properties": {
                "name": "Abbiategrasso",
                "id": "10085",
                "brand": "Total Erg",
                "amenity": "fuel",
                "operator": "GESTIONI EUROPA - SOCIETA' PER AZIONI"
            },
            "geometry": {
                "type": "Point",
                "coordinates": [
                    8.932433277368546,
                    45.40106949896993
                ]
            }
        },
        {
            "type": "Feature",
            "properties": {
                "name": "Q8",
                "id": "9214",
                "brand": "Q8",
                "amenity": "fuel",
                "operator": "INVERNIZZI ERNESTO"
            },
            "geometry": {
                "type": "Point",
                "coordinates": [
                    8.925864547491074,
                    45.404233141844244
                ]
            }
        },
        {
            "type": "Feature",
            "properties": {
                "name": "TAMOIL",
                "id": "14569",
                "brand": "Tamoil",
                "amenity": "fuel",
                "operator": "A.R.P.A. S.N.C. DI PRADA ADRIANO & C."
            },
            "geometry": {
                "type": "Point",
                "coordinates": [
                    8.931460000000015,
                    45.3997317665891
                ]
            }
        },
        {
            "type": "Feature",
            "properties": {
                "name": "CORNAREDO CARBURANTI - C.SO ITALIA 42, MAGENTA",
                "id": "23580",
                "brand": "Repsol",
                "amenity": "fuel",
                "operator": "CORNAREDO CARBURANTI S.R.L."
            },
            "geometry": {
                "type": "Point",
                "coordinates": [
                    8.869801759719849,
                    45.45807508532616
                ]
            }
        },
        {
            "type": "Feature",
            "properties": {
                "name": "masola anna",
                "id": "21242",
                "brand": "Esso",
                "amenity": "fuel",
                "operator": "MACO DI MASOLA ANNA"
            },
            "geometry": {
                "type": "Point",
                "coordinates": [
                    8.909426181614663,
                    45.40555271214818
                ]
            }
        },
        {
            "type": "Feature",
            "properties": {
                "name": "CASSOLNOVO - VIA CIRCONVALLAZIONE",
                "id": "7279",
                "brand": "Q8",
                "amenity": "fuel",
                "operator": "SERVIZI & GESTIONI ITALIA S.R.L."
            },
            "geometry": {
                "type": "Point",
                "coordinates": [
                    8.800284644180238,
                    45.36287700150673
                ]
            }
        },
        {
            "type": "Feature",
            "properties": {
                "name": "RETIALIA DI DE GIOVANNI DANIELE",
                "id": "10940",
                "brand": "Retitalia",
                "amenity": "fuel",
                "operator": "DE GIOVANNI DANIELE"
            },
            "geometry": {
                "type": "Point",
                "coordinates": [
                    8.931838529286551,
                    45.399651593373804
                ]
            }
        },
        {
            "type": "Feature",
            "properties": {
                "name": "ALBAIRATE - SP 114",
                "id": "27660",
                "brand": "Api-Ip",
                "amenity": "fuel",
                "operator": "IP SERVICES S.R.L."
            },
            "geometry": {
                "type": "Point",
                "coordinates": [
                    8.94288927116395,
                    45.41728493804189
                ]
            }
        },
        {
            "type": "Feature",
            "properties": {
                "name": "LOSA ADRIANO",
                "id": "10039",
                "brand": "Total Erg",
                "amenity": "fuel",
                "operator": "LOSA ADRIANO"
            },
            "geometry": {
                "type": "Point",
                "coordinates": [
                    8.88480395078659,
                    45.45951525612931
                ]
            }
        },
        {
            "type": "Feature",
            "properties": {
                "name": "_stazione ENI 53295 di Nastri Alfonso",
                "id": "7369",
                "brand": "Agip Eni",
                "amenity": "fuel",
                "operator": "NASTRI ALFONSO - STAZIONE AGIP"
            },
            "geometry": {
                "type": "Point",
                "coordinates": [
                    8.907726109027863,
                    45.41102762381953
                ]
            }
        },
        {
            "type": "Feature",
            "properties": {
                "name": "M.E.M. di Villa Massimo",
                "id": "15702",
                "brand": "Tamoil",
                "amenity": "fuel",
                "operator": "M.E.M. DI VILLA MASSIMO"
            },
            "geometry": {
                "type": "Point",
                "coordinates": [
                    8.873660922615045,
                    45.45836271175169
                ]
            }
        },
        {
            "type": "Feature",
            "properties": {
                "name": "ip",
                "id": "6105",
                "brand": "Api-Ip",
                "amenity": "fuel",
                "operator": "SI.VI.CAR. S.A.S. DI VITALI MARCO & C."
            },
            "geometry": {
                "type": "Point",
                "coordinates": [
                    8.931839240918405,
                    45.401519820516256
                ]
            }
        },
        {
            "type": "Feature",
            "properties": {
                "name": "FREMAR",
                "id": "15596",
                "amenity": "fuel",
                "operator": "AURELI ANDREA"
            },
            "geometry": {
                "type": "Point",
                "coordinates": [
                    8.924515396356584,
                    45.40417852959368
                ]
            }
        },
        {
            "type": "Feature",
            "properties": {
                "name": "tamoil",
                "id": "14604",
                "brand": "Tamoil",
                "amenity": "fuel",
                "operator": "CHIARELLO  &  MILANI S.N.C. DI CHIARELLO S.  &  MILANI E."
            },
            "geometry": {
                "type": "Point",
                "coordinates": [
                    8.90979140996933,
                    45.36252037863172
                ]
            }
        }
    ]
}