{
    "type": "FeatureCollection",
    "features": [
        {
            "type": "Feature",
            "properties": {
                "name": "VIGEVANO VIALE COMMERCIO",
                "id": "23012",
                "brand": "Q8",
                "amenity": "fuel",
                "operator": "SERVIZI & GESTIONI ITALIA S.R.L."
            },
            "geometry": {
                "type": "Point",
                "coordinates": [
                    8.862697233729591,
                    45.30126560219001
                ]
            }
        },
        {
            "type": "Feature",
            "properties": {
                "name": "STAZIONE DI SERVIZIO ESSO DI VETTORELLO ROBERTA",
                "id": "7576",
                "brand": "Esso",
                "amenity": "fuel",
                "operator": "STAZIONE DI SERVIZIO ESSO DI ROBERTA VETTORELLO"
            },
            "geometry": {
                "type": "Point",
                "coordinates": [
                    8.880721167459114,
                    45.31687244202263
                ]
            }
        },
        {
            "type": "Feature",
            "properties": {
                "name": "VIGEVANO-VIALE DEI MILLE 96",
                "id": "11787",
                "brand": "Q8",
                "amenity": "fuel",
                "operator": "SERVIZI & GESTIONI ITALIA S.R.L."
            },
            "geometry": {
                "type": "Point",
                "coordinates": [
                    8.845671253967339,
                    45.319767895814806
                ]
            }
        },
        {
            "type": "Feature",
            "properties": {
                "name": "Area Servizio Cervio",
                "id": "13943",
                "brand": "Total Erg",
                "amenity": "fuel",
                "operator": "CERVIO PIERO"
            },
            "geometry": {
                "type": "Point",
                "coordinates": [
                    8.863557502627373,
                    45.315634723028595
                ]
            }
        },
        {
            "type": "Feature",
            "properties": {
                "name": "tamoil",
                "id": "14096",
                "brand": "Tamoil",
                "amenity": "fuel",
                "operator": "DI PALMA CARLO"
            },
            "geometry": {
                "type": "Point",
                "coordinates": [
                    8.874431848526001,
                    45.30655265033599
                ]
            }
        },
        {
            "type": "Feature",
            "properties": {
                "name": "PARONA-PARCHEGGIO IPERBENNET",
                "id": "11792",
                "brand": "Q8",
                "amenity": "fuel",
                "operator": "SERVIZI & GESTIONI ITALIA S.R.L."
            },
            "geometry": {
                "type": "Point",
                "coordinates": [
                    8.79194587469101,
                    45.28009717214484
                ]
            }
        },
        {
            "type": "Feature",
            "properties": {
                "name": "occhio al prezzo",
                "id": "11280",
                "amenity": "fuel",
                "operator": "G.B. CARBURANTI DI BALSAMO GIOVANNI"
            },
            "geometry": {
                "type": "Point",
                "coordinates": [
                    8.852679969015073,
                    45.31103636225846
                ]
            }
        },
        {
            "type": "Feature",
            "properties": {
                "name": "AF PETROL",
                "id": "4594",
                "amenity": "fuel",
                "operator": "AF PETROL S.R.L."
            },
            "geometry": {
                "type": "Point",
                "coordinates": [
                    8.880740404129028,
                    45.31651252171024
                ]
            }
        },
        {
            "type": "Feature",
            "properties": {
                "name": "Tamoil",
                "id": "10851",
                "brand": "Tamoil",
                "amenity": "fuel",
                "operator": "MAGGI STEFANO"
            },
            "geometry": {
                "type": "Point",
                "coordinates": [
                    8.828567415475845,
                    45.32229520422839
                ]
            }
        },
        {
            "type": "Feature",
            "properties": {
                "name": "eni",
                "id": "8845",
                "brand": "Agip Eni",
                "amenity": "fuel",
                "operator": "LEPRE MICHELE"
            },
            "geometry": {
                "type": "Point",
                "coordinates": [
                    8.85284274816513,
                    45.30521968075537
                ]
            }
        },
        {
            "type": "Feature",
            "properties": {
                "name": "VIGEVANO",
                "id": "17691",
                "brand": "Api-Ip",
                "amenity": "fuel",
                "operator": "IP SERVICES S.R.L."
            },
            "geometry": {
                "type": "Point",
                "coordinates": [
                    8.874883906745936,
                    45.324747196841265
                ]
            }
        },
        {
            "type": "Feature",
            "properties": {
                "name": "ESSO GALLOTTA UMBERTO",
                "id": "7928",
                "brand": "Esso",
                "amenity": "fuel",
                "operator": "GALLOTTA UMBERTO"
            },
            "geometry": {
                "type": "Point",
                "coordinates": [
                    8.857135855575166,
                    45.32039798294233
                ]
            }
        },
        {
            "type": "Feature",
            "properties": {
                "name": "VIGEVANO CORSO ARGENTINA N. 121",
                "id": "6456",
                "brand": "Q8",
                "amenity": "fuel",
                "operator": "SERVIZI & GESTIONI ITALIA srl"
            },
            "geometry": {
                "type": "Point",
                "coordinates": [
                    8.87262338161463,
                    45.32188338159549
                ]
            }
        },
        {
            "type": "Feature",
            "properties": {
                "name": "C.SO GENOVA VIGE",
                "id": "12179",
                "brand": "Esso",
                "amenity": "fuel",
                "operator": "SERVIZI E GESTIONI ZENIT S.R.L. IN SIGLA - ZENIT S.R.L."
            },
            "geometry": {
                "type": "Point",
                "coordinates": [
                    8.853416740894316,
                    45.29269359295208
                ]
            }
        },
        {
            "type": "Feature",
            "properties": {
                "name": "tamoil",
                "id": "14085",
                "brand": "Tamoil",
                "amenity": "fuel",
                "operator": "DI PALMA CARLO"
            },
            "geometry": {
                "type": "Point",
                "coordinates": [
                    8.905253112316132,
                    45.24820620068688
                ]
            }
        },
        {
            "type": "Feature",
            "properties": {
                "name": "Q8",
                "id": "10904",
                "brand": "Q8",
                "amenity": "fuel",
                "operator": "LAGANA' GRAZIELLA"
            },
            "geometry": {
                "type": "Point",
                "coordinates": [
                    8.869045972824097,
                    45.25623953206267
                ]
            }
        },
        {
            "type": "Feature",
            "properties": {
                "name": "TotalErg",
                "id": "18564",
                "brand": "Total Erg",
                "amenity": "fuel",
                "operator": "VECCHIA DITTA SNC DI BERTOLOTTO S. E C."
            },
            "geometry": {
                "type": "Point",
                "coordinates": [
                    8.844518923803662,
                    45.310616239892504
                ]
            }
        },
        {
            "type": "Feature",
            "properties": {
                "name": "ESSO",
                "id": "8412",
                "brand": "Esso",
                "amenity": "fuel",
                "operator": "ARESI LUCIANO E SIRONI FABIO & C. S.N.C."
            },
            "geometry": {
                "type": "Point",
                "coordinates": [
                    8.836934566497803,
                    45.33194590170624
                ]
            }
        },
        {
            "type": "Feature",
            "properties": {
                "name": "Vigevano",
                "id": "10092",
                "brand": "Total Erg",
                "amenity": "fuel",
                "operator": "GESTIONI EUROPA - SOCIETA' PER AZIONI"
            },
            "geometry": {
                "type": "Point",
                "coordinates": [
                    8.836545646190643,
                    45.327049194250726
                ]
            }
        },
        {
            "type": "Feature",
            "properties": {
                "name": "F.LLI ZERBI DI ZERBI DAVIDE E ZERBI CESARE S.N.C.",
                "id": "22393",
                "brand": "Tamoil",
                "amenity": "fuel",
                "operator": "F.LLI ZERBI DI ZERBI DAVIDE E ZERBI CESARE S.N.C."
            },
            "geometry": {
                "type": "Point",
                "coordinates": [
                    8.854922904068303,
                    45.262081402828784
                ]
            }
        },
        {
            "type": "Feature",
            "properties": {
                "name": "Kerotris - Vigevano",
                "id": "13744",
                "amenity": "fuel",
                "operator": "K NET S.R.L."
            },
            "geometry": {
                "type": "Point",
                "coordinates": [
                    8.853288166754737,
                    45.29724750213947
                ]
            }
        },
        {
            "type": "Feature",
            "properties": {
                "name": "IOVANE MICHELE",
                "id": "17443",
                "brand": "Agip Eni",
                "amenity": "fuel",
                "operator": "IOVANE MICHELE"
            },
            "geometry": {
                "type": "Point",
                "coordinates": [
                    8.87557973743435,
                    45.32584332033427
                ]
            }
        },
        {
            "type": "Feature",
            "properties": {
                "name": "VIGEVANO-CORSO MILANO 77",
                "id": "11789",
                "brand": "Q8",
                "amenity": "fuel",
                "operator": "SERVIZI & GESTIONI ITALIA S.R.L."
            },
            "geometry": {
                "type": "Point",
                "coordinates": [
                    8.876164780426052,
                    45.32581120915995
                ]
            }
        },
        {
            "type": "Feature",
            "properties": {
                "name": "IP Viale Commercio",
                "id": "17531",
                "brand": "Api-Ip",
                "amenity": "fuel",
                "operator": "M.P.M. PETROLI - SOCIETA' A RESPONSABILITA' LIMITATA ED IN FORMA ABBREVIATA \"M.P.M. PETROLI S.R.L.\""
            },
            "geometry": {
                "type": "Point",
                "coordinates": [
                    8.870575695275875,
                    45.303456037330434
                ]
            }
        },
        {
            "type": "Feature",
            "properties": {
                "name": "_eni",
                "id": "8010",
                "brand": "Agip Eni",
                "amenity": "fuel",
                "operator": "LEPRE ENRICO"
            },
            "geometry": {
                "type": "Point",
                "coordinates": [
                    8.879756033420563,
                    45.33303840103128
                ]
            }
        },
        {
            "type": "Feature",
            "properties": {
                "name": "GAROIL",
                "id": "27999",
                "amenity": "fuel",
                "operator": "ANGELILLO DOMENICO"
            },
            "geometry": {
                "type": "Point",
                "coordinates": [
                    8.871915323348276,
                    45.32057002805478
                ]
            }
        }
    ]
}