{
    "type": "FeatureCollection",
    "features": [
        {
            "type": "Feature",
            "properties": {
                "name": "NOVI LIGURE SS 35 BIS KM. 6+342 STAZ. Q8",
                "id": "6406",
                "brand": "Q8",
                "amenity": "fuel",
                "operator": "SERVIZI & GESTIONI ITALIA srl"
            },
            "geometry": {
                "type": "Point",
                "coordinates": [
                    8.803740995770227,
                    44.76899914598796
                ]
            }
        },
        {
            "type": "Feature",
            "properties": {
                "name": "ENI",
                "id": "10406",
                "brand": "Agip Eni",
                "amenity": "fuel",
                "operator": "BLU DI MANNO CONCETTA & C. S.A.S."
            },
            "geometry": {
                "type": "Point",
                "coordinates": [
                    8.837599754333496,
                    44.732031835439734
                ]
            }
        },
        {
            "type": "Feature",
            "properties": {
                "name": "AUTOFFICINA TRAVERSO ANDREA METANO",
                "id": "19450",
                "amenity": "fuel",
                "operator": "TRAVERSO ANDREA"
            },
            "geometry": {
                "type": "Point",
                "coordinates": [
                    8.813390135765076,
                    44.76702526257472
                ]
            }
        },
        {
            "type": "Feature",
            "properties": {
                "name": "BETTOLE DI NOVI LIGURE OVEST",
                "id": "3879",
                "brand": "Total Erg",
                "amenity": "fuel",
                "operator": "TOTALERG S.P.A."
            },
            "geometry": {
                "type": "Point",
                "coordinates": [
                    8.8371120846557,
                    44.76012199999999
                ]
            }
        },
        {
            "type": "Feature",
            "properties": {
                "name": "4332",
                "id": "30770",
                "brand": "Tamoil",
                "amenity": "fuel",
                "operator": "T.D.M. S.R.L."
            },
            "geometry": {
                "type": "Point",
                "coordinates": [
                    8.789794743061067,
                    44.77576623433885
                ]
            }
        },
        {
            "type": "Feature",
            "properties": {
                "name": "Retitalia",
                "id": "32081",
                "brand": "Retitalia",
                "amenity": "fuel",
                "operator": "ESSEGIESSE SERVICE S.R.L."
            },
            "geometry": {
                "type": "Point",
                "coordinates": [
                    8.789126873016357,
                    44.7841534641018
                ]
            }
        },
        {
            "type": "Feature",
            "properties": {
                "name": "BETTOLE DI NOVI LIGURE EST",
                "id": "3877",
                "brand": "Total Erg",
                "amenity": "fuel",
                "operator": "TOTALERG S.P.A."
            },
            "geometry": {
                "type": "Point",
                "coordinates": [
                    8.83840982209017,
                    44.7609768990991
                ]
            }
        },
        {
            "type": "Feature",
            "properties": {
                "name": "SERRAVALLE SCRIVIA VIA MARTIRI DELLA BENEDICTA",
                "id": "8341",
                "brand": "Q8",
                "amenity": "fuel",
                "operator": "SERVIZI & GESTIONI ITALIA S.R.L."
            },
            "geometry": {
                "type": "Point",
                "coordinates": [
                    8.854205300663807,
                    44.727302135823535
                ]
            }
        },
        {
            "type": "Feature",
            "properties": {
                "name": "retitalia",
                "id": "24569",
                "brand": "Retitalia",
                "amenity": "fuel",
                "operator": "TODAUTO DI TODARELLO DARIO"
            },
            "geometry": {
                "type": "Point",
                "coordinates": [
                    8.78917582333088,
                    44.7841171027091
                ]
            }
        },
        {
            "type": "Feature",
            "properties": {
                "name": "keropetrol",
                "id": "8085",
                "amenity": "fuel",
                "operator": "P. & P. S.R.L."
            },
            "geometry": {
                "type": "Point",
                "coordinates": [
                    8.811689615249634,
                    44.74759428175508
                ]
            }
        },
        {
            "type": "Feature",
            "properties": {
                "name": "SERRAVALLE SCRIVIA - SS35 BIS.",
                "id": "7300",
                "brand": "Q8",
                "amenity": "fuel",
                "operator": "SERVIZI & GESTIONI ITALIA S.R.L."
            },
            "geometry": {
                "type": "Point",
                "coordinates": [
                    8.83349597454071,
                    44.73516279878055
                ]
            }
        },
        {
            "type": "Feature",
            "properties": {
                "name": "FER.CARB",
                "id": "25575",
                "amenity": "fuel",
                "operator": "FER.CARB DI FERRARAZZO GIULIANO & C. S.N.C."
            },
            "geometry": {
                "type": "Point",
                "coordinates": [
                    8.934480282096729,
                    44.728349781577045
                ]
            }
        },
        {
            "type": "Feature",
            "properties": {
                "name": "G.E.Carburanti SNC di Sterpi Ezio e C.",
                "id": "6942",
                "brand": "Api-Ip",
                "amenity": "fuel",
                "operator": "G.E. CARBURANTI S.N.C. DI STERPI EZIO & C."
            },
            "geometry": {
                "type": "Point",
                "coordinates": [
                    8.794127367246574,
                    44.75813149653808
                ]
            }
        },
        {
            "type": "Feature",
            "properties": {
                "name": "RETITALIA",
                "id": "29763",
                "brand": "Retitalia",
                "amenity": "fuel",
                "operator": "EASY RIDER S.A.S. DI NAVONE ANDREA VINCENZO & C."
            },
            "geometry": {
                "type": "Point",
                "coordinates": [
                    8.807475864887238,
                    44.75832879231679
                ]
            }
        },
        {
            "type": "Feature",
            "properties": {
                "name": "PV05 - MONTEGIOCO",
                "id": "4956",
                "brand": "Ratti",
                "amenity": "fuel",
                "operator": "SO.GE.DI DI RATTI FRANCESCO & C. S.A.S."
            },
            "geometry": {
                "type": "Point",
                "coordinates": [
                    8.952918737434402,
                    44.837890509596264
                ]
            }
        }
    ]
}