{
    "type": "FeatureCollection",
    "features": [
        {
            "type": "Feature",
            "properties": {
                "name": "ip",
                "id": "31561",
                "brand": "Api-Ip",
                "amenity": "fuel",
                "operator": "PACE - DELLA VEDOVA S.N.C. DI PACE GIUSEPPE E DELLA VEDOVA DANIEL E"
            },
            "geometry": {
                "type": "Point",
                "coordinates": [
                    8.89804544729077,
                    45.60483809494415
                ]
            }
        },
        {
            "type": "Feature",
            "properties": {
                "name": "crsnc",
                "id": "10817",
                "brand": "Agip Eni",
                "amenity": "fuel",
                "operator": "C.R. S.N.C. DI CANDIANI SIMONE  &  RAVASI PAOLO"
            },
            "geometry": {
                "type": "Point",
                "coordinates": [
                    8.793311690807286,
                    45.6457631275946
                ]
            }
        },
        {
            "type": "Feature",
            "properties": {
                "name": "Vele sas di Verduci Antonino & c",
                "id": "11118",
                "brand": "Agip Eni",
                "amenity": "fuel",
                "operator": "VELE S.A.S. DI VERDUCI ANTONINO & CC"
            },
            "geometry": {
                "type": "Point",
                "coordinates": [
                    8.940021041264343,
                    45.61118996647434
                ]
            }
        },
        {
            "type": "Feature",
            "properties": {
                "name": "AGIP DI GADDA DANIELE",
                "id": "9831",
                "brand": "Agip Eni",
                "amenity": "fuel",
                "operator": "DISTRIBUTORE AGIP DI GADDA DANIELE"
            },
            "geometry": {
                "type": "Point",
                "coordinates": [
                    8.830300449225433,
                    45.62781399352705
                ]
            }
        },
        {
            "type": "Feature",
            "properties": {
                "name": "STAZIONE SERVIZIO TAMOIL",
                "id": "9781",
                "brand": "Tamoil",
                "amenity": "fuel",
                "operator": "D'ORONZIO DOMENICO"
            },
            "geometry": {
                "type": "Point",
                "coordinates": [
                    8.926067054271698,
                    45.595350985644025
                ]
            }
        },
        {
            "type": "Feature",
            "properties": {
                "name": "IAMETTI SAS",
                "id": "14390",
                "brand": "Agip Eni",
                "amenity": "fuel",
                "operator": "IAMETTI S.A.S. DI IAMETTI DANILO E MARCO"
            },
            "geometry": {
                "type": "Point",
                "coordinates": [
                    8.847196151520505,
                    45.60283165537623
                ]
            }
        },
        {
            "type": "Feature",
            "properties": {
                "name": "vargas s.r.l.",
                "id": "4135",
                "amenity": "fuel",
                "operator": "VARGAS SRL"
            },
            "geometry": {
                "type": "Point",
                "coordinates": [
                    8.816686804893493,
                    45.64914025334275
                ]
            }
        },
        {
            "type": "Feature",
            "properties": {
                "name": "43911 IP  Luraghi",
                "id": "13102",
                "brand": "Api-Ip",
                "amenity": "fuel",
                "operator": "LURAGHI RENATO"
            },
            "geometry": {
                "type": "Point",
                "coordinates": [
                    8.795676827430725,
                    45.66626450893131
                ]
            }
        },
        {
            "type": "Feature",
            "properties": {
                "name": "ENI",
                "id": "28889",
                "brand": "Agip Eni",
                "amenity": "fuel",
                "operator": "COZZI ANDREA"
            },
            "geometry": {
                "type": "Point",
                "coordinates": [
                    8.797299733729574,
                    45.67431099042725
                ]
            }
        },
        {
            "type": "Feature",
            "properties": {
                "name": "PV 2857",
                "id": "25132",
                "brand": "Agip Eni",
                "amenity": "fuel",
                "operator": "GESTIONI INNOVATIVE ITALIA S.R.L."
            },
            "geometry": {
                "type": "Point",
                "coordinates": [
                    8.910047560930254,
                    45.610044583840136
                ]
            }
        },
        {
            "type": "Feature",
            "properties": {
                "name": "AUTOLAVAGGIO SICILIA DI CASTIGLIONI ANTONIO & C.S.N.C.",
                "id": "15386",
                "amenity": "fuel",
                "operator": "AUTOLAVAGGIO SICILIA DI CASTIGLIONI ANTONIO & C. S.N.C."
            },
            "geometry": {
                "type": "Point",
                "coordinates": [
                    8.819099929113804,
                    45.60336771438054
                ]
            }
        },
        {
            "type": "Feature",
            "properties": {
                "name": "SOLBIATE OLONA",
                "id": "10096",
                "brand": "Total Erg",
                "amenity": "fuel",
                "operator": "GESTIONI EUROPA - SOCIETA' PER AZIONI"
            },
            "geometry": {
                "type": "Point",
                "coordinates": [
                    8.865092396736145,
                    45.64576541117171
                ]
            }
        },
        {
            "type": "Feature",
            "properties": {
                "name": "TOTALERG",
                "id": "27017",
                "brand": "Total Erg",
                "amenity": "fuel",
                "operator": "*BATTAGLIA CARMEN"
            },
            "geometry": {
                "type": "Point",
                "coordinates": [
                    8.873248518454714,
                    45.686800587514334
                ]
            }
        },
        {
            "type": "Feature",
            "properties": {
                "name": "TAMOIL",
                "id": "18420",
                "brand": "Tamoil",
                "amenity": "fuel",
                "operator": "RUSPI ROBERTO"
            },
            "geometry": {
                "type": "Point",
                "coordinates": [
                    8.943395465612411,
                    45.60084354391684
                ]
            }
        },
        {
            "type": "Feature",
            "properties": {
                "name": "LEGNANO-VIA TOSELLI ANG. REPUBBLICA",
                "id": "11690",
                "brand": "Q8",
                "amenity": "fuel",
                "operator": "SERVIZI & GESTIONI ITALIA S.R.L."
            },
            "geometry": {
                "type": "Point",
                "coordinates": [
                    8.926532944774635,
                    45.58783190986353
                ]
            }
        },
        {
            "type": "Feature",
            "properties": {
                "name": "BUSTO ARSIZIO   -VIA PER CASSANO 80",
                "id": "11927",
                "brand": "Q8",
                "amenity": "fuel",
                "operator": "SERVIZI & GESTIONI ITALIA S.R.L."
            },
            "geometry": {
                "type": "Point",
                "coordinates": [
                    8.846337550926135,
                    45.63633000685311
                ]
            }
        },
        {
            "type": "Feature",
            "properties": {
                "name": "PELLEGRINI GABRIELE BUSTO ARSIZIO",
                "id": "29088",
                "brand": "Agip Eni",
                "amenity": "fuel",
                "operator": "PELLEGRINI GABRIELE"
            },
            "geometry": {
                "type": "Point",
                "coordinates": [
                    8.867208454631053,
                    45.612919875029846
                ]
            }
        },
        {
            "type": "Feature",
            "properties": {
                "name": "TOTALERG",
                "id": "27003",
                "brand": "Total Erg",
                "amenity": "fuel",
                "operator": "ARPI S.A.S. DI ARRU MELISSA & C."
            },
            "geometry": {
                "type": "Point",
                "coordinates": [
                    8.904595971107481,
                    45.65227167200007
                ]
            }
        },
        {
            "type": "Feature",
            "properties": {
                "name": "roselli  Alessandro",
                "id": "16368",
                "brand": "Retitalia",
                "amenity": "fuel",
                "operator": "ROSELLI ALESSANDRO"
            },
            "geometry": {
                "type": "Point",
                "coordinates": [
                    8.912420645356178,
                    45.69939716888243
                ]
            }
        },
        {
            "type": "Feature",
            "properties": {
                "name": "Sommese Petroli",
                "id": "21271",
                "amenity": "fuel",
                "operator": "CAR-TEL S.N.C. DI TELESCA R.  &  CARTINI M. L."
            },
            "geometry": {
                "type": "Point",
                "coordinates": [
                    8.816861055819686,
                    45.668641186223084
                ]
            }
        },
        {
            "type": "Feature",
            "properties": {
                "name": "LEGNANO-VIALE CADORNA 58",
                "id": "11673",
                "brand": "Q8",
                "amenity": "fuel",
                "operator": "SERVIZI & GESTIONI ITALIA S.R.L."
            },
            "geometry": {
                "type": "Point",
                "coordinates": [
                    8.93926352262497,
                    45.59818863369359
                ]
            }
        },
        {
            "type": "Feature",
            "properties": {
                "name": "ESSO SEMPIONE",
                "id": "9058",
                "brand": "Esso",
                "amenity": "fuel",
                "operator": "LEPRI MARCO"
            },
            "geometry": {
                "type": "Point",
                "coordinates": [
                    8.841612339019775,
                    45.628737181860906
                ]
            }
        },
        {
            "type": "Feature",
            "properties": {
                "name": "FRATELLI LEVA SPA",
                "id": "31871",
                "brand": "Retitalia",
                "amenity": "fuel",
                "operator": "FRATELLI LEVA S.P.A."
            },
            "geometry": {
                "type": "Point",
                "coordinates": [
                    8.884669840335846,
                    45.638897955045316
                ]
            }
        },
        {
            "type": "Feature",
            "properties": {
                "name": "service di testa michele",
                "id": "19638",
                "brand": "Esso",
                "amenity": "fuel",
                "operator": "SERVICE DI TESTA MICHELE"
            },
            "geometry": {
                "type": "Point",
                "coordinates": [
                    8.949832767248154,
                    45.67625580575348
                ]
            }
        },
        {
            "type": "Feature",
            "properties": {
                "name": "02908",
                "id": "28790",
                "brand": "Agip Eni",
                "amenity": "fuel",
                "operator": "ELLEPI SERVICE DI LUCA PULVIRENTI"
            },
            "geometry": {
                "type": "Point",
                "coordinates": [
                    8.792808172521971,
                    45.65281493830711
                ]
            }
        },
        {
            "type": "Feature",
            "properties": {
                "name": "Gallarate",
                "id": "10130",
                "brand": "Total Erg",
                "amenity": "fuel",
                "operator": "GESTIONI EUROPA - SOCIETA' PER AZIONI"
            },
            "geometry": {
                "type": "Point",
                "coordinates": [
                    8.794810320237728,
                    45.650672587282344
                ]
            }
        },
        {
            "type": "Feature",
            "properties": {
                "name": "CASTELLANZA",
                "id": "5552",
                "brand": "Total Erg",
                "amenity": "fuel",
                "operator": "GESTIONI EUROPA S.p.A."
            },
            "geometry": {
                "type": "Point",
                "coordinates": [
                    8.910448635581927,
                    45.60705975281448
                ]
            }
        },
        {
            "type": "Feature",
            "properties": {
                "name": "ARTONI E DE BACCO SNC",
                "id": "14893",
                "brand": "Agip Eni",
                "amenity": "fuel",
                "operator": "ARTONI E DE BACCO S.N.C."
            },
            "geometry": {
                "type": "Point",
                "coordinates": [
                    8.86079548227849,
                    45.59683287534741
                ]
            }
        },
        {
            "type": "Feature",
            "properties": {
                "name": "IP GRUPPO API",
                "id": "27241",
                "brand": "Api-Ip",
                "amenity": "fuel",
                "operator": "ELIGIO CASTIGLIONI"
            },
            "geometry": {
                "type": "Point",
                "coordinates": [
                    8.844376355409622,
                    45.68074407402374
                ]
            }
        },
        {
            "type": "Feature",
            "properties": {
                "name": "LEGNANO-VIA SABOTINO 75",
                "id": "11683",
                "brand": "Q8",
                "amenity": "fuel",
                "operator": "SERVIZI & GESTIONI ITALIA S.R.L."
            },
            "geometry": {
                "type": "Point",
                "coordinates": [
                    8.90271335449222,
                    45.58602158677832
                ]
            }
        },
        {
            "type": "Feature",
            "properties": {
                "name": "BUSTO ARSIZIO VIALE MALPENSA 19",
                "id": "23156",
                "brand": "Q8",
                "amenity": "fuel",
                "operator": "SERVIZI & GESTIONI ITALIA S.R.L."
            },
            "geometry": {
                "type": "Point",
                "coordinates": [
                    8.849781362951719,
                    45.63720059681254
                ]
            }
        },
        {
            "type": "Feature",
            "properties": {
                "name": "KANT SAS di Masato Christian",
                "id": "14992",
                "brand": "Tamoil",
                "amenity": "fuel",
                "operator": "KANT S.A.S. DI MASATO CHRISTIAN & C."
            },
            "geometry": {
                "type": "Point",
                "coordinates": [
                    8.847899436950684,
                    45.63089004819352
                ]
            }
        },
        {
            "type": "Feature",
            "properties": {
                "name": "Olgiate Olona _ Distributore Moro",
                "id": "29418",
                "amenity": "fuel",
                "operator": "AMBROGIO MORO S.P.A."
            },
            "geometry": {
                "type": "Point",
                "coordinates": [
                    8.886073544774604,
                    45.629420818477655
                ]
            }
        },
        {
            "type": "Feature",
            "properties": {
                "name": "PELLEGRINI STEFANO",
                "id": "14172",
                "brand": "Agip Eni",
                "amenity": "fuel",
                "operator": "PELLEGRINI STEFANO"
            },
            "geometry": {
                "type": "Point",
                "coordinates": [
                    8.92315640740969,
                    45.697230958053574
                ]
            }
        },
        {
            "type": "Feature",
            "properties": {
                "name": "PV 2828",
                "id": "25391",
                "brand": "Agip Eni",
                "amenity": "fuel",
                "operator": "GESTIONI INNOVATIVE ITALIA S.R.L."
            },
            "geometry": {
                "type": "Point",
                "coordinates": [
                    8.822863698005676,
                    45.67164085351821
                ]
            }
        },
        {
            "type": "Feature",
            "properties": {
                "name": "ELDA GAS",
                "id": "15786",
                "amenity": "fuel",
                "operator": "F.LLI  VITA S.N.C. DI VITA GIUSEPPE E ROCCO"
            },
            "geometry": {
                "type": "Point",
                "coordinates": [
                    8.958203941583633,
                    45.65248540953263
                ]
            }
        },
        {
            "type": "Feature",
            "properties": {
                "name": "LEGNANO-VIA XX SETTEMBRE 84",
                "id": "11691",
                "brand": "Q8",
                "amenity": "fuel",
                "operator": "SERVIZI & GESTIONI ITALIA S.R.L."
            },
            "geometry": {
                "type": "Point",
                "coordinates": [
                    8.910728746032646,
                    45.58447337466343
                ]
            }
        },
        {
            "type": "Feature",
            "properties": {
                "name": "BUSTO ARSIZIO-VIALE BOCCACCIO 24",
                "id": "11920",
                "brand": "Shell",
                "amenity": "fuel",
                "operator": "SERVIZI & GESTIONI ITALIA S.R.L."
            },
            "geometry": {
                "type": "Point",
                "coordinates": [
                    8.861526822090127,
                    45.601597042285775
                ]
            }
        },
        {
            "type": "Feature",
            "properties": {
                "name": "02874 OLGIATE OLONA",
                "id": "7166",
                "brand": "Agip Eni",
                "amenity": "fuel",
                "operator": "VINCI S.A.S. DI VINCI SALVATORE & C."
            },
            "geometry": {
                "type": "Point",
                "coordinates": [
                    8.858649730682375,
                    45.63158814586274
                ]
            }
        },
        {
            "type": "Feature",
            "properties": {
                "name": "TOTALEGR 11765",
                "id": "14027",
                "brand": "Total Erg",
                "amenity": "fuel",
                "operator": "CAIMI GINO"
            },
            "geometry": {
                "type": "Point",
                "coordinates": [
                    8.931731395123165,
                    45.6902490451551
                ]
            }
        },
        {
            "type": "Feature",
            "properties": {
                "name": "GALLARATE",
                "id": "5909",
                "brand": "Total Erg",
                "amenity": "fuel",
                "operator": "TotalErg SpA"
            },
            "geometry": {
                "type": "Point",
                "coordinates": [
                    8.795581519014377,
                    45.6681104115245
                ]
            }
        },
        {
            "type": "Feature",
            "properties": {
                "name": "STAZIONE ENI 02862",
                "id": "6798",
                "brand": "Agip Eni",
                "amenity": "fuel",
                "operator": "F.LLI DELL'ORFANO DI DELL'ORFANO MASSIMINO"
            },
            "geometry": {
                "type": "Point",
                "coordinates": [
                    8.84346004575491,
                    45.66039828938208
                ]
            }
        },
        {
            "type": "Feature",
            "properties": {
                "name": "BUSTO ARSIZIO V.LE RIMEMBRANZE  53",
                "id": "6459",
                "brand": "Q8",
                "amenity": "fuel",
                "operator": "SERVIZI & GESTIONI ITALIA srl"
            },
            "geometry": {
                "type": "Point",
                "coordinates": [
                    8.833518582942135,
                    45.60909492679453
                ]
            }
        },
        {
            "type": "Feature",
            "properties": {
                "name": "TOTALERG",
                "id": "22418",
                "brand": "Total Erg",
                "amenity": "fuel",
                "operator": "MARINO ROCCO"
            },
            "geometry": {
                "type": "Point",
                "coordinates": [
                    8.860757946968079,
                    45.59867244590827
                ]
            }
        },
        {
            "type": "Feature",
            "properties": {
                "name": "OLGIATE OLONA",
                "id": "27295",
                "brand": "Api-Ip",
                "amenity": "fuel",
                "operator": "IP SERVICES S.R.L."
            },
            "geometry": {
                "type": "Point",
                "coordinates": [
                    8.859112069940577,
                    45.63571781676173
                ]
            }
        },
        {
            "type": "Feature",
            "properties": {
                "name": "ENI 02308 LEGNANO CO.BI.DO.",
                "id": "24513",
                "brand": "Agip Eni",
                "amenity": "fuel",
                "operator": "COBIDO CAR SERVICE DI DOLCE ANTONINO & C. S.N.C."
            },
            "geometry": {
                "type": "Point",
                "coordinates": [
                    8.939912617206573,
                    45.59869121272512
                ]
            }
        },
        {
            "type": "Feature",
            "properties": {
                "name": "Nazzaro Luigi",
                "id": "14808",
                "brand": "Total Erg",
                "amenity": "fuel",
                "operator": "NAZZARO LUIGI"
            },
            "geometry": {
                "type": "Point",
                "coordinates": [
                    8.879031250331876,
                    45.70530238064591
                ]
            }
        },
        {
            "type": "Feature",
            "properties": {
                "name": "Busellato s.n.c.",
                "id": "11270",
                "brand": "Agip Eni",
                "amenity": "fuel",
                "operator": "BUSELLATO S.N.C. DI BUSELLATO FLAVIO & C."
            },
            "geometry": {
                "type": "Point",
                "coordinates": [
                    8.807474200594356,
                    45.65051219482568
                ]
            }
        },
        {
            "type": "Feature",
            "properties": {
                "name": "AGIP",
                "id": "6182",
                "brand": "Agip Eni",
                "amenity": "fuel",
                "operator": "A.M.G. S.N.C. DI ANDREA DUO',  MAURO TURCONI E GIORGIO MARINI"
            },
            "geometry": {
                "type": "Point",
                "coordinates": [
                    8.959066271781921,
                    45.61236684136929
                ]
            }
        },
        {
            "type": "Feature",
            "properties": {
                "name": "gascinquemulini s.n.c.",
                "id": "10291",
                "brand": "Esso",
                "amenity": "fuel",
                "operator": "GAS CINQUE MULINI DI ROSSINI GIUSEPPE E C. S.N.C."
            },
            "geometry": {
                "type": "Point",
                "coordinates": [
                    8.930491358041763,
                    45.58431244639693
                ]
            }
        },
        {
            "type": "Feature",
            "properties": {
                "name": "reteitalia",
                "id": "31567",
                "amenity": "fuel",
                "operator": "PACE - DELLA VEDOVA S.N.C. DI PACE GIUSEPPE E DELLA VEDOVA DANIEL E"
            },
            "geometry": {
                "type": "Point",
                "coordinates": [
                    8.914010388954921,
                    45.60486959512153
                ]
            }
        },
        {
            "type": "Feature",
            "properties": {
                "name": "BUSTO ARSIZIO-CORSO ITALIA 23",
                "id": "11922",
                "brand": "Q8",
                "amenity": "fuel",
                "operator": "SERVIZI & GESTIONI ITALIA S.R.L."
            },
            "geometry": {
                "type": "Point",
                "coordinates": [
                    8.84676244907382,
                    45.620818759471874
                ]
            }
        },
        {
            "type": "Feature",
            "properties": {
                "name": "IMP. ENI LEGNANO VINCI SAS",
                "id": "7946",
                "brand": "Agip Eni",
                "amenity": "fuel",
                "operator": "VINCI S.A.S. DI VINCI SALVATORE & C."
            },
            "geometry": {
                "type": "Point",
                "coordinates": [
                    8.899647295475006,
                    45.59072448588519
                ]
            }
        },
        {
            "type": "Feature",
            "properties": {
                "name": "distributore di albano andrea",
                "id": "14684",
                "amenity": "fuel",
                "operator": "ALBANO ANDREA"
            },
            "geometry": {
                "type": "Point",
                "coordinates": [
                    8.907834279762254,
                    45.60751058363885
                ]
            }
        },
        {
            "type": "Feature",
            "properties": {
                "name": "Stazione di Servizio Auchan/Tamoil",
                "id": "7052",
                "brand": "Tamoil",
                "amenity": "fuel",
                "operator": "AUCHAN S.P.A."
            },
            "geometry": {
                "type": "Point",
                "coordinates": [
                    8.960351049900055,
                    45.609816987322084
                ]
            }
        },
        {
            "type": "Feature",
            "properties": {
                "name": "BUSTO ARSIZIO",
                "id": "24961",
                "brand": "Api-Ip",
                "amenity": "fuel",
                "operator": "IP SERVICES S.R.L."
            },
            "geometry": {
                "type": "Point",
                "coordinates": [
                    8.8329019239427,
                    45.6397562594226
                ]
            }
        },
        {
            "type": "Feature",
            "properties": {
                "name": "STAZIONE AGIP",
                "id": "31738",
                "brand": "Agip Eni",
                "amenity": "fuel",
                "operator": "BALZANO EMANUELE"
            },
            "geometry": {
                "type": "Point",
                "coordinates": [
                    8.91507827976227,
                    45.6036077505583
                ]
            }
        },
        {
            "type": "Feature",
            "properties": {
                "name": "CARINI DAVIDE",
                "id": "14119",
                "brand": "Tamoil",
                "amenity": "fuel",
                "operator": "CARINI DAVIDE"
            },
            "geometry": {
                "type": "Point",
                "coordinates": [
                    8.899007080950925,
                    45.59296097280843
                ]
            }
        },
        {
            "type": "Feature",
            "properties": {
                "name": "STAZIONE SERVIZIO ESSO DI REDI GIOVANNI",
                "id": "16415",
                "brand": "Esso",
                "amenity": "fuel",
                "operator": "REDI GIOVANNI"
            },
            "geometry": {
                "type": "Point",
                "coordinates": [
                    8.802548982803273,
                    45.66186412745246
                ]
            }
        },
        {
            "type": "Feature",
            "properties": {
                "name": "BROMAR S.N.C.",
                "id": "10555",
                "brand": "Q8",
                "amenity": "fuel",
                "operator": "BROMAR S.N.C. DI BROCCOLO SONIA E C."
            },
            "geometry": {
                "type": "Point",
                "coordinates": [
                    8.792967796325684,
                    45.6449253547209
                ]
            }
        },
        {
            "type": "Feature",
            "properties": {
                "name": "ENI 2261 DI COBIDO CAR   SERVICE",
                "id": "7399",
                "brand": "Agip Eni",
                "amenity": "fuel",
                "operator": "COBIDO CAR SERVICE DI DOLCE ANTONINO & C. S.N.C."
            },
            "geometry": {
                "type": "Point",
                "coordinates": [
                    8.935790061950682,
                    45.59147225912213
                ]
            }
        },
        {
            "type": "Feature",
            "properties": {
                "name": "MA.BO",
                "id": "15625",
                "brand": "Api-Ip",
                "amenity": "fuel",
                "operator": "MA-BO S.N.C. DI BLOISE ANTONIETTA E MAZZUCCHELLI GUIDO"
            },
            "geometry": {
                "type": "Point",
                "coordinates": [
                    8.875574233729594,
                    45.60463645835393
                ]
            }
        },
        {
            "type": "Feature",
            "properties": {
                "name": "metano legnano",
                "id": "31779",
                "brand": "Agip Eni",
                "amenity": "fuel",
                "operator": "METANO LEGNANO SNC DI CIRIGNANO CLAUDIO & C."
            },
            "geometry": {
                "type": "Point",
                "coordinates": [
                    8.918963058860756,
                    45.61015286221417
                ]
            }
        },
        {
            "type": "Feature",
            "properties": {
                "name": "ESPOSTO FILIPPONE FRANCESCO",
                "id": "22654",
                "amenity": "fuel",
                "operator": "ESPOSTO FILIPPONE FRANCESCO"
            },
            "geometry": {
                "type": "Point",
                "coordinates": [
                    8.858603230094104,
                    45.58908169614076
                ]
            }
        },
        {
            "type": "Feature",
            "properties": {
                "name": "Stazione di servizio Shell Canavesi Sara",
                "id": "4003",
                "brand": "Total Erg",
                "amenity": "fuel",
                "operator": "CANAVESI SARA"
            },
            "geometry": {
                "type": "Point",
                "coordinates": [
                    8.900808791538337,
                    45.636954367135374
                ]
            }
        },
        {
            "type": "Feature",
            "properties": {
                "name": "GFC",
                "id": "16141",
                "amenity": "fuel",
                "operator": "BIOMETANO S.R.L."
            },
            "geometry": {
                "type": "Point",
                "coordinates": [
                    8.901004493236542,
                    45.605104611926855
                ]
            }
        },
        {
            "type": "Feature",
            "properties": {
                "name": "totalerg",
                "id": "15743",
                "brand": "Total Erg",
                "amenity": "fuel",
                "operator": "BOSATELLI TIZIANO"
            },
            "geometry": {
                "type": "Point",
                "coordinates": [
                    8.893490062565661,
                    45.65981663783477
                ]
            }
        },
        {
            "type": "Feature",
            "properties": {
                "name": "CALCATERRA MARCO",
                "id": "17474",
                "amenity": "fuel",
                "operator": "CALCATERRA MARCO"
            },
            "geometry": {
                "type": "Point",
                "coordinates": [
                    8.801623062507815,
                    45.65517991974378
                ]
            }
        },
        {
            "type": "Feature",
            "properties": {
                "name": "CASTELLANZA VIALE LOMBARDIA 27",
                "id": "6460",
                "brand": "Q8",
                "amenity": "fuel",
                "operator": "SERVIZI & GESTIONI ITALIA srl"
            },
            "geometry": {
                "type": "Point",
                "coordinates": [
                    8.904368128241686,
                    45.61509008291705
                ]
            }
        },
        {
            "type": "Feature",
            "properties": {
                "name": "SP PER LEGNANO RESCALDINA",
                "id": "28622",
                "brand": "Esso",
                "amenity": "fuel",
                "operator": "SERVIZI E GESTIONI ZENIT S.R.L. IN SIGLA - ZENIT S.R.L."
            },
            "geometry": {
                "type": "Point",
                "coordinates": [
                    8.949243351817131,
                    45.61403065711357
                ]
            }
        },
        {
            "type": "Feature",
            "properties": {
                "name": "API IP",
                "id": "9529",
                "brand": "Api-Ip",
                "amenity": "fuel",
                "operator": "BROTTO MARIO"
            },
            "geometry": {
                "type": "Point",
                "coordinates": [
                    8.842847745125027,
                    45.68728571608504
                ]
            }
        },
        {
            "type": "Feature",
            "properties": {
                "name": "SOMMESE PETROLI",
                "id": "14063",
                "amenity": "fuel",
                "operator": "RUSSO FRANCESCO"
            },
            "geometry": {
                "type": "Point",
                "coordinates": [
                    8.92008888954922,
                    45.587713722221174
                ]
            }
        },
        {
            "type": "Feature",
            "properties": {
                "name": "ESSO ITALIA",
                "id": "9059",
                "brand": "Esso",
                "amenity": "fuel",
                "operator": "LEPRI MARCO"
            },
            "geometry": {
                "type": "Point",
                "coordinates": [
                    8.83901059627533,
                    45.615347715796815
                ]
            }
        },
        {
            "type": "Feature",
            "properties": {
                "name": "RAIMONDI MAURO",
                "id": "14944",
                "brand": "Agip Eni",
                "amenity": "fuel",
                "operator": "RAIMONDI MAURO"
            },
            "geometry": {
                "type": "Point",
                "coordinates": [
                    8.888167440891266,
                    45.633243514023064
                ]
            }
        },
        {
            "type": "Feature",
            "properties": {
                "name": "STAZIONE DI SERVIZIO ESSO",
                "id": "13312",
                "brand": "Esso",
                "amenity": "fuel",
                "operator": "STAZIONE DI SERVIZIO ESSO DI ROCCO CRISTIANO"
            },
            "geometry": {
                "type": "Point",
                "coordinates": [
                    8.796747028827667,
                    45.67376883155011
                ]
            }
        },
        {
            "type": "Feature",
            "properties": {
                "name": "TOTALERG",
                "id": "15234",
                "brand": "Total Erg",
                "amenity": "fuel",
                "operator": "BRUNO MARIA ROSARIA"
            },
            "geometry": {
                "type": "Point",
                "coordinates": [
                    8.867798538622992,
                    45.66549934890283
                ]
            }
        },
        {
            "type": "Feature",
            "properties": {
                "name": "FLLI GADDA SNC",
                "id": "10479",
                "amenity": "fuel",
                "operator": "F.LLI GADDA S.N.C. DI GIUSEPPE E ANGELO GADDA"
            },
            "geometry": {
                "type": "Point",
                "coordinates": [
                    8.889191312828075,
                    45.609014872721055
                ]
            }
        },
        {
            "type": "Feature",
            "properties": {
                "name": "ELDA GAS",
                "id": "16323",
                "amenity": "fuel",
                "operator": "GI E GI S.N.C. DI GIARDINETTI ROCCO E GIAMPIETRO NICO"
            },
            "geometry": {
                "type": "Point",
                "coordinates": [
                    8.855350613594055,
                    45.68310481483895
                ]
            }
        },
        {
            "type": "Feature",
            "properties": {
                "name": "LEGNANO-CORSO SEMPIONE 160 ANG.VIA VOLTA",
                "id": "11657",
                "brand": "Q8",
                "amenity": "fuel",
                "operator": "SERVIZI & GESTIONI ITALIA S.R.L."
            },
            "geometry": {
                "type": "Point",
                "coordinates": [
                    8.918259766864821,
                    45.60017318891126
                ]
            }
        },
        {
            "type": "Feature",
            "properties": {
                "name": "ENI PV 52359",
                "id": "14960",
                "brand": "Agip Eni",
                "amenity": "fuel",
                "operator": "CEPPI ROBERTO"
            },
            "geometry": {
                "type": "Point",
                "coordinates": [
                    8.857780694961548,
                    45.62643004562664
                ]
            }
        },
        {
            "type": "Feature",
            "properties": {
                "name": "FUMAGALLI & MORANDI",
                "id": "19217",
                "brand": "Esso",
                "amenity": "fuel",
                "operator": "FUMAGALLI & MORANDI S.N.C DI FUMAGALLI ANTONELLA & C."
            },
            "geometry": {
                "type": "Point",
                "coordinates": [
                    8.896482135582005,
                    45.65115185264065
                ]
            }
        },
        {
            "type": "Feature",
            "properties": {
                "name": "LEGNANO",
                "id": "5530",
                "brand": "Total Erg",
                "amenity": "fuel",
                "operator": "GESTIONI EUROPA S.p.A."
            },
            "geometry": {
                "type": "Point",
                "coordinates": [
                    8.9372739370084,
                    45.59658459985469
                ]
            }
        },
        {
            "type": "Feature",
            "properties": {
                "name": "CASSANO MAGNAGO",
                "id": "5979",
                "brand": "Total Erg",
                "amenity": "fuel",
                "operator": "GESTIONI EUROPA S.p.A."
            },
            "geometry": {
                "type": "Point",
                "coordinates": [
                    8.821168923942537,
                    45.69061299999998
                ]
            }
        },
        {
            "type": "Feature",
            "properties": {
                "name": "TOTALERG",
                "id": "22982",
                "brand": "Total Erg",
                "amenity": "fuel",
                "operator": "ORO NERO S.A.S. DI SOSSIO FARINA E C."
            },
            "geometry": {
                "type": "Point",
                "coordinates": [
                    8.927544951438904,
                    45.609837626954445
                ]
            }
        },
        {
            "type": "Feature",
            "properties": {
                "name": "ESSO",
                "id": "10021",
                "brand": "Esso",
                "amenity": "fuel",
                "operator": "BOSATELLI BRUNO & C. - S.A.S."
            },
            "geometry": {
                "type": "Point",
                "coordinates": [
                    8.857867866754532,
                    45.62548446746925
                ]
            }
        },
        {
            "type": "Feature",
            "properties": {
                "name": "Q8",
                "id": "27628",
                "brand": "Q8",
                "amenity": "fuel",
                "operator": "TURATTI FABIANO"
            },
            "geometry": {
                "type": "Point",
                "coordinates": [
                    8.875940591096878,
                    45.70467292705335
                ]
            }
        },
        {
            "type": "Feature",
            "properties": {
                "name": "IP BAGGIO ANTONIO",
                "id": "15611",
                "brand": "Api-Ip",
                "amenity": "fuel",
                "operator": "BAGGIO ANTONIO & C. S.A.S."
            },
            "geometry": {
                "type": "Point",
                "coordinates": [
                    8.867866471409798,
                    45.665983156926
                ]
            }
        },
        {
            "type": "Feature",
            "properties": {
                "name": "CAIRATE-STRADA PROVINCIALE 12",
                "id": "11925",
                "brand": "Q8",
                "amenity": "fuel",
                "operator": "SERVIZI & GESTIONI ITALIA S.R.L."
            },
            "geometry": {
                "type": "Point",
                "coordinates": [
                    8.886607288360665,
                    45.688237473809096
                ]
            }
        },
        {
            "type": "Feature",
            "properties": {
                "name": "Totalerg",
                "id": "8671",
                "brand": "Total Erg",
                "amenity": "fuel",
                "operator": "FACCIOLATI GIANLUIGI"
            },
            "geometry": {
                "type": "Point",
                "coordinates": [
                    8.951588273048403,
                    45.599366816011454
                ]
            }
        },
        {
            "type": "Feature",
            "properties": {
                "name": "Legnano _ Distributore MORO",
                "id": "12752",
                "amenity": "fuel",
                "operator": "AMBROGIO MORO S.P.A."
            },
            "geometry": {
                "type": "Point",
                "coordinates": [
                    8.92830917539368,
                    45.588954267111305
                ]
            }
        },
        {
            "type": "Feature",
            "properties": {
                "name": "BUSTO ARSIZIO - BORRI 14",
                "id": "29759",
                "brand": "Api-Ip",
                "amenity": "fuel",
                "operator": "IP SERVICES S.R.L."
            },
            "geometry": {
                "type": "Point",
                "coordinates": [
                    8.862762449073786,
                    45.606515011405214
                ]
            }
        },
        {
            "type": "Feature",
            "properties": {
                "name": "MARNATE-VIA MILANO SN",
                "id": "11928",
                "brand": "Q8",
                "amenity": "fuel",
                "operator": "SERVIZI & GESTIONI ITALIA S.R.L."
            },
            "geometry": {
                "type": "Point",
                "coordinates": [
                    8.910799999999995,
                    45.63074126354187
                ]
            }
        }
    ]
}