{
    "type": "FeatureCollection",
    "features": [
        {
            "type": "Feature",
            "properties": {
                "name": "eni carburanti",
                "id": "30855",
                "brand": "Agip Eni",
                "amenity": "fuel",
                "operator": "AMICO DISTRIBUTORE DI PAOLO PASTORINO"
            },
            "geometry": {
                "type": "Point",
                "coordinates": [
                    8.901876211166382,
                    44.46295803055223
                ]
            }
        },
        {
            "type": "Feature",
            "properties": {
                "name": "Totalerg",
                "id": "19294",
                "brand": "Total Erg",
                "amenity": "fuel",
                "operator": "PASQUALE SABRINA"
            },
            "geometry": {
                "type": "Point",
                "coordinates": [
                    8.950080871582031,
                    44.40780815434055
                ]
            }
        },
        {
            "type": "Feature",
            "properties": {
                "name": "Andrea e Michele Gimondo snc",
                "id": "29195",
                "brand": "Esso",
                "amenity": "fuel",
                "operator": "ANDREA E MICHELE GIMONDO S.N.C."
            },
            "geometry": {
                "type": "Point",
                "coordinates": [
                    8.900014758110046,
                    44.456818541876565
                ]
            }
        },
        {
            "type": "Feature",
            "properties": {
                "name": "IP",
                "id": "13923",
                "brand": "Api-Ip",
                "amenity": "fuel",
                "operator": "CASAZZA  SIMONE"
            },
            "geometry": {
                "type": "Point",
                "coordinates": [
                    8.94886712485345,
                    44.41862721126295
                ]
            }
        },
        {
            "type": "Feature",
            "properties": {
                "name": "GENOVA VASCO DA GAMA",
                "id": "6390",
                "brand": "Q8",
                "amenity": "fuel",
                "operator": "SERVIZI & GESTIONI ITALIA srl"
            },
            "geometry": {
                "type": "Point",
                "coordinates": [
                    8.894660254001678,
                    44.4139698944433
                ]
            }
        },
        {
            "type": "Feature",
            "properties": {
                "name": "Distributore ESSO",
                "id": "10695",
                "brand": "Esso",
                "amenity": "fuel",
                "operator": "SANTONI DANIELE"
            },
            "geometry": {
                "type": "Point",
                "coordinates": [
                    8.964184692659728,
                    44.40203366824915
                ]
            }
        },
        {
            "type": "Feature",
            "properties": {
                "name": "1071 GENOVA PERRONE",
                "id": "26128",
                "brand": "Agip Eni",
                "amenity": "fuel",
                "operator": "ENI RETE OIL&NONOIL S.P.A."
            },
            "geometry": {
                "type": "Point",
                "coordinates": [
                    8.885745406150818,
                    44.43488455660074
                ]
            }
        },
        {
            "type": "Feature",
            "properties": {
                "name": "IP",
                "id": "25363",
                "brand": "Q8",
                "amenity": "fuel",
                "operator": "BARISONE S.A.S. DI BARISONE PAOLA & C."
            },
            "geometry": {
                "type": "Point",
                "coordinates": [
                    8.955206573009491,
                    44.41164676179361
                ]
            }
        },
        {
            "type": "Feature",
            "properties": {
                "name": "Maugeri Francesco impianto eni 51532",
                "id": "16210",
                "brand": "Agip Eni",
                "amenity": "fuel",
                "operator": "MAUGERI FRANCESCO"
            },
            "geometry": {
                "type": "Point",
                "coordinates": [
                    8.95422287285328,
                    44.40137982932759
                ]
            }
        },
        {
            "type": "Feature",
            "properties": {
                "name": "GENOVA VIA MULTEDO, 3",
                "id": "23837",
                "brand": "Q8",
                "amenity": "fuel",
                "operator": "SERVIZI & GESTIONI ITALIA S.R.L."
            },
            "geometry": {
                "type": "Point",
                "coordinates": [
                    8.833949421951274,
                    44.42710625649195
                ]
            }
        },
        {
            "type": "Feature",
            "properties": {
                "name": "Eni 54290",
                "id": "15739",
                "brand": "Agip Eni",
                "amenity": "fuel",
                "operator": "MARENCO DANIEL & C. - SOCIETA' IN NOME COLLETTIVO DI DANIEL MARENCO E C."
            },
            "geometry": {
                "type": "Point",
                "coordinates": [
                    8.949923936207597,
                    44.42047540686818
                ]
            }
        },
        {
            "type": "Feature",
            "properties": {
                "name": "8026",
                "id": "6806",
                "brand": "Tamoil",
                "amenity": "fuel",
                "operator": "DI GIUSEPPE FABRIZIO"
            },
            "geometry": {
                "type": "Point",
                "coordinates": [
                    8.862239947160218,
                    44.41542727343851
                ]
            }
        },
        {
            "type": "Feature",
            "properties": {
                "name": "Tony & Luca snc",
                "id": "13263",
                "brand": "Agip Eni",
                "amenity": "fuel",
                "operator": "TONY & LUCA DI ANTONIO FONTANINO & LUCA BUCCHERI - SOCIETA' IN NOME COLLETTIVO."
            },
            "geometry": {
                "type": "Point",
                "coordinates": [
                    8.89135256409645,
                    44.42612214166287
                ]
            }
        },
        {
            "type": "Feature",
            "properties": {
                "name": "IP",
                "id": "12292",
                "brand": "Api-Ip",
                "amenity": "fuel",
                "operator": "GERACI ROBERTO"
            },
            "geometry": {
                "type": "Point",
                "coordinates": [
                    8.953102380037308,
                    44.411444433569166
                ]
            }
        },
        {
            "type": "Feature",
            "properties": {
                "name": "GENOVA - VEZZANI",
                "id": "31037",
                "brand": "Api-Ip",
                "amenity": "fuel",
                "operator": "IP SERVICES S.R.L."
            },
            "geometry": {
                "type": "Point",
                "coordinates": [
                    8.903345597553198,
                    44.441947874784724
                ]
            }
        },
        {
            "type": "Feature",
            "properties": {
                "name": "EUROPAM",
                "id": "20824",
                "amenity": "fuel",
                "operator": "CAVALLARO SALVATORE"
            },
            "geometry": {
                "type": "Point",
                "coordinates": [
                    8.901281068970547,
                    44.40901157148752
                ]
            }
        },
        {
            "type": "Feature",
            "properties": {
                "name": "GENOVA - QUADRIO 12A/R",
                "id": "24592",
                "brand": "Api-Ip",
                "amenity": "fuel",
                "operator": "IP SERVICES S.R.L."
            },
            "geometry": {
                "type": "Point",
                "coordinates": [
                    8.928294635582006,
                    44.40541341331577
                ]
            }
        },
        {
            "type": "Feature",
            "properties": {
                "name": "CORNIGLIANO",
                "id": "5528",
                "brand": "Total Erg",
                "amenity": "fuel",
                "operator": "GESTIONI EUROPA S.p.A."
            },
            "geometry": {
                "type": "Point",
                "coordinates": [
                    8.866313999999988,
                    44.41562616829378
                ]
            }
        },
        {
            "type": "Feature",
            "properties": {
                "name": "ME-TRA srl",
                "id": "5062",
                "amenity": "fuel",
                "operator": "ME-TRA - SOCIETA' A RESPONSABILITA' LIMITATA"
            },
            "geometry": {
                "type": "Point",
                "coordinates": [
                    8.961521834135056,
                    44.43559356754879
                ]
            }
        },
        {
            "type": "Feature",
            "properties": {
                "name": "SPAGNOLO E AMATO SNC",
                "id": "21456",
                "brand": "Esso",
                "amenity": "fuel",
                "operator": "SPAGNOLO E AMATO DI GIAN DAMIANO PASTORINO & C. SOCIETA' IN NOME COLLETTIVO"
            },
            "geometry": {
                "type": "Point",
                "coordinates": [
                    8.893089964985847,
                    44.40779838222909
                ]
            }
        },
        {
            "type": "Feature",
            "properties": {
                "name": "EUROPAM CAMPI",
                "id": "24143",
                "amenity": "fuel",
                "operator": "EUROPAM S.R.L."
            },
            "geometry": {
                "type": "Point",
                "coordinates": [
                    8.881144551589953,
                    44.42106615000588
                ]
            }
        },
        {
            "type": "Feature",
            "properties": {
                "name": "eni",
                "id": "23680",
                "brand": "Agip Eni",
                "amenity": "fuel",
                "operator": "CAPOGRECO GIANCARLO"
            },
            "geometry": {
                "type": "Point",
                "coordinates": [
                    8.890633926983583,
                    44.44532452426861
                ]
            }
        },
        {
            "type": "Feature",
            "properties": {
                "name": "bruzzone e imareti snc",
                "id": "15907",
                "brand": "Tamoil",
                "amenity": "fuel",
                "operator": "BRUZZONE & IMARETI SOCIETA' IN NOME COLLETTIVO DI SERGIO BRUZZONE E PAOLO IMARETI"
            },
            "geometry": {
                "type": "Point",
                "coordinates": [
                    8.893071039286838,
                    44.43409114752199
                ]
            }
        },
        {
            "type": "Feature",
            "properties": {
                "name": "totalerg",
                "id": "31632",
                "brand": "Total Erg",
                "amenity": "fuel",
                "operator": "CARROZZERIA-OFFICINA F.LLI FERRERO DI FERRERO MARCO E C. SOCIETA' IN NOME COLLETTIVO"
            },
            "geometry": {
                "type": "Point",
                "coordinates": [
                    8.896778341104437,
                    44.462141943903596
                ]
            }
        },
        {
            "type": "Feature",
            "properties": {
                "name": "DO.FAR. S.N.C. DI FARCINTO G. E C.",
                "id": "18465",
                "brand": "Esso",
                "amenity": "fuel",
                "operator": "DO.FAR. - SOCIETA' IN NOME COLLETTIVO DI FARCINTO GIACOMO E C."
            },
            "geometry": {
                "type": "Point",
                "coordinates": [
                    8.954641968011854,
                    44.42804298277369
                ]
            }
        },
        {
            "type": "Feature",
            "properties": {
                "name": "51490 GENOVA CONTI",
                "id": "26129",
                "brand": "Agip Eni",
                "amenity": "fuel",
                "operator": "ENI RETE OIL&NONOIL S.P.A."
            },
            "geometry": {
                "type": "Point",
                "coordinates": [
                    8.86830397486881,
                    44.415725653593405
                ]
            }
        },
        {
            "type": "Feature",
            "properties": {
                "name": "stazione servizio ENI",
                "id": "7164",
                "brand": "Agip Eni",
                "amenity": "fuel",
                "operator": "MANTERO CARLO"
            },
            "geometry": {
                "type": "Point",
                "coordinates": [
                    8.907683193683624,
                    44.41870252034932
                ]
            }
        },
        {
            "type": "Feature",
            "properties": {
                "name": "SELF CENTER ZONZA",
                "id": "7512",
                "brand": "Api-Ip",
                "amenity": "fuel",
                "operator": "ZONZA GIANLUIGI"
            },
            "geometry": {
                "type": "Point",
                "coordinates": [
                    8.946234583854675,
                    44.40105731181375
                ]
            }
        },
        {
            "type": "Feature",
            "properties": {
                "name": "IP",
                "id": "25362",
                "brand": "Api-Ip",
                "amenity": "fuel",
                "operator": "BARISONE S.A.S. DI BARISONE PAOLA & C."
            },
            "geometry": {
                "type": "Point",
                "coordinates": [
                    8.955206573009491,
                    44.41164676179361
                ]
            }
        },
        {
            "type": "Feature",
            "properties": {
                "name": "CANTORE",
                "id": "5942",
                "brand": "Total Erg",
                "amenity": "fuel",
                "operator": "GESTIONI EUROPA S.p.A."
            },
            "geometry": {
                "type": "Point",
                "coordinates": [
                    8.903195728836067,
                    44.41041741988167
                ]
            }
        },
        {
            "type": "Feature",
            "properties": {
                "name": "PV 51487",
                "id": "31549",
                "brand": "Agip Eni",
                "amenity": "fuel",
                "operator": "GESTIONI INNOVATIVE ITALIA S.R.L."
            },
            "geometry": {
                "type": "Point",
                "coordinates": [
                    8.833242540475451,
                    44.426659895764836
                ]
            }
        },
        {
            "type": "Feature",
            "properties": {
                "name": "SESTRI PONENTE VIA BORZOLI 13 R",
                "id": "23764",
                "brand": "Q8",
                "amenity": "fuel",
                "operator": "SERVIZI & GESTIONI ITALIA S.R.L."
            },
            "geometry": {
                "type": "Point",
                "coordinates": [
                    8.855321109294891,
                    44.42488624199444
                ]
            }
        },
        {
            "type": "Feature",
            "properties": {
                "name": "GENOVA-CORSO ITALIA 34B/ROSSO",
                "id": "11601",
                "brand": "Q8",
                "amenity": "fuel",
                "operator": "SERVIZI & GESTIONI ITALIA S.R.L."
            },
            "geometry": {
                "type": "Point",
                "coordinates": [
                    8.963374156946543,
                    44.39312720456297
                ]
            }
        },
        {
            "type": "Feature",
            "properties": {
                "name": "DISTRIBUTORE IP",
                "id": "26131",
                "brand": "Api-Ip",
                "amenity": "fuel",
                "operator": "LUCERNA GIUSEPPE"
            },
            "geometry": {
                "type": "Point",
                "coordinates": [
                    8.95060122013092,
                    44.41549354702228
                ]
            }
        },
        {
            "type": "Feature",
            "properties": {
                "name": "AGIP",
                "id": "19363",
                "brand": "Agip Eni",
                "amenity": "fuel",
                "operator": "F.LLI CAPOGRECO MARCO & FABRIZIO S.N.C."
            },
            "geometry": {
                "type": "Point",
                "coordinates": [
                    8.956123968647717,
                    44.428680611965625
                ]
            }
        },
        {
            "type": "Feature",
            "properties": {
                "name": "STAZIONE Q8 FORTUNE",
                "id": "29951",
                "brand": "Q8",
                "amenity": "fuel",
                "operator": "FORTUNE S.N.C. DI SIMONE LOMUOIO E MATTIA CASAGRANDE"
            },
            "geometry": {
                "type": "Point",
                "coordinates": [
                    8.856953904032707,
                    44.42687761362488
                ]
            }
        },
        {
            "type": "Feature",
            "properties": {
                "name": "Q8",
                "id": "25364",
                "brand": "Q8",
                "amenity": "fuel",
                "operator": "BARISONE S.A.S. DI BARISONE PAOLA & C."
            },
            "geometry": {
                "type": "Point",
                "coordinates": [
                    8.824820460574301,
                    44.42504644087128
                ]
            }
        },
        {
            "type": "Feature",
            "properties": {
                "name": "IP",
                "id": "14802",
                "brand": "Api-Ip",
                "amenity": "fuel",
                "operator": "SALVINI ALESSANDRO"
            },
            "geometry": {
                "type": "Point",
                "coordinates": [
                    8.958207629146386,
                    44.39414542463374
                ]
            }
        },
        {
            "type": "Feature",
            "properties": {
                "name": "GENOVA-SESTRI PONENTE VIA MERANO 101/G/R",
                "id": "11600",
                "brand": "Shell",
                "amenity": "fuel",
                "operator": "SERVIZI & GESTIONI ITALIA S.R.L."
            },
            "geometry": {
                "type": "Point",
                "coordinates": [
                    8.836846355819716,
                    44.42755746389527
                ]
            }
        },
        {
            "type": "Feature",
            "properties": {
                "name": "GE MULTEDO",
                "id": "17680",
                "brand": "Api-Ip",
                "amenity": "fuel",
                "operator": "IP SERVICES S.R.L."
            },
            "geometry": {
                "type": "Point",
                "coordinates": [
                    8.829878542327835,
                    44.426344056562534
                ]
            }
        },
        {
            "type": "Feature",
            "properties": {
                "name": "erg bielleesse",
                "id": "15755",
                "brand": "Total Erg",
                "amenity": "fuel",
                "operator": "B.L.S. - S.N.C. DI RIVA STEFANO & C."
            },
            "geometry": {
                "type": "Point",
                "coordinates": [
                    8.854324707131925,
                    44.4161594998565
                ]
            }
        },
        {
            "type": "Feature",
            "properties": {
                "name": "dinegro carburanti sas",
                "id": "27380",
                "brand": "Esso",
                "amenity": "fuel",
                "operator": "DINEGRO CARBURANTI DI MAURO FONTANA S.A.S."
            },
            "geometry": {
                "type": "Point",
                "coordinates": [
                    8.910667341772522,
                    44.41348809862388
                ]
            }
        },
        {
            "type": "Feature",
            "properties": {
                "name": "TOTALERG  Dasso",
                "id": "13222",
                "brand": "Total Erg",
                "amenity": "fuel",
                "operator": "DASSO DANIEL MARCO E C. SNC"
            },
            "geometry": {
                "type": "Point",
                "coordinates": [
                    8.828820719573969,
                    44.42593961139582
                ]
            }
        },
        {
            "type": "Feature",
            "properties": {
                "name": "Stazione di servizio di Liguori Andrea",
                "id": "16991",
                "brand": "Api-Ip",
                "amenity": "fuel",
                "operator": "LIGUORI ANDREA"
            },
            "geometry": {
                "type": "Point",
                "coordinates": [
                    8.953085674584827,
                    44.404685497452604
                ]
            }
        },
        {
            "type": "Feature",
            "properties": {
                "name": "alloisio G&M",
                "id": "16359",
                "brand": "Esso",
                "amenity": "fuel",
                "operator": "ALLOISIO G. & M. SOCIETA' IN ACCOMANDITA SEMPLICE DI GABRIELLA ALLOISIO & C."
            },
            "geometry": {
                "type": "Point",
                "coordinates": [
                    8.804318484933445,
                    44.42407433609835
                ]
            }
        },
        {
            "type": "Feature",
            "properties": {
                "name": "Planet Oil Via Tolemaide",
                "id": "21391",
                "brand": "Api-Ip",
                "amenity": "fuel",
                "operator": "PLANET OIL SRL"
            },
            "geometry": {
                "type": "Point",
                "coordinates": [
                    8.950915280062757,
                    44.40495811053525
                ]
            }
        },
        {
            "type": "Feature",
            "properties": {
                "name": "Ip",
                "id": "29303",
                "brand": "Api-Ip",
                "amenity": "fuel",
                "operator": "GIOVINAZZO GIULIA"
            },
            "geometry": {
                "type": "Point",
                "coordinates": [
                    8.938232098075105,
                    44.41482425889691
                ]
            }
        },
        {
            "type": "Feature",
            "properties": {
                "name": "ENI",
                "id": "31515",
                "brand": "Agip Eni",
                "amenity": "fuel",
                "operator": "VELLA ROBERTO"
            },
            "geometry": {
                "type": "Point",
                "coordinates": [
                    8.910141602516205,
                    44.41857065211532
                ]
            }
        },
        {
            "type": "Feature",
            "properties": {
                "name": "distributore eni di santi ivano",
                "id": "29948",
                "brand": "Agip Eni",
                "amenity": "fuel",
                "operator": "DISTRIBUTORE ENI DI SANTI IVANO"
            },
            "geometry": {
                "type": "Point",
                "coordinates": [
                    8.896482829360934,
                    44.45411790779077
                ]
            }
        },
        {
            "type": "Feature",
            "properties": {
                "name": "a&V service snc",
                "id": "10023",
                "brand": "Agip Eni",
                "amenity": "fuel",
                "operator": "A. & V. SERVICE DI VICENTINI V. & C. SOCIETA' IN NOME COLLETTIVO"
            },
            "geometry": {
                "type": "Point",
                "coordinates": [
                    8.962509168777842,
                    44.3943848344009
                ]
            }
        },
        {
            "type": "Feature",
            "properties": {
                "name": "impianto eni 1023",
                "id": "4041",
                "brand": "Agip Eni",
                "amenity": "fuel",
                "operator": "CORRADO STEFANO"
            },
            "geometry": {
                "type": "Point",
                "coordinates": [
                    8.892273290807339,
                    44.40921382754989
                ]
            }
        },
        {
            "type": "Feature",
            "properties": {
                "name": "GE FILLAK",
                "id": "17679",
                "brand": "Api-Ip",
                "amenity": "fuel",
                "operator": "IP SERVICES S.R.L."
            },
            "geometry": {
                "type": "Point",
                "coordinates": [
                    8.888666472387285,
                    44.42179712652357
                ]
            }
        },
        {
            "type": "Feature",
            "properties": {
                "name": "ENI 51506",
                "id": "7343",
                "brand": "Agip Eni",
                "amenity": "fuel",
                "operator": "GIOVINAZZO ROBERTO"
            },
            "geometry": {
                "type": "Point",
                "coordinates": [
                    8.9359471827172,
                    44.41443524757584
                ]
            }
        },
        {
            "type": "Feature",
            "properties": {
                "name": "VEGNI MASSIMO",
                "id": "26230",
                "brand": "Api-Ip",
                "amenity": "fuel",
                "operator": "VEGNI MASSIMO"
            },
            "geometry": {
                "type": "Point",
                "coordinates": [
                    8.964138385391946,
                    44.44265048665085
                ]
            }
        },
        {
            "type": "Feature",
            "properties": {
                "name": "STAROIL",
                "id": "28766",
                "amenity": "fuel",
                "operator": "DUE ESSE S.R.L."
            },
            "geometry": {
                "type": "Point",
                "coordinates": [
                    8.95531362102929,
                    44.40465353321446
                ]
            }
        },
        {
            "type": "Feature",
            "properties": {
                "name": "italiana petroli",
                "id": "29273",
                "brand": "Api-Ip",
                "amenity": "fuel",
                "operator": "MARESCA ANDREA"
            },
            "geometry": {
                "type": "Point",
                "coordinates": [
                    8.9267178366066,
                    44.41757146302281
                ]
            }
        },
        {
            "type": "Feature",
            "properties": {
                "name": "GENOVA PIAZZA BRIGNOLE 28/R",
                "id": "23521",
                "brand": "Q8",
                "amenity": "fuel",
                "operator": "SERVIZI & GESTIONI ITALIA S.R.L."
            },
            "geometry": {
                "type": "Point",
                "coordinates": [
                    8.94441470503807,
                    44.40898808259555
                ]
            }
        },
        {
            "type": "Feature",
            "properties": {
                "name": "ESSO CORNIGLIANO",
                "id": "9225",
                "brand": "Esso",
                "amenity": "fuel",
                "operator": "ESSEPI DI PELLEGATTI CLAUDIO E C. S.N.C."
            },
            "geometry": {
                "type": "Point",
                "coordinates": [
                    8.8671920024467,
                    44.41563625388043
                ]
            }
        },
        {
            "type": "Feature",
            "properties": {
                "name": "ENI",
                "id": "26257",
                "brand": "Agip Eni",
                "amenity": "fuel",
                "operator": "VEGNI MASSIMO"
            },
            "geometry": {
                "type": "Point",
                "coordinates": [
                    8.963706493377684,
                    44.442048962939204
                ]
            }
        },
        {
            "type": "Feature",
            "properties": {
                "name": "distributore carburante Marina Genova Aeroporto",
                "id": "29448",
                "amenity": "fuel",
                "operator": "MARINA GENOVA DISTRIBUZIONE S.R.L."
            },
            "geometry": {
                "type": "Point",
                "coordinates": [
                    8.837778121232986,
                    44.417325078130666
                ]
            }
        },
        {
            "type": "Feature",
            "properties": {
                "name": "Stazione servizio Esso G.l.m. service snc",
                "id": "29457",
                "brand": "Esso",
                "amenity": "fuel",
                "operator": "G. L. M. SERVICE SNC DI VARGIU LUIGI & C."
            },
            "geometry": {
                "type": "Point",
                "coordinates": [
                    8.82536519080736,
                    44.42515344816955
                ]
            }
        },
        {
            "type": "Feature",
            "properties": {
                "name": "impianto eni di carlo rizzo",
                "id": "16616",
                "brand": "Agip Eni",
                "amenity": "fuel",
                "operator": "RIZZO CARLO"
            },
            "geometry": {
                "type": "Point",
                "coordinates": [
                    8.903696089982986,
                    44.41057725000341
                ]
            }
        },
        {
            "type": "Feature",
            "properties": {
                "name": "LANGELLOTTI INNOCENZO",
                "id": "22164",
                "brand": "Api-Ip",
                "amenity": "fuel",
                "operator": "LANGELLOTTI INNOCENZO"
            },
            "geometry": {
                "type": "Point",
                "coordinates": [
                    8.922444796024593,
                    44.41871497227963
                ]
            }
        },
        {
            "type": "Feature",
            "properties": {
                "name": "GENOVA - FIERA del MARE",
                "id": "5413",
                "brand": "Agip Eni",
                "amenity": "fuel",
                "operator": "enirete oil&nonoil S.p.A."
            },
            "geometry": {
                "type": "Point",
                "coordinates": [
                    8.944301936363786,
                    44.398851540929215
                ]
            }
        },
        {
            "type": "Feature",
            "properties": {
                "name": "api anonima petroli italiana s.p.a",
                "id": "8758",
                "amenity": "fuel",
                "operator": "PARODI E MANGINI CARBURANTI SOCIETA' IN ACCOMANDITA SEMPLICE DI ANGELO PARODI E MARCO MANGINI & C."
            },
            "geometry": {
                "type": "Point",
                "coordinates": [
                    8.866508603096008,
                    44.433266554584996
                ]
            }
        },
        {
            "type": "Feature",
            "properties": {
                "name": "totalerg snc",
                "id": "29838",
                "brand": "Total Erg",
                "amenity": "fuel",
                "operator": "STAZIONE DI SERVIZIO TOTALERG S.N.C. DI SEGALERBA ANDREA"
            },
            "geometry": {
                "type": "Point",
                "coordinates": [
                    8.957471698522568,
                    44.43112677003245
                ]
            }
        },
        {
            "type": "Feature",
            "properties": {
                "name": "stazione di servizio IP gruppo API di Avenoso Marco",
                "id": "31582",
                "brand": "Api-Ip",
                "amenity": "fuel",
                "operator": "AVENOSO MARCO"
            },
            "geometry": {
                "type": "Point",
                "coordinates": [
                    8.89593243598938,
                    44.45389617121978
                ]
            }
        },
        {
            "type": "Feature",
            "properties": {
                "name": "ITALFUEL",
                "id": "28765",
                "amenity": "fuel",
                "operator": "DUE ESSE S.R.L."
            },
            "geometry": {
                "type": "Point",
                "coordinates": [
                    8.948903703732979,
                    44.3977370580812
                ]
            }
        },
        {
            "type": "Feature",
            "properties": {
                "name": "Esso Andrea e Michele Gimondo s.n.c",
                "id": "7855",
                "brand": "Esso",
                "amenity": "fuel",
                "operator": "ANDREA E MICHELE GIMONDO S.N.C."
            },
            "geometry": {
                "type": "Point",
                "coordinates": [
                    8.904608636556757,
                    44.4643527993978
                ]
            }
        },
        {
            "type": "Feature",
            "properties": {
                "name": "GENOVA - POLONIO",
                "id": "30800",
                "brand": "Api-Ip",
                "amenity": "fuel",
                "operator": "IP SERVICES S.R.L."
            },
            "geometry": {
                "type": "Point",
                "coordinates": [
                    8.892371836805296,
                    44.45254882341928
                ]
            }
        },
        {
            "type": "Feature",
            "properties": {
                "name": "ESSO",
                "id": "16823",
                "brand": "Esso",
                "amenity": "fuel",
                "operator": "MANIN CARBURANTI DI PAOLA BARAVELLI, BRUNO FRESU & C. S.A.S."
            },
            "geometry": {
                "type": "Point",
                "coordinates": [
                    8.947452931232872,
                    44.41419347100985
                ]
            }
        },
        {
            "type": "Feature",
            "properties": {
                "name": "distributore \" ESSO\"",
                "id": "10583",
                "brand": "Esso",
                "amenity": "fuel",
                "operator": "PARODI ANGELO"
            },
            "geometry": {
                "type": "Point",
                "coordinates": [
                    8.89672268023719,
                    44.45632152750028
                ]
            }
        },
        {
            "type": "Feature",
            "properties": {
                "name": "stazione ENI",
                "id": "7182",
                "brand": "Agip Eni",
                "amenity": "fuel",
                "operator": "CAPOGRECO VINCENZO E LUCA S.N.C."
            },
            "geometry": {
                "type": "Point",
                "coordinates": [
                    8.952667077909837,
                    44.40695901088688
                ]
            }
        },
        {
            "type": "Feature",
            "properties": {
                "name": "Q8  di Perassolo Emilio & c snc",
                "id": "22187",
                "brand": "Q8",
                "amenity": "fuel",
                "operator": "PERASSOLO S.A.S. DI PERASSOLO PATRIZIA"
            },
            "geometry": {
                "type": "Point",
                "coordinates": [
                    8.898328382402951,
                    44.40710391469852
                ]
            }
        },
        {
            "type": "Feature",
            "properties": {
                "name": "LA LANTERNA EST",
                "id": "3910",
                "brand": "Shell",
                "amenity": "fuel",
                "operator": "lanterna service s.a.s."
            },
            "geometry": {
                "type": "Point",
                "coordinates": [
                    8.900712381614653,
                    44.411171624071876
                ]
            }
        }
    ]
}