{
    "type": "FeatureCollection",
    "features": [
        {
            "type": "Feature",
            "properties": {
                "name": "Rossetti Giuseppe P.V. Totalerg",
                "id": "5049",
                "brand": "Total Erg",
                "amenity": "fuel",
                "operator": "ROSSETTI GIUSEPPE"
            },
            "geometry": {
                "type": "Point",
                "coordinates": [
                    8.994728922843933,
                    45.567452196342266
                ]
            }
        },
        {
            "type": "Feature",
            "properties": {
                "name": "TOTALERG",
                "id": "10421",
                "brand": "Total Erg",
                "amenity": "fuel",
                "operator": "ANDREATTA MARCO PAOLO"
            },
            "geometry": {
                "type": "Point",
                "coordinates": [
                    9.130008816719053,
                    45.48543580487975
                ]
            }
        },
        {
            "type": "Feature",
            "properties": {
                "name": "CASOLO ALESSANDRO",
                "id": "4289",
                "brand": "Agip Eni",
                "amenity": "fuel",
                "operator": "CASOLO ALESSANDRO"
            },
            "geometry": {
                "type": "Point",
                "coordinates": [
                    9.043485447764397,
                    45.53173277505721
                ]
            }
        },
        {
            "type": "Feature",
            "properties": {
                "name": "TOTALERG",
                "id": "11975",
                "brand": "Total Erg",
                "amenity": "fuel",
                "operator": "CERIANI PIERANGELO"
            },
            "geometry": {
                "type": "Point",
                "coordinates": [
                    9.029844098950207,
                    45.53382595373994
                ]
            }
        },
        {
            "type": "Feature",
            "properties": {
                "name": "ESSO di Marchetto Gianfranco",
                "id": "21197",
                "brand": "Esso",
                "amenity": "fuel",
                "operator": "ESSO DI MARCHETTO GIANFRANCO"
            },
            "geometry": {
                "type": "Point",
                "coordinates": [
                    9.1065073584748,
                    45.50488064752391
                ]
            }
        },
        {
            "type": "Feature",
            "properties": {
                "name": "Stazione di Servizio ESSO",
                "id": "19181",
                "brand": "Esso",
                "amenity": "fuel",
                "operator": "BRENTAN DANIELA"
            },
            "geometry": {
                "type": "Point",
                "coordinates": [
                    9.137506725725531,
                    45.467250005743175
                ]
            }
        },
        {
            "type": "Feature",
            "properties": {
                "name": "LAINATE-VIA GARBAGNATE 58/60",
                "id": "11685",
                "brand": "Shell",
                "amenity": "fuel",
                "operator": "SERVIZI & GESTIONI ITALIA S.R.L."
            },
            "geometry": {
                "type": "Point",
                "coordinates": [
                    9.042500000000018,
                    45.57374541847877
                ]
            }
        },
        {
            "type": "Feature",
            "properties": {
                "name": "IMPIANTO ENI LONATI SAS",
                "id": "7577",
                "brand": "Agip Eni",
                "amenity": "fuel",
                "operator": "LONATI S.A.S.  DI PAOLA LONATI & C."
            },
            "geometry": {
                "type": "Point",
                "coordinates": [
                    8.980867196820098,
                    45.549586017077544
                ]
            }
        },
        {
            "type": "Feature",
            "properties": {
                "name": "Iper Station Arese",
                "id": "30892",
                "amenity": "fuel",
                "operator": "IPER MONTEBELLO S.P.A."
            },
            "geometry": {
                "type": "Point",
                "coordinates": [
                    9.053292274475098,
                    45.56176087890731
                ]
            }
        },
        {
            "type": "Feature",
            "properties": {
                "name": "Esso",
                "id": "27947",
                "brand": "Esso",
                "amenity": "fuel",
                "operator": "ARBOLINO DI ARBOLINO TIZIANA E C. SAS"
            },
            "geometry": {
                "type": "Point",
                "coordinates": [
                    9.067463880850141,
                    45.574605386093054
                ]
            }
        },
        {
            "type": "Feature",
            "properties": {
                "name": "Stazione di Servizio nÂ° 1131 Q8 Outlet",
                "id": "30023",
                "brand": "Q8",
                "amenity": "fuel",
                "operator": "DEL GIUDICE BONAVENTURA"
            },
            "geometry": {
                "type": "Point",
                "coordinates": [
                    9.130849689245224,
                    45.53807566917228
                ]
            }
        },
        {
            "type": "Feature",
            "properties": {
                "name": "ENI",
                "id": "5111",
                "brand": "Agip Eni",
                "amenity": "fuel",
                "operator": "COLLU SATURNINO"
            },
            "geometry": {
                "type": "Point",
                "coordinates": [
                    9.08200666308403,
                    45.55977193668537
                ]
            }
        },
        {
            "type": "Feature",
            "properties": {
                "name": "stazione servizio iovene pasqualina",
                "id": "20379",
                "brand": "Q8",
                "amenity": "fuel",
                "operator": "STAZIONE DI SERVIZIO IOVENE PASQUALINA"
            },
            "geometry": {
                "type": "Point",
                "coordinates": [
                    9.13671061982916,
                    45.51259982120129
                ]
            }
        },
        {
            "type": "Feature",
            "properties": {
                "name": "royal gas",
                "id": "14068",
                "brand": "Api-Ip",
                "amenity": "fuel",
                "operator": "ROYAL GAS S.R.L."
            },
            "geometry": {
                "type": "Point",
                "coordinates": [
                    9.045749619643402,
                    45.51555596423258
                ]
            }
        },
        {
            "type": "Feature",
            "properties": {
                "name": "PERO",
                "id": "5440",
                "brand": "Agip Eni",
                "amenity": "fuel",
                "operator": "enirete oil&nonoil S.p.A."
            },
            "geometry": {
                "type": "Point",
                "coordinates": [
                    9.095755160713225,
                    45.50746804033977
                ]
            }
        },
        {
            "type": "Feature",
            "properties": {
                "name": "56804 BAREGGIO MILANO",
                "id": "26126",
                "brand": "Agip Eni",
                "amenity": "fuel",
                "operator": "ENI RETE OIL&NONOIL S.P.A."
            },
            "geometry": {
                "type": "Point",
                "coordinates": [
                    8.997810710481986,
                    45.47890712595467
                ]
            }
        },
        {
            "type": "Feature",
            "properties": {
                "name": "MILANO-VIA DEL GHISALLO 9",
                "id": "11695",
                "brand": "Q8",
                "amenity": "fuel",
                "operator": "SERVIZI & GESTIONI ITALIA S.R.L."
            },
            "geometry": {
                "type": "Point",
                "coordinates": [
                    9.130983906745882,
                    45.49815640142936
                ]
            }
        },
        {
            "type": "Feature",
            "properties": {
                "name": "VILLORESI OVEST",
                "id": "3927",
                "brand": "Agip Eni",
                "amenity": "fuel",
                "operator": "villoresi di vitale gaetano &c. snc"
            },
            "geometry": {
                "type": "Point",
                "coordinates": [
                    9.040143933868421,
                    45.55834880837939
                ]
            }
        },
        {
            "type": "Feature",
            "properties": {
                "name": "NERVIANO-SS. 33 SEMPIONE KM.18+600",
                "id": "11658",
                "brand": "Q8",
                "amenity": "fuel",
                "operator": "SERVIZI & GESTIONI ITALIA S.R.L."
            },
            "geometry": {
                "type": "Point",
                "coordinates": [
                    8.989460932540851,
                    45.55000751325928
                ]
            }
        },
        {
            "type": "Feature",
            "properties": {
                "name": "totalerg",
                "id": "16374",
                "brand": "Total Erg",
                "amenity": "fuel",
                "operator": "VUOTTI ANTONIO"
            },
            "geometry": {
                "type": "Point",
                "coordinates": [
                    9.06555863511744,
                    45.4643942631942
                ]
            }
        },
        {
            "type": "Feature",
            "properties": {
                "name": "M.A.S. S.r.l.",
                "id": "24317",
                "amenity": "fuel",
                "operator": "METANO PER AUTO SETTIMO MILANESE M.A.S. SRL"
            },
            "geometry": {
                "type": "Point",
                "coordinates": [
                    9.096813797950745,
                    45.506485252405575
                ]
            }
        },
        {
            "type": "Feature",
            "properties": {
                "name": "MILANO - LEGIONI ROMANE",
                "id": "24274",
                "brand": "Api-Ip",
                "amenity": "fuel",
                "operator": "IP SERVICES S.R.L."
            },
            "geometry": {
                "type": "Point",
                "coordinates": [
                    9.134208046627009,
                    45.46054326996602
                ]
            }
        },
        {
            "type": "Feature",
            "properties": {
                "name": "Stazione Rifornimento Q8 Torzini Luca",
                "id": "13234",
                "brand": "Q8",
                "amenity": "fuel",
                "operator": "TORZINI LUCA"
            },
            "geometry": {
                "type": "Point",
                "coordinates": [
                    9.124655993219335,
                    45.46991993269708
                ]
            }
        },
        {
            "type": "Feature",
            "properties": {
                "name": "RHO",
                "id": "3567",
                "brand": "Tamoil",
                "amenity": "fuel",
                "operator": "NUOVA SIDAP  S.R.L."
            },
            "geometry": {
                "type": "Point",
                "coordinates": [
                    9.057970542327894,
                    45.53702369752651
                ]
            }
        },
        {
            "type": "Feature",
            "properties": {
                "name": "LUDOIL GALLO NICOLA",
                "id": "18843",
                "amenity": "fuel",
                "operator": "GALLO NICOLA"
            },
            "geometry": {
                "type": "Point",
                "coordinates": [
                    9.135295868647743,
                    45.463067651333596
                ]
            }
        },
        {
            "type": "Feature",
            "properties": {
                "name": "TOTAL ERG RHO",
                "id": "24279",
                "brand": "Total Erg",
                "amenity": "fuel",
                "operator": "GHULAM PAK DI ANWAR SAEED & C. S.A.S."
            },
            "geometry": {
                "type": "Point",
                "coordinates": [
                    9.019233584403992,
                    45.54109280194033
                ]
            }
        },
        {
            "type": "Feature",
            "properties": {
                "name": "Oil One",
                "id": "19095",
                "amenity": "fuel",
                "operator": "AUTORIPARAZIONI RIZZI DI RINALDO RIZZI E C. - S.N.C."
            },
            "geometry": {
                "type": "Point",
                "coordinates": [
                    9.006143106056697,
                    45.515219533472575
                ]
            }
        },
        {
            "type": "Feature",
            "properties": {
                "name": "ENI",
                "id": "6325",
                "brand": "Agip Eni",
                "amenity": "fuel",
                "operator": "DOMA S.N.C. DI MADERNA GIOVANNI & C. S.N.C."
            },
            "geometry": {
                "type": "Point",
                "coordinates": [
                    9.021128602069098,
                    45.57049616674812
                ]
            }
        },
        {
            "type": "Feature",
            "properties": {
                "name": "V.GAVINANA GARBA",
                "id": "12063",
                "brand": "Esso",
                "amenity": "fuel",
                "operator": "SERVIZI E GESTIONI ZENIT S.R.L. IN SIGLA - ZENIT S.R.L."
            },
            "geometry": {
                "type": "Point",
                "coordinates": [
                    9.07853596808809,
                    45.578740589578025
                ]
            }
        },
        {
            "type": "Feature",
            "properties": {
                "name": "ENI STATION 2194",
                "id": "4568",
                "brand": "Agip Eni",
                "amenity": "fuel",
                "operator": "CASOLO S.N.C. DI CASOLO IVANO & C."
            },
            "geometry": {
                "type": "Point",
                "coordinates": [
                    9.101155506745954,
                    45.48027441614375
                ]
            }
        },
        {
            "type": "Feature",
            "properties": {
                "name": "RHO - LAINATE",
                "id": "27031",
                "brand": "Api-Ip",
                "amenity": "fuel",
                "operator": "IP SERVICES S.R.L."
            },
            "geometry": {
                "type": "Point",
                "coordinates": [
                    9.031285830688491,
                    45.54746386562609
                ]
            }
        },
        {
            "type": "Feature",
            "properties": {
                "name": "TOTALERG",
                "id": "9825",
                "brand": "Total Erg",
                "amenity": "fuel",
                "operator": "CARONNI LAURA"
            },
            "geometry": {
                "type": "Point",
                "coordinates": [
                    9.020634635581928,
                    45.49914899940036
                ]
            }
        },
        {
            "type": "Feature",
            "properties": {
                "name": "VIA PISACANE 9/B - PERO",
                "id": "27792",
                "brand": "Q8",
                "amenity": "fuel",
                "operator": "SERVIZI & GESTIONI ITALIA S.R.L."
            },
            "geometry": {
                "type": "Point",
                "coordinates": [
                    9.088904893254039,
                    45.506984215320095
                ]
            }
        },
        {
            "type": "Feature",
            "properties": {
                "name": "VILLORESI EST",
                "id": "3555",
                "brand": "Esso",
                "amenity": "fuel",
                "operator": "Nuova Sidap SRL"
            },
            "geometry": {
                "type": "Point",
                "coordinates": [
                    9.039123033065833,
                    45.559969952300186
                ]
            }
        },
        {
            "type": "Feature",
            "properties": {
                "name": "Milano Palatino",
                "id": "4678",
                "brand": "Esso",
                "amenity": "fuel",
                "operator": "NUOVA SIDAP  S.R.L."
            },
            "geometry": {
                "type": "Point",
                "coordinates": [
                    9.131465256214142,
                    45.47631101881972
                ]
            }
        },
        {
            "type": "Feature",
            "properties": {
                "name": "TOINI ANDREA NERVIANO",
                "id": "24164",
                "brand": "Api-Ip",
                "amenity": "fuel",
                "operator": "TOINI ANDREA"
            },
            "geometry": {
                "type": "Point",
                "coordinates": [
                    8.970544037050672,
                    45.56112990022505
                ]
            }
        },
        {
            "type": "Feature",
            "properties": {
                "name": "via verdi",
                "id": "8741",
                "brand": "Esso",
                "amenity": "fuel",
                "operator": "CUSITEX DI CIRRINCIONE DOMENICO E C. S.N.C."
            },
            "geometry": {
                "type": "Point",
                "coordinates": [
                    9.112526178359985,
                    45.547505643810354
                ]
            }
        },
        {
            "type": "Feature",
            "properties": {
                "name": "ET CAR SERVICE DI SAMMARCO EMILIANO",
                "id": "10515",
                "brand": "Api-Ip",
                "amenity": "fuel",
                "operator": "ET CAR SERVICE DI SAMMARCO EMILIANO"
            },
            "geometry": {
                "type": "Point",
                "coordinates": [
                    9.045819357077788,
                    45.515450649237735
                ]
            }
        },
        {
            "type": "Feature",
            "properties": {
                "name": "MM CAR GLOBAL ASSISTANCE",
                "id": "14135",
                "brand": "Tamoil",
                "amenity": "fuel",
                "operator": "M M CAR GLOBAL ASSISTANCE DI MOTTA MAURO"
            },
            "geometry": {
                "type": "Point",
                "coordinates": [
                    9.006147753303594,
                    45.51382127714275
                ]
            }
        },
        {
            "type": "Feature",
            "properties": {
                "name": "Milano Via Trilussa",
                "id": "24668",
                "brand": "Total Erg",
                "amenity": "fuel",
                "operator": "GESTIONI EUROPA - SOCIETA' PER AZIONI"
            },
            "geometry": {
                "type": "Point",
                "coordinates": [
                    9.137596786022186,
                    45.5146142884063
                ]
            }
        },
        {
            "type": "Feature",
            "properties": {
                "name": "TOTALERG",
                "id": "28768",
                "brand": "Total Erg",
                "amenity": "fuel",
                "operator": "MIKKA SAS DI CAVALLO STEFANO & C."
            },
            "geometry": {
                "type": "Point",
                "coordinates": [
                    9.076316356658936,
                    45.575817243301614
                ]
            }
        },
        {
            "type": "Feature",
            "properties": {
                "name": "DISTRIBUTORE ESSO DI CAREGNATO DAVIDE",
                "id": "23249",
                "brand": "Esso",
                "amenity": "fuel",
                "operator": "CAREGNATO DAVIDE ANTONIO"
            },
            "geometry": {
                "type": "Point",
                "coordinates": [
                    9.110622895631423,
                    45.46073744461793
                ]
            }
        },
        {
            "type": "Feature",
            "properties": {
                "name": "Mas",
                "id": "12173",
                "amenity": "fuel",
                "operator": "METANO PER AUTO SETTIMO MILANESE M.A.S. SRL"
            },
            "geometry": {
                "type": "Point",
                "coordinates": [
                    9.042529910802841,
                    45.48783673957716
                ]
            }
        },
        {
            "type": "Feature",
            "properties": {
                "name": "Rho",
                "id": "4665",
                "brand": "Esso",
                "amenity": "fuel",
                "operator": "NUOVA SIDAP  S.R.L."
            },
            "geometry": {
                "type": "Point",
                "coordinates": [
                    9.061592370271683,
                    45.529587940917224
                ]
            }
        },
        {
            "type": "Feature",
            "properties": {
                "name": "SCOVI SAS - AGIP",
                "id": "16838",
                "brand": "Agip Eni",
                "amenity": "fuel",
                "operator": "SCOVI S.A.S. DI SCOVINO NINETTA  &  C."
            },
            "geometry": {
                "type": "Point",
                "coordinates": [
                    9.07645447850416,
                    45.50660914410994
                ]
            }
        },
        {
            "type": "Feature",
            "properties": {
                "name": "CASOLO STEFANO",
                "id": "10413",
                "brand": "Tamoil",
                "amenity": "fuel",
                "operator": "CASOLO STEFANO"
            },
            "geometry": {
                "type": "Point",
                "coordinates": [
                    9.111822098493576,
                    45.54183702796548
                ]
            }
        },
        {
            "type": "Feature",
            "properties": {
                "name": "Stazione di Servizio Auchan/Tamoil",
                "id": "7053",
                "brand": "Tamoil",
                "amenity": "fuel",
                "operator": "AUCHAN S.P.A."
            },
            "geometry": {
                "type": "Point",
                "coordinates": [
                    8.987748473882675,
                    45.55412134897966
                ]
            }
        },
        {
            "type": "Feature",
            "properties": {
                "name": "ENI",
                "id": "31077",
                "brand": "Agip Eni",
                "amenity": "fuel",
                "operator": "ABBATTISTA DOMENICO"
            },
            "geometry": {
                "type": "Point",
                "coordinates": [
                    9.133735637959262,
                    45.463251884444176
                ]
            }
        },
        {
            "type": "Feature",
            "properties": {
                "name": "TOTAL ERG",
                "id": "31221",
                "brand": "Total Erg",
                "amenity": "fuel",
                "operator": "VIRCIGLIO DAVIDE"
            },
            "geometry": {
                "type": "Point",
                "coordinates": [
                    9.086842427490524,
                    45.461906813886806
                ]
            }
        },
        {
            "type": "Feature",
            "properties": {
                "name": "VIA PELLICO BOLL",
                "id": "12069",
                "brand": "Esso",
                "amenity": "fuel",
                "operator": "SERVIZI E GESTIONI ZENIT S.R.L. IN SIGLA - ZENIT S.R.L."
            },
            "geometry": {
                "type": "Point",
                "coordinates": [
                    9.130003201223417,
                    45.545110308922744
                ]
            }
        },
        {
            "type": "Feature",
            "properties": {
                "name": "MILANO - VIA FORZE ARMATE 241",
                "id": "30114",
                "brand": "Q8",
                "amenity": "fuel",
                "operator": "SERVIZI & GESTIONI ITALIA S.R.L."
            },
            "geometry": {
                "type": "Point",
                "coordinates": [
                    9.109656087766327,
                    45.46037001431894
                ]
            }
        },
        {
            "type": "Feature",
            "properties": {
                "name": "CARONNO PERTUSELLA - VIALE 5 GIORNATE",
                "id": "30797",
                "brand": "Q8",
                "amenity": "fuel",
                "operator": "SERVIZI & GESTIONI ITALIA S.R.L."
            },
            "geometry": {
                "type": "Point",
                "coordinates": [
                    9.060047826983691,
                    45.581665034399315
                ]
            }
        },
        {
            "type": "Feature",
            "properties": {
                "name": "OILONE",
                "id": "18802",
                "amenity": "fuel",
                "operator": "BRITA S.A.S. DI D'AMATO DAVIDE & C."
            },
            "geometry": {
                "type": "Point",
                "coordinates": [
                    9.10411467909853,
                    45.505139915542536
                ]
            }
        },
        {
            "type": "Feature",
            "properties": {
                "name": "MILANO-VIA NOVARA 82",
                "id": "11664",
                "brand": "Q8",
                "amenity": "fuel",
                "operator": "SERVIZI & GESTIONI ITALIA S.R.L."
            },
            "geometry": {
                "type": "Point",
                "coordinates": [
                    9.121613818454762,
                    45.47161880932869
                ]
            }
        },
        {
            "type": "Feature",
            "properties": {
                "name": "AGIP",
                "id": "11327",
                "brand": "Agip Eni",
                "amenity": "fuel",
                "operator": "SCALI ROSSELLA"
            },
            "geometry": {
                "type": "Point",
                "coordinates": [
                    9.134978950023651,
                    45.528944380746196
                ]
            }
        },
        {
            "type": "Feature",
            "properties": {
                "name": "Esso Prinelli",
                "id": "22039",
                "brand": "Esso",
                "amenity": "fuel",
                "operator": "PRINELLI SANTINA"
            },
            "geometry": {
                "type": "Point",
                "coordinates": [
                    9.049645811319351,
                    45.48955388667053
                ]
            }
        },
        {
            "type": "Feature",
            "properties": {
                "name": "RHO -VIA CAPUANA C/O ESSELUNGA CENTRE",
                "id": "11712",
                "brand": "Q8",
                "amenity": "fuel",
                "operator": "SERVIZI & GESTIONI ITALIA S.R.L."
            },
            "geometry": {
                "type": "Point",
                "coordinates": [
                    9.021690487861633,
                    45.536429892179534
                ]
            }
        },
        {
            "type": "Feature",
            "properties": {
                "name": "VIA XXIV MAGGIO SENAGO",
                "id": "24400",
                "brand": "Esso",
                "amenity": "fuel",
                "operator": "SERVIZI E GESTIONI ZENIT S.R.L. IN SIGLA - ZENIT S.R.L."
            },
            "geometry": {
                "type": "Point",
                "coordinates": [
                    9.116305728836096,
                    45.57547650985403
                ]
            }
        },
        {
            "type": "Feature",
            "properties": {
                "name": "AL.SE S.N.C. DI SCARCELLA ALBERTO E SCARCELLA SEBASTIANO",
                "id": "16839",
                "brand": "Esso",
                "amenity": "fuel",
                "operator": "AL.SE S.N.C. DI SCARCELLA ALBERTO E SCARCELLA SEBASTIANO"
            },
            "geometry": {
                "type": "Point",
                "coordinates": [
                    9.11184588902438,
                    45.527902294192934
                ]
            }
        },
        {
            "type": "Feature",
            "properties": {
                "name": "BOLLATE-FZ. OSPIATE VIA REPUBBLICA 16",
                "id": "11699",
                "brand": "Q8",
                "amenity": "fuel",
                "operator": "SERVIZI & GESTIONI ITALIA S.R.L."
            },
            "geometry": {
                "type": "Point",
                "coordinates": [
                    9.105332186508122,
                    45.54173005746877
                ]
            }
        },
        {
            "type": "Feature",
            "properties": {
                "name": "MILANO - VIA NOVARA 391",
                "id": "7260",
                "brand": "Q8",
                "amenity": "fuel",
                "operator": "SERVIZI & GESTIONI ITALIA S.R.L."
            },
            "geometry": {
                "type": "Point",
                "coordinates": [
                    9.088782372789069,
                    45.48313980009452
                ]
            }
        },
        {
            "type": "Feature",
            "properties": {
                "name": "ARESE",
                "id": "5952",
                "brand": "Total Erg",
                "amenity": "fuel",
                "operator": "GESTIONI EUROPA S.p.A."
            },
            "geometry": {
                "type": "Point",
                "coordinates": [
                    9.052639017196725,
                    45.554355705634784
                ]
            }
        },
        {
            "type": "Feature",
            "properties": {
                "name": "MILANO - NOVARA 169",
                "id": "29212",
                "brand": "Api-Ip",
                "amenity": "fuel",
                "operator": "IP SERVICES S.R.L."
            },
            "geometry": {
                "type": "Point",
                "coordinates": [
                    9.111775101852457,
                    45.47614733814495
                ]
            }
        },
        {
            "type": "Feature",
            "properties": {
                "name": "EKO POINT",
                "id": "28454",
                "amenity": "fuel",
                "operator": "C- PETROL S.R.L."
            },
            "geometry": {
                "type": "Point",
                "coordinates": [
                    9.057772904634476,
                    45.578883991894855
                ]
            }
        },
        {
            "type": "Feature",
            "properties": {
                "name": "RHO-SS. 33 DEL SEMPIONE KM.15+660",
                "id": "11686",
                "brand": "Q8",
                "amenity": "fuel",
                "operator": "SERVIZI & GESTIONI ITALIA S.R.L."
            },
            "geometry": {
                "type": "Point",
                "coordinates": [
                    9.024223381614663,
                    45.540303757278025
                ]
            }
        },
        {
            "type": "Feature",
            "properties": {
                "name": "TOTALERG DI GALLI MARIO",
                "id": "4811",
                "brand": "Total Erg",
                "amenity": "fuel",
                "operator": "GALLI MARIO"
            },
            "geometry": {
                "type": "Point",
                "coordinates": [
                    9.013562875082357,
                    45.51129001073931
                ]
            }
        },
        {
            "type": "Feature",
            "properties": {
                "name": "POMPA BIANCA",
                "id": "29891",
                "amenity": "fuel",
                "operator": "MEOLA CHIARA MARIA"
            },
            "geometry": {
                "type": "Point",
                "coordinates": [
                    9.139705586193259,
                    45.50035452509579
                ]
            }
        },
        {
            "type": "Feature",
            "properties": {
                "name": "KEROPETROL BARANZATE GPL",
                "id": "31656",
                "amenity": "fuel",
                "operator": "KEROPETROL S.P.A."
            },
            "geometry": {
                "type": "Point",
                "coordinates": [
                    9.105639606714249,
                    45.53491875810432
                ]
            }
        },
        {
            "type": "Feature",
            "properties": {
                "name": "STAZIONE DI SERVIZIO ENI DISCARIM SAS",
                "id": "5083",
                "brand": "Agip Eni",
                "amenity": "fuel",
                "operator": "DISCARIM S.A.S. DISTRIBUZIONE CARBURANTI E GESTIONE IMPIANTI DI S ANTANGELO ANTONIO GIUSEPPE & C."
            },
            "geometry": {
                "type": "Point",
                "coordinates": [
                    9.057516753673553,
                    45.496491391424335
                ]
            }
        },
        {
            "type": "Feature",
            "properties": {
                "name": "Total Erg di Sagliocco",
                "id": "18258",
                "brand": "Total Erg",
                "amenity": "fuel",
                "operator": "SAGLIOCCO COSIMO DAMIANO"
            },
            "geometry": {
                "type": "Point",
                "coordinates": [
                    9.086836142731729,
                    45.46185920266348
                ]
            }
        },
        {
            "type": "Feature",
            "properties": {
                "name": "SETTIMO MILANESE S.S. 11 KM 130+776",
                "id": "24383",
                "brand": "Q8",
                "amenity": "fuel",
                "operator": "SERVIZI & GESTIONI ITALIA S.R.L."
            },
            "geometry": {
                "type": "Point",
                "coordinates": [
                    9.041356613491871,
                    45.49012202060382
                ]
            }
        },
        {
            "type": "Feature",
            "properties": {
                "name": "RHO - SS 33 KM 15+580",
                "id": "23101",
                "brand": "Api-Ip",
                "amenity": "fuel",
                "operator": "IP SERVICES S.R.L."
            },
            "geometry": {
                "type": "Point",
                "coordinates": [
                    9.02470728836056,
                    45.54066994198054
                ]
            }
        },
        {
            "type": "Feature",
            "properties": {
                "name": "MODENA LAURA",
                "id": "27918",
                "brand": "Agip Eni",
                "amenity": "fuel",
                "operator": "MODENA LAURA"
            },
            "geometry": {
                "type": "Point",
                "coordinates": [
                    9.026694148778915,
                    45.497373652470756
                ]
            }
        },
        {
            "type": "Feature",
            "properties": {
                "name": "VIA CAVOUR, 79 SENAGO",
                "id": "24399",
                "brand": "Esso",
                "amenity": "fuel",
                "operator": "SERVIZI E GESTIONI ZENIT S.R.L. IN SIGLA - ZENIT S.R.L."
            },
            "geometry": {
                "type": "Point",
                "coordinates": [
                    9.129318813491864,
                    45.58245416727176
                ]
            }
        },
        {
            "type": "Feature",
            "properties": {
                "name": "MILANO-V.LE CERTOSA 228",
                "id": "11701",
                "brand": "Shell",
                "amenity": "fuel",
                "operator": "SERVIZI & GESTIONI ITALIA S.R.L."
            },
            "geometry": {
                "type": "Point",
                "coordinates": [
                    9.13087014484404,
                    45.500075199355685
                ]
            }
        },
        {
            "type": "Feature",
            "properties": {
                "name": "VIA PACE BOLLATE",
                "id": "28598",
                "brand": "Esso",
                "amenity": "fuel",
                "operator": "SERVIZI E GESTIONI ZENIT S.R.L. IN SIGLA - ZENIT S.R.L."
            },
            "geometry": {
                "type": "Point",
                "coordinates": [
                    9.13114473223686,
                    45.5591746393142
                ]
            }
        },
        {
            "type": "Feature",
            "properties": {
                "name": "CASOLO MAURIZIO",
                "id": "10410",
                "brand": "Tamoil",
                "amenity": "fuel",
                "operator": "CASOLO MAURIZIO"
            },
            "geometry": {
                "type": "Point",
                "coordinates": [
                    9.029773494598771,
                    45.55220864802774
                ]
            }
        },
        {
            "type": "Feature",
            "properties": {
                "name": "MILANO GALLARATE",
                "id": "5505",
                "brand": "Agip Eni",
                "amenity": "fuel",
                "operator": "enirete oil&nonoil S.p.A."
            },
            "geometry": {
                "type": "Point",
                "coordinates": [
                    9.138752089948866,
                    45.49493180508579
                ]
            }
        },
        {
            "type": "Feature",
            "properties": {
                "name": "SEDRIANO S.S.11 KM 125+476 50",
                "id": "6435",
                "brand": "Q8",
                "amenity": "fuel",
                "operator": "SERVIZI & GESTIONI ITALIA srl"
            },
            "geometry": {
                "type": "Point",
                "coordinates": [
                    8.976168858860774,
                    45.48292052238727
                ]
            }
        },
        {
            "type": "Feature",
            "properties": {
                "name": "RHO SUD",
                "id": "3928",
                "brand": "Tamoil",
                "amenity": "fuel",
                "operator": "GE.MAR. SRL"
            },
            "geometry": {
                "type": "Point",
                "coordinates": [
                    9.040060937404633,
                    45.50970194291011
                ]
            }
        },
        {
            "type": "Feature",
            "properties": {
                "name": "S/S CORNAREDO CARBURANTI S.R.L.",
                "id": "7169",
                "brand": "Repsol",
                "amenity": "fuel",
                "operator": "CORNAREDO CARBURANTI S.R.L."
            },
            "geometry": {
                "type": "Point",
                "coordinates": [
                    9.036147594451904,
                    45.47837193539868
                ]
            }
        },
        {
            "type": "Feature",
            "properties": {
                "name": "SIMPLY QUARTO OGGIARO",
                "id": "6790",
                "amenity": "fuel",
                "operator": "SMA S.P.A."
            },
            "geometry": {
                "type": "Point",
                "coordinates": [
                    9.136972376057429,
                    45.51190789587819
                ]
            }
        },
        {
            "type": "Feature",
            "properties": {
                "name": "POGLIANO MILANESE S.P. 229 KM 6+682",
                "id": "6831",
                "brand": "Q8",
                "amenity": "fuel",
                "operator": "SERVIZI & GESTIONI ITALIA srl"
            },
            "geometry": {
                "type": "Point",
                "coordinates": [
                    9.010794635581988,
                    45.53944696670912
                ]
            }
        },
        {
            "type": "Feature",
            "properties": {
                "name": "OMAR SNC DI FONTANA RACHELE & MORSHEDY KHALIL",
                "id": "29436",
                "brand": "Esso",
                "amenity": "fuel",
                "operator": "OMAR SNC DI FONTANA RACHELE & MORSHEDY KHALIL"
            },
            "geometry": {
                "type": "Point",
                "coordinates": [
                    9.094179403179966,
                    45.4821880049466
                ]
            }
        },
        {
            "type": "Feature",
            "properties": {
                "name": "BARANZATE-VIA FALZAREGO",
                "id": "11713",
                "brand": "Shell",
                "amenity": "fuel",
                "operator": "SERVIZI & GESTIONI ITALIA S.R.L."
            },
            "geometry": {
                "type": "Point",
                "coordinates": [
                    9.106058031320572,
                    45.53447218144471
                ]
            }
        },
        {
            "type": "Feature",
            "properties": {
                "name": "MILANO-VIA CECHOV 44",
                "id": "11702",
                "brand": "Q8",
                "amenity": "fuel",
                "operator": "SERVIZI & GESTIONI ITALIA S.R.L."
            },
            "geometry": {
                "type": "Point",
                "coordinates": [
                    9.113351720237688,
                    45.49525381995993
                ]
            }
        },
        {
            "type": "Feature",
            "properties": {
                "name": "SETTIMO MILANESE-SP11 TANGENZIALINA",
                "id": "7289",
                "brand": "Q8",
                "amenity": "fuel",
                "operator": "SERVIZI & GESTIONI ITALIA S.R.L."
            },
            "geometry": {
                "type": "Point",
                "coordinates": [
                    9.058144373016376,
                    45.49626476021985
                ]
            }
        },
        {
            "type": "Feature",
            "properties": {
                "name": "MILANO",
                "id": "5823",
                "brand": "Total Erg",
                "amenity": "fuel",
                "operator": "TotalErg SpA"
            },
            "geometry": {
                "type": "Point",
                "coordinates": [
                    9.127161224536849,
                    45.46917207087467
                ]
            }
        },
        {
            "type": "Feature",
            "properties": {
                "name": "Settimo Milanese",
                "id": "4677",
                "brand": "Esso",
                "amenity": "fuel",
                "operator": "NUOVA SIDAP  S.R.L."
            },
            "geometry": {
                "type": "Point",
                "coordinates": [
                    9.0574711561203,
                    45.488816414832186
                ]
            }
        },
        {
            "type": "Feature",
            "properties": {
                "name": "ENI STATION 2400",
                "id": "12584",
                "brand": "Agip Eni",
                "amenity": "fuel",
                "operator": "RHOCAR S.N.C. DI RE MARIATERESA E PIANU GIUSEPPE"
            },
            "geometry": {
                "type": "Point",
                "coordinates": [
                    9.057194218039513,
                    45.52915595783883
                ]
            }
        },
        {
            "type": "Feature",
            "properties": {
                "name": "DE.A. S.N.C. DI DEPALMA BENEDETTO & C",
                "id": "20220",
                "brand": "Esso",
                "amenity": "fuel",
                "operator": "DE.A. S.N.C. DI DEPALMA BENEDETTO & C."
            },
            "geometry": {
                "type": "Point",
                "coordinates": [
                    9.028439067459088,
                    45.49282467669887
                ]
            }
        },
        {
            "type": "Feature",
            "properties": {
                "name": "brixia",
                "id": "22058",
                "amenity": "fuel",
                "operator": "DE CAPRARIS PASQUALE"
            },
            "geometry": {
                "type": "Point",
                "coordinates": [
                    9.035176634788513,
                    45.54795270082887
                ]
            }
        },
        {
            "type": "Feature",
            "properties": {
                "name": "ACISTAR UNO",
                "id": "5351",
                "brand": "Agip Eni",
                "amenity": "fuel",
                "operator": "ACISTAR UNO S.A.S. DI RAUL CRESCIMANNA & C."
            },
            "geometry": {
                "type": "Point",
                "coordinates": [
                    9.099088704507494,
                    45.46013893736885
                ]
            }
        },
        {
            "type": "Feature",
            "properties": {
                "name": "MILANO VIA S.GIUSTO 66",
                "id": "8725",
                "brand": "Q8",
                "amenity": "fuel",
                "operator": "SERVIZI & GESTIONI ITALIA S.R.L."
            },
            "geometry": {
                "type": "Point",
                "coordinates": [
                    9.117293866864769,
                    45.47182559595421
                ]
            }
        },
        {
            "type": "Feature",
            "properties": {
                "name": "MI BOLLATE",
                "id": "17687",
                "brand": "Api-Ip",
                "amenity": "fuel",
                "operator": "IP SERVICES S.R.L."
            },
            "geometry": {
                "type": "Point",
                "coordinates": [
                    9.104994635581988,
                    45.53660751505031
                ]
            }
        },
        {
            "type": "Feature",
            "properties": {
                "name": "Autoservice Lotto srl",
                "id": "8061",
                "brand": "Agip Eni",
                "amenity": "fuel",
                "operator": "AUTOSERVICE LOTTO SRL"
            },
            "geometry": {
                "type": "Point",
                "coordinates": [
                    9.014978259801865,
                    45.562374025693714
                ]
            }
        },
        {
            "type": "Feature",
            "properties": {
                "name": "Nerviano",
                "id": "4666",
                "brand": "Esso",
                "amenity": "fuel",
                "operator": "NUOVA SIDAP  S.R.L."
            },
            "geometry": {
                "type": "Point",
                "coordinates": [
                    8.993913531303406,
                    45.54817059293418
                ]
            }
        },
        {
            "type": "Feature",
            "properties": {
                "name": "gio&ari snc",
                "id": "17510",
                "brand": "Total Erg",
                "amenity": "fuel",
                "operator": "GIO & ARI S.N.C. DI GUGLIELMETTI LORENZO & C."
            },
            "geometry": {
                "type": "Point",
                "coordinates": [
                    8.992369728836023,
                    45.52500890041976
                ]
            }
        },
        {
            "type": "Feature",
            "properties": {
                "name": "VIA DEGASP.ARESE",
                "id": "12065",
                "brand": "Esso",
                "amenity": "fuel",
                "operator": "SERVIZI E GESTIONI ZENIT S.R.L. IN SIGLA - ZENIT S.R.L."
            },
            "geometry": {
                "type": "Point",
                "coordinates": [
                    9.080279892030717,
                    45.55094687828334
                ]
            }
        },
        {
            "type": "Feature",
            "properties": {
                "name": "GARBAGNATE-VIA GARIBALDI 89 FZ. S MARIA ROSSA",
                "id": "11689",
                "brand": "Q8",
                "amenity": "fuel",
                "operator": "SERVIZI & GESTIONI ITALIA S.R.L."
            },
            "geometry": {
                "type": "Point",
                "coordinates": [
                    9.07466973743442,
                    45.56741877733071
                ]
            }
        },
        {
            "type": "Feature",
            "properties": {
                "name": "Milano Via Novara",
                "id": "24021",
                "brand": "Total Erg",
                "amenity": "fuel",
                "operator": "GESTIONI EUROPA - SOCIETA' PER AZIONI"
            },
            "geometry": {
                "type": "Point",
                "coordinates": [
                    9.080338598811295,
                    45.48597388961088
                ]
            }
        },
        {
            "type": "Feature",
            "properties": {
                "name": "Esso",
                "id": "27904",
                "brand": "Esso",
                "amenity": "fuel",
                "operator": "S.C.  S.A.S. DI  COSTA MAURIZIO E C."
            },
            "geometry": {
                "type": "Point",
                "coordinates": [
                    9.076198155155907,
                    45.565448501893954
                ]
            }
        },
        {
            "type": "Feature",
            "properties": {
                "name": "STAZIONE IP",
                "id": "19256",
                "brand": "Api-Ip",
                "amenity": "fuel",
                "operator": "R.D.S. MULTI SERVICES S.A.S. DI DOMENICA PANGALLO & C."
            },
            "geometry": {
                "type": "Point",
                "coordinates": [
                    9.032106176018715,
                    45.53329620706146
                ]
            }
        },
        {
            "type": "Feature",
            "properties": {
                "name": "NI004214 Cornaredo",
                "id": "25151",
                "brand": "Total Erg",
                "amenity": "fuel",
                "operator": "CORO S.R.L."
            },
            "geometry": {
                "type": "Point",
                "coordinates": [
                    9.030620452160406,
                    45.50021946932227
                ]
            }
        },
        {
            "type": "Feature",
            "properties": {
                "name": "Distributore Carburanti  Renzo  Orlandi",
                "id": "8940",
                "brand": "Tamoil",
                "amenity": "fuel",
                "operator": "ORLANDI RENZO"
            },
            "geometry": {
                "type": "Point",
                "coordinates": [
                    9.002237766981125,
                    45.54459442678735
                ]
            }
        },
        {
            "type": "Feature",
            "properties": {
                "name": "PERO NORD",
                "id": "3816",
                "brand": "Q8",
                "amenity": "fuel",
                "operator": "DUE VELE S.N.C. DI LIGUORI FRANCO E C."
            },
            "geometry": {
                "type": "Point",
                "coordinates": [
                    9.06977653503418,
                    45.513608759094055
                ]
            }
        },
        {
            "type": "Feature",
            "properties": {
                "name": "Pero",
                "id": "4670",
                "brand": "Esso",
                "amenity": "fuel",
                "operator": "NUOVA SIDAP  S.R.L."
            },
            "geometry": {
                "type": "Point",
                "coordinates": [
                    9.076041529083227,
                    45.51570059597497
                ]
            }
        },
        {
            "type": "Feature",
            "properties": {
                "name": "BAREGGIO V.LE GIOVANNI XXIII",
                "id": "20036",
                "brand": "Q8",
                "amenity": "fuel",
                "operator": "SERVIZI & GESTIONI ITALIA S.R.L."
            },
            "geometry": {
                "type": "Point",
                "coordinates": [
                    9.004018641802986,
                    45.47633252022859
                ]
            }
        },
        {
            "type": "Feature",
            "properties": {
                "name": "MILANO-VIA GALLARATE 400",
                "id": "11694",
                "brand": "Q8",
                "amenity": "fuel",
                "operator": "SERVIZI & GESTIONI ITALIA S.R.L."
            },
            "geometry": {
                "type": "Point",
                "coordinates": [
                    9.10516619682312,
                    45.505153044443574
                ]
            }
        }
    ]
}