{
    "type": "FeatureCollection",
    "features": [
        {
            "type": "Feature",
            "properties": {
                "name": "q8",
                "id": "30631",
                "brand": "Q8",
                "amenity": "fuel",
                "operator": "D'ANIELLO FRANCESCO"
            },
            "geometry": {
                "type": "Point",
                "coordinates": [
                    9.125054226407087,
                    45.194463140449486
                ]
            }
        },
        {
            "type": "Feature",
            "properties": {
                "name": "TotalErg",
                "id": "8856",
                "brand": "Total Erg",
                "amenity": "fuel",
                "operator": "BUSIN MARCO"
            },
            "geometry": {
                "type": "Point",
                "coordinates": [
                    9.119467735290527,
                    45.13588363042291
                ]
            }
        },
        {
            "type": "Feature",
            "properties": {
                "name": "esso di fogarolo flavio",
                "id": "31040",
                "brand": "Esso",
                "amenity": "fuel",
                "operator": "ESSO DI FOGAROLO FLAVIO"
            },
            "geometry": {
                "type": "Point",
                "coordinates": [
                    9.134441167116165,
                    45.16276372332108
                ]
            }
        },
        {
            "type": "Feature",
            "properties": {
                "name": "POMPA BIANCA",
                "id": "23185",
                "amenity": "fuel",
                "operator": "POGGIO FRANCESCO"
            },
            "geometry": {
                "type": "Point",
                "coordinates": [
                    9.08769428730011,
                    45.15795946211624
                ]
            }
        },
        {
            "type": "Feature",
            "properties": {
                "name": "IP DI CAMPAGNA MARIO",
                "id": "9885",
                "brand": "Api-Ip",
                "amenity": "fuel",
                "operator": "CAMPAGNA MARIO"
            },
            "geometry": {
                "type": "Point",
                "coordinates": [
                    9.025794267654419,
                    45.16300976956217
                ]
            }
        },
        {
            "type": "Feature",
            "properties": {
                "name": "DORNO EST",
                "id": "3558",
                "brand": "Esso",
                "amenity": "fuel",
                "operator": "NUOVA SIDAP  S.R.L."
            },
            "geometry": {
                "type": "Point",
                "coordinates": [
                    8.992524147033691,
                    45.14881507890583
                ]
            }
        },
        {
            "type": "Feature",
            "properties": {
                "name": "Esso di fogarolo luigi e c s.n.c.",
                "id": "12448",
                "brand": "Esso",
                "amenity": "fuel",
                "operator": "FOGAROLO LUIGI & C. S.N.C."
            },
            "geometry": {
                "type": "Point",
                "coordinates": [
                    9.134422391653061,
                    45.16276447980904
                ]
            }
        },
        {
            "type": "Feature",
            "properties": {
                "name": "GROPELLO CAIROLI",
                "id": "5857",
                "brand": "Total Erg",
                "amenity": "fuel",
                "operator": "TotalErg SpA"
            },
            "geometry": {
                "type": "Point",
                "coordinates": [
                    9.017116999999985,
                    45.165035435451266
                ]
            }
        },
        {
            "type": "Feature",
            "properties": {
                "name": "VEGA SAN MARTINO SICCOMARIO",
                "id": "31524",
                "brand": "Vega",
                "amenity": "fuel",
                "operator": "VEGA CARBURANTI S.P.A."
            },
            "geometry": {
                "type": "Point",
                "coordinates": [
                    9.120213389396667,
                    45.15059171294714
                ]
            }
        },
        {
            "type": "Feature",
            "properties": {
                "name": "stazione di servizio TOTALERG",
                "id": "26279",
                "brand": "Total Erg",
                "amenity": "fuel",
                "operator": "LEMILLEBOLLE S.N.C. DI CAU GIOV BATTISTA E C."
            },
            "geometry": {
                "type": "Point",
                "coordinates": [
                    9.136405175918526,
                    45.188649618772885
                ]
            }
        },
        {
            "type": "Feature",
            "properties": {
                "name": "Q8",
                "id": "19876",
                "brand": "Q8",
                "amenity": "fuel",
                "operator": "ANSALDI FABIO"
            },
            "geometry": {
                "type": "Point",
                "coordinates": [
                    8.997873812913895,
                    45.167280516699066
                ]
            }
        },
        {
            "type": "Feature",
            "properties": {
                "name": "stazione di servizio total di decosmo gianbattista",
                "id": "8819",
                "brand": "Total Erg",
                "amenity": "fuel",
                "operator": "STAZIONE DI SERVIZIO TOTAL DI DE COSMO GIANBATTISTA"
            },
            "geometry": {
                "type": "Point",
                "coordinates": [
                    9.115616083145142,
                    45.12104229990562
                ]
            }
        },
        {
            "type": "Feature",
            "properties": {
                "name": "Q8",
                "id": "26979",
                "brand": "Q8",
                "amenity": "fuel",
                "operator": "ANFUELS S.R.L."
            },
            "geometry": {
                "type": "Point",
                "coordinates": [
                    9.128825962543488,
                    45.15772568813681
                ]
            }
        },
        {
            "type": "Feature",
            "properties": {
                "name": "DORNO OVEST",
                "id": "29714",
                "brand": "Q8",
                "amenity": "fuel",
                "operator": "ACISTAR NOVE S.R.L."
            },
            "geometry": {
                "type": "Point",
                "coordinates": [
                    8.990138322114944,
                    45.147318365356135
                ]
            }
        },
        {
            "type": "Feature",
            "properties": {
                "name": "totalerg",
                "id": "17495",
                "brand": "Total Erg",
                "amenity": "fuel",
                "operator": "BOSCATI MARILENA"
            },
            "geometry": {
                "type": "Point",
                "coordinates": [
                    9.050620794296265,
                    45.13736777815146
                ]
            }
        }
    ]
}