{
    "type": "FeatureCollection",
    "features": [
        {
            "type": "Feature",
            "properties": {
                "name": "TOTALERG",
                "id": "13219",
                "brand": "Total Erg",
                "amenity": "fuel",
                "operator": "FC FRATELLI CESAREO SNC DI ANTONIO E MATTEO CESAREO"
            },
            "geometry": {
                "type": "Point",
                "coordinates": [
                    9.066492909925842,
                    45.429523480372836
                ]
            }
        },
        {
            "type": "Feature",
            "properties": {
                "name": "ENI PERRONE LUCA",
                "id": "31149",
                "brand": "Agip Eni",
                "amenity": "fuel",
                "operator": "PERRONE LUCA"
            },
            "geometry": {
                "type": "Point",
                "coordinates": [
                    9.043217510857176,
                    45.44143818013955
                ]
            }
        },
        {
            "type": "Feature",
            "properties": {
                "name": "STAZIONE SERVIZIO DI ALI SAID E C. S.N.C.",
                "id": "10830",
                "brand": "Q8",
                "amenity": "fuel",
                "operator": "STAZIONE SERVIZIO DI ALI SAID E C. S.N.C."
            },
            "geometry": {
                "type": "Point",
                "coordinates": [
                    9.071963739611874,
                    45.45670996928341
                ]
            }
        },
        {
            "type": "Feature",
            "properties": {
                "name": "CESANO BOSCONE VIA MILANO 30",
                "id": "6441",
                "brand": "Q8",
                "amenity": "fuel",
                "operator": "SERVIZI & GESTIONI ITALIA srl"
            },
            "geometry": {
                "type": "Point",
                "coordinates": [
                    9.097773485319522,
                    45.441693573646596
                ]
            }
        },
        {
            "type": "Feature",
            "properties": {
                "name": "NOVIGLIO",
                "id": "5828",
                "brand": "Total Erg",
                "amenity": "fuel",
                "operator": "TotalErg SpA"
            },
            "geometry": {
                "type": "Point",
                "coordinates": [
                    9.088310434358618,
                    45.33853145852428
                ]
            }
        },
        {
            "type": "Feature",
            "properties": {
                "name": "MILANO-VIA LORENTEGGIO 268",
                "id": "11672",
                "brand": "Q8",
                "amenity": "fuel",
                "operator": "SERVIZI & GESTIONI ITALIA S.R.L."
            },
            "geometry": {
                "type": "Point",
                "coordinates": [
                    9.11799119510647,
                    45.44451291033062
                ]
            }
        },
        {
            "type": "Feature",
            "properties": {
                "name": "MILANO VIA CIVIDALE DEL FRIULI 6",
                "id": "6437",
                "brand": "Q8",
                "amenity": "fuel",
                "operator": "SERVIZI & GESTIONI ITALIA srl"
            },
            "geometry": {
                "type": "Point",
                "coordinates": [
                    9.10062638717193,
                    45.45898088643507
                ]
            }
        },
        {
            "type": "Feature",
            "properties": {
                "name": "BUCCINASCO VIA DEI MILLE ANG.VIA PALERMO",
                "id": "6446",
                "brand": "Q8",
                "amenity": "fuel",
                "operator": "SERVIZI & GESTIONI ITALIA srl"
            },
            "geometry": {
                "type": "Point",
                "coordinates": [
                    9.111736337434422,
                    45.42506003957641
                ]
            }
        },
        {
            "type": "Feature",
            "properties": {
                "name": "ENI",
                "id": "10843",
                "brand": "Agip Eni",
                "amenity": "fuel",
                "operator": "F.LLI VIZZIELLI SNC DI VIZZIELLI FELICE DANILO E C"
            },
            "geometry": {
                "type": "Point",
                "coordinates": [
                    9.126183986663818,
                    45.43895358051158
                ]
            }
        },
        {
            "type": "Feature",
            "properties": {
                "name": "DA.FE. sas",
                "id": "6912",
                "brand": "Agip Eni",
                "amenity": "fuel",
                "operator": "DA.FE. S.A.S. DI D'ANGELO GIUSEPPE & C."
            },
            "geometry": {
                "type": "Point",
                "coordinates": [
                    9.096809774637222,
                    45.427667845830236
                ]
            }
        },
        {
            "type": "Feature",
            "properties": {
                "name": "MUGGIANO",
                "id": "3767",
                "brand": "Agip Eni",
                "amenity": "fuel",
                "operator": "VINCI S.A.S. DI VINCI SALVATORE & C."
            },
            "geometry": {
                "type": "Point",
                "coordinates": [
                    9.07470927116401,
                    45.445761290773035
                ]
            }
        },
        {
            "type": "Feature",
            "properties": {
                "name": "ENI",
                "id": "14630",
                "brand": "Agip Eni",
                "amenity": "fuel",
                "operator": "VIZZIELLI S.A.S. DI VIZZIELLI MONICA E C."
            },
            "geometry": {
                "type": "Point",
                "coordinates": [
                    9.07955914735794,
                    45.42966936495914
                ]
            }
        },
        {
            "type": "Feature",
            "properties": {
                "name": "CESANO BOSCONE - ISONZO",
                "id": "22889",
                "brand": "Api-Ip",
                "amenity": "fuel",
                "operator": "IP SERVICES S.R.L."
            },
            "geometry": {
                "type": "Point",
                "coordinates": [
                    9.101775101852356,
                    45.442177417026116
                ]
            }
        },
        {
            "type": "Feature",
            "properties": {
                "name": "EPR",
                "id": "4984",
                "amenity": "fuel",
                "operator": "PROCOGEN S.R.L."
            },
            "geometry": {
                "type": "Point",
                "coordinates": [
                    9.0707266330719,
                    45.35294783727283
                ]
            }
        },
        {
            "type": "Feature",
            "properties": {
                "name": "eni",
                "id": "10918",
                "brand": "Agip Eni",
                "amenity": "fuel",
                "operator": "DE ZOLT PONTE SILVIO MARIO"
            },
            "geometry": {
                "type": "Point",
                "coordinates": [
                    9.112783339811699,
                    45.46011346963635
                ]
            }
        },
        {
            "type": "Feature",
            "properties": {
                "name": "ENI",
                "id": "28131",
                "brand": "Agip Eni",
                "amenity": "fuel",
                "operator": "TRANQUILLO PASQUALE"
            },
            "geometry": {
                "type": "Point",
                "coordinates": [
                    8.988009989261629,
                    45.37871556328848
                ]
            }
        },
        {
            "type": "Feature",
            "properties": {
                "name": "Auto5 Buccinasco v.le Lombardia 29",
                "id": "29103",
                "brand": "Q8",
                "amenity": "fuel",
                "operator": "AUTO 5 S.R.L."
            },
            "geometry": {
                "type": "Point",
                "coordinates": [
                    9.117482682209017,
                    45.424022816718555
                ]
            }
        },
        {
            "type": "Feature",
            "properties": {
                "name": "ECOGAS",
                "id": "21515",
                "amenity": "fuel",
                "operator": "ECOGAS S.N.C. DI ROSSOTTI GIAN LUCA & SCAGLIA VITTORIO"
            },
            "geometry": {
                "type": "Point",
                "coordinates": [
                    9.118633568286896,
                    45.44330878867657
                ]
            }
        },
        {
            "type": "Feature",
            "properties": {
                "name": "ASSAGO",
                "id": "3503",
                "brand": "Agip Eni",
                "amenity": "fuel",
                "operator": "LE MANS SERVICE S.R.L."
            },
            "geometry": {
                "type": "Point",
                "coordinates": [
                    9.12240854232789,
                    45.40091753316317
                ]
            }
        },
        {
            "type": "Feature",
            "properties": {
                "name": "TREZZANO SUL NAVIGLIO-VIA COLOMBO ANG.VIA DI VITTORIO",
                "id": "11677",
                "brand": "Q8",
                "amenity": "fuel",
                "operator": "SERVIZI & GESTIONI ITALIA S.R.L."
            },
            "geometry": {
                "type": "Point",
                "coordinates": [
                    9.067928338623005,
                    45.42440753003055
                ]
            }
        },
        {
            "type": "Feature",
            "properties": {
                "name": "ROSATE",
                "id": "25186",
                "brand": "Api-Ip",
                "amenity": "fuel",
                "operator": "IP SERVICES S.R.L."
            },
            "geometry": {
                "type": "Point",
                "coordinates": [
                    9.022685830688488,
                    45.35625476532614
                ]
            }
        },
        {
            "type": "Feature",
            "properties": {
                "name": "ENI",
                "id": "13557",
                "brand": "Agip Eni",
                "amenity": "fuel",
                "operator": "RUSSO SALVATORE"
            },
            "geometry": {
                "type": "Point",
                "coordinates": [
                    9.080872606607045,
                    45.429387151945726
                ]
            }
        },
        {
            "type": "Feature",
            "properties": {
                "name": "SIMPLY CESANO BOSCONE",
                "id": "6361",
                "amenity": "fuel",
                "operator": "SMA S.P.A."
            },
            "geometry": {
                "type": "Point",
                "coordinates": [
                    9.087455570697784,
                    45.44789304328871
                ]
            }
        },
        {
            "type": "Feature",
            "properties": {
                "name": "stazione di servizio eni",
                "id": "21263",
                "brand": "Agip Eni",
                "amenity": "fuel",
                "operator": "GATTO GIOVANNI"
            },
            "geometry": {
                "type": "Point",
                "coordinates": [
                    9.11210400793459,
                    45.423363647158844
                ]
            }
        },
        {
            "type": "Feature",
            "properties": {
                "name": "tamoil",
                "id": "15478",
                "brand": "Tamoil",
                "amenity": "fuel",
                "operator": "B.S.B. S.A.S. DI SCHETTINO SALVATORE E C."
            },
            "geometry": {
                "type": "Point",
                "coordinates": [
                    9.125041944180339,
                    45.433185562275014
                ]
            }
        },
        {
            "type": "Feature",
            "properties": {
                "name": "ESSO",
                "id": "18218",
                "brand": "Esso",
                "amenity": "fuel",
                "operator": "ZAMO' ANDREA MASSIMO"
            },
            "geometry": {
                "type": "Point",
                "coordinates": [
                    9.116237528311105,
                    45.443825755705745
                ]
            }
        },
        {
            "type": "Feature",
            "properties": {
                "name": "tamoil",
                "id": "17952",
                "brand": "Tamoil",
                "amenity": "fuel",
                "operator": "LANOIL S.A.S. DI SIMONE LANZILLI & C."
            },
            "geometry": {
                "type": "Point",
                "coordinates": [
                    9.000852406024933,
                    45.44364714914638
                ]
            }
        },
        {
            "type": "Feature",
            "properties": {
                "name": "RAVASI SIMONE E BOLOGNESI LIDO S.N.C.",
                "id": "20034",
                "brand": "Total Erg",
                "amenity": "fuel",
                "operator": "RAVASI SIMONE E BOLOGNESI LIDO S.N.C."
            },
            "geometry": {
                "type": "Point",
                "coordinates": [
                    9.123125590213021,
                    45.43775914814529
                ]
            }
        },
        {
            "type": "Feature",
            "properties": {
                "name": "ZIBIDO S.GIACOMO-LOC. BADILE SS. 35 KM. 111+90",
                "id": "11655",
                "brand": "Q8",
                "amenity": "fuel",
                "operator": "SERVIZI & GESTIONI ITALIA S.R.L."
            },
            "geometry": {
                "type": "Point",
                "coordinates": [
                    9.13239061832428,
                    45.36190713625711
                ]
            }
        },
        {
            "type": "Feature",
            "properties": {
                "name": "stazione di servizio di metta gerardo",
                "id": "4923",
                "brand": "Agip Eni",
                "amenity": "fuel",
                "operator": "METTA GERARDO"
            },
            "geometry": {
                "type": "Point",
                "coordinates": [
                    9.072759766443141,
                    45.41855426724983
                ]
            }
        },
        {
            "type": "Feature",
            "properties": {
                "name": "stazione servizio Q8",
                "id": "9555",
                "brand": "Q8",
                "amenity": "fuel",
                "operator": "VIOTTI PAOLO"
            },
            "geometry": {
                "type": "Point",
                "coordinates": [
                    9.091576784849167,
                    45.43753338858257
                ]
            }
        },
        {
            "type": "Feature",
            "properties": {
                "name": "URBINATI S.N.C. DI URBINATI ARKADI & C.",
                "id": "6355",
                "brand": "Agip Eni",
                "amenity": "fuel",
                "operator": "URBINATI S.N.C. DI URBINATI ARKADI & C."
            },
            "geometry": {
                "type": "Point",
                "coordinates": [
                    9.121377045277427,
                    45.44499073380677
                ]
            }
        },
        {
            "type": "Feature",
            "properties": {
                "name": "stazione di servizio ESSO",
                "id": "26621",
                "brand": "Esso",
                "amenity": "fuel",
                "operator": "FILINI E CAZZANIGA S.N.C. DI FILINI GIOVANNI E C."
            },
            "geometry": {
                "type": "Point",
                "coordinates": [
                    9.107789397239685,
                    45.4274348043439
                ]
            }
        },
        {
            "type": "Feature",
            "properties": {
                "name": "Eni",
                "id": "14813",
                "brand": "Agip Eni",
                "amenity": "fuel",
                "operator": "PEZZUTO VINCENZO"
            },
            "geometry": {
                "type": "Point",
                "coordinates": [
                    9.098590761423111,
                    45.44272352185422
                ]
            }
        },
        {
            "type": "Feature",
            "properties": {
                "name": "MANFREDI S.R.L.",
                "id": "14155",
                "brand": "Total Erg",
                "amenity": "fuel",
                "operator": "MANFREDI S.R.L."
            },
            "geometry": {
                "type": "Point",
                "coordinates": [
                    9.119861406082123,
                    45.41552382959645
                ]
            }
        },
        {
            "type": "Feature",
            "properties": {
                "name": "TAMOIL",
                "id": "5202",
                "brand": "Tamoil",
                "amenity": "fuel",
                "operator": "APIM S.N.C. DI DELLI SANTI RAFFAELE & C."
            },
            "geometry": {
                "type": "Point",
                "coordinates": [
                    8.99745672941208,
                    45.40439264700012
                ]
            }
        },
        {
            "type": "Feature",
            "properties": {
                "name": "TOTALERG SPA",
                "id": "7966",
                "brand": "Total Erg",
                "amenity": "fuel",
                "operator": "QUINTO LUIGIA CONCETTA"
            },
            "geometry": {
                "type": "Point",
                "coordinates": [
                    9.084234233868415,
                    45.450876130113535
                ]
            }
        },
        {
            "type": "Feature",
            "properties": {
                "name": "MILANO VIA BAGAROTTI 14/A",
                "id": "23872",
                "brand": "Q8",
                "amenity": "fuel",
                "operator": "SERVIZI & GESTIONI ITALIA S.R.L."
            },
            "geometry": {
                "type": "Point",
                "coordinates": [
                    9.094877768122842,
                    45.4574490020773
                ]
            }
        },
        {
            "type": "Feature",
            "properties": {
                "name": "Stazione di Servizio ESSO",
                "id": "30983",
                "brand": "Esso",
                "amenity": "fuel",
                "operator": "NARDELLA LUIGI"
            },
            "geometry": {
                "type": "Point",
                "coordinates": [
                    9.097363650798798,
                    45.43552104371013
                ]
            }
        },
        {
            "type": "Feature",
            "properties": {
                "name": "Totalerg",
                "id": "19839",
                "brand": "Total Erg",
                "amenity": "fuel",
                "operator": "GOTADORO GIUSEPPE"
            },
            "geometry": {
                "type": "Point",
                "coordinates": [
                    9.125666320323946,
                    45.426745462884675
                ]
            }
        },
        {
            "type": "Feature",
            "properties": {
                "name": "NI001091 Corsico",
                "id": "28168",
                "brand": "Total Erg",
                "amenity": "fuel",
                "operator": "CORO S.R.L."
            },
            "geometry": {
                "type": "Point",
                "coordinates": [
                    9.114516377449036,
                    45.44311683688304
                ]
            }
        },
        {
            "type": "Feature",
            "properties": {
                "name": "STAZIONE IP",
                "id": "27540",
                "brand": "Api-Ip",
                "amenity": "fuel",
                "operator": "PETROL SERVICE S.N.C. DI CARMEN RODICA ALEXE"
            },
            "geometry": {
                "type": "Point",
                "coordinates": [
                    9.027481377124786,
                    45.38614192413745
                ]
            }
        },
        {
            "type": "Feature",
            "properties": {
                "name": "Eni Agip",
                "id": "12563",
                "brand": "Agip Eni",
                "amenity": "fuel",
                "operator": "RISTOCAR SRL"
            },
            "geometry": {
                "type": "Point",
                "coordinates": [
                    9.120548665523529,
                    45.445297145020035
                ]
            }
        },
        {
            "type": "Feature",
            "properties": {
                "name": "stazione servizio q8",
                "id": "9623",
                "brand": "Q8",
                "amenity": "fuel",
                "operator": "RESTELLI S.N.C. DI VENTURELLI LORIS E C."
            },
            "geometry": {
                "type": "Point",
                "coordinates": [
                    9.051865339279175,
                    45.41819331424287
                ]
            }
        },
        {
            "type": "Feature",
            "properties": {
                "name": "Totalerg GAGGIANO",
                "id": "32050",
                "brand": "Total Erg",
                "amenity": "fuel",
                "operator": "SPATUZZI MARIO"
            },
            "geometry": {
                "type": "Point",
                "coordinates": [
                    8.984033614397047,
                    45.403553215585006
                ]
            }
        },
        {
            "type": "Feature",
            "properties": {
                "name": "MILANO LORENTEGGIO 260",
                "id": "6436",
                "brand": "Q8",
                "amenity": "fuel",
                "operator": "SERVIZI & GESTIONI ITALIA srl"
            },
            "geometry": {
                "type": "Point",
                "coordinates": [
                    9.119872403704903,
                    45.44512776366376
                ]
            }
        },
        {
            "type": "Feature",
            "properties": {
                "name": "TREZZANO SUL NAVIGLIO - CIRCONVALLAZIONE",
                "id": "24775",
                "brand": "Api-Ip",
                "amenity": "fuel",
                "operator": "IP SERVICES S.R.L."
            },
            "geometry": {
                "type": "Point",
                "coordinates": [
                    9.07297317790983,
                    45.41918399720786
                ]
            }
        },
        {
            "type": "Feature",
            "properties": {
                "name": "il benzinaio snc",
                "id": "17750",
                "brand": "Total Erg",
                "amenity": "fuel",
                "operator": "IL BENZINAIO S.N.C. DI BIASION & PERCHIAZZO"
            },
            "geometry": {
                "type": "Point",
                "coordinates": [
                    9.132261872291565,
                    45.454760353995546
                ]
            }
        },
        {
            "type": "Feature",
            "properties": {
                "name": "stazione di servizio tamoil",
                "id": "13306",
                "brand": "Tamoil",
                "amenity": "fuel",
                "operator": "C.P.F. S.N.C. DI CIULLA PIETRO E FRANCESCO"
            },
            "geometry": {
                "type": "Point",
                "coordinates": [
                    9.061225558879869,
                    45.424319376510624
                ]
            }
        },
        {
            "type": "Feature",
            "properties": {
                "name": "MILANO",
                "id": "5829",
                "brand": "Total Erg",
                "amenity": "fuel",
                "operator": "TotalErg SpA"
            },
            "geometry": {
                "type": "Point",
                "coordinates": [
                    9.096260271163942,
                    45.450222473414534
                ]
            }
        },
        {
            "type": "Feature",
            "properties": {
                "name": "L'autofficina snc",
                "id": "4780",
                "brand": "Agip Eni",
                "amenity": "fuel",
                "operator": "L'AUTOFFICINA S.N.C. DI MASTRANGELO ANTONIO & C."
            },
            "geometry": {
                "type": "Point",
                "coordinates": [
                    8.981749042868614,
                    45.439169636318205
                ]
            }
        }
    ]
}