{
    "type": "FeatureCollection",
    "features": [
        {
            "type": "Feature",
            "properties": {
                "name": "DISTRIBUTORE Q8",
                "id": "9344",
                "brand": "Q8",
                "amenity": "fuel",
                "operator": "STAFU SNC DI STRAIANO STEPHEN GENNARO E FURNARI TINDARO"
            },
            "geometry": {
                "type": "Point",
                "coordinates": [
                    9.081774642852793,
                    45.61828049587331
                ]
            }
        },
        {
            "type": "Feature",
            "properties": {
                "name": "LIMBIATE-VIA DEI MILLE 106",
                "id": "11648",
                "brand": "Q8",
                "amenity": "fuel",
                "operator": "SERVIZI & GESTIONI ITALIA S.R.L."
            },
            "geometry": {
                "type": "Point",
                "coordinates": [
                    9.138557492065388,
                    45.59771501375995
                ]
            }
        },
        {
            "type": "Feature",
            "properties": {
                "name": "ZIRE SNC",
                "id": "12571",
                "amenity": "fuel",
                "operator": "ZIRE S.N.C. DI ZILIO DOMENICO & C."
            },
            "geometry": {
                "type": "Point",
                "coordinates": [
                    9.05087560415268,
                    45.62354692972461
                ]
            }
        },
        {
            "type": "Feature",
            "properties": {
                "name": "FABIO AUTOFFICINA",
                "id": "12717",
                "brand": "Esso",
                "amenity": "fuel",
                "operator": "FABIO AUTOFFICINA DI DI CICCO FABIO"
            },
            "geometry": {
                "type": "Point",
                "coordinates": [
                    9.122982735581898,
                    45.63631236115982
                ]
            }
        },
        {
            "type": "Feature",
            "properties": {
                "name": "stazione di servizio ESSO",
                "id": "15320",
                "brand": "Esso",
                "amenity": "fuel",
                "operator": "LUCANO ARMANDO"
            },
            "geometry": {
                "type": "Point",
                "coordinates": [
                    9.052853062748909,
                    45.61673603475108
                ]
            }
        },
        {
            "type": "Feature",
            "properties": {
                "name": "SOLARO-FZ.VILLAGGIO BROLLO VIA ROMA 286",
                "id": "11659",
                "brand": "Q8",
                "amenity": "fuel",
                "operator": "SERVIZI & GESTIONI ITALIA S.R.L."
            },
            "geometry": {
                "type": "Point",
                "coordinates": [
                    9.108528746032674,
                    45.62057373663516
                ]
            }
        },
        {
            "type": "Feature",
            "properties": {
                "name": "Stazione di Servio Q8 - Bar Tab Ric Le Vele",
                "id": "13796",
                "brand": "Q8",
                "amenity": "fuel",
                "operator": "UBOLDI MAURO"
            },
            "geometry": {
                "type": "Point",
                "coordinates": [
                    9.000735729932785,
                    45.69567176865887
                ]
            }
        },
        {
            "type": "Feature",
            "properties": {
                "name": "calani franco",
                "id": "8162",
                "brand": "Agip Eni",
                "amenity": "fuel",
                "operator": "CALANI FRANCO"
            },
            "geometry": {
                "type": "Point",
                "coordinates": [
                    8.966925144195557,
                    45.67782552254346
                ]
            }
        },
        {
            "type": "Feature",
            "properties": {
                "name": "LIMBIATE VIA TRIESTE  105 - DISTR. Q8",
                "id": "6450",
                "brand": "Q8",
                "amenity": "fuel",
                "operator": "SERVIZI & GESTIONI ITALIA srl"
            },
            "geometry": {
                "type": "Point",
                "coordinates": [
                    9.132589945368977,
                    45.59533765760825
                ]
            }
        },
        {
            "type": "Feature",
            "properties": {
                "name": "STAZIONE DI SERVIZIONE ENI",
                "id": "29444",
                "brand": "Agip Eni",
                "amenity": "fuel",
                "operator": "ZAPPIA LUCA"
            },
            "geometry": {
                "type": "Point",
                "coordinates": [
                    9.0263029730163,
                    45.624849672505974
                ]
            }
        },
        {
            "type": "Feature",
            "properties": {
                "name": "eni bellani angelo snc",
                "id": "11263",
                "brand": "Agip Eni",
                "amenity": "fuel",
                "operator": "BELLANI ANGELO SNC DI BELLANI PIETRO LUIGI E C."
            },
            "geometry": {
                "type": "Point",
                "coordinates": [
                    9.131383448839188,
                    45.652327168838475
                ]
            }
        },
        {
            "type": "Feature",
            "properties": {
                "name": "BARELLA STEFANO",
                "id": "20666",
                "amenity": "fuel",
                "operator": "AUTOMETANO BARELLA STEFANO"
            },
            "geometry": {
                "type": "Point",
                "coordinates": [
                    9.064486473798752,
                    45.69238378340105
                ]
            }
        },
        {
            "type": "Feature",
            "properties": {
                "name": "STAZ. TOTALERG",
                "id": "26500",
                "brand": "Total Erg",
                "amenity": "fuel",
                "operator": "AUTOSERVICE DI CHIACCHIA MARIO & C. S.N.C."
            },
            "geometry": {
                "type": "Point",
                "coordinates": [
                    9.038794188973611,
                    45.61397724190712
                ]
            }
        },
        {
            "type": "Feature",
            "properties": {
                "name": "ENI F.LLI PANDOLFO snc",
                "id": "18067",
                "brand": "Agip Eni",
                "amenity": "fuel",
                "operator": "F.LLI PANDOLFO S.N.C. DI PANDOLFO LEOPOLDO E GIANNI"
            },
            "geometry": {
                "type": "Point",
                "coordinates": [
                    9.092313051223755,
                    45.61864135275116
                ]
            }
        },
        {
            "type": "Feature",
            "properties": {
                "name": "IP",
                "id": "9755",
                "brand": "Api-Ip",
                "amenity": "fuel",
                "operator": "RADICE AUTO SAS DI RADICE MARCO & C."
            },
            "geometry": {
                "type": "Point",
                "coordinates": [
                    9.120144763823644,
                    45.68410526999658
                ]
            }
        },
        {
            "type": "Feature",
            "properties": {
                "name": "retitalia spa",
                "id": "20669",
                "brand": "Retitalia",
                "amenity": "fuel",
                "operator": "TUMOLO LUCIA"
            },
            "geometry": {
                "type": "Point",
                "coordinates": [
                    9.125159523139928,
                    45.606804421615976
                ]
            }
        },
        {
            "type": "Feature",
            "properties": {
                "name": "eni Labruna Ruben",
                "id": "18496",
                "brand": "Agip Eni",
                "amenity": "fuel",
                "operator": "LABRUNA RUBEN"
            },
            "geometry": {
                "type": "Point",
                "coordinates": [
                    9.033567309379578,
                    45.63661374214531
                ]
            }
        },
        {
            "type": "Feature",
            "properties": {
                "name": "Q8 di Fabrizio Di Mulo",
                "id": "17711",
                "brand": "Q8",
                "amenity": "fuel",
                "operator": "DI MULO FABRIZIO"
            },
            "geometry": {
                "type": "Point",
                "coordinates": [
                    9.125762291996011,
                    45.66168937649887
                ]
            }
        },
        {
            "type": "Feature",
            "properties": {
                "name": "STAZIONE ESSO DI TROMBETTA FABIO",
                "id": "29929",
                "brand": "Esso",
                "amenity": "fuel",
                "operator": "TROMBETTA FABIO"
            },
            "geometry": {
                "type": "Point",
                "coordinates": [
                    8.97504073680534,
                    45.6603836133318
                ]
            }
        },
        {
            "type": "Feature",
            "properties": {
                "name": "Baradello",
                "id": "15988",
                "brand": "Api-Ip",
                "amenity": "fuel",
                "operator": "BARADELLO S.R.L."
            },
            "geometry": {
                "type": "Point",
                "coordinates": [
                    9.076662361621857,
                    45.694635371620016
                ]
            }
        },
        {
            "type": "Feature",
            "properties": {
                "name": "Q8 di saetti mara",
                "id": "7811",
                "brand": "Q8",
                "amenity": "fuel",
                "operator": "SAETTI MARA"
            },
            "geometry": {
                "type": "Point",
                "coordinates": [
                    9.138087630271912,
                    45.634011913903244
                ]
            }
        },
        {
            "type": "Feature",
            "properties": {
                "name": "ESSO Morganti",
                "id": "17547",
                "brand": "Esso",
                "amenity": "fuel",
                "operator": "MORGANTI ALESSANDRO"
            },
            "geometry": {
                "type": "Point",
                "coordinates": [
                    9.035031798147543,
                    45.61231131468676
                ]
            }
        },
        {
            "type": "Feature",
            "properties": {
                "name": "Rovello Porro",
                "id": "23393",
                "brand": "Total Erg",
                "amenity": "fuel",
                "operator": "GESTIONI EUROPA - SOCIETA' PER AZIONI"
            },
            "geometry": {
                "type": "Point",
                "coordinates": [
                    9.023959636688232,
                    45.65362120460147
                ]
            }
        },
        {
            "type": "Feature",
            "properties": {
                "name": "ERG DI CATTANEO FIORENZO",
                "id": "27493",
                "brand": "Total Erg",
                "amenity": "fuel",
                "operator": "ERG DI CATTANEO FIORENZO"
            },
            "geometry": {
                "type": "Point",
                "coordinates": [
                    8.96507441997528,
                    45.66536477735347
                ]
            }
        },
        {
            "type": "Feature",
            "properties": {
                "name": "STAZIONE DI SERVIZIO TAMOIL",
                "id": "25413",
                "brand": "Tamoil",
                "amenity": "fuel",
                "operator": "ARTICO & PALAZZI S.N.C. DI ARTICO NICHOLAS"
            },
            "geometry": {
                "type": "Point",
                "coordinates": [
                    9.093144135888679,
                    45.60921962183425
                ]
            }
        },
        {
            "type": "Feature",
            "properties": {
                "name": "gorla",
                "id": "16774",
                "amenity": "fuel",
                "operator": "SFORZIN E MINNELLA S.N.C."
            },
            "geometry": {
                "type": "Point",
                "coordinates": [
                    9.138569086790085,
                    45.70201487935929
                ]
            }
        },
        {
            "type": "Feature",
            "properties": {
                "name": "ENI  DI SCARFONE COSIMO",
                "id": "8831",
                "brand": "Agip Eni",
                "amenity": "fuel",
                "operator": "SCARFONE COSIMO"
            },
            "geometry": {
                "type": "Point",
                "coordinates": [
                    9.083601236343384,
                    45.66748249752138
                ]
            }
        },
        {
            "type": "Feature",
            "properties": {
                "name": "gioviservice e c sas",
                "id": "7769",
                "brand": "Esso",
                "amenity": "fuel",
                "operator": "GIOVI SERVICE DI GALIMBERTI FABIO E C. S.A.S."
            },
            "geometry": {
                "type": "Point",
                "coordinates": [
                    9.09072398280341,
                    45.704444446785175
                ]
            }
        },
        {
            "type": "Feature",
            "properties": {
                "name": "TOTALERG",
                "id": "7242",
                "brand": "Total Erg",
                "amenity": "fuel",
                "operator": "DISTRIBUTORE ERG DI MAZZUCCHELLI CLAUDIA"
            },
            "geometry": {
                "type": "Point",
                "coordinates": [
                    9.081969112157822,
                    45.64970300799577
                ]
            }
        },
        {
            "type": "Feature",
            "properties": {
                "name": "IAGHER FLAVIO",
                "id": "21040",
                "brand": "Total Erg",
                "amenity": "fuel",
                "operator": "IAGHER FLAVIO"
            },
            "geometry": {
                "type": "Point",
                "coordinates": [
                    9.13008727133274,
                    45.654800097243886
                ]
            }
        },
        {
            "type": "Feature",
            "properties": {
                "name": "ENI",
                "id": "13898",
                "brand": "Agip Eni",
                "amenity": "fuel",
                "operator": "D. & V. S.N.C. DI VALENTI MORGAN E CURRO' STEFANO"
            },
            "geometry": {
                "type": "Point",
                "coordinates": [
                    9.037899439950591,
                    45.63058096614678
                ]
            }
        },
        {
            "type": "Feature",
            "properties": {
                "name": "CESATE-VIA ROMA 43",
                "id": "11703",
                "brand": "Q8",
                "amenity": "fuel",
                "operator": "SERVIZI & GESTIONI ITALIA S.R.L."
            },
            "geometry": {
                "type": "Point",
                "coordinates": [
                    9.078240991401684,
                    45.59066381652535
                ]
            }
        },
        {
            "type": "Feature",
            "properties": {
                "name": "LENTATE SUL SEVESO-FZ.COPRENO STATALE DEI GIOVI 262",
                "id": "11640",
                "brand": "Q8",
                "amenity": "fuel",
                "operator": "SERVIZI & GESTIONI ITALIA S.R.L."
            },
            "geometry": {
                "type": "Point",
                "coordinates": [
                    9.10531060668609,
                    45.69114593236457
                ]
            }
        },
        {
            "type": "Feature",
            "properties": {
                "name": "galli angello",
                "id": "15285",
                "brand": "Esso",
                "amenity": "fuel",
                "operator": "GALLI ANGELO"
            },
            "geometry": {
                "type": "Point",
                "coordinates": [
                    8.984784632921219,
                    45.65355783463389
                ]
            }
        },
        {
            "type": "Feature",
            "properties": {
                "name": "118",
                "id": "30499",
                "brand": "Total Erg",
                "amenity": "fuel",
                "operator": "ILARDI SALVATORE"
            },
            "geometry": {
                "type": "Point",
                "coordinates": [
                    9.089337810873985,
                    45.70077029262889
                ]
            }
        },
        {
            "type": "Feature",
            "properties": {
                "name": "Foschetti  Marinella stazione STAR OIL",
                "id": "9219",
                "amenity": "fuel",
                "operator": "FOSCHETTI MARINELLA LUISA"
            },
            "geometry": {
                "type": "Point",
                "coordinates": [
                    9.12992317993394,
                    45.63152467277282
                ]
            }
        },
        {
            "type": "Feature",
            "properties": {
                "name": "ENI Pv 56817 Mope S.n.c.",
                "id": "19040",
                "brand": "Agip Eni",
                "amenity": "fuel",
                "operator": "MOPE S.N.C. DI FUSCALDO G. E PATICELLA F."
            },
            "geometry": {
                "type": "Point",
                "coordinates": [
                    9.046116239300545,
                    45.62424442587158
                ]
            }
        },
        {
            "type": "Feature",
            "properties": {
                "name": "SOLARO-S.S. BUSTESE VIA VARESE 216",
                "id": "11665",
                "brand": "Q8",
                "amenity": "fuel",
                "operator": "SERVIZI & GESTIONI ITALIA S.R.L."
            },
            "geometry": {
                "type": "Point",
                "coordinates": [
                    9.064423789024318,
                    45.61763752107878
                ]
            }
        },
        {
            "type": "Feature",
            "properties": {
                "name": "figini cicli snc",
                "id": "13465",
                "brand": "Api-Ip",
                "amenity": "fuel",
                "operator": "FIGINI CICLI - S.N.C. DEI F.LLI FIGINI"
            },
            "geometry": {
                "type": "Point",
                "coordinates": [
                    9.07566264156344,
                    45.700492060524724
                ]
            }
        },
        {
            "type": "Feature",
            "properties": {
                "name": "ENI",
                "id": "7798",
                "brand": "Agip Eni",
                "amenity": "fuel",
                "operator": "ALIPRANDI SERGIO S.N.C. DI ALIPRANDI SERGIO E C."
            },
            "geometry": {
                "type": "Point",
                "coordinates": [
                    9.02752697467804,
                    45.60035806112223
                ]
            }
        },
        {
            "type": "Feature",
            "properties": {
                "name": "AGOSTINI O E PIERI G",
                "id": "12872",
                "brand": "Agip Eni",
                "amenity": "fuel",
                "operator": "AGOSTINI OLIVIERO E PIERI GIACOMO S.N.C."
            },
            "geometry": {
                "type": "Point",
                "coordinates": [
                    9.128793612372647,
                    45.60050198642624
                ]
            }
        },
        {
            "type": "Feature",
            "properties": {
                "name": "KEROPETROL UBOLDO",
                "id": "23842",
                "amenity": "fuel",
                "operator": "KEROPETROL S.P.A."
            },
            "geometry": {
                "type": "Point",
                "coordinates": [
                    8.979483246803284,
                    45.61317586572184
                ]
            }
        },
        {
            "type": "Feature",
            "properties": {
                "name": "Saronno",
                "id": "23529",
                "brand": "Total Erg",
                "amenity": "fuel",
                "operator": "GESTIONI EUROPA - SOCIETA' PER AZIONI"
            },
            "geometry": {
                "type": "Point",
                "coordinates": [
                    9.019711017608643,
                    45.616280895028154
                ]
            }
        },
        {
            "type": "Feature",
            "properties": {
                "name": "Stazione Eni di Carnelli Luciano",
                "id": "10496",
                "brand": "Agip Eni",
                "amenity": "fuel",
                "operator": "CARNELLI LUCIANO"
            },
            "geometry": {
                "type": "Point",
                "coordinates": [
                    9.000153308114363,
                    45.661814553851706
                ]
            }
        },
        {
            "type": "Feature",
            "properties": {
                "name": "Eni",
                "id": "17862",
                "brand": "Agip Eni",
                "amenity": "fuel",
                "operator": "FRATELLI COPPOLINO DI COPPOLINO GIOVANNI & C. S.N.C."
            },
            "geometry": {
                "type": "Point",
                "coordinates": [
                    9.12663996219635,
                    45.69638217288538
                ]
            }
        },
        {
            "type": "Feature",
            "properties": {
                "name": "Corti Donato",
                "id": "7840",
                "brand": "Agip Eni",
                "amenity": "fuel",
                "operator": "CORTI DONATO."
            },
            "geometry": {
                "type": "Point",
                "coordinates": [
                    9.041514971897186,
                    45.691722208481615
                ]
            }
        },
        {
            "type": "Feature",
            "properties": {
                "name": "golden wash",
                "id": "24545",
                "amenity": "fuel",
                "operator": "GOLDEN WASH S.R.L."
            },
            "geometry": {
                "type": "Point",
                "coordinates": [
                    9.122843666838548,
                    45.60645584861526
                ]
            }
        },
        {
            "type": "Feature",
            "properties": {
                "name": "moretti srl",
                "id": "29540",
                "brand": "Agip Eni",
                "amenity": "fuel",
                "operator": "MORETTI S.R.L."
            },
            "geometry": {
                "type": "Point",
                "coordinates": [
                    9.040632247924805,
                    45.604789364106026
                ]
            }
        },
        {
            "type": "Feature",
            "properties": {
                "name": "sprocati stefano area di servizio",
                "id": "23188",
                "amenity": "fuel",
                "operator": "SPROCATI STEFANO"
            },
            "geometry": {
                "type": "Point",
                "coordinates": [
                    9.039119076057432,
                    45.631448066935754
                ]
            }
        },
        {
            "type": "Feature",
            "properties": {
                "name": "tamoil",
                "id": "14747",
                "brand": "Tamoil",
                "amenity": "fuel",
                "operator": "MOHAMED AYMAN"
            },
            "geometry": {
                "type": "Point",
                "coordinates": [
                    9.09564421909954,
                    45.595328049565246
                ]
            }
        },
        {
            "type": "Feature",
            "properties": {
                "name": "TOTALERG",
                "id": "23123",
                "brand": "Total Erg",
                "amenity": "fuel",
                "operator": "ORO NERO S.A.S. DI SOSSIO FARINA E C."
            },
            "geometry": {
                "type": "Point",
                "coordinates": [
                    9.03189450978698,
                    45.69746374105073
                ]
            }
        },
        {
            "type": "Feature",
            "properties": {
                "name": "Corti Gianni",
                "id": "19359",
                "brand": "Total Erg",
                "amenity": "fuel",
                "operator": "CORTI GIANNINO"
            },
            "geometry": {
                "type": "Point",
                "coordinates": [
                    8.99925332275393,
                    45.61371627607418
                ]
            }
        },
        {
            "type": "Feature",
            "properties": {
                "name": "esso preziosa maurizio",
                "id": "15128",
                "brand": "Esso",
                "amenity": "fuel",
                "operator": "*PREZIOSA MAURIZIO"
            },
            "geometry": {
                "type": "Point",
                "coordinates": [
                    9.038899540901184,
                    45.62392191200576
                ]
            }
        },
        {
            "type": "Feature",
            "properties": {
                "name": "BUTTI MARIA",
                "id": "17902",
                "brand": "Total Erg",
                "amenity": "fuel",
                "operator": "BUTTI MARIA"
            },
            "geometry": {
                "type": "Point",
                "coordinates": [
                    9.02708815984954,
                    45.693703125642
                ]
            }
        },
        {
            "type": "Feature",
            "properties": {
                "name": "dattoli antonio",
                "id": "15078",
                "brand": "Total Erg",
                "amenity": "fuel",
                "operator": "DATTOLI ANTONIO"
            },
            "geometry": {
                "type": "Point",
                "coordinates": [
                    9.119476452469826,
                    45.58977023462355
                ]
            }
        },
        {
            "type": "Feature",
            "properties": {
                "name": "SARONNO-VIA VARESE ANGOLO VIA AMENDOLA",
                "id": "11921",
                "brand": "Q8",
                "amenity": "fuel",
                "operator": "SERVIZI & GESTIONI ITALIA S.R.L."
            },
            "geometry": {
                "type": "Point",
                "coordinates": [
                    9.03108390674595,
                    45.61766623106788
                ]
            }
        },
        {
            "type": "Feature",
            "properties": {
                "name": "tamoil",
                "id": "14743",
                "brand": "Tamoil",
                "amenity": "fuel",
                "operator": "MOHAMED AYMAN"
            },
            "geometry": {
                "type": "Point",
                "coordinates": [
                    9.09564421909954,
                    45.595328049565246
                ]
            }
        },
        {
            "type": "Feature",
            "properties": {
                "name": "Varotto Lorenza",
                "id": "18065",
                "brand": "Tamoil",
                "amenity": "fuel",
                "operator": "VAROTTO LORENZA"
            },
            "geometry": {
                "type": "Point",
                "coordinates": [
                    9.044458262565627,
                    45.66667112558792
                ]
            }
        },
        {
            "type": "Feature",
            "properties": {
                "name": "LOMAZZO-SP LOMBARDIA",
                "id": "11565",
                "brand": "Q8",
                "amenity": "fuel",
                "operator": "SERVIZI & GESTIONI ITALIA S.R.L."
            },
            "geometry": {
                "type": "Point",
                "coordinates": [
                    9.040422974205057,
                    45.68868501060333
                ]
            }
        },
        {
            "type": "Feature",
            "properties": {
                "name": "TOTALERG",
                "id": "15083",
                "brand": "Total Erg",
                "amenity": "fuel",
                "operator": "MARINONI ROBERTO"
            },
            "geometry": {
                "type": "Point",
                "coordinates": [
                    9.00312155485153,
                    45.70197142045231
                ]
            }
        },
        {
            "type": "Feature",
            "properties": {
                "name": "area servizio q8",
                "id": "20637",
                "brand": "Q8",
                "amenity": "fuel",
                "operator": "MCR S.N.C. DI MARTELLA FRANCESCO E C."
            },
            "geometry": {
                "type": "Point",
                "coordinates": [
                    9.031153321266174,
                    45.61241187080537
                ]
            }
        }
    ]
}