{
    "type": "FeatureCollection",
    "features": [
        {
            "type": "Feature",
            "properties": {
                "name": "Fanti Elisabetta stazione servizio Esso",
                "id": "13478",
                "brand": "Esso",
                "amenity": "fuel",
                "operator": "FANTI ELISABETTA STAZIONE DI SERVIZIO"
            },
            "geometry": {
                "type": "Point",
                "coordinates": [
                    9.12930741906166,
                    39.26366951798626
                ]
            }
        },
        {
            "type": "Feature",
            "properties": {
                "name": "STAZIONE ESSO DI FOIS IGNAZIO P.",
                "id": "26492",
                "brand": "Esso",
                "amenity": "fuel",
                "operator": "STAZIONE ESSO DI FOIS IGNAZIO P."
            },
            "geometry": {
                "type": "Point",
                "coordinates": [
                    9.040373185427145,
                    39.271573084679716
                ]
            }
        },
        {
            "type": "Feature",
            "properties": {
                "name": "is scalas srl",
                "id": "29082",
                "brand": "Api-Ip",
                "amenity": "fuel",
                "operator": "IS SCALAS S.R.L."
            },
            "geometry": {
                "type": "Point",
                "coordinates": [
                    9.000472979901135,
                    39.28305651411221
                ]
            }
        },
        {
            "type": "Feature",
            "properties": {
                "name": "ESSO",
                "id": "29888",
                "brand": "Esso",
                "amenity": "fuel",
                "operator": "PIRAS PIETRO"
            },
            "geometry": {
                "type": "Point",
                "coordinates": [
                    9.021974131464958,
                    39.27938633883097
                ]
            }
        },
        {
            "type": "Feature",
            "properties": {
                "name": "CAGLIARI VIALE MARCONI  170",
                "id": "6692",
                "brand": "Q8",
                "amenity": "fuel",
                "operator": "SERVIZI & GESTIONI ITALIA srl"
            },
            "geometry": {
                "type": "Point",
                "coordinates": [
                    9.137494535581938,
                    39.23407568015544
                ]
            }
        },
        {
            "type": "Feature",
            "properties": {
                "name": "Api-Ip Ardau Walter",
                "id": "19805",
                "brand": "Api-Ip",
                "amenity": "fuel",
                "operator": "ARDAU WALTER"
            },
            "geometry": {
                "type": "Point",
                "coordinates": [
                    9.124306440353395,
                    39.244495420334566
                ]
            }
        },
        {
            "type": "Feature",
            "properties": {
                "name": "STAZIONE DI SERVIZIO \"ESSO\"",
                "id": "13838",
                "brand": "Esso",
                "amenity": "fuel",
                "operator": "FERRAI LUIGI"
            },
            "geometry": {
                "type": "Point",
                "coordinates": [
                    9.117020219564438,
                    39.24533255377865
                ]
            }
        },
        {
            "type": "Feature",
            "properties": {
                "name": "eni",
                "id": "18107",
                "brand": "Agip Eni",
                "amenity": "fuel",
                "operator": "MURA MARIO MARTINO"
            },
            "geometry": {
                "type": "Point",
                "coordinates": [
                    9.13168452680111,
                    39.23287725252902
                ]
            }
        },
        {
            "type": "Feature",
            "properties": {
                "name": "Fuels Service s.r.l. 2",
                "id": "17102",
                "brand": "Api-Ip",
                "amenity": "fuel",
                "operator": "FUELS SERVICE S.R.L."
            },
            "geometry": {
                "type": "Point",
                "coordinates": [
                    9.005064003704774,
                    39.286897744063374
                ]
            }
        },
        {
            "type": "Feature",
            "properties": {
                "name": "CAGLIARI",
                "id": "5788",
                "brand": "Total Erg",
                "amenity": "fuel",
                "operator": "TotalErg SpA"
            },
            "geometry": {
                "type": "Point",
                "coordinates": [
                    9.11754600859831,
                    39.243881454729404
                ]
            }
        },
        {
            "type": "Feature",
            "properties": {
                "name": "ip",
                "id": "32109",
                "brand": "Api-Ip",
                "amenity": "fuel",
                "operator": "PISANO & C. S.R.L."
            },
            "geometry": {
                "type": "Point",
                "coordinates": [
                    9.106008410453796,
                    39.23713514402037
                ]
            }
        },
        {
            "type": "Feature",
            "properties": {
                "name": "3774",
                "id": "27922",
                "brand": "Tamoil",
                "amenity": "fuel",
                "operator": "PALMAS MINUCCIO"
            },
            "geometry": {
                "type": "Point",
                "coordinates": [
                    9.000973775982857,
                    39.29691464349141
                ]
            }
        },
        {
            "type": "Feature",
            "properties": {
                "name": "sargas",
                "id": "22068",
                "brand": "Q8",
                "amenity": "fuel",
                "operator": "S.A.R.G.A.S. S.N.C. DI GIORGIA SAITO"
            },
            "geometry": {
                "type": "Point",
                "coordinates": [
                    9.113035798072815,
                    39.26332831895519
                ]
            }
        },
        {
            "type": "Feature",
            "properties": {
                "name": "CAGLIARI V.LE MONASTIR",
                "id": "6694",
                "brand": "Q8",
                "amenity": "fuel",
                "operator": "SERVIZI & GESTIONI ITALIA srl"
            },
            "geometry": {
                "type": "Point",
                "coordinates": [
                    9.097078510450729,
                    39.241971244023844
                ]
            }
        },
        {
            "type": "Feature",
            "properties": {
                "name": "Stazione di Servizio Esso Dieffe snc Cagliari",
                "id": "4901",
                "brand": "Esso",
                "amenity": "fuel",
                "operator": "DIEFFE S.N.C. DI DESOGUS E FLORIS"
            },
            "geometry": {
                "type": "Point",
                "coordinates": [
                    9.11141037940979,
                    39.233658712703786
                ]
            }
        },
        {
            "type": "Feature",
            "properties": {
                "name": "SCM ENI MONSERRATO",
                "id": "15995",
                "brand": "Agip Eni",
                "amenity": "fuel",
                "operator": "S.C.M. S.A.S. DI SPANU CORRADO"
            },
            "geometry": {
                "type": "Point",
                "coordinates": [
                    9.133602976799013,
                    39.26623562200151
                ]
            }
        },
        {
            "type": "Feature",
            "properties": {
                "name": "Q8 Piras Andrea",
                "id": "16363",
                "brand": "Q8",
                "amenity": "fuel",
                "operator": "PIRAS ANDREA"
            },
            "geometry": {
                "type": "Point",
                "coordinates": [
                    9.011083514385973,
                    39.283769396024596
                ]
            }
        },
        {
            "type": "Feature",
            "properties": {
                "name": "eni",
                "id": "31988",
                "brand": "Agip Eni",
                "amenity": "fuel",
                "operator": "SIDDI ANDREA"
            },
            "geometry": {
                "type": "Point",
                "coordinates": [
                    9.112767341455651,
                    39.23574020248195
                ]
            }
        },
        {
            "type": "Feature",
            "properties": {
                "name": "STAZIONE DI SERVIZIO ENI ZANDA MARCELLO",
                "id": "16387",
                "brand": "Agip Eni",
                "amenity": "fuel",
                "operator": "ZANDA MARCELLO"
            },
            "geometry": {
                "type": "Point",
                "coordinates": [
                    9.090927690267563,
                    39.24251120690132
                ]
            }
        },
        {
            "type": "Feature",
            "properties": {
                "name": "IMPIANTO IP",
                "id": "19806",
                "brand": "Api-Ip",
                "amenity": "fuel",
                "operator": "TIDU FAUSTO"
            },
            "geometry": {
                "type": "Point",
                "coordinates": [
                    9.136508790213043,
                    39.25338686675642
                ]
            }
        },
        {
            "type": "Feature",
            "properties": {
                "name": "PETROLS SERVICE SAS",
                "id": "15758",
                "brand": "Agip Eni",
                "amenity": "fuel",
                "operator": "PETROLS SERVICE DI PIGA GIANCARLO & C. S.A.S. O CON RAGIONE SOCI ALE ABBREVIATA PETROLS SERVICE S.A.S."
            },
            "geometry": {
                "type": "Point",
                "coordinates": [
                    9.067620635032652,
                    39.27508450256825
                ]
            }
        },
        {
            "type": "Feature",
            "properties": {
                "name": "DISTRIBUTORE ENI   MAR. VEN. MAR.",
                "id": "7439",
                "brand": "Agip Eni",
                "amenity": "fuel",
                "operator": "MAR. VEN. MAR. S.N.C. DI VENANZIO PILLONI"
            },
            "geometry": {
                "type": "Point",
                "coordinates": [
                    9.005385001852346,
                    39.35928927685447
                ]
            }
        },
        {
            "type": "Feature",
            "properties": {
                "name": "ENI CIRC. PIRRI",
                "id": "31080",
                "brand": "Agip Eni",
                "amenity": "fuel",
                "operator": "CARBONI GIANLUCA"
            },
            "geometry": {
                "type": "Point",
                "coordinates": [
                    9.118980718432567,
                    39.240374668511635
                ]
            }
        },
        {
            "type": "Feature",
            "properties": {
                "name": "impianto carburanti Q8 2Pistis snc",
                "id": "27302",
                "brand": "Q8",
                "amenity": "fuel",
                "operator": "2 PISTIS DI  PAOLO PISTIS & C. S.N.C."
            },
            "geometry": {
                "type": "Point",
                "coordinates": [
                    9.05701477091975,
                    39.264665735931864
                ]
            }
        },
        {
            "type": "Feature",
            "properties": {
                "name": "vienicafe",
                "id": "32173",
                "brand": "Agip Eni",
                "amenity": "fuel",
                "operator": "VIENI DI DAVIDE PODDA S.A.S."
            },
            "geometry": {
                "type": "Point",
                "coordinates": [
                    9.097071290016174,
                    39.24132256310519
                ]
            }
        },
        {
            "type": "Feature",
            "properties": {
                "name": "Congiu Claudio stazione di servizioESSO",
                "id": "32159",
                "brand": "Esso",
                "amenity": "fuel",
                "operator": "CONGIU CLAUDIO"
            },
            "geometry": {
                "type": "Point",
                "coordinates": [
                    9.124923348426819,
                    39.237047267203316
                ]
            }
        },
        {
            "type": "Feature",
            "properties": {
                "name": "CAGLIARI CADELLO",
                "id": "6691",
                "brand": "Q8",
                "amenity": "fuel",
                "operator": "SERVIZI & GESTIONI ITALIA srl"
            },
            "geometry": {
                "type": "Point",
                "coordinates": [
                    9.118173517196624,
                    39.23948584789863
                ]
            }
        },
        {
            "type": "Feature",
            "properties": {
                "name": "eni pitzantie",
                "id": "18338",
                "brand": "Agip Eni",
                "amenity": "fuel",
                "operator": "PITZANTI E PAU DI CARLO PITZANTI SOCIETA' IN ACCOMANDITA SEMPLICE IN FORMA ABBREVIATA \"PITZANTI E PAU S.A.S."
            },
            "geometry": {
                "type": "Point",
                "coordinates": [
                    9.133967757225038,
                    39.25135415111921
                ]
            }
        },
        {
            "type": "Feature",
            "properties": {
                "name": "8451",
                "id": "30628",
                "brand": "Tamoil",
                "amenity": "fuel",
                "operator": "T.D.M. S.R.L."
            },
            "geometry": {
                "type": "Point",
                "coordinates": [
                    9.013722985982895,
                    39.35126583962713
                ]
            }
        },
        {
            "type": "Feature",
            "properties": {
                "name": "DECIMO",
                "id": "17112",
                "brand": "Agip Eni",
                "amenity": "fuel",
                "operator": "DISTRIBUTORE DEI F.LLI MAMELI S.N.C."
            },
            "geometry": {
                "type": "Point",
                "coordinates": [
                    8.973209559917452,
                    39.30496911307738
                ]
            }
        },
        {
            "type": "Feature",
            "properties": {
                "name": "agip",
                "id": "8700",
                "brand": "Agip Eni",
                "amenity": "fuel",
                "operator": "SOCIETA' SERVICE DI MARCELLINO E WALTER MAMELI S.N.C."
            },
            "geometry": {
                "type": "Point",
                "coordinates": [
                    9.072582721710205,
                    39.258243363706605
                ]
            }
        },
        {
            "type": "Feature",
            "properties": {
                "name": "7588 CAGLIARI SANT AVENDRACE",
                "id": "26111",
                "brand": "Agip Eni",
                "amenity": "fuel",
                "operator": "ENI RETE OIL&NONOIL S.P.A."
            },
            "geometry": {
                "type": "Point",
                "coordinates": [
                    9.097488373517992,
                    39.23414249343074
                ]
            }
        },
        {
            "type": "Feature",
            "properties": {
                "name": "TAMOIL",
                "id": "10554",
                "brand": "Tamoil",
                "amenity": "fuel",
                "operator": "MARIO CASULA VALERI M.C.V. S.R.L."
            },
            "geometry": {
                "type": "Point",
                "coordinates": [
                    9.095349100006842,
                    39.232521778630165
                ]
            }
        },
        {
            "type": "Feature",
            "properties": {
                "name": "Giacomo Scrocov e C Sas",
                "id": "10204",
                "brand": "Agip Eni",
                "amenity": "fuel",
                "operator": "GIACOMO SCROCOV & C. S.A.S."
            },
            "geometry": {
                "type": "Point",
                "coordinates": [
                    9.078880548477173,
                    39.27347324439398
                ]
            }
        },
        {
            "type": "Feature",
            "properties": {
                "name": "stazione di servizio q8",
                "id": "12105",
                "brand": "Q8",
                "amenity": "fuel",
                "operator": "ATMA DI ATZERI MASSIMILIANO E MARCIS WALTER S.N.C."
            },
            "geometry": {
                "type": "Point",
                "coordinates": [
                    9.011066558197056,
                    39.35416507176542
                ]
            }
        },
        {
            "type": "Feature",
            "properties": {
                "name": "8209",
                "id": "30626",
                "brand": "Tamoil",
                "amenity": "fuel",
                "operator": "T.D.M. S.R.L."
            },
            "geometry": {
                "type": "Point",
                "coordinates": [
                    9.102930575609207,
                    39.23293896198873
                ]
            }
        },
        {
            "type": "Feature",
            "properties": {
                "name": "ESSO",
                "id": "23882",
                "brand": "Esso",
                "amenity": "fuel",
                "operator": "FARIGU MANUELE"
            },
            "geometry": {
                "type": "Point",
                "coordinates": [
                    9.10347506403923,
                    39.251618765862744
                ]
            }
        },
        {
            "type": "Feature",
            "properties": {
                "name": "SODIGAS SPA - Stazione Distribuzione Carburanti Sestu",
                "id": "24260",
                "brand": "Sodigas",
                "amenity": "fuel",
                "operator": "SO.DI.GAS - S.O.I.S. - SOCIETA' DISTRIBUZIONE GAS E COMBUSTIBILI RISCALDAMENTO - S.P.A.  FORMA ABBREVIATA SO.DI.GAS S.P.A."
            },
            "geometry": {
                "type": "Point",
                "coordinates": [
                    9.080343164727083,
                    39.28396460811371
                ]
            }
        },
        {
            "type": "Feature",
            "properties": {
                "name": "ditta atzeni pasquina",
                "id": "32184",
                "brand": "Esso",
                "amenity": "fuel",
                "operator": "ATZENI PASQUINA"
            },
            "geometry": {
                "type": "Point",
                "coordinates": [
                    9.095211178064346,
                    39.25000977226612
                ]
            }
        },
        {
            "type": "Feature",
            "properties": {
                "name": "DISTRIBUTORE PISCHEDDA",
                "id": "8707",
                "brand": "Q8",
                "amenity": "fuel",
                "operator": "PISCHEDDA ANTONIO DI MAURIZIO, GIAMPAOLO E FRANCO PISCHEDDA S.N.C FORMA ABBREVIATA PISCHEDDA ANTONIO E FIGLI S.N.C."
            },
            "geometry": {
                "type": "Point",
                "coordinates": [
                    9.120089652442061,
                    39.264622385966916
                ]
            }
        },
        {
            "type": "Feature",
            "properties": {
                "name": "_ESSO \"ON THE RUN\"",
                "id": "7340",
                "brand": "Esso",
                "amenity": "fuel",
                "operator": "GESTIONE IMPIANTI STRADALI S.N.C. DI MARIO E FABRIZIO FERRAI DENOMINAZIONE ABBREVIATA: \"G.I.S. S.N.C. DI MARIO E FABRIZIO FERRAI\""
            },
            "geometry": {
                "type": "Point",
                "coordinates": [
                    9.031984806060791,
                    39.28182397723136
                ]
            }
        },
        {
            "type": "Feature",
            "properties": {
                "name": "STEFANO ANGIUS",
                "id": "31985",
                "brand": "Q8",
                "amenity": "fuel",
                "operator": "ANGIUS STEFANO"
            },
            "geometry": {
                "type": "Point",
                "coordinates": [
                    9.125982820987701,
                    39.24124632466315
                ]
            }
        },
        {
            "type": "Feature",
            "properties": {
                "name": "17585",
                "id": "8946",
                "brand": "Agip Eni",
                "amenity": "fuel",
                "operator": "L.A. PETROLI S.R.L."
            },
            "geometry": {
                "type": "Point",
                "coordinates": [
                    9.069766402244568,
                    39.284028803224956
                ]
            }
        },
        {
            "type": "Feature",
            "properties": {
                "name": "STAZIONE DI SERVIZIO ESSO EFFEDI SNC",
                "id": "22053",
                "brand": "Esso",
                "amenity": "fuel",
                "operator": "EFFEDI S.N.C. DI ANTONELLO FLORIS E ANTONIO DESOGUS"
            },
            "geometry": {
                "type": "Point",
                "coordinates": [
                    8.969091027975082,
                    39.30763768075654
                ]
            }
        },
        {
            "type": "Feature",
            "properties": {
                "name": "stazione di servizio di Melis Alessandro",
                "id": "29191",
                "brand": "Esso",
                "amenity": "fuel",
                "operator": "MELIS ALESSANDRO"
            },
            "geometry": {
                "type": "Point",
                "coordinates": [
                    9.125979628840355,
                    39.241251887702745
                ]
            }
        },
        {
            "type": "Feature",
            "properties": {
                "name": "Q8",
                "id": "20687",
                "brand": "Q8",
                "amenity": "fuel",
                "operator": "CAU GEMILIANA"
            },
            "geometry": {
                "type": "Point",
                "coordinates": [
                    9.08882886171341,
                    39.29489621085952
                ]
            }
        },
        {
            "type": "Feature",
            "properties": {
                "name": "distributore q8 giorgetti",
                "id": "11420",
                "brand": "Q8",
                "amenity": "fuel",
                "operator": "GIORGETTI ANTONIO"
            },
            "geometry": {
                "type": "Point",
                "coordinates": [
                    9.097288541139278,
                    39.23482317083479
                ]
            }
        }
    ]
}