{
    "type": "FeatureCollection",
    "features": [
        {
            "type": "Feature",
            "properties": {
                "name": "TAMOIL 8459",
                "id": "23097",
                "brand": "Tamoil",
                "amenity": "fuel",
                "operator": "G.E.M.M.A. S.A.S. DI SECCI ANDREA & C."
            },
            "geometry": {
                "type": "Point",
                "coordinates": [
                    9.10618007183075,
                    39.22165446059755
                ]
            }
        },
        {
            "type": "Feature",
            "properties": {
                "name": "Faggioli Alberto",
                "id": "32123",
                "brand": "Q8",
                "amenity": "fuel",
                "operator": "FAGGIOLI ALBERTO"
            },
            "geometry": {
                "type": "Point",
                "coordinates": [
                    9.12168023297545,
                    39.218787051694946
                ]
            }
        },
        {
            "type": "Feature",
            "properties": {
                "name": "stazione di servizio di Piras Tomas",
                "id": "29177",
                "amenity": "fuel",
                "operator": "PIRAS TOMAS"
            },
            "geometry": {
                "type": "Point",
                "coordinates": [
                    9.122793846052785,
                    39.23143946834133
                ]
            }
        },
        {
            "type": "Feature",
            "properties": {
                "name": "TAMOIL 8459",
                "id": "23095",
                "brand": "Tamoil",
                "amenity": "fuel",
                "operator": "G.E.M.M.A. S.A.S. DI SECCI ANDREA & C."
            },
            "geometry": {
                "type": "Point",
                "coordinates": [
                    9.10618007183075,
                    39.22165446059755
                ]
            }
        },
        {
            "type": "Feature",
            "properties": {
                "name": "eni 07542 cagliari",
                "id": "12816",
                "brand": "Agip Eni",
                "amenity": "fuel",
                "operator": "GROSSO ANDREA"
            },
            "geometry": {
                "type": "Point",
                "coordinates": [
                    9.120080817196595,
                    39.227988249550144
                ]
            }
        },
        {
            "type": "Feature",
            "properties": {
                "name": "ADRIATICA PETROLI",
                "id": "13588",
                "brand": "Api-Ip",
                "amenity": "fuel",
                "operator": "SALIS GIOVANNI"
            },
            "geometry": {
                "type": "Point",
                "coordinates": [
                    9.137270227074623,
                    39.2051338664336
                ]
            }
        },
        {
            "type": "Feature",
            "properties": {
                "name": "TAMOIL 8459",
                "id": "23098",
                "brand": "Tamoil",
                "amenity": "fuel",
                "operator": "G.E.M.M.A. S.A.S. DI SECCI ANDREA & C."
            },
            "geometry": {
                "type": "Point",
                "coordinates": [
                    9.10618007183075,
                    39.22165446059755
                ]
            }
        },
        {
            "type": "Feature",
            "properties": {
                "name": "melis omar",
                "id": "16391",
                "brand": "Agip Eni",
                "amenity": "fuel",
                "operator": "MELIS OMAR"
            },
            "geometry": {
                "type": "Point",
                "coordinates": [
                    9.11554031074047,
                    39.223939930072156
                ]
            }
        },
        {
            "type": "Feature",
            "properties": {
                "name": "ENI",
                "id": "10427",
                "brand": "Agip Eni",
                "amenity": "fuel",
                "operator": "ABIS MARCO & VERDERAME GIORGIO S.N.C."
            },
            "geometry": {
                "type": "Point",
                "coordinates": [
                    9.133690148591995,
                    39.20812900092983
                ]
            }
        },
        {
            "type": "Feature",
            "properties": {
                "name": "Stazione di servizio q8 il veliero snc",
                "id": "7657",
                "brand": "Q8",
                "amenity": "fuel",
                "operator": "IL VELIERO STAZIONE DI SERVIZIO Q8 - DI MANUEL ARGIOLAS E C. S.N. C."
            },
            "geometry": {
                "type": "Point",
                "coordinates": [
                    8.99832308292389,
                    39.10969041763439
                ]
            }
        },
        {
            "type": "Feature",
            "properties": {
                "name": "stazione di servizio retitalia di melis",
                "id": "29192",
                "brand": "Retitalia",
                "amenity": "fuel",
                "operator": "MELIS ALESSANDRO"
            },
            "geometry": {
                "type": "Point",
                "coordinates": [
                    9.11051720380783,
                    39.227679760886694
                ]
            }
        },
        {
            "type": "Feature",
            "properties": {
                "name": "Auto Service s.a.s.",
                "id": "17110",
                "brand": "Agip Eni",
                "amenity": "fuel",
                "operator": "AUTO SERVICE DI PILI ANTONELLO S.A.S."
            },
            "geometry": {
                "type": "Point",
                "coordinates": [
                    9.11600835621357,
                    39.21159618086824
                ]
            }
        },
        {
            "type": "Feature",
            "properties": {
                "name": "FULL",
                "id": "31069",
                "brand": "Esso",
                "amenity": "fuel",
                "operator": "FULL B.C.P. DI PISCHEDDA SAMUEL S.A.S."
            },
            "geometry": {
                "type": "Point",
                "coordinates": [
                    9.101296439766884,
                    39.22457169890795
                ]
            }
        },
        {
            "type": "Feature",
            "properties": {
                "name": "colombo cristoforo",
                "id": "19187",
                "brand": "Agip Eni",
                "amenity": "fuel",
                "operator": "TODDE DAVIDE"
            },
            "geometry": {
                "type": "Point",
                "coordinates": [
                    9.129546135663984,
                    39.20265095254905
                ]
            }
        },
        {
            "type": "Feature",
            "properties": {
                "name": "distributore ip loddo marina e marongiu emilia snc",
                "id": "31128",
                "brand": "Api-Ip",
                "amenity": "fuel",
                "operator": "LODDO MARINA E MARONGIU EMILIA S.N.C."
            },
            "geometry": {
                "type": "Point",
                "coordinates": [
                    8.978375494480133,
                    39.172797988203655
                ]
            }
        },
        {
            "type": "Feature",
            "properties": {
                "name": "LE VELE Q8 SAS",
                "id": "21694",
                "brand": "Q8",
                "amenity": "fuel",
                "operator": "AREA DI SERVIZIO Q8 LE VELE DI CALI' MARIO E C. SAS FORMA ABBREVIATA LE VELE Q8 SAS"
            },
            "geometry": {
                "type": "Point",
                "coordinates": [
                    9.124494194984436,
                    39.22952477319818
                ]
            }
        },
        {
            "type": "Feature",
            "properties": {
                "name": "Distributore carburanti Eni n. 07634",
                "id": "14981",
                "brand": "Agip Eni",
                "amenity": "fuel",
                "operator": "FLORIS FABIO"
            },
            "geometry": {
                "type": "Point",
                "coordinates": [
                    9.094917077771015,
                    39.230991763695826
                ]
            }
        },
        {
            "type": "Feature",
            "properties": {
                "name": "Cagliari Pula oil",
                "id": "31869",
                "brand": "Agip Eni",
                "amenity": "fuel",
                "operator": "NUOVA SIDAP  S.R.L."
            },
            "geometry": {
                "type": "Point",
                "coordinates": [
                    9.063782393932343,
                    39.22487308836294
                ]
            }
        },
        {
            "type": "Feature",
            "properties": {
                "name": "Eni Shop - impianto 7581",
                "id": "5622",
                "brand": "Agip Eni",
                "amenity": "fuel",
                "operator": "SARDICA DI MARIA ATENA LAI & C. S.A.S."
            },
            "geometry": {
                "type": "Point",
                "coordinates": [
                    9.107536599040031,
                    39.21412678369548
                ]
            }
        },
        {
            "type": "Feature",
            "properties": {
                "name": "CAGLIARI VIALE SAN VINCENZO",
                "id": "6689",
                "brand": "Q8",
                "amenity": "fuel",
                "operator": "SERVIZI & GESTIONI ITALIA srl"
            },
            "geometry": {
                "type": "Point",
                "coordinates": [
                    9.113856613491862,
                    39.227131298659515
                ]
            }
        },
        {
            "type": "Feature",
            "properties": {
                "name": "Tamoil",
                "id": "31407",
                "brand": "Tamoil",
                "amenity": "fuel",
                "operator": "FRATELLI SANNA S.N.C. DI SANNA ANNA MARIA E SANNA FRANCESCO"
            },
            "geometry": {
                "type": "Point",
                "coordinates": [
                    8.986303477893102,
                    39.16947110796525
                ]
            }
        },
        {
            "type": "Feature",
            "properties": {
                "name": "piazza giovanni",
                "id": "28271",
                "brand": "Q8",
                "amenity": "fuel",
                "operator": "BREAK SERVICE DI  SORU MODESTINA"
            },
            "geometry": {
                "type": "Point",
                "coordinates": [
                    9.124558568000793,
                    39.228441991355915
                ]
            }
        },
        {
            "type": "Feature",
            "properties": {
                "name": "stazione esso",
                "id": "25394",
                "brand": "Esso",
                "amenity": "fuel",
                "operator": "CABRAS CRISTIAN"
            },
            "geometry": {
                "type": "Point",
                "coordinates": [
                    9.103221595287323,
                    39.214634264877716
                ]
            }
        },
        {
            "type": "Feature",
            "properties": {
                "name": "RETITALIA",
                "id": "31505",
                "brand": "Retitalia",
                "amenity": "fuel",
                "operator": "LANERO MICHELE"
            },
            "geometry": {
                "type": "Point",
                "coordinates": [
                    9.11051720380783,
                    39.22768017646083
                ]
            }
        },
        {
            "type": "Feature",
            "properties": {
                "name": "Petrol Point",
                "id": "21553",
                "brand": "Esso",
                "amenity": "fuel",
                "operator": "PETROL POINT DI SALVATORE SERRA E C. S.N.C."
            },
            "geometry": {
                "type": "Point",
                "coordinates": [
                    9.136275127530098,
                    39.22367791212233
                ]
            }
        },
        {
            "type": "Feature",
            "properties": {
                "name": "DISTRIBUTORE PINTAURO BENITO",
                "id": "14649",
                "brand": "Api-Ip",
                "amenity": "fuel",
                "operator": "PINTAURO BENITO"
            },
            "geometry": {
                "type": "Point",
                "coordinates": [
                    9.130486249923706,
                    39.2057390971733
                ]
            }
        },
        {
            "type": "Feature",
            "properties": {
                "name": "07580 Marconi CA",
                "id": "26856",
                "brand": "Agip Eni",
                "amenity": "fuel",
                "operator": "ENI RETE OIL&NONOIL S.P.A."
            },
            "geometry": {
                "type": "Point",
                "coordinates": [
                    9.129864513743087,
                    39.22542758899688
                ]
            }
        },
        {
            "type": "Feature",
            "properties": {
                "name": "Fuels.Service. s.r.l.",
                "id": "17101",
                "amenity": "fuel",
                "operator": "FUELS SERVICE S.R.L."
            },
            "geometry": {
                "type": "Point",
                "coordinates": [
                    9.127066842253612,
                    39.21761976220749
                ]
            }
        },
        {
            "type": "Feature",
            "properties": {
                "name": "DISTRIBUTORE ESSO PALA FABIO",
                "id": "18046",
                "brand": "Esso",
                "amenity": "fuel",
                "operator": "PALA FABIO"
            },
            "geometry": {
                "type": "Point",
                "coordinates": [
                    9.12552684545517,
                    39.2168476462722
                ]
            }
        },
        {
            "type": "Feature",
            "properties": {
                "name": "stazione di servizio eni",
                "id": "8224",
                "brand": "Agip Eni",
                "amenity": "fuel",
                "operator": "PIRETTO ANTONIO E MARIOTTI ROBERTO S.N.C."
            },
            "geometry": {
                "type": "Point",
                "coordinates": [
                    9.120585187835673,
                    39.22627706808569
                ]
            }
        },
        {
            "type": "Feature",
            "properties": {
                "name": "8208",
                "id": "30821",
                "brand": "Tamoil",
                "amenity": "fuel",
                "operator": "T.D.M. S.R.L."
            },
            "geometry": {
                "type": "Point",
                "coordinates": [
                    9.132053330540657,
                    39.22841564664675
                ]
            }
        }
    ]
}