{
    "type": "FeatureCollection",
    "features": [
        {
            "type": "Feature",
            "properties": {
                "name": "SMALP",
                "id": "25356",
                "brand": "Tamoil",
                "amenity": "fuel",
                "operator": "S.M.A.L.P. S.N.C. DI LOSI STEFANO MARIA E FERLISI ANDREA E C."
            },
            "geometry": {
                "type": "Point",
                "coordinates": [
                    9.157398470898443,
                    45.198081106546
                ]
            }
        },
        {
            "type": "Feature",
            "properties": {
                "name": "ENI PV 02595",
                "id": "30018",
                "brand": "Agip Eni",
                "amenity": "fuel",
                "operator": "SCICCHITANO GENNJ"
            },
            "geometry": {
                "type": "Point",
                "coordinates": [
                    9.146464169025421,
                    45.1829155684901
                ]
            }
        },
        {
            "type": "Feature",
            "properties": {
                "name": "ESSO FRATELLI BONESCHI",
                "id": "19641",
                "brand": "Esso",
                "amenity": "fuel",
                "operator": "F.LLI BONESCHI S.N.C. DI BONESCHI MAURIZIO E MARIO"
            },
            "geometry": {
                "type": "Point",
                "coordinates": [
                    9.302816838026047,
                    45.161381986524006
                ]
            }
        },
        {
            "type": "Feature",
            "properties": {
                "name": "GIOVI GAS SRL",
                "id": "30552",
                "amenity": "fuel",
                "operator": "GIOVI GAS S.R.L."
            },
            "geometry": {
                "type": "Point",
                "coordinates": [
                    9.146745800971985,
                    45.208485854232265
                ]
            }
        },
        {
            "type": "Feature",
            "properties": {
                "name": "Retitalia",
                "id": "22885",
                "brand": "Retitalia",
                "amenity": "fuel",
                "operator": "PILIA CRISTINA"
            },
            "geometry": {
                "type": "Point",
                "coordinates": [
                    9.140804727911359,
                    45.167677648518804
                ]
            }
        },
        {
            "type": "Feature",
            "properties": {
                "name": "PAVIA-VIA BRAMANTE 19",
                "id": "11786",
                "brand": "Q8",
                "amenity": "fuel",
                "operator": "SERVIZI & GESTIONI ITALIA S.R.L."
            },
            "geometry": {
                "type": "Point",
                "coordinates": [
                    9.144196152114887,
                    45.170716798318175
                ]
            }
        },
        {
            "type": "Feature",
            "properties": {
                "name": "mcs srl",
                "id": "9845",
                "brand": "Repsol",
                "amenity": "fuel",
                "operator": "M.C.S. SOCIETA' A RESPONSABILITA' LIMITATA O IN FORMA ABBREVIATA M.C.S. S.R.L."
            },
            "geometry": {
                "type": "Point",
                "coordinates": [
                    9.146459161376923,
                    45.17484267203792
                ]
            }
        },
        {
            "type": "Feature",
            "properties": {
                "name": "Stazione di Servizio Kuwait",
                "id": "15479",
                "brand": "Q8",
                "amenity": "fuel",
                "operator": "BUSNELLI DAVIDE"
            },
            "geometry": {
                "type": "Point",
                "coordinates": [
                    9.151842728754216,
                    45.179788747482796
                ]
            }
        },
        {
            "type": "Feature",
            "properties": {
                "name": "Moro_Distributore Q8 - Viale Cremona 290",
                "id": "24634",
                "brand": "Q8",
                "amenity": "fuel",
                "operator": "AMBROGIO MORO S.P.A."
            },
            "geometry": {
                "type": "Point",
                "coordinates": [
                    9.20267254114151,
                    45.17749323108519
                ]
            }
        },
        {
            "type": "Feature",
            "properties": {
                "name": "tamoil",
                "id": "12627",
                "brand": "Tamoil",
                "amenity": "fuel",
                "operator": "GRAZIANO DANIELA"
            },
            "geometry": {
                "type": "Point",
                "coordinates": [
                    9.17760868890764,
                    45.18184717399858
                ]
            }
        },
        {
            "type": "Feature",
            "properties": {
                "name": "mcs srl",
                "id": "9844",
                "brand": "Repsol",
                "amenity": "fuel",
                "operator": "M.C.S. SOCIETA' A RESPONSABILITA' LIMITATA O IN FORMA ABBREVIATA M.C.S. S.R.L."
            },
            "geometry": {
                "type": "Point",
                "coordinates": [
                    9.146459161376923,
                    45.17484267203792
                ]
            }
        },
        {
            "type": "Feature",
            "properties": {
                "name": "Statione Servizio Tamoil di Rizzi Pierluigi",
                "id": "24206",
                "brand": "Tamoil",
                "amenity": "fuel",
                "operator": "RIZZI PIERLUIGI"
            },
            "geometry": {
                "type": "Point",
                "coordinates": [
                    9.217212796211244,
                    45.19199172304951
                ]
            }
        },
        {
            "type": "Feature",
            "properties": {
                "name": "Metano auto borgo ticino",
                "id": "14699",
                "amenity": "fuel",
                "operator": "METANO PAVIA DI GUASTONI ALESSANDRO E C.  S.N.C."
            },
            "geometry": {
                "type": "Point",
                "coordinates": [
                    9.145079734796923,
                    45.17233116147943
                ]
            }
        },
        {
            "type": "Feature",
            "properties": {
                "name": "STAZIONE TAMOIL DI AMATRUDA GIOVANNI",
                "id": "8027",
                "brand": "Tamoil",
                "amenity": "fuel",
                "operator": "AMATRUDA GIOVANNI"
            },
            "geometry": {
                "type": "Point",
                "coordinates": [
                    9.29550513625145,
                    45.1616639724936
                ]
            }
        },
        {
            "type": "Feature",
            "properties": {
                "name": "ENI",
                "id": "17612",
                "brand": "Agip Eni",
                "amenity": "fuel",
                "operator": "PISCHEDDA ANDREA"
            },
            "geometry": {
                "type": "Point",
                "coordinates": [
                    9.181180000305176,
                    45.19861701442174
                ]
            }
        },
        {
            "type": "Feature",
            "properties": {
                "name": "Area di Servizo ESSO",
                "id": "17921",
                "brand": "Esso",
                "amenity": "fuel",
                "operator": "GIORDANO GIANLUCA"
            },
            "geometry": {
                "type": "Point",
                "coordinates": [
                    9.150836517071411,
                    45.199618306341826
                ]
            }
        },
        {
            "type": "Feature",
            "properties": {
                "name": "Pavia",
                "id": "10332",
                "brand": "Total Erg",
                "amenity": "fuel",
                "operator": "GESTIONI EUROPA - SOCIETA' PER AZIONI"
            },
            "geometry": {
                "type": "Point",
                "coordinates": [
                    9.170570409262154,
                    45.203529761588726
                ]
            }
        },
        {
            "type": "Feature",
            "properties": {
                "name": "eni",
                "id": "10840",
                "brand": "Agip Eni",
                "amenity": "fuel",
                "operator": "SCICCHITANO MARIO"
            },
            "geometry": {
                "type": "Point",
                "coordinates": [
                    9.176191091537476,
                    45.18747310868077
                ]
            }
        },
        {
            "type": "Feature",
            "properties": {
                "name": "PAVIA VIA SOLFERINO 29 IMPANTO Q8",
                "id": "6457",
                "brand": "Q8",
                "amenity": "fuel",
                "operator": "SERVIZI & GESTIONI ITALIA srl"
            },
            "geometry": {
                "type": "Point",
                "coordinates": [
                    9.181255939286757,
                    45.19255650673231
                ]
            }
        },
        {
            "type": "Feature",
            "properties": {
                "name": "amolaro e vettorello snc",
                "id": "28281",
                "brand": "Esso",
                "amenity": "fuel",
                "operator": "AMOLARO E VETTORELLO S.N.C. DI AMOLARO FABIO WALTER E VETTORELLO ROBERTA LUISA"
            },
            "geometry": {
                "type": "Point",
                "coordinates": [
                    9.146643912303148,
                    45.18398304745979
                ]
            }
        },
        {
            "type": "Feature",
            "properties": {
                "name": "VEGA PAVIA",
                "id": "31522",
                "brand": "Vega",
                "amenity": "fuel",
                "operator": "VEGA CARBURANTI S.P.A."
            },
            "geometry": {
                "type": "Point",
                "coordinates": [
                    9.194373786449432,
                    45.200954545800506
                ]
            }
        },
        {
            "type": "Feature",
            "properties": {
                "name": "PAVIA",
                "id": "5539",
                "brand": "Total Erg",
                "amenity": "fuel",
                "operator": "GESTIONI EUROPA S.p.A."
            },
            "geometry": {
                "type": "Point",
                "coordinates": [
                    9.189202119049014,
                    45.189703032137736
                ]
            }
        },
        {
            "type": "Feature",
            "properties": {
                "name": "TOTAL ERG",
                "id": "29040",
                "brand": "Total Erg",
                "amenity": "fuel",
                "operator": "QUADRELLI LUIGI"
            },
            "geometry": {
                "type": "Point",
                "coordinates": [
                    9.20578122138977,
                    45.17679176827163
                ]
            }
        },
        {
            "type": "Feature",
            "properties": {
                "name": "ENI TASSO",
                "id": "30084",
                "brand": "Agip Eni",
                "amenity": "fuel",
                "operator": "PISCHEDDA ANDREA"
            },
            "geometry": {
                "type": "Point",
                "coordinates": [
                    9.166656065081725,
                    45.193129820756496
                ]
            }
        },
        {
            "type": "Feature",
            "properties": {
                "name": "PAVIA VIA FOLPERTI-IMP.Q8",
                "id": "14281",
                "brand": "Q8",
                "amenity": "fuel",
                "operator": "SERVIZI & GESTIONI ITALIA S.R.L."
            },
            "geometry": {
                "type": "Point",
                "coordinates": [
                    9.15962947242201,
                    45.197029353434274
                ]
            }
        },
        {
            "type": "Feature",
            "properties": {
                "name": "Totalerg",
                "id": "23767",
                "brand": "Total Erg",
                "amenity": "fuel",
                "operator": "LEGACY DI BORELLI TANIA E C. S.A.S."
            },
            "geometry": {
                "type": "Point",
                "coordinates": [
                    9.171175360679626,
                    45.18621484965061
                ]
            }
        },
        {
            "type": "Feature",
            "properties": {
                "name": "IP Gruppo API",
                "id": "8491",
                "brand": "Api-Ip",
                "amenity": "fuel",
                "operator": "EGAF DI CALCATERRA ANNA MARIA E C. S.A.S."
            },
            "geometry": {
                "type": "Point",
                "coordinates": [
                    9.208651185035706,
                    45.18631844532097
                ]
            }
        },
        {
            "type": "Feature",
            "properties": {
                "name": "total erg",
                "id": "24819",
                "brand": "Total Erg",
                "amenity": "fuel",
                "operator": "LA VIDA S.N.C. DI CURATELLA VINCENZO & VIRGILLO DANIELE"
            },
            "geometry": {
                "type": "Point",
                "coordinates": [
                    9.233367741107942,
                    45.118865771606444
                ]
            }
        }
    ]
}