{
    "type": "FeatureCollection",
    "features": [
        {
            "type": "Feature",
            "properties": {
                "name": "MI SPEZIA",
                "id": "17685",
                "brand": "Api-Ip",
                "amenity": "fuel",
                "operator": "IP SERVICES S.R.L."
            },
            "geometry": {
                "type": "Point",
                "coordinates": [
                    9.172881224536923,
                    45.44043293453809
                ]
            }
        },
        {
            "type": "Feature",
            "properties": {
                "name": "eni agip",
                "id": "13013",
                "brand": "Agip Eni",
                "amenity": "fuel",
                "operator": "LU.CA. S.R.L."
            },
            "geometry": {
                "type": "Point",
                "coordinates": [
                    9.201176578419336,
                    45.44686414740791
                ]
            }
        },
        {
            "type": "Feature",
            "properties": {
                "name": "M&F snc di Domenico e Felice Ottan√†",
                "id": "31384",
                "brand": "Esso",
                "amenity": "fuel",
                "operator": "M. & F. S.N.C. DI DOMENICO E FELICE OTTANA'"
            },
            "geometry": {
                "type": "Point",
                "coordinates": [
                    9.250569067459084,
                    45.4514595995249
                ]
            }
        },
        {
            "type": "Feature",
            "properties": {
                "name": "STAZIONE DI SERVIZIO AGIP",
                "id": "6179",
                "brand": "Agip Eni",
                "amenity": "fuel",
                "operator": "STAZIONE DI SERVIZIO AGIP DI VENEZIA F. & C. S.A.S."
            },
            "geometry": {
                "type": "Point",
                "coordinates": [
                    9.298221543431282,
                    45.383466512039426
                ]
            }
        },
        {
            "type": "Feature",
            "properties": {
                "name": "Q8",
                "id": "7237",
                "brand": "Q8",
                "amenity": "fuel",
                "operator": "CLEAN CAR S.N.C. DI PAINI ARNALDO GIUSEPPE E ZANNI FAUSTO"
            },
            "geometry": {
                "type": "Point",
                "coordinates": [
                    9.252896904945374,
                    45.4496955180918
                ]
            }
        },
        {
            "type": "Feature",
            "properties": {
                "name": "eni",
                "id": "15919",
                "brand": "Agip Eni",
                "amenity": "fuel",
                "operator": "MIRA S.N.C. DI DELLI SANTI ANTONIO & C."
            },
            "geometry": {
                "type": "Point",
                "coordinates": [
                    9.150886461138725,
                    45.385665890131136
                ]
            }
        },
        {
            "type": "Feature",
            "properties": {
                "name": "MIRINA RIPAMONTI",
                "id": "6815",
                "brand": "Eurfuel",
                "amenity": "fuel",
                "operator": "EURFUEL S.R.L."
            },
            "geometry": {
                "type": "Point",
                "coordinates": [
                    9.205250140475528,
                    45.41690301759526
                ]
            }
        },
        {
            "type": "Feature",
            "properties": {
                "name": "S.P. 40 BINASCO-MELEGNANO - CARPIANO",
                "id": "28231",
                "brand": "Q8",
                "amenity": "fuel",
                "operator": "SERVIZI & GESTIONI ITALIA S.R.L."
            },
            "geometry": {
                "type": "Point",
                "coordinates": [
                    9.294570463823677,
                    45.352246503865615
                ]
            }
        },
        {
            "type": "Feature",
            "properties": {
                "name": "CALI MARCO",
                "id": "14653",
                "brand": "Agip Eni",
                "amenity": "fuel",
                "operator": "CALI' MARCO"
            },
            "geometry": {
                "type": "Point",
                "coordinates": [
                    9.15306679140167,
                    45.438391529127045
                ]
            }
        },
        {
            "type": "Feature",
            "properties": {
                "name": "StarOil",
                "id": "24598",
                "amenity": "fuel",
                "operator": "CASCIO ANDREA ANGELO"
            },
            "geometry": {
                "type": "Point",
                "coordinates": [
                    9.190580089775267,
                    45.449669040819835
                ]
            }
        },
        {
            "type": "Feature",
            "properties": {
                "name": "PIAZZA TRIPOLI/RONCAGLIA - MILANO",
                "id": "28932",
                "brand": "Q8",
                "amenity": "fuel",
                "operator": "SERVIZI & GESTIONI ITALIA S.R.L."
            },
            "geometry": {
                "type": "Point",
                "coordinates": [
                    9.150670995770268,
                    45.45925688882369
                ]
            }
        },
        {
            "type": "Feature",
            "properties": {
                "name": "TOTALERG",
                "id": "18499",
                "brand": "Total Erg",
                "amenity": "fuel",
                "operator": "CALANDRA GIOVANNI"
            },
            "geometry": {
                "type": "Point",
                "coordinates": [
                    9.310690462589264,
                    45.35961938548193
                ]
            }
        },
        {
            "type": "Feature",
            "properties": {
                "name": "stazione rifornimento ip",
                "id": "28180",
                "brand": "Api-Ip",
                "amenity": "fuel",
                "operator": "POLTRONIERI FABRIZIO"
            },
            "geometry": {
                "type": "Point",
                "coordinates": [
                    9.169223409722917,
                    45.37800572330736
                ]
            }
        },
        {
            "type": "Feature",
            "properties": {
                "name": "Milano Paullese",
                "id": "4671",
                "brand": "Esso",
                "amenity": "fuel",
                "operator": "NUOVA SIDAP  S.R.L."
            },
            "geometry": {
                "type": "Point",
                "coordinates": [
                    9.261909127235413,
                    45.43374823111302
                ]
            }
        },
        {
            "type": "Feature",
            "properties": {
                "name": "eni mimmo",
                "id": "26196",
                "brand": "Agip Eni",
                "amenity": "fuel",
                "operator": "CHIAPPERINI DOMENICO"
            },
            "geometry": {
                "type": "Point",
                "coordinates": [
                    9.223742569311526,
                    45.4439910785734
                ]
            }
        },
        {
            "type": "Feature",
            "properties": {
                "name": "TOINI ANDREA SRL",
                "id": "14132",
                "amenity": "fuel",
                "operator": "TOINI ANDREA  S.R.L."
            },
            "geometry": {
                "type": "Point",
                "coordinates": [
                    9.209726750850677,
                    45.39868276090065
                ]
            }
        },
        {
            "type": "Feature",
            "properties": {
                "name": "Agip SADA snc",
                "id": "12974",
                "brand": "Agip Eni",
                "amenity": "fuel",
                "operator": "SADA - S.N.C. DI D'AMATO ANTONIO & C."
            },
            "geometry": {
                "type": "Point",
                "coordinates": [
                    9.192890604754664,
                    45.43744833016472
                ]
            }
        },
        {
            "type": "Feature",
            "properties": {
                "name": "stazione di servizio esso",
                "id": "13709",
                "brand": "Esso",
                "amenity": "fuel",
                "operator": "CAPRIGLIA ORONZO"
            },
            "geometry": {
                "type": "Point",
                "coordinates": [
                    9.23009678721428,
                    45.456047658271224
                ]
            }
        },
        {
            "type": "Feature",
            "properties": {
                "name": "SAN GIULIANO MILANESE-VIA DELLA PACE C/O CARREFOUR",
                "id": "11706",
                "brand": "Q8",
                "amenity": "fuel",
                "operator": "SERVIZI & GESTIONI ITALIA S.R.L."
            },
            "geometry": {
                "type": "Point",
                "coordinates": [
                    9.30830344047547,
                    45.3792959375085
                ]
            }
        },
        {
            "type": "Feature",
            "properties": {
                "name": "gas auto",
                "id": "21889",
                "amenity": "fuel",
                "operator": "BERETTA MARCO"
            },
            "geometry": {
                "type": "Point",
                "coordinates": [
                    9.145751371979713,
                    45.38533622433416
                ]
            }
        },
        {
            "type": "Feature",
            "properties": {
                "name": "MILANO-VIA LOMBROSO ANG. MASPERO",
                "id": "11696",
                "brand": "Q8",
                "amenity": "fuel",
                "operator": "SERVIZI & GESTIONI ITALIA S.R.L."
            },
            "geometry": {
                "type": "Point",
                "coordinates": [
                    9.226450961971295,
                    45.45600997352626
                ]
            }
        },
        {
            "type": "Feature",
            "properties": {
                "name": "travicenter s.n.c.",
                "id": "12588",
                "brand": "Agip Eni",
                "amenity": "fuel",
                "operator": "TRAVI CENTER - S.N.C. DI ANTONIO TRAVISANO & C."
            },
            "geometry": {
                "type": "Point",
                "coordinates": [
                    9.217763517196659,
                    45.45150665383433
                ]
            }
        },
        {
            "type": "Feature",
            "properties": {
                "name": "Esso",
                "id": "14778",
                "brand": "Esso",
                "amenity": "fuel",
                "operator": "BELLANTUONO NELLO"
            },
            "geometry": {
                "type": "Point",
                "coordinates": [
                    9.23531636595726,
                    45.434510327150726
                ]
            }
        },
        {
            "type": "Feature",
            "properties": {
                "name": "TAMOIL",
                "id": "21177",
                "brand": "Tamoil",
                "amenity": "fuel",
                "operator": "BAGNATO GIANLUCA"
            },
            "geometry": {
                "type": "Point",
                "coordinates": [
                    9.28200289607048,
                    45.3994361019405
                ]
            }
        },
        {
            "type": "Feature",
            "properties": {
                "name": "ROZZANO",
                "id": "3878",
                "brand": "Total Erg",
                "amenity": "fuel",
                "operator": "TOTALERG S.P.A."
            },
            "geometry": {
                "type": "Point",
                "coordinates": [
                    9.18919206745909,
                    45.39129053444666
                ]
            }
        },
        {
            "type": "Feature",
            "properties": {
                "name": "STAZIONE DI SERVIZIO FREMAR",
                "id": "30515",
                "amenity": "fuel",
                "operator": "BATISTA SANTA CRUZ MAYLIN"
            },
            "geometry": {
                "type": "Point",
                "coordinates": [
                    9.155790390213042,
                    45.40242399241922
                ]
            }
        },
        {
            "type": "Feature",
            "properties": {
                "name": "Locate Triulzi",
                "id": "4672",
                "brand": "Esso",
                "amenity": "fuel",
                "operator": "NUOVA SIDAP  S.R.L."
            },
            "geometry": {
                "type": "Point",
                "coordinates": [
                    9.233175963163376,
                    45.35647435466035
                ]
            }
        },
        {
            "type": "Feature",
            "properties": {
                "name": "MILANO - CHIESA ROSSA",
                "id": "30186",
                "brand": "Api-Ip",
                "amenity": "fuel",
                "operator": "IP SERVICES S.R.L."
            },
            "geometry": {
                "type": "Point",
                "coordinates": [
                    9.173614140475479,
                    45.43269030000001
                ]
            }
        },
        {
            "type": "Feature",
            "properties": {
                "name": "VEGA MISSAGLIA",
                "id": "24201",
                "brand": "Vega",
                "amenity": "fuel",
                "operator": "VEGA RETAIL S.R.L."
            },
            "geometry": {
                "type": "Point",
                "coordinates": [
                    9.175000190734863,
                    45.4090350471103
                ]
            }
        },
        {
            "type": "Feature",
            "properties": {
                "name": "KEROPETROL",
                "id": "22258",
                "amenity": "fuel",
                "operator": "STAZIONE DI SERVIZIO DI TURINO FRANCESCO"
            },
            "geometry": {
                "type": "Point",
                "coordinates": [
                    9.241093457850186,
                    45.45689333051627
                ]
            }
        },
        {
            "type": "Feature",
            "properties": {
                "name": "FAMAGOSTA",
                "id": "15883",
                "brand": "Api-Ip",
                "amenity": "fuel",
                "operator": "CALOR SYSTEMS S.P.A."
            },
            "geometry": {
                "type": "Point",
                "coordinates": [
                    9.156445432510395,
                    45.43744467091188
                ]
            }
        },
        {
            "type": "Feature",
            "properties": {
                "name": "stazione di servizio tamoil",
                "id": "12137",
                "brand": "Tamoil",
                "amenity": "fuel",
                "operator": "BAZZOTTI CHRISTIAN"
            },
            "geometry": {
                "type": "Point",
                "coordinates": [
                    9.231599796821342,
                    45.43588665348918
                ]
            }
        },
        {
            "type": "Feature",
            "properties": {
                "name": "IMPIANTO TOTALERG 4202",
                "id": "15900",
                "brand": "Total Erg",
                "amenity": "fuel",
                "operator": "BONFATTI SABBIONI VITTORIO E C. SNC"
            },
            "geometry": {
                "type": "Point",
                "coordinates": [
                    9.2741227006552,
                    45.412212186855776
                ]
            }
        },
        {
            "type": "Feature",
            "properties": {
                "name": "Farao Pierantonio",
                "id": "27154",
                "brand": "Agip Eni",
                "amenity": "fuel",
                "operator": "FARAO PIERANTONIO"
            },
            "geometry": {
                "type": "Point",
                "coordinates": [
                    9.173068404197693,
                    45.39795917784676
                ]
            }
        },
        {
            "type": "Feature",
            "properties": {
                "name": "MILANO-VIA S.RITA DA CASCIA 2",
                "id": "11674",
                "brand": "Q8",
                "amenity": "fuel",
                "operator": "SERVIZI & GESTIONI ITALIA S.R.L."
            },
            "geometry": {
                "type": "Point",
                "coordinates": [
                    9.148052036762238,
                    45.44220035218852
                ]
            }
        },
        {
            "type": "Feature",
            "properties": {
                "name": "Area di Servizio Tamoil",
                "id": "29300",
                "brand": "Tamoil",
                "amenity": "fuel",
                "operator": "CERABINO MICHELE"
            },
            "geometry": {
                "type": "Point",
                "coordinates": [
                    9.2626091837883,
                    45.40789919802066
                ]
            }
        },
        {
            "type": "Feature",
            "properties": {
                "name": "STAZIONE DI SERVIZIO TOTALERG",
                "id": "14368",
                "brand": "Total Erg",
                "amenity": "fuel",
                "operator": "SUPERCHI VITTORIO"
            },
            "geometry": {
                "type": "Point",
                "coordinates": [
                    9.204028422090119,
                    45.369126134755966
                ]
            }
        },
        {
            "type": "Feature",
            "properties": {
                "name": "IP API",
                "id": "31406",
                "brand": "Api-Ip",
                "amenity": "fuel",
                "operator": "MARZIO FELICE LEONARDO"
            },
            "geometry": {
                "type": "Point",
                "coordinates": [
                    9.163260387185462,
                    45.455056457970606
                ]
            }
        },
        {
            "type": "Feature",
            "properties": {
                "name": "CANTALUPA OVEST",
                "id": "7744",
                "brand": "Agip Eni",
                "amenity": "fuel",
                "operator": "VINCI S.A.S. DI VINCI SALVATORE & C."
            },
            "geometry": {
                "type": "Point",
                "coordinates": [
                    9.155162572860718,
                    45.419169304938904
                ]
            }
        },
        {
            "type": "Feature",
            "properties": {
                "name": "RETITALIA",
                "id": "15757",
                "brand": "Retitalia",
                "amenity": "fuel",
                "operator": "GARAGE VELASCA S.R.L."
            },
            "geometry": {
                "type": "Point",
                "coordinates": [
                    9.191253090341547,
                    45.45995421412471
                ]
            }
        },
        {
            "type": "Feature",
            "properties": {
                "name": "Stazione ERG Santa Rita",
                "id": "19310",
                "brand": "Total Erg",
                "amenity": "fuel",
                "operator": "ZAMPERLIN ANGELO"
            },
            "geometry": {
                "type": "Point",
                "coordinates": [
                    9.152840279762245,
                    45.438610860986046
                ]
            }
        },
        {
            "type": "Feature",
            "properties": {
                "name": "ZENIT SRL",
                "id": "20028",
                "brand": "Esso",
                "amenity": "fuel",
                "operator": "LOIACONO FRANCO"
            },
            "geometry": {
                "type": "Point",
                "coordinates": [
                    9.253348857164383,
                    45.39794862018722
                ]
            }
        },
        {
            "type": "Feature",
            "properties": {
                "name": "IP",
                "id": "18096",
                "brand": "Api-Ip",
                "amenity": "fuel",
                "operator": "CONCET S.N.C. DI ELENA PRENCIPE"
            },
            "geometry": {
                "type": "Point",
                "coordinates": [
                    9.148338931213402,
                    45.385998816404516
                ]
            }
        },
        {
            "type": "Feature",
            "properties": {
                "name": "MILANO VIRGINIO FERRARI  16",
                "id": "6427",
                "brand": "Q8",
                "amenity": "fuel",
                "operator": "SERVIZI & GESTIONI ITALIA srl"
            },
            "geometry": {
                "type": "Point",
                "coordinates": [
                    9.191967007409628,
                    45.433941401332625
                ]
            }
        },
        {
            "type": "Feature",
            "properties": {
                "name": "MILANO - VIA S.RITA 41",
                "id": "30890",
                "brand": "Q8",
                "amenity": "fuel",
                "operator": "SERVIZI & GESTIONI ITALIA S.R.L."
            },
            "geometry": {
                "type": "Point",
                "coordinates": [
                    9.15255239444275,
                    45.43946312005718
                ]
            }
        },
        {
            "type": "Feature",
            "properties": {
                "name": "Miglior Gas Via Tertulliano",
                "id": "10794",
                "amenity": "fuel",
                "operator": "MIGLIOR GAS S.R.L."
            },
            "geometry": {
                "type": "Point",
                "coordinates": [
                    9.223666724606346,
                    45.44788832263594
                ]
            }
        },
        {
            "type": "Feature",
            "properties": {
                "name": "Albertini Davide",
                "id": "25196",
                "brand": "Agip Eni",
                "amenity": "fuel",
                "operator": "ALBERTINI DAVIDE"
            },
            "geometry": {
                "type": "Point",
                "coordinates": [
                    9.172314840475451,
                    45.443521330949515
                ]
            }
        },
        {
            "type": "Feature",
            "properties": {
                "name": "ENI",
                "id": "15354",
                "brand": "Agip Eni",
                "amenity": "fuel",
                "operator": "SATARIANO PAOLO"
            },
            "geometry": {
                "type": "Point",
                "coordinates": [
                    9.27213504910469,
                    45.42717126680947
                ]
            }
        },
        {
            "type": "Feature",
            "properties": {
                "name": "PESCHIERA BORROMEO",
                "id": "5445",
                "brand": "Agip Eni",
                "amenity": "fuel",
                "operator": "enirete oil&nonoil S.p.A."
            },
            "geometry": {
                "type": "Point",
                "coordinates": [
                    9.288680077715071,
                    45.43220650035949
                ]
            }
        },
        {
            "type": "Feature",
            "properties": {
                "name": "12255",
                "id": "18364",
                "brand": "Agip Eni",
                "amenity": "fuel",
                "operator": "LOGOTETA ALDO & C. S.A.S."
            },
            "geometry": {
                "type": "Point",
                "coordinates": [
                    9.257523715496063,
                    45.42072175399769
                ]
            }
        },
        {
            "type": "Feature",
            "properties": {
                "name": "Dalcerri Lino e C. snc",
                "id": "18981",
                "brand": "Agip Eni",
                "amenity": "fuel",
                "operator": "DALCERRI LINO & C SNC"
            },
            "geometry": {
                "type": "Point",
                "coordinates": [
                    9.21237165092623,
                    45.37619307192358
                ]
            }
        },
        {
            "type": "Feature",
            "properties": {
                "name": "MILANO V.LE LIGURIA 42",
                "id": "24848",
                "brand": "Q8",
                "amenity": "fuel",
                "operator": "SERVIZI & GESTIONI ITALIA S.R.L."
            },
            "geometry": {
                "type": "Point",
                "coordinates": [
                    9.174114105557237,
                    45.44351480077189
                ]
            }
        },
        {
            "type": "Feature",
            "properties": {
                "name": "eni",
                "id": "16409",
                "brand": "Agip Eni",
                "amenity": "fuel",
                "operator": "DENISE FRANCESCO"
            },
            "geometry": {
                "type": "Point",
                "coordinates": [
                    9.152678782803378,
                    45.45461885575155
                ]
            }
        },
        {
            "type": "Feature",
            "properties": {
                "name": "ESSO",
                "id": "13568",
                "brand": "Esso",
                "amenity": "fuel",
                "operator": "PORZIO CATELLO"
            },
            "geometry": {
                "type": "Point",
                "coordinates": [
                    9.202989221426378,
                    45.42573988253273
                ]
            }
        },
        {
            "type": "Feature",
            "properties": {
                "name": "GRIFO",
                "id": "12804",
                "amenity": "fuel",
                "operator": "AUTORIMESSA FRIGO SNC DI FRIGO RICCARDO, GIUSEPPE E GIOVANNI"
            },
            "geometry": {
                "type": "Point",
                "coordinates": [
                    9.1779962182045,
                    45.43076618915102
                ]
            }
        },
        {
            "type": "Feature",
            "properties": {
                "name": "Distributore Eni di Magnani Pieremilio",
                "id": "10569",
                "brand": "Agip Eni",
                "amenity": "fuel",
                "operator": "MAGNANI PIEREMILIO"
            },
            "geometry": {
                "type": "Point",
                "coordinates": [
                    9.241184310975655,
                    45.451296491107364
                ]
            }
        },
        {
            "type": "Feature",
            "properties": {
                "name": "Esso",
                "id": "16284",
                "brand": "Esso",
                "amenity": "fuel",
                "operator": "BARBIN PAOLO"
            },
            "geometry": {
                "type": "Point",
                "coordinates": [
                    9.233007924536878,
                    45.43611954106765
                ]
            }
        },
        {
            "type": "Feature",
            "properties": {
                "name": "VIA LOMBARDIA SAN G. MILANESE",
                "id": "31161",
                "brand": "Esso",
                "amenity": "fuel",
                "operator": "SERVIZI E GESTIONI ZENIT S.R.L. IN SIGLA - ZENIT S.R.L."
            },
            "geometry": {
                "type": "Point",
                "coordinates": [
                    9.253359586000443,
                    45.39794146331481
                ]
            }
        },
        {
            "type": "Feature",
            "properties": {
                "name": "pv56232",
                "id": "22003",
                "brand": "Agip Eni",
                "amenity": "fuel",
                "operator": "F.LLI DI LEO S.N.C. DI DI LEO FRANCESCA E DI LEO GIACOMO MARIA"
            },
            "geometry": {
                "type": "Point",
                "coordinates": [
                    9.17105508685529,
                    45.456990420880125
                ]
            }
        },
        {
            "type": "Feature",
            "properties": {
                "name": "ROZZANO - ALESSANDRO MANZONI",
                "id": "30183",
                "brand": "Api-Ip",
                "amenity": "fuel",
                "operator": "IP SERVICES S.R.L."
            },
            "geometry": {
                "type": "Point",
                "coordinates": [
                    9.16925624012947,
                    45.37832971253242
                ]
            }
        },
        {
            "type": "Feature",
            "properties": {
                "name": "PUNTO VENDITA ERG DI CENTOFANTI",
                "id": "16547",
                "brand": "Total Erg",
                "amenity": "fuel",
                "operator": "CENTOFANTI FABRIZIO"
            },
            "geometry": {
                "type": "Point",
                "coordinates": [
                    9.188620448112488,
                    45.37331736965021
                ]
            }
        },
        {
            "type": "Feature",
            "properties": {
                "name": "MILANO-VIA CASSALA 31",
                "id": "11708",
                "brand": "Q8",
                "amenity": "fuel",
                "operator": "SERVIZI & GESTIONI ITALIA S.R.L."
            },
            "geometry": {
                "type": "Point",
                "coordinates": [
                    9.161465889549277,
                    45.445631990602784
                ]
            }
        },
        {
            "type": "Feature",
            "properties": {
                "name": "TAMOIL",
                "id": "12327",
                "brand": "Tamoil",
                "amenity": "fuel",
                "operator": "D.A.J.T. S.R.L."
            },
            "geometry": {
                "type": "Point",
                "coordinates": [
                    9.210374915838088,
                    45.39679548581565
                ]
            }
        },
        {
            "type": "Feature",
            "properties": {
                "name": "eni",
                "id": "29785",
                "brand": "Agip Eni",
                "amenity": "fuel",
                "operator": "DERICCA S.N.C. - STAZIONE DI SERVIZIO ENI - DI DE LUCA VINCENZO E GIUSEPPE"
            },
            "geometry": {
                "type": "Point",
                "coordinates": [
                    9.201027005910873,
                    45.43586208587778
                ]
            }
        },
        {
            "type": "Feature",
            "properties": {
                "name": "distributore eni san giuliano milanese",
                "id": "7741",
                "brand": "Agip Eni",
                "amenity": "fuel",
                "operator": "DI FEDE S.A.S. DI DI FEDE GIANCARLO"
            },
            "geometry": {
                "type": "Point",
                "coordinates": [
                    9.257447258999605,
                    45.39242680719895
                ]
            }
        },
        {
            "type": "Feature",
            "properties": {
                "name": "TAMOIL",
                "id": "6309",
                "brand": "Tamoil",
                "amenity": "fuel",
                "operator": "GIOCA S.N.C. DI CAPUTO GIOVANNI & C."
            },
            "geometry": {
                "type": "Point",
                "coordinates": [
                    9.293146133422852,
                    45.42383364571834
                ]
            }
        },
        {
            "type": "Feature",
            "properties": {
                "name": "stazione eni",
                "id": "17549",
                "brand": "Agip Eni",
                "amenity": "fuel",
                "operator": "PUCCI PIETRO E VITANGELO & C. S.N.C."
            },
            "geometry": {
                "type": "Point",
                "coordinates": [
                    9.161001741886137,
                    45.38219714460461
                ]
            }
        },
        {
            "type": "Feature",
            "properties": {
                "name": "MILANO S.RITA DA CASCIA",
                "id": "27477",
                "brand": "Total Erg",
                "amenity": "fuel",
                "operator": "GESTIONI EUROPA - SOCIETA' PER AZIONI"
            },
            "geometry": {
                "type": "Point",
                "coordinates": [
                    9.150034189224241,
                    45.441302295637726
                ]
            }
        },
        {
            "type": "Feature",
            "properties": {
                "name": "API",
                "id": "15888",
                "brand": "Api-Ip",
                "amenity": "fuel",
                "operator": "CALOR SYSTEMS S.P.A."
            },
            "geometry": {
                "type": "Point",
                "coordinates": [
                    9.19399411175118,
                    45.45182398232033
                ]
            }
        },
        {
            "type": "Feature",
            "properties": {
                "name": "STAZIONE ESSO VIALE CASSALA",
                "id": "20806",
                "brand": "Esso",
                "amenity": "fuel",
                "operator": "RODA' ANTONIO"
            },
            "geometry": {
                "type": "Point",
                "coordinates": [
                    9.162410695106475,
                    45.445300218699344
                ]
            }
        },
        {
            "type": "Feature",
            "properties": {
                "name": "ROZZANO",
                "id": "7295",
                "brand": "Q8",
                "amenity": "fuel",
                "operator": "SERVIZI & GESTIONI ITALIA S.R.L."
            },
            "geometry": {
                "type": "Point",
                "coordinates": [
                    9.178437604399733,
                    45.39122029924081
                ]
            }
        },
        {
            "type": "Feature",
            "properties": {
                "name": "TAMOIL",
                "id": "8560",
                "brand": "Tamoil",
                "amenity": "fuel",
                "operator": "DM SERVICE DI KERTZSCHER DIANA ELVIRA"
            },
            "geometry": {
                "type": "Point",
                "coordinates": [
                    9.155788868665695,
                    45.40242751989156
                ]
            }
        },
        {
            "type": "Feature",
            "properties": {
                "name": "MILANO",
                "id": "5831",
                "brand": "Total Erg",
                "amenity": "fuel",
                "operator": "TotalErg SpA"
            },
            "geometry": {
                "type": "Point",
                "coordinates": [
                    9.249737737434316,
                    45.424381295051475
                ]
            }
        },
        {
            "type": "Feature",
            "properties": {
                "name": "CHIMA FUEL SNC",
                "id": "19705",
                "amenity": "fuel",
                "operator": "CHIMA FUEL S.N.C. DI MASSIMO GUATTO E BOSETTI CHIARA"
            },
            "geometry": {
                "type": "Point",
                "coordinates": [
                    9.252625331282616,
                    45.42445506435827
                ]
            }
        },
        {
            "type": "Feature",
            "properties": {
                "name": "Ditta Scovino Emilio Distributore Carburanti",
                "id": "4334",
                "brand": "Agip Eni",
                "amenity": "fuel",
                "operator": "SCOVINO EMILIO"
            },
            "geometry": {
                "type": "Point",
                "coordinates": [
                    9.167579126983583,
                    45.422200421012995
                ]
            }
        },
        {
            "type": "Feature",
            "properties": {
                "name": "Esso Corvetto",
                "id": "28852",
                "brand": "Esso",
                "amenity": "fuel",
                "operator": "M.G. S.N.C. DI MARA GEMELLI E GIUSEPPE CANNONE"
            },
            "geometry": {
                "type": "Point",
                "coordinates": [
                    9.224759033135228,
                    45.43945727921508
                ]
            }
        },
        {
            "type": "Feature",
            "properties": {
                "name": "2227 MILANO RIPAMONTI",
                "id": "26124",
                "brand": "Agip Eni",
                "amenity": "fuel",
                "operator": "ENI RETE OIL&NONOIL S.P.A."
            },
            "geometry": {
                "type": "Point",
                "coordinates": [
                    9.20857548007814,
                    45.405295702367425
                ]
            }
        },
        {
            "type": "Feature",
            "properties": {
                "name": "STAZIONE Q8 B&B",
                "id": "6894",
                "brand": "Q8",
                "amenity": "fuel",
                "operator": "B & B S.A.S. DI BIANCHI BARBARA"
            },
            "geometry": {
                "type": "Point",
                "coordinates": [
                    9.305035695433617,
                    45.42658413841835
                ]
            }
        },
        {
            "type": "Feature",
            "properties": {
                "name": "ROZZANO V.LE ROMAGNA ANG.V.L. DA VINCI",
                "id": "8726",
                "brand": "Q8",
                "amenity": "fuel",
                "operator": "SERVIZI & GESTIONI ITALIA S.R.L."
            },
            "geometry": {
                "type": "Point",
                "coordinates": [
                    9.168928417790994,
                    45.383125432232845
                ]
            }
        },
        {
            "type": "Feature",
            "properties": {
                "name": "LA PADANA SNC",
                "id": "31389",
                "brand": "Esso",
                "amenity": "fuel",
                "operator": "LA PADANA SNC DI CONTI ANTONIO DARIO E SONIA"
            },
            "geometry": {
                "type": "Point",
                "coordinates": [
                    9.168712644110883,
                    45.44377193398634
                ]
            }
        },
        {
            "type": "Feature",
            "properties": {
                "name": "Stazione Esso Potito Romano",
                "id": "12136",
                "brand": "Esso",
                "amenity": "fuel",
                "operator": "ROMANO POTITO"
            },
            "geometry": {
                "type": "Point",
                "coordinates": [
                    9.1919369995594,
                    45.43744671920459
                ]
            }
        },
        {
            "type": "Feature",
            "properties": {
                "name": "KE.RO IMPIANTI SAN GIULIANO",
                "id": "15949",
                "amenity": "fuel",
                "operator": "KE.RO IMPIANTI S.R.L."
            },
            "geometry": {
                "type": "Point",
                "coordinates": [
                    9.284485061804842,
                    45.397955083232475
                ]
            }
        },
        {
            "type": "Feature",
            "properties": {
                "name": "ESSO",
                "id": "13951",
                "brand": "Esso",
                "amenity": "fuel",
                "operator": "TRAINA ORAZIO E C. SNC"
            },
            "geometry": {
                "type": "Point",
                "coordinates": [
                    9.151359871029854,
                    45.38546338136379
                ]
            }
        },
        {
            "type": "Feature",
            "properties": {
                "name": "MILANO-VIALE CASSALA 4/A",
                "id": "11661",
                "brand": "Q8",
                "amenity": "fuel",
                "operator": "SERVIZI & GESTIONI ITALIA S.R.L."
            },
            "geometry": {
                "type": "Point",
                "coordinates": [
                    9.159797725200633,
                    45.44588118208995
                ]
            }
        },
        {
            "type": "Feature",
            "properties": {
                "name": "MILANO - VIGILIO FAMAGOSTA",
                "id": "29917",
                "brand": "Api-Ip",
                "amenity": "fuel",
                "operator": "IP SERVICES S.R.L."
            },
            "geometry": {
                "type": "Point",
                "coordinates": [
                    9.164610728836124,
                    45.436733877746
                ]
            }
        },
        {
            "type": "Feature",
            "properties": {
                "name": "Eni",
                "id": "31390",
                "brand": "Agip Eni",
                "amenity": "fuel",
                "operator": "CARBODALFO - S.R.L."
            },
            "geometry": {
                "type": "Point",
                "coordinates": [
                    9.248287337017814,
                    45.452427419141024
                ]
            }
        },
        {
            "type": "Feature",
            "properties": {
                "name": "TotalErg",
                "id": "20942",
                "brand": "Total Erg",
                "amenity": "fuel",
                "operator": "RONDINELLA GIANNI"
            },
            "geometry": {
                "type": "Point",
                "coordinates": [
                    9.211270472174421,
                    45.437066572446405
                ]
            }
        },
        {
            "type": "Feature",
            "properties": {
                "name": "CANTALUPA EST",
                "id": "3786",
                "brand": "Api-Ip",
                "amenity": "fuel",
                "operator": "BREAK POINT  S.R.L."
            },
            "geometry": {
                "type": "Point",
                "coordinates": [
                    9.158730728836078,
                    45.42123246954695
                ]
            }
        },
        {
            "type": "Feature",
            "properties": {
                "name": "OTTONI S.A.S. di Ottoni Luca e c.",
                "id": "16326",
                "brand": "Total Erg",
                "amenity": "fuel",
                "operator": "OTTONI S.A.S. DI OTTONI LUCA & C."
            },
            "geometry": {
                "type": "Point",
                "coordinates": [
                    9.183425712641792,
                    45.44762928095052
                ]
            }
        },
        {
            "type": "Feature",
            "properties": {
                "name": "Q8 PONTISERVICE",
                "id": "12391",
                "brand": "Q8",
                "amenity": "fuel",
                "operator": "PONTI SERVICE S.N.C. DI MAURO CITRO E GIUSEPPE LOMBARDO"
            },
            "geometry": {
                "type": "Point",
                "coordinates": [
                    9.156173765659332,
                    45.442783742543604
                ]
            }
        },
        {
            "type": "Feature",
            "properties": {
                "name": "TotalErg",
                "id": "26297",
                "brand": "Total Erg",
                "amenity": "fuel",
                "operator": "MARRANO GAETANO"
            },
            "geometry": {
                "type": "Point",
                "coordinates": [
                    9.17586788535118,
                    45.38285519216825
                ]
            }
        },
        {
            "type": "Feature",
            "properties": {
                "name": "OMAR SNC DI EBRAHIM MORSHEDY KHALIL KHALIL & C",
                "id": "29437",
                "brand": "Total Erg",
                "amenity": "fuel",
                "operator": "OMAR S.N.C. DI EBRAHIM MORSHEDY KHALIL KHALIL & C."
            },
            "geometry": {
                "type": "Point",
                "coordinates": [
                    9.172318990143593,
                    45.44092063712891
                ]
            }
        }
    ]
}