{
    "type": "FeatureCollection",
    "features": [
        {
            "type": "Feature",
            "properties": {
                "name": "Stazione di servizio Esso CAAR FUELS sas",
                "id": "9341",
                "brand": "Esso",
                "amenity": "fuel",
                "operator": "CAAR FUELS S.A.S. DI LUIGI ARGIOLAS"
            },
            "geometry": {
                "type": "Point",
                "coordinates": [
                    9.171498566865921,
                    39.24227013529914
                ]
            }
        },
        {
            "type": "Feature",
            "properties": {
                "name": "stazione di servizio q8",
                "id": "8409",
                "brand": "Q8",
                "amenity": "fuel",
                "operator": "IMPIANTO DI CRISTIANO DESSALVI & PIETRANGELO FANTI S.N.C. CON SIGLA DESSALVI & FANTI S.N.C."
            },
            "geometry": {
                "type": "Point",
                "coordinates": [
                    9.172810167074203,
                    39.2633503320484
                ]
            }
        },
        {
            "type": "Feature",
            "properties": {
                "name": "beyfin",
                "id": "26902",
                "amenity": "fuel",
                "operator": "STAZIONE DI SERVIZIO DI ATZORI ALBERTO & C. S.A.S."
            },
            "geometry": {
                "type": "Point",
                "coordinates": [
                    9.276374951004982,
                    39.2401629304281
                ]
            }
        },
        {
            "type": "Feature",
            "properties": {
                "name": "Stazione eni 53668",
                "id": "9547",
                "brand": "Agip Eni",
                "amenity": "fuel",
                "operator": "CARTA GIANGIACOMO"
            },
            "geometry": {
                "type": "Point",
                "coordinates": [
                    9.179582046627047,
                    39.24198934278072
                ]
            }
        },
        {
            "type": "Feature",
            "properties": {
                "name": "TOTALERG",
                "id": "12409",
                "brand": "Total Erg",
                "amenity": "fuel",
                "operator": "GRECO GIUSEPPE"
            },
            "geometry": {
                "type": "Point",
                "coordinates": [
                    9.14338231086731,
                    39.23775858818651
                ]
            }
        },
        {
            "type": "Feature",
            "properties": {
                "name": "Q8 - Delta For Fuel di Mocci Francesco",
                "id": "29390",
                "brand": "Q8",
                "amenity": "fuel",
                "operator": "DELTA FOR FUEL DI MOCCI FRANCESCO"
            },
            "geometry": {
                "type": "Point",
                "coordinates": [
                    9.15757454931736,
                    39.25345199884985
                ]
            }
        },
        {
            "type": "Feature",
            "properties": {
                "name": "SETTIMO PETROL SERVICE",
                "id": "25564",
                "brand": "Esso",
                "amenity": "fuel",
                "operator": "SETTIMO PETROL SERVICE DI ERMELINDA MANDIS & C. S.A.S."
            },
            "geometry": {
                "type": "Point",
                "coordinates": [
                    9.185003141160905,
                    39.28488989696529
                ]
            }
        },
        {
            "type": "Feature",
            "properties": {
                "name": "SETTIMO SAN PIETRO VIA SAN SALVATORE ANG. VIA ROMA",
                "id": "6929",
                "brand": "Q8",
                "amenity": "fuel",
                "operator": "SERVIZI & GESTIONI ITALIA S.R.L."
            },
            "geometry": {
                "type": "Point",
                "coordinates": [
                    9.185675460118887,
                    39.28638279196284
                ]
            }
        },
        {
            "type": "Feature",
            "properties": {
                "name": "3764",
                "id": "30057",
                "brand": "Tamoil",
                "amenity": "fuel",
                "operator": "T.D.M. S.R.L."
            },
            "geometry": {
                "type": "Point",
                "coordinates": [
                    9.181302040815353,
                    39.2790575283177
                ]
            }
        },
        {
            "type": "Feature",
            "properties": {
                "name": "Tamoil",
                "id": "20146",
                "brand": "Tamoil",
                "amenity": "fuel",
                "operator": "COCCO GIUSEPPE"
            },
            "geometry": {
                "type": "Point",
                "coordinates": [
                    9.173497208935487,
                    39.26028393613169
                ]
            }
        },
        {
            "type": "Feature",
            "properties": {
                "name": "QUARTUCCIU VIA DON MINZONI  11",
                "id": "6686",
                "brand": "Q8",
                "amenity": "fuel",
                "operator": "SERVIZI & GESTIONI ITALIA srl"
            },
            "geometry": {
                "type": "Point",
                "coordinates": [
                    9.17412770796932,
                    39.250472844750824
                ]
            }
        },
        {
            "type": "Feature",
            "properties": {
                "name": "3763",
                "id": "30624",
                "brand": "Tamoil",
                "amenity": "fuel",
                "operator": "T.D.M. S.R.L."
            },
            "geometry": {
                "type": "Point",
                "coordinates": [
                    9.173478707671167,
                    39.26031364617995
                ]
            }
        },
        {
            "type": "Feature",
            "properties": {
                "name": "ENI Via delle Serre",
                "id": "23995",
                "brand": "Agip Eni",
                "amenity": "fuel",
                "operator": "SELF CENTER DI RUGGERI LUCIANO & C. S.N.C."
            },
            "geometry": {
                "type": "Point",
                "coordinates": [
                    9.168262481689453,
                    39.2483228493222
                ]
            }
        },
        {
            "type": "Feature",
            "properties": {
                "name": "AUTOSERVICE DEI F.LLI PIRAS S.N.C.",
                "id": "18025",
                "brand": "Esso",
                "amenity": "fuel",
                "operator": "AUTOSERVICE DEI F.LLI PIRAS S.N.C."
            },
            "geometry": {
                "type": "Point",
                "coordinates": [
                    9.198000549073754,
                    39.2992606164418
                ]
            }
        },
        {
            "type": "Feature",
            "properties": {
                "name": "ENI",
                "id": "18300",
                "brand": "Agip Eni",
                "amenity": "fuel",
                "operator": "FANTI ELVIO E C. S.A.S."
            },
            "geometry": {
                "type": "Point",
                "coordinates": [
                    9.195650517940521,
                    39.24754184311367
                ]
            }
        },
        {
            "type": "Feature",
            "properties": {
                "name": "Stazione di servizio Esso F.lli Marongiu sas",
                "id": "16692",
                "brand": "Esso",
                "amenity": "fuel",
                "operator": "F.LLI MARONGIU SAS. DI MONICA MARONGIU & C."
            },
            "geometry": {
                "type": "Point",
                "coordinates": [
                    9.145065397024155,
                    39.23886378046752
                ]
            }
        },
        {
            "type": "Feature",
            "properties": {
                "name": "SINNAI TRIESTE",
                "id": "23792",
                "brand": "Q8",
                "amenity": "fuel",
                "operator": "SERVIZI & GESTIONI ITALIA S.R.L."
            },
            "geometry": {
                "type": "Point",
                "coordinates": [
                    9.200684469311454,
                    39.299627517029265
                ]
            }
        },
        {
            "type": "Feature",
            "properties": {
                "name": "stazione di servizio q8",
                "id": "8410",
                "brand": "Q8",
                "amenity": "fuel",
                "operator": "IMPIANTO DI CRISTIANO DESSALVI & PIETRANGELO FANTI S.N.C. CON SIGLA DESSALVI & FANTI S.N.C."
            },
            "geometry": {
                "type": "Point",
                "coordinates": [
                    9.172810167074203,
                    39.2633503320484
                ]
            }
        },
        {
            "type": "Feature",
            "properties": {
                "name": "PUDDU ANTONIO",
                "id": "15582",
                "brand": "Agip Eni",
                "amenity": "fuel",
                "operator": "PUDDU ANTONIO"
            },
            "geometry": {
                "type": "Point",
                "coordinates": [
                    9.186471998691559,
                    39.23313715855328
                ]
            }
        },
        {
            "type": "Feature",
            "properties": {
                "name": "MARACALAGONIS VIA NAZIONALE  120",
                "id": "6688",
                "brand": "Q8",
                "amenity": "fuel",
                "operator": "SERVIZI & GESTIONI ITALIA srl"
            },
            "geometry": {
                "type": "Point",
                "coordinates": [
                    9.228530515344232,
                    39.283299349801744
                ]
            }
        },
        {
            "type": "Feature",
            "properties": {
                "name": "SODIGAS SPA - STAZIONE DISTRIBUZIONE CARBURANTI",
                "id": "12624",
                "brand": "Sodigas",
                "amenity": "fuel",
                "operator": "SO.DI.GAS - S.O.I.S. - SOCIETA' DISTRIBUZIONE GAS E COMBUSTIBILI RISCALDAMENTO - S.P.A.  FORMA ABBREVIATA SO.DI.GAS S.P.A."
            },
            "geometry": {
                "type": "Point",
                "coordinates": [
                    9.21357974410057,
                    39.290859793760916
                ]
            }
        },
        {
            "type": "Feature",
            "properties": {
                "name": "DISTRIBUTORE GAS PER AUTO CIREDDU PAOLO",
                "id": "12830",
                "amenity": "fuel",
                "operator": "CIREDDU PAOLO"
            },
            "geometry": {
                "type": "Point",
                "coordinates": [
                    9.213578402996061,
                    39.29085875582481
                ]
            }
        },
        {
            "type": "Feature",
            "properties": {
                "name": "ESSO",
                "id": "24128",
                "brand": "Esso",
                "amenity": "fuel",
                "operator": "MORELLI ROSALBA GABRIELLA"
            },
            "geometry": {
                "type": "Point",
                "coordinates": [
                    9.158919677138327,
                    39.246926586876
                ]
            }
        },
        {
            "type": "Feature",
            "properties": {
                "name": "eni",
                "id": "16267",
                "brand": "Agip Eni",
                "amenity": "fuel",
                "operator": "EFFE DUE DI MORELLI FAUSTO E C. S.A.S."
            },
            "geometry": {
                "type": "Point",
                "coordinates": [
                    9.162722846557585,
                    39.25373892498738
                ]
            }
        },
        {
            "type": "Feature",
            "properties": {
                "name": "ENI ANTONELLO PLATINO",
                "id": "29108",
                "brand": "Agip Eni",
                "amenity": "fuel",
                "operator": "PLATINO ANTONELLO"
            },
            "geometry": {
                "type": "Point",
                "coordinates": [
                    9.220711159494044,
                    39.28675866506992
                ]
            }
        },
        {
            "type": "Feature",
            "properties": {
                "name": "ENI Caf√© & Shop",
                "id": "27747",
                "brand": "Agip Eni",
                "amenity": "fuel",
                "operator": "GESIM DI LAZZARO ARGIOLAS & C. S.A.S."
            },
            "geometry": {
                "type": "Point",
                "coordinates": [
                    9.203535144119996,
                    39.24547654023403
                ]
            }
        },
        {
            "type": "Feature",
            "properties": {
                "name": "Bandiera Retitalia - Quartucciu",
                "id": "25136",
                "brand": "Retitalia",
                "amenity": "fuel",
                "operator": "PETROLIFERA ADRIATICA S.P.A."
            },
            "geometry": {
                "type": "Point",
                "coordinates": [
                    9.174584448337555,
                    39.24932152754287
                ]
            }
        },
        {
            "type": "Feature",
            "properties": {
                "name": "Eni Viale Marconi",
                "id": "23888",
                "brand": "Agip Eni",
                "amenity": "fuel",
                "operator": "CARBONI GIANLUCA"
            },
            "geometry": {
                "type": "Point",
                "coordinates": [
                    9.150915098963878,
                    39.24164171005797
                ]
            }
        },
        {
            "type": "Feature",
            "properties": {
                "name": "SANNA GIACOMO",
                "id": "16052",
                "brand": "Agip Eni",
                "amenity": "fuel",
                "operator": "SANNA GIACOMO"
            },
            "geometry": {
                "type": "Point",
                "coordinates": [
                    9.153117884130893,
                    39.25281192006355
                ]
            }
        }
    ]
}