{
    "type": "FeatureCollection",
    "features": [
        {
            "type": "Feature",
            "properties": {
                "name": "Staz. di servizio Tender carburanti snc",
                "id": "16730",
                "brand": "Esso",
                "amenity": "fuel",
                "operator": "TENDER CARBURANTI SNC DI MORAS ANDREA E C."
            },
            "geometry": {
                "type": "Point",
                "coordinates": [
                    9.218228049073788,
                    44.352669548413516
                ]
            }
        },
        {
            "type": "Feature",
            "properties": {
                "name": "RAPALLO-VIA ARPINATI 5/B",
                "id": "11603",
                "brand": "Q8",
                "amenity": "fuel",
                "operator": "SERVIZI & GESTIONI ITALIA S.R.L."
            },
            "geometry": {
                "type": "Point",
                "coordinates": [
                    9.214002464178975,
                    44.353534789927195
                ]
            }
        },
        {
            "type": "Feature",
            "properties": {
                "name": "Distributore IP di Emanuele Lagomarsino",
                "id": "25593",
                "brand": "Api-Ip",
                "amenity": "fuel",
                "operator": "LAGOMARSINO EMANUELE"
            },
            "geometry": {
                "type": "Point",
                "coordinates": [
                    9.299979115966607,
                    44.37420076029377
                ]
            }
        },
        {
            "type": "Feature",
            "properties": {
                "name": "stazione di servizio q8 di cuneo massimo",
                "id": "18159",
                "brand": "Q8",
                "amenity": "fuel",
                "operator": "STAZIONE DI SERVIZIO MONTE SHELL  DI CUNEO MASSIMO"
            },
            "geometry": {
                "type": "Point",
                "coordinates": [
                    9.175244271755219,
                    44.43298692374559
                ]
            }
        },
        {
            "type": "Feature",
            "properties": {
                "name": "IP",
                "id": "25741",
                "brand": "Api-Ip",
                "amenity": "fuel",
                "operator": "FERRARO ANTONIO"
            },
            "geometry": {
                "type": "Point",
                "coordinates": [
                    9.150326655543722,
                    44.37259779217885
                ]
            }
        },
        {
            "type": "Feature",
            "properties": {
                "name": "Conchiglia sas",
                "id": "26944",
                "brand": "Api-Ip",
                "amenity": "fuel",
                "operator": "CONCHIGLIA DI LIZZA ROBERTO SAS"
            },
            "geometry": {
                "type": "Point",
                "coordinates": [
                    9.225669225131242,
                    44.3477203157787
                ]
            }
        },
        {
            "type": "Feature",
            "properties": {
                "name": "essoruta",
                "id": "21786",
                "brand": "Esso",
                "amenity": "fuel",
                "operator": "MARTIGNETTI  MATTAVELLI S.N.C."
            },
            "geometry": {
                "type": "Point",
                "coordinates": [
                    9.178734169311497,
                    44.34391558295147
                ]
            }
        },
        {
            "type": "Feature",
            "properties": {
                "name": "Eni 1086 Masera e Fugazzi s.a.s.",
                "id": "4545",
                "brand": "Agip Eni",
                "amenity": "fuel",
                "operator": "MASERA E FUGAZZI S.A.S. DI FUGAZZI SERGIO & C"
            },
            "geometry": {
                "type": "Point",
                "coordinates": [
                    9.146893715344277,
                    44.36560861749121
                ]
            }
        },
        {
            "type": "Feature",
            "properties": {
                "name": "automobilgas",
                "id": "21784",
                "amenity": "fuel",
                "operator": "MARTIGNETTI  MATTAVELLI S.N.C."
            },
            "geometry": {
                "type": "Point",
                "coordinates": [
                    9.178723440475437,
                    44.34389640093724
                ]
            }
        },
        {
            "type": "Feature",
            "properties": {
                "name": "Stazione Servizio IP - F.LLI AUTELITANO BRUNO E FORTUNATO S.N.C.",
                "id": "16064",
                "brand": "Api-Ip",
                "amenity": "fuel",
                "operator": "F.LLI AUTELITANO BRUNO E FORTUNATO S.N.C."
            },
            "geometry": {
                "type": "Point",
                "coordinates": [
                    9.14517073984996,
                    44.36036226331496
                ]
            }
        },
        {
            "type": "Feature",
            "properties": {
                "name": "distributore IP di correa rocio",
                "id": "26223",
                "amenity": "fuel",
                "operator": "CORREA ROCIO"
            },
            "geometry": {
                "type": "Point",
                "coordinates": [
                    9.207914121338034,
                    44.42087350424046
                ]
            }
        },
        {
            "type": "Feature",
            "properties": {
                "name": "Kerotris - Avegno",
                "id": "29487",
                "amenity": "fuel",
                "operator": "G E V SRL - SOCIETA' A RESPONSABILITA' LIMITATA"
            },
            "geometry": {
                "type": "Point",
                "coordinates": [
                    9.164550304412844,
                    44.38326799561634
                ]
            }
        },
        {
            "type": "Feature",
            "properties": {
                "name": "EUROPAM",
                "id": "12616",
                "amenity": "fuel",
                "operator": "VACCARO LUCIANO"
            },
            "geometry": {
                "type": "Point",
                "coordinates": [
                    9.228381749499702,
                    44.34563303786888
                ]
            }
        },
        {
            "type": "Feature",
            "properties": {
                "name": "Distributore totalerg di Zerega Silvana",
                "id": "22571",
                "brand": "Total Erg",
                "amenity": "fuel",
                "operator": "ZEREGA SILVANA"
            },
            "geometry": {
                "type": "Point",
                "coordinates": [
                    9.24332544207573,
                    44.40506652095872
                ]
            }
        },
        {
            "type": "Feature",
            "properties": {
                "name": "RAPALLO P.ZA CESARE BATTISTI 364 IMPQ8",
                "id": "6386",
                "brand": "Q8",
                "amenity": "fuel",
                "operator": "SERVIZI & GESTIONI ITALIA srl"
            },
            "geometry": {
                "type": "Point",
                "coordinates": [
                    9.217646030808053,
                    44.352721782891685
                ]
            }
        },
        {
            "type": "Feature",
            "properties": {
                "name": "Eni-Ditta individuale Marrazzo Pasquale",
                "id": "21393",
                "brand": "Agip Eni",
                "amenity": "fuel",
                "operator": "MARRAZZO PASQUALE"
            },
            "geometry": {
                "type": "Point",
                "coordinates": [
                    9.217232912778856,
                    44.35288432818008
                ]
            }
        },
        {
            "type": "Feature",
            "properties": {
                "name": "SilviaEnrica snc",
                "id": "27857",
                "brand": "Api-Ip",
                "amenity": "fuel",
                "operator": "SILVIA ENRICA S.N.C. DI BERTETTA SILVIA & PEZZOLO ENRICA"
            },
            "geometry": {
                "type": "Point",
                "coordinates": [
                    9.259620236908177,
                    44.45274633200084
                ]
            }
        },
        {
            "type": "Feature",
            "properties": {
                "name": "Kuwait Rovatti Pietro",
                "id": "9236",
                "brand": "Q8",
                "amenity": "fuel",
                "operator": "ROVATTI PIETRO"
            },
            "geometry": {
                "type": "Point",
                "coordinates": [
                    9.213268542991614,
                    44.35342474785824
                ]
            }
        },
        {
            "type": "Feature",
            "properties": {
                "name": "Staz. di servizio Tender carburanti snc",
                "id": "16734",
                "brand": "Esso",
                "amenity": "fuel",
                "operator": "TENDER CARBURANTI SNC DI MORAS ANDREA E C."
            },
            "geometry": {
                "type": "Point",
                "coordinates": [
                    9.210080485983324,
                    44.355500905536516
                ]
            }
        },
        {
            "type": "Feature",
            "properties": {
                "name": "distributore IP di correa rocio",
                "id": "26224",
                "amenity": "fuel",
                "operator": "CORREA ROCIO"
            },
            "geometry": {
                "type": "Point",
                "coordinates": [
                    9.207914121338034,
                    44.42087350424046
                ]
            }
        },
        {
            "type": "Feature",
            "properties": {
                "name": "savio david ip",
                "id": "8900",
                "brand": "Api-Ip",
                "amenity": "fuel",
                "operator": "SAVIO DAVID"
            },
            "geometry": {
                "type": "Point",
                "coordinates": [
                    9.213370425131188,
                    44.354129571468
                ]
            }
        }
    ]
}