{
    "type": "FeatureCollection",
    "features": [
        {
            "type": "Feature",
            "properties": {
                "name": "q8",
                "id": "9581",
                "brand": "Q8",
                "amenity": "fuel",
                "operator": "LO FEUDO AGATA"
            },
            "geometry": {
                "type": "Point",
                "coordinates": [
                    9.172884266820802,
                    45.70520183469809
                ]
            }
        },
        {
            "type": "Feature",
            "properties": {
                "name": "STAGNI RAFFAELE S.N.C. di Stagni Sergio, Enrico & C.",
                "id": "21486",
                "brand": "Total Erg",
                "amenity": "fuel",
                "operator": "STAGNI RAFFAELE SNC DI STAGNI SERGIO, ENRICO & C."
            },
            "geometry": {
                "type": "Point",
                "coordinates": [
                    9.147455365012322,
                    45.662136618466164
                ]
            }
        },
        {
            "type": "Feature",
            "properties": {
                "name": "sironi",
                "id": "15347",
                "brand": "Esso",
                "amenity": "fuel",
                "operator": "SIRONI GILIOLA & C. SNC"
            },
            "geometry": {
                "type": "Point",
                "coordinates": [
                    9.315231442451477,
                    45.663356074472404
                ]
            }
        },
        {
            "type": "Feature",
            "properties": {
                "name": "MEDA VIA INDIPENDENZA 71",
                "id": "6431",
                "brand": "Q8",
                "amenity": "fuel",
                "operator": "SERVIZI & GESTIONI ITALIA srl"
            },
            "geometry": {
                "type": "Point",
                "coordinates": [
                    9.164178680950954,
                    45.65876430474549
                ]
            }
        },
        {
            "type": "Feature",
            "properties": {
                "name": "Totalerg",
                "id": "4399",
                "brand": "Total Erg",
                "amenity": "fuel",
                "operator": "SALA ENRICO"
            },
            "geometry": {
                "type": "Point",
                "coordinates": [
                    9.287367490737893,
                    45.69913119977471
                ]
            }
        },
        {
            "type": "Feature",
            "properties": {
                "name": "ESSO",
                "id": "21100",
                "brand": "Esso",
                "amenity": "fuel",
                "operator": "RUSSO GIORGIO"
            },
            "geometry": {
                "type": "Point",
                "coordinates": [
                    9.202510938048363,
                    45.606930765410596
                ]
            }
        },
        {
            "type": "Feature",
            "properties": {
                "name": "oilone",
                "id": "18803",
                "amenity": "fuel",
                "operator": "BRITA S.A.S. DI D'AMATO DAVIDE & C."
            },
            "geometry": {
                "type": "Point",
                "coordinates": [
                    9.158154577016829,
                    45.60393142909524
                ]
            }
        },
        {
            "type": "Feature",
            "properties": {
                "name": "SEREGNO SAN SALVATORE",
                "id": "7628",
                "brand": "Esso",
                "amenity": "fuel",
                "operator": "STAZIONE DI SERVIZIO CURIONI GIOVANNI & POZZI SANDRA S.N.C."
            },
            "geometry": {
                "type": "Point",
                "coordinates": [
                    9.226229041814804,
                    45.6486815094895
                ]
            }
        },
        {
            "type": "Feature",
            "properties": {
                "name": "F.lli scuratti",
                "id": "25385",
                "amenity": "fuel",
                "operator": "F.LLI SCURATTI AUTORIPARAZIONI S.N.C. DI DANIELE E STEFANO SCURAT TI"
            },
            "geometry": {
                "type": "Point",
                "coordinates": [
                    9.204874733839233,
                    45.58543539394178
                ]
            }
        },
        {
            "type": "Feature",
            "properties": {
                "name": "L'oasi di La torre Francesco",
                "id": "21574",
                "brand": "Esso",
                "amenity": "fuel",
                "operator": "L'OASI DI LA TORRE FRANCESCO"
            },
            "geometry": {
                "type": "Point",
                "coordinates": [
                    9.252598580950917,
                    45.58850903290117
                ]
            }
        },
        {
            "type": "Feature",
            "properties": {
                "name": "Q8 di AROSIO DANIELA",
                "id": "6855",
                "brand": "Q8",
                "amenity": "fuel",
                "operator": "AROSIO DANIELA"
            },
            "geometry": {
                "type": "Point",
                "coordinates": [
                    9.252327151065058,
                    45.60249520845422
                ]
            }
        },
        {
            "type": "Feature",
            "properties": {
                "name": "LUDOIL",
                "id": "32212",
                "amenity": "fuel",
                "operator": "ASC S.R.L."
            },
            "geometry": {
                "type": "Point",
                "coordinates": [
                    9.215196220343614,
                    45.69665487824729
                ]
            }
        },
        {
            "type": "Feature",
            "properties": {
                "name": "TOTALERG",
                "id": "4611",
                "brand": "Total Erg",
                "amenity": "fuel",
                "operator": "GELSOMINO RAFFAELE"
            },
            "geometry": {
                "type": "Point",
                "coordinates": [
                    9.224419891834259,
                    45.661757458249745
                ]
            }
        },
        {
            "type": "Feature",
            "properties": {
                "name": "VIA TIZIANO VECELLIO - VILLASANTA",
                "id": "29741",
                "brand": "Q8",
                "amenity": "fuel",
                "operator": "SERVIZI & GESTIONI ITALIA S.R.L."
            },
            "geometry": {
                "type": "Point",
                "coordinates": [
                    9.311222243408224,
                    45.61728278113487
                ]
            }
        },
        {
            "type": "Feature",
            "properties": {
                "name": "ENI 2281",
                "id": "15800",
                "brand": "Agip Eni",
                "amenity": "fuel",
                "operator": "D'ALOIA GIOVANNI"
            },
            "geometry": {
                "type": "Point",
                "coordinates": [
                    9.252019152045248,
                    45.60310932324585
                ]
            }
        },
        {
            "type": "Feature",
            "properties": {
                "name": "dattolico francesco",
                "id": "20782",
                "brand": "Esso",
                "amenity": "fuel",
                "operator": "DATTOLICO FRANCESCO"
            },
            "geometry": {
                "type": "Point",
                "coordinates": [
                    9.160705793892474,
                    45.61333290236973
                ]
            }
        },
        {
            "type": "Feature",
            "properties": {
                "name": "STAZIONE DI SERVIZIO TAMOIL",
                "id": "20559",
                "brand": "Tamoil",
                "amenity": "fuel",
                "operator": "STAZIONE DI SERVIZIO DI CAZZANIGA GIUSEPPE"
            },
            "geometry": {
                "type": "Point",
                "coordinates": [
                    9.289886177909922,
                    45.68107788288225
                ]
            }
        },
        {
            "type": "Feature",
            "properties": {
                "name": "ESSO",
                "id": "28135",
                "brand": "Esso",
                "amenity": "fuel",
                "operator": "EFFEGI S.N.C. DEI F.LLI XHERAJ & C."
            },
            "geometry": {
                "type": "Point",
                "coordinates": [
                    9.213966652750967,
                    45.688708879886605
                ]
            }
        },
        {
            "type": "Feature",
            "properties": {
                "name": "ALFA PETROLI",
                "id": "6868",
                "amenity": "fuel",
                "operator": "ALFA PETROLI SRL"
            },
            "geometry": {
                "type": "Point",
                "coordinates": [
                    9.310969390213016,
                    45.61485511702477
                ]
            }
        },
        {
            "type": "Feature",
            "properties": {
                "name": "SEREGNO VIA MILANO 20",
                "id": "23494",
                "brand": "Q8",
                "amenity": "fuel",
                "operator": "SERVIZI & GESTIONI ITALIA S.R.L."
            },
            "geometry": {
                "type": "Point",
                "coordinates": [
                    9.204979240894318,
                    45.641553376210986
                ]
            }
        },
        {
            "type": "Feature",
            "properties": {
                "name": "STAZIONE DI SERVIZIO Q8",
                "id": "9396",
                "brand": "Q8",
                "amenity": "fuel",
                "operator": "POLETTO AIDA"
            },
            "geometry": {
                "type": "Point",
                "coordinates": [
                    9.312418141802937,
                    45.701418934522316
                ]
            }
        },
        {
            "type": "Feature",
            "properties": {
                "name": "TAMOIL",
                "id": "12233",
                "brand": "Tamoil",
                "amenity": "fuel",
                "operator": "ZACCONE FRATELLI S.N.C. DI FABIO E MAURIZIO ZACCONE"
            },
            "geometry": {
                "type": "Point",
                "coordinates": [
                    9.243964514276286,
                    45.624253218881876
                ]
            }
        },
        {
            "type": "Feature",
            "properties": {
                "name": "NUOVA COMA SRL",
                "id": "14095",
                "amenity": "fuel",
                "operator": "MANDIA ANTONIO"
            },
            "geometry": {
                "type": "Point",
                "coordinates": [
                    9.195360888360597,
                    45.623683868482985
                ]
            }
        },
        {
            "type": "Feature",
            "properties": {
                "name": "CESANO MADERNO-RESEGONE",
                "id": "28719",
                "brand": "Api-Ip",
                "amenity": "fuel",
                "operator": "IP SERVICES S.R.L."
            },
            "geometry": {
                "type": "Point",
                "coordinates": [
                    9.167325709821737,
                    45.62525623601151
                ]
            }
        },
        {
            "type": "Feature",
            "properties": {
                "name": "TOTAL ERG",
                "id": "19433",
                "brand": "Total Erg",
                "amenity": "fuel",
                "operator": "NOCE SAMUELE"
            },
            "geometry": {
                "type": "Point",
                "coordinates": [
                    9.20186921954155,
                    45.591400185089256
                ]
            }
        },
        {
            "type": "Feature",
            "properties": {
                "name": "PADERNO DUGNANO-FZ.PALAZZOLO SS/SP35KM.6+550 OVEST",
                "id": "11678",
                "brand": "Q8",
                "amenity": "fuel",
                "operator": "SERVIZI & GESTIONI ITALIA S.R.L."
            },
            "geometry": {
                "type": "Point",
                "coordinates": [
                    9.173264373016307,
                    45.58876932518795
                ]
            }
        },
        {
            "type": "Feature",
            "properties": {
                "name": "Erreci snc",
                "id": "17009",
                "brand": "Total Erg",
                "amenity": "fuel",
                "operator": "ERRECI S.N.C. DI ANGELO ROCCO E C."
            },
            "geometry": {
                "type": "Point",
                "coordinates": [
                    9.261104464530945,
                    45.59323429205266
                ]
            }
        },
        {
            "type": "Feature",
            "properties": {
                "name": "q8 carlucci claudio",
                "id": "9160",
                "brand": "Q8",
                "amenity": "fuel",
                "operator": "CARLUCCI CLAUDIO"
            },
            "geometry": {
                "type": "Point",
                "coordinates": [
                    9.231566067003655,
                    45.60228758302004
                ]
            }
        },
        {
            "type": "Feature",
            "properties": {
                "name": "total erg",
                "id": "29962",
                "brand": "Total Erg",
                "amenity": "fuel",
                "operator": "RIVA PIETRO"
            },
            "geometry": {
                "type": "Point",
                "coordinates": [
                    9.223471629794291,
                    45.66181623373905
                ]
            }
        },
        {
            "type": "Feature",
            "properties": {
                "name": "ENI 51890",
                "id": "10398",
                "brand": "Agip Eni",
                "amenity": "fuel",
                "operator": "ILMAPPA DI MAPELLI MARCO"
            },
            "geometry": {
                "type": "Point",
                "coordinates": [
                    9.312728941440582,
                    45.61612893082766
                ]
            }
        },
        {
            "type": "Feature",
            "properties": {
                "name": "TOTALERG",
                "id": "18381",
                "brand": "Total Erg",
                "amenity": "fuel",
                "operator": "FRANCESCON MARCO"
            },
            "geometry": {
                "type": "Point",
                "coordinates": [
                    9.145811621881194,
                    45.606988838162195
                ]
            }
        },
        {
            "type": "Feature",
            "properties": {
                "name": "totalerg",
                "id": "10517",
                "brand": "Total Erg",
                "amenity": "fuel",
                "operator": "CAVALLARI GIORGIO"
            },
            "geometry": {
                "type": "Point",
                "coordinates": [
                    9.217822482139582,
                    45.60872944252682
                ]
            }
        },
        {
            "type": "Feature",
            "properties": {
                "name": "VERANO BRIANZA-SP. NUOVA VALASSINA",
                "id": "11650",
                "brand": "Q8",
                "amenity": "fuel",
                "operator": "SERVIZI & GESTIONI ITALIA S.R.L."
            },
            "geometry": {
                "type": "Point",
                "coordinates": [
                    9.218974694442748,
                    45.68822505244048
                ]
            }
        },
        {
            "type": "Feature",
            "properties": {
                "name": "ENI 2520  di Scarfone Antonio",
                "id": "19959",
                "brand": "Agip Eni",
                "amenity": "fuel",
                "operator": "SCARFONE ANTONIO"
            },
            "geometry": {
                "type": "Point",
                "coordinates": [
                    9.143190007381577,
                    45.64769179311659
                ]
            }
        },
        {
            "type": "Feature",
            "properties": {
                "name": "Strippoli Alfio",
                "id": "14409",
                "brand": "Agip Eni",
                "amenity": "fuel",
                "operator": "STRIPPOLI ALFIO"
            },
            "geometry": {
                "type": "Point",
                "coordinates": [
                    9.295753240585325,
                    45.58941435702956
                ]
            }
        },
        {
            "type": "Feature",
            "properties": {
                "name": "Autodromo Nazionale Monza",
                "id": "29043",
                "brand": "Agip Eni",
                "amenity": "fuel",
                "operator": "AUTODROMO NAZIONALE MONZA S.I.A.S. SOCIETA' INCREMENTO AUTOMOBILISMO E SPORT -S.P.A."
            },
            "geometry": {
                "type": "Point",
                "coordinates": [
                    9.282018981114788,
                    45.618948676335236
                ]
            }
        },
        {
            "type": "Feature",
            "properties": {
                "name": "tagliabue umberto",
                "id": "20459",
                "brand": "Agip Eni",
                "amenity": "fuel",
                "operator": "TAGLIABUE UMBERTO"
            },
            "geometry": {
                "type": "Point",
                "coordinates": [
                    9.234249517321587,
                    45.61868900362045
                ]
            }
        },
        {
            "type": "Feature",
            "properties": {
                "name": "Totalerg di Romeo Rossano",
                "id": "19675",
                "brand": "Total Erg",
                "amenity": "fuel",
                "operator": "ROMEO ROSSANO"
            },
            "geometry": {
                "type": "Point",
                "coordinates": [
                    9.242634773254395,
                    45.67430071970212
                ]
            }
        },
        {
            "type": "Feature",
            "properties": {
                "name": "METANO AUTO DESIO SRL",
                "id": "4028",
                "brand": "Agip Eni",
                "amenity": "fuel",
                "operator": "METANO AUTO DESIO S.R.L."
            },
            "geometry": {
                "type": "Point",
                "coordinates": [
                    9.201228322298448,
                    45.6006010288578
                ]
            }
        },
        {
            "type": "Feature",
            "properties": {
                "name": "VAREDO",
                "id": "5817",
                "brand": "Total Erg",
                "amenity": "fuel",
                "operator": "TotalErg SpA"
            },
            "geometry": {
                "type": "Point",
                "coordinates": [
                    9.168170000000032,
                    45.5980762465848
                ]
            }
        },
        {
            "type": "Feature",
            "properties": {
                "name": "stazione di servizio esso arcore",
                "id": "28578",
                "brand": "Esso",
                "amenity": "fuel",
                "operator": "DE PIETRO SALVATORE"
            },
            "geometry": {
                "type": "Point",
                "coordinates": [
                    9.31034579873085,
                    45.6235859474844
                ]
            }
        },
        {
            "type": "Feature",
            "properties": {
                "name": "TOTALERG",
                "id": "26513",
                "brand": "Total Erg",
                "amenity": "fuel",
                "operator": "ANGIUS ANTONIO"
            },
            "geometry": {
                "type": "Point",
                "coordinates": [
                    9.200157360852018,
                    45.59990677332177
                ]
            }
        },
        {
            "type": "Feature",
            "properties": {
                "name": "Moro_Seveso Piazza Del Seminario",
                "id": "24181",
                "brand": "Q8",
                "amenity": "fuel",
                "operator": "AMBROGIO MORO S.P.A."
            },
            "geometry": {
                "type": "Point",
                "coordinates": [
                    9.143888851284032,
                    45.64989895124354
                ]
            }
        },
        {
            "type": "Feature",
            "properties": {
                "name": "Stazione serv. Shell di Mazzariol",
                "id": "10067",
                "brand": "Shell",
                "amenity": "fuel",
                "operator": "MAZZARIOL ANTONIO"
            },
            "geometry": {
                "type": "Point",
                "coordinates": [
                    9.209009279762313,
                    45.590252440404576
                ]
            }
        },
        {
            "type": "Feature",
            "properties": {
                "name": "4094",
                "id": "30471",
                "brand": "Tamoil",
                "amenity": "fuel",
                "operator": "T.D.M. S.R.L."
            },
            "geometry": {
                "type": "Point",
                "coordinates": [
                    9.165680855512619,
                    45.70602668463833
                ]
            }
        },
        {
            "type": "Feature",
            "properties": {
                "name": "KEROPETROL di Santambrogio Giorgio",
                "id": "13377",
                "amenity": "fuel",
                "operator": "DISTRIBUTORE IP DI SANTAMBROGIO GIORGIO"
            },
            "geometry": {
                "type": "Point",
                "coordinates": [
                    9.249100914819337,
                    45.61316047508061
                ]
            }
        },
        {
            "type": "Feature",
            "properties": {
                "name": "area di servizio q8",
                "id": "4596",
                "brand": "Q8",
                "amenity": "fuel",
                "operator": "CAVASIN ANTONIO"
            },
            "geometry": {
                "type": "Point",
                "coordinates": [
                    9.219802469015121,
                    45.67478387524035
                ]
            }
        },
        {
            "type": "Feature",
            "properties": {
                "name": "Esso di Civati Bianca Sala",
                "id": "26531",
                "brand": "Esso",
                "amenity": "fuel",
                "operator": "CIVATI BIANCA"
            },
            "geometry": {
                "type": "Point",
                "coordinates": [
                    9.242157735964042,
                    45.62759023051415
                ]
            }
        },
        {
            "type": "Feature",
            "properties": {
                "name": "distributore IP _ Cursio",
                "id": "18309",
                "brand": "Api-Ip",
                "amenity": "fuel",
                "operator": "CURSIO MAURIZIO"
            },
            "geometry": {
                "type": "Point",
                "coordinates": [
                    9.147581876092088,
                    45.6130895084619
                ]
            }
        },
        {
            "type": "Feature",
            "properties": {
                "name": "STAZIONE DI SERVIZIO TAMOIL di MORAMARCO GIACINTO & C. snc",
                "id": "14629",
                "brand": "Tamoil",
                "amenity": "fuel",
                "operator": "STAZIONE DI SERVIZIO TAMOIL DI MORAMARCO GIACINTO E C. SNC"
            },
            "geometry": {
                "type": "Point",
                "coordinates": [
                    9.216838628053665,
                    45.61964820349186
                ]
            }
        },
        {
            "type": "Feature",
            "properties": {
                "name": "Stazione di servizio TOTALERG di Basile",
                "id": "7165",
                "brand": "Total Erg",
                "amenity": "fuel",
                "operator": "STAZIONE DI SERVIZIO ERG DI BASILE E C. S.N.C."
            },
            "geometry": {
                "type": "Point",
                "coordinates": [
                    9.214711703102127,
                    45.645771043897916
                ]
            }
        },
        {
            "type": "Feature",
            "properties": {
                "name": "TOTALERG",
                "id": "19851",
                "brand": "Total Erg",
                "amenity": "fuel",
                "operator": "S.M.CAR S.N.C. DI MARZELLA MAURO E MARZELLA SILVIA"
            },
            "geometry": {
                "type": "Point",
                "coordinates": [
                    9.298778792711119,
                    45.58990482134817
                ]
            }
        },
        {
            "type": "Feature",
            "properties": {
                "name": "Eni di Furlan Giuliano",
                "id": "15768",
                "brand": "Agip Eni",
                "amenity": "fuel",
                "operator": "FURLAN GIULIANO"
            },
            "geometry": {
                "type": "Point",
                "coordinates": [
                    9.175942987203598,
                    45.70132178057579
                ]
            }
        },
        {
            "type": "Feature",
            "properties": {
                "name": "sanicarservice snc di salvatore nicola e lombardo salvatore",
                "id": "5656",
                "brand": "Esso",
                "amenity": "fuel",
                "operator": "SANICAR SERVICE S.N.C. DI SALVATORE NICOLA E LOMBARDO SALVATORE"
            },
            "geometry": {
                "type": "Point",
                "coordinates": [
                    9.265367770676107,
                    45.63839694383991
                ]
            }
        },
        {
            "type": "Feature",
            "properties": {
                "name": "DESIO-VIA MILANO 165",
                "id": "11642",
                "brand": "Q8",
                "amenity": "fuel",
                "operator": "SERVIZI & GESTIONI ITALIA S.R.L."
            },
            "geometry": {
                "type": "Point",
                "coordinates": [
                    9.200414927577981,
                    45.61516903593563
                ]
            }
        },
        {
            "type": "Feature",
            "properties": {
                "name": "TAMOIL - P.V. 8487",
                "id": "31291",
                "brand": "Tamoil",
                "amenity": "fuel",
                "operator": "COLTRO LOREDANO ANTONIO"
            },
            "geometry": {
                "type": "Point",
                "coordinates": [
                    9.173529440475477,
                    45.60047920771164
                ]
            }
        },
        {
            "type": "Feature",
            "properties": {
                "name": "distributore Q8",
                "id": "27722",
                "brand": "Q8",
                "amenity": "fuel",
                "operator": "FIORE GIOVANNI"
            },
            "geometry": {
                "type": "Point",
                "coordinates": [
                    9.254770427942276,
                    45.65490958600425
                ]
            }
        },
        {
            "type": "Feature",
            "properties": {
                "name": "PERRONE ROBERTO - SEREGNO VIA MACALLE'",
                "id": "26189",
                "brand": "Agip Eni",
                "amenity": "fuel",
                "operator": "PERRONE ROBERTO"
            },
            "geometry": {
                "type": "Point",
                "coordinates": [
                    9.220199435949326,
                    45.637354527485485
                ]
            }
        },
        {
            "type": "Feature",
            "properties": {
                "name": "Q8 AUTOCABIATE",
                "id": "13702",
                "brand": "Q8",
                "amenity": "fuel",
                "operator": "AUTOCABIATE S.N.C. DI BALDO FORTUNATO E C."
            },
            "geometry": {
                "type": "Point",
                "coordinates": [
                    9.178294311639434,
                    45.67856546720765
                ]
            }
        },
        {
            "type": "Feature",
            "properties": {
                "name": "F.LLI D'APOLITO S.N.C. DI D'APOLITO MICHELE & GIUSEPPE IMP. SEVESO",
                "id": "28608",
                "brand": "Q8",
                "amenity": "fuel",
                "operator": "F.LLI D'APOLITO S.N.C. DI D'APOLITO MICHELE & GIUSEPPE"
            },
            "geometry": {
                "type": "Point",
                "coordinates": [
                    9.157669097185135,
                    45.64048484691669
                ]
            }
        },
        {
            "type": "Feature",
            "properties": {
                "name": "stazione esso di zari alessandro",
                "id": "21480",
                "brand": "Esso",
                "amenity": "fuel",
                "operator": "ZARI ALESSANDRO"
            },
            "geometry": {
                "type": "Point",
                "coordinates": [
                    9.23608548939228,
                    45.59281462242998
                ]
            }
        },
        {
            "type": "Feature",
            "properties": {
                "name": "KEROPETROL",
                "id": "21619",
                "amenity": "fuel",
                "operator": "MEREGALLI MAURIZIO"
            },
            "geometry": {
                "type": "Point",
                "coordinates": [
                    9.143289774656296,
                    45.70088531127511
                ]
            }
        },
        {
            "type": "Feature",
            "properties": {
                "name": "ESSO MERONI SERVICE CAR SAS",
                "id": "22190",
                "brand": "Esso",
                "amenity": "fuel",
                "operator": "MERONI SERVICE CAR S.A.S. DI G. MERONI & C."
            },
            "geometry": {
                "type": "Point",
                "coordinates": [
                    9.235237428465894,
                    45.60339971326928
                ]
            }
        },
        {
            "type": "Feature",
            "properties": {
                "name": "MEDA S.S.35 DEI GIOVI KM 143+750",
                "id": "6432",
                "brand": "Q8",
                "amenity": "fuel",
                "operator": "SERVIZI & GESTIONI ITALIA srl"
            },
            "geometry": {
                "type": "Point",
                "coordinates": [
                    9.14577267050015,
                    45.6566811525372
                ]
            }
        },
        {
            "type": "Feature",
            "properties": {
                "name": "esso",
                "id": "26611",
                "brand": "Esso",
                "amenity": "fuel",
                "operator": "HASSANEIN SHAWKY"
            },
            "geometry": {
                "type": "Point",
                "coordinates": [
                    9.251298308372498,
                    45.60519430733605
                ]
            }
        },
        {
            "type": "Feature",
            "properties": {
                "name": "STAZIONE TOTALERG",
                "id": "10850",
                "brand": "Total Erg",
                "amenity": "fuel",
                "operator": "CRIPPA EMANUELE"
            },
            "geometry": {
                "type": "Point",
                "coordinates": [
                    9.257237451000833,
                    45.69462193231444
                ]
            }
        },
        {
            "type": "Feature",
            "properties": {
                "name": "4034",
                "id": "28970",
                "brand": "Tamoil",
                "amenity": "fuel",
                "operator": "T.D.M. S.R.L."
            },
            "geometry": {
                "type": "Point",
                "coordinates": [
                    9.206816554069519,
                    45.67659539006041
                ]
            }
        },
        {
            "type": "Feature",
            "properties": {
                "name": "VIA CIRCONVALLAZIONE VAREDO",
                "id": "22380",
                "brand": "Esso",
                "amenity": "fuel",
                "operator": "SERVIZI E GESTIONI ZENIT S.R.L. IN SIGLA - ZENIT S.R.L."
            },
            "geometry": {
                "type": "Point",
                "coordinates": [
                    9.153016898147598,
                    45.603914246975336
                ]
            }
        },
        {
            "type": "Feature",
            "properties": {
                "name": "TAMOIL",
                "id": "13661",
                "brand": "Tamoil",
                "amenity": "fuel",
                "operator": "BANA STEFANO"
            },
            "geometry": {
                "type": "Point",
                "coordinates": [
                    9.179268926382065,
                    45.638463249136066
                ]
            }
        },
        {
            "type": "Feature",
            "properties": {
                "name": "SEREGNO - WAGNER",
                "id": "24809",
                "brand": "Api-Ip",
                "amenity": "fuel",
                "operator": "IP SERVICES S.R.L."
            },
            "geometry": {
                "type": "Point",
                "coordinates": [
                    9.18449061226852,
                    45.65620281214398
                ]
            }
        },
        {
            "type": "Feature",
            "properties": {
                "name": "MONZA VIA G.B. STUCCHI",
                "id": "25015",
                "brand": "Q8",
                "amenity": "fuel",
                "operator": "SERVIZI & GESTIONI ITALIA S.R.L."
            },
            "geometry": {
                "type": "Point",
                "coordinates": [
                    9.310225205557233,
                    45.587086957894385
                ]
            }
        },
        {
            "type": "Feature",
            "properties": {
                "name": "eni",
                "id": "8960",
                "brand": "Agip Eni",
                "amenity": "fuel",
                "operator": "FONTEMAGGI MAURIZIO E C. S.N.C."
            },
            "geometry": {
                "type": "Point",
                "coordinates": [
                    9.184438836909523,
                    45.68718718201701
                ]
            }
        },
        {
            "type": "Feature",
            "properties": {
                "name": "TOTALERG",
                "id": "15439",
                "brand": "Total Erg",
                "amenity": "fuel",
                "operator": "MASTROGIOVANNI FABIO"
            },
            "geometry": {
                "type": "Point",
                "coordinates": [
                    9.244552552700043,
                    45.62911269214519
                ]
            }
        },
        {
            "type": "Feature",
            "properties": {
                "name": "Coltro Loredano - P.V. 8046",
                "id": "31292",
                "brand": "Tamoil",
                "amenity": "fuel",
                "operator": "COLTRO LOREDANO ANTONIO"
            },
            "geometry": {
                "type": "Point",
                "coordinates": [
                    9.205926465606694,
                    45.62623765528265
                ]
            }
        },
        {
            "type": "Feature",
            "properties": {
                "name": "C&G Stazione di servizio Eni",
                "id": "16929",
                "brand": "Agip Eni",
                "amenity": "fuel",
                "operator": "C. & G. S.N.C. DI  CALLOVINI MICHELE E GALBUSERA PIETRO"
            },
            "geometry": {
                "type": "Point",
                "coordinates": [
                    9.208543941664175,
                    45.696022011642654
                ]
            }
        },
        {
            "type": "Feature",
            "properties": {
                "name": "CONSONNI SNC PV TOTALERG",
                "id": "5304",
                "brand": "Total Erg",
                "amenity": "fuel",
                "operator": "CONSONNI SNC DI FUMAGALLI PAOLO & CONSONNI VALERIANA"
            },
            "geometry": {
                "type": "Point",
                "coordinates": [
                    9.205248869697584,
                    45.640516734179045
                ]
            }
        },
        {
            "type": "Feature",
            "properties": {
                "name": "caroli giovanni",
                "id": "19353",
                "brand": "Q8",
                "amenity": "fuel",
                "operator": "CAROLI GIOVANNI"
            },
            "geometry": {
                "type": "Point",
                "coordinates": [
                    9.266958820866762,
                    45.64417784424008
                ]
            }
        },
        {
            "type": "Feature",
            "properties": {
                "name": "PADERNO DUGNANO-VIA DON ANGHILERI",
                "id": "11705",
                "brand": "Q8",
                "amenity": "fuel",
                "operator": "SERVIZI & GESTIONI ITALIA S.R.L."
            },
            "geometry": {
                "type": "Point",
                "coordinates": [
                    9.164721865081788,
                    45.583733789381526
                ]
            }
        },
        {
            "type": "Feature",
            "properties": {
                "name": "Lissone",
                "id": "22981",
                "brand": "Total Erg",
                "amenity": "fuel",
                "operator": "GESTIONI EUROPA - SOCIETA' PER AZIONI"
            },
            "geometry": {
                "type": "Point",
                "coordinates": [
                    9.229980111122131,
                    45.602204260983115
                ]
            }
        },
        {
            "type": "Feature",
            "properties": {
                "name": "Esso",
                "id": "30327",
                "brand": "Esso",
                "amenity": "fuel",
                "operator": "MOLTENI MASSIMILIANO E ROVEDA PAOLO S.N.C."
            },
            "geometry": {
                "type": "Point",
                "coordinates": [
                    9.161194860935211,
                    45.66058396103526
                ]
            }
        },
        {
            "type": "Feature",
            "properties": {
                "name": "carate ovest",
                "id": "9316",
                "brand": "Q8",
                "amenity": "fuel",
                "operator": "CHIARADIA CLAUDIO E C. S.N.C"
            },
            "geometry": {
                "type": "Point",
                "coordinates": [
                    9.219900369644165,
                    45.67199246085944
                ]
            }
        },
        {
            "type": "Feature",
            "properties": {
                "name": "esso baraviera",
                "id": "10900",
                "brand": "Esso",
                "amenity": "fuel",
                "operator": "BARAVIERA VALENTINO"
            },
            "geometry": {
                "type": "Point",
                "coordinates": [
                    9.291689766864806,
                    45.699946927806025
                ]
            }
        },
        {
            "type": "Feature",
            "properties": {
                "name": "VEDO Snc",
                "id": "6984",
                "brand": "Agip Eni",
                "amenity": "fuel",
                "operator": "VE.DO S.N.C. DI VECCHIO ANTONIO E DONA' TIZIANO"
            },
            "geometry": {
                "type": "Point",
                "coordinates": [
                    9.223469719290733,
                    45.616558556976706
                ]
            }
        },
        {
            "type": "Feature",
            "properties": {
                "name": "SEREGNO - BRIANTINA",
                "id": "26991",
                "brand": "Api-Ip",
                "amenity": "fuel",
                "operator": "IP SERVICES S.R.L."
            },
            "geometry": {
                "type": "Point",
                "coordinates": [
                    9.216957084655746,
                    45.66186625769628
                ]
            }
        },
        {
            "type": "Feature",
            "properties": {
                "name": "Stazione di Servizio Esso",
                "id": "28934",
                "brand": "Esso",
                "amenity": "fuel",
                "operator": "BOSI ALBERTO"
            },
            "geometry": {
                "type": "Point",
                "coordinates": [
                    9.292024402446712,
                    45.59345037785976
                ]
            }
        },
        {
            "type": "Feature",
            "properties": {
                "name": "LISSONE-VIA MARTIRI LIBERTA' 12 / PANZINI",
                "id": "11645",
                "brand": "Q8",
                "amenity": "fuel",
                "operator": "SERVIZI & GESTIONI ITALIA S.R.L."
            },
            "geometry": {
                "type": "Point",
                "coordinates": [
                    9.248222974204964,
                    45.61524052887886
                ]
            }
        },
        {
            "type": "Feature",
            "properties": {
                "name": "RETITALIA DI MAURI GIUSEPPE",
                "id": "14948",
                "brand": "Retitalia",
                "amenity": "fuel",
                "operator": "MAURI  GIUSEPPE"
            },
            "geometry": {
                "type": "Point",
                "coordinates": [
                    9.305763244628906,
                    45.63180571347551
                ]
            }
        },
        {
            "type": "Feature",
            "properties": {
                "name": "STAZIONE DI SERVIZIO TAMOIL",
                "id": "25500",
                "brand": "Tamoil",
                "amenity": "fuel",
                "operator": "SCELSI FABRIZIO"
            },
            "geometry": {
                "type": "Point",
                "coordinates": [
                    9.237354040666673,
                    45.679141661918926
                ]
            }
        },
        {
            "type": "Feature",
            "properties": {
                "name": "ENI 2384 DI SCARFONE VINCENZO",
                "id": "8870",
                "brand": "Agip Eni",
                "amenity": "fuel",
                "operator": "SCARFONE VINCENZO"
            },
            "geometry": {
                "type": "Point",
                "coordinates": [
                    9.199737009262094,
                    45.620737014219515
                ]
            }
        },
        {
            "type": "Feature",
            "properties": {
                "name": "Q8 di Raimondo e Cristian",
                "id": "13002",
                "brand": "Q8",
                "amenity": "fuel",
                "operator": "MACRI '04 S.N.C. DI CRIPPA C. & MARCUCCI R."
            },
            "geometry": {
                "type": "Point",
                "coordinates": [
                    9.258563519187874,
                    45.65041504145179
                ]
            }
        },
        {
            "type": "Feature",
            "properties": {
                "name": "Brillauto sas",
                "id": "20179",
                "brand": "Total Erg",
                "amenity": "fuel",
                "operator": "BRILLAUTO S.A.S. DI CONSOLARO GIUSEPPE, MOTTA LORENZO & C."
            },
            "geometry": {
                "type": "Point",
                "coordinates": [
                    9.204661399126053,
                    45.67619396071171
                ]
            }
        },
        {
            "type": "Feature",
            "properties": {
                "name": "Q8 di Flli Carlucci snc",
                "id": "5636",
                "brand": "Q8",
                "amenity": "fuel",
                "operator": "FRATELLI CARLUCCI S.N.C. DI CARLUCCI PAOLO & C."
            },
            "geometry": {
                "type": "Point",
                "coordinates": [
                    9.227552711963654,
                    45.69678383208968
                ]
            }
        },
        {
            "type": "Feature",
            "properties": {
                "name": "ROSSBENZ",
                "id": "9678",
                "brand": "Agip Eni",
                "amenity": "fuel",
                "operator": "ROSS BENZ DI PONTI ROSSANO"
            },
            "geometry": {
                "type": "Point",
                "coordinates": [
                    9.143085253967229,
                    45.64273849574598
                ]
            }
        },
        {
            "type": "Feature",
            "properties": {
                "name": "TAMOIL",
                "id": "16979",
                "brand": "Tamoil",
                "amenity": "fuel",
                "operator": "F.LLI CERUTI S.N.C. DI ANGELO E ATTILIO CERUTI"
            },
            "geometry": {
                "type": "Point",
                "coordinates": [
                    9.175363630056381,
                    45.58367876552012
                ]
            }
        },
        {
            "type": "Feature",
            "properties": {
                "name": "ESSO",
                "id": "7238",
                "brand": "Esso",
                "amenity": "fuel",
                "operator": "GALLUCCI  &  PALAZZI S.N.C. DI GALLUCCI LEO LEOPOLDO E C."
            },
            "geometry": {
                "type": "Point",
                "coordinates": [
                    9.195348895106463,
                    45.59263831237104
                ]
            }
        },
        {
            "type": "Feature",
            "properties": {
                "name": "Lissone",
                "id": "4659",
                "brand": "Esso",
                "amenity": "fuel",
                "operator": "NUOVA SIDAP  S.R.L."
            },
            "geometry": {
                "type": "Point",
                "coordinates": [
                    9.227040410041809,
                    45.60527837308725
                ]
            }
        },
        {
            "type": "Feature",
            "properties": {
                "name": "S.S.ENI",
                "id": "13332",
                "brand": "Agip Eni",
                "amenity": "fuel",
                "operator": "TOBIA OSVALDO & FIGLI SNC DI TOBIA OSVALDO & C."
            },
            "geometry": {
                "type": "Point",
                "coordinates": [
                    9.163924946696511,
                    45.658420240375506
                ]
            }
        },
        {
            "type": "Feature",
            "properties": {
                "name": "AREA MOSE' BIANCHI",
                "id": "27284",
                "brand": "Socogas",
                "amenity": "fuel",
                "operator": "DUE ESSE S.A.S. DI LO TORTO MICHELE E STILO SALVATORE E C."
            },
            "geometry": {
                "type": "Point",
                "coordinates": [
                    9.247886538505554,
                    45.6631251327261
                ]
            }
        },
        {
            "type": "Feature",
            "properties": {
                "name": "TAMOIL",
                "id": "7241",
                "brand": "Tamoil",
                "amenity": "fuel",
                "operator": "GAUDIOSO ANTONIO"
            },
            "geometry": {
                "type": "Point",
                "coordinates": [
                    9.276266992092133,
                    45.62269866138672
                ]
            }
        },
        {
            "type": "Feature",
            "properties": {
                "name": "IP Rossi",
                "id": "20022",
                "brand": "Api-Ip",
                "amenity": "fuel",
                "operator": "ROSSI ALBERTO"
            },
            "geometry": {
                "type": "Point",
                "coordinates": [
                    9.194773435592651,
                    45.607741969761086
                ]
            }
        },
        {
            "type": "Feature",
            "properties": {
                "name": "SEREGNO VIA MILANO",
                "id": "7626",
                "brand": "Esso",
                "amenity": "fuel",
                "operator": "CURIONI ANGELO E POZZI SANDRA SNC"
            },
            "geometry": {
                "type": "Point",
                "coordinates": [
                    9.2057503759861,
                    45.639224638698536
                ]
            }
        },
        {
            "type": "Feature",
            "properties": {
                "name": "stazione di servizio di padova francesco e matteo",
                "id": "7752",
                "brand": "Q8",
                "amenity": "fuel",
                "operator": "STAZIONE SERVIZIO Q8 DI DI PADOVA FRANCESCO E MATTEO S.N.C."
            },
            "geometry": {
                "type": "Point",
                "coordinates": [
                    9.195328474204985,
                    45.58506479283817
                ]
            }
        },
        {
            "type": "Feature",
            "properties": {
                "name": "ERG PETROLI DI NOTARO FRANCESCO",
                "id": "8827",
                "brand": "Total Erg",
                "amenity": "fuel",
                "operator": "ERG PETROLI DI NOTARO FRANCESCO"
            },
            "geometry": {
                "type": "Point",
                "coordinates": [
                    9.181130446880957,
                    45.68849166125011
                ]
            }
        },
        {
            "type": "Feature",
            "properties": {
                "name": "LISSONE-SS 36 VALASSINA KM 19+020",
                "id": "11649",
                "brand": "Q8",
                "amenity": "fuel",
                "operator": "SERVIZI & GESTIONI ITALIA S.R.L."
            },
            "geometry": {
                "type": "Point",
                "coordinates": [
                    9.224526822090185,
                    45.63615438760353
                ]
            }
        },
        {
            "type": "Feature",
            "properties": {
                "name": "stazione di servizio Esso Vanoli snc",
                "id": "5160",
                "brand": "Esso",
                "amenity": "fuel",
                "operator": "VANOLI S.N.C. DI VANOLI FIRMINO E MARONI"
            },
            "geometry": {
                "type": "Point",
                "coordinates": [
                    9.202318489551544,
                    45.668298036450224
                ]
            }
        },
        {
            "type": "Feature",
            "properties": {
                "name": "Cazzaniga Claudia",
                "id": "9448",
                "brand": "Api-Ip",
                "amenity": "fuel",
                "operator": "CAZZANIGA CLAUDIA"
            },
            "geometry": {
                "type": "Point",
                "coordinates": [
                    9.242668971419334,
                    45.67564953401435
                ]
            }
        },
        {
            "type": "Feature",
            "properties": {
                "name": "DESIO-VIA VALASSINA 144 EST",
                "id": "11643",
                "brand": "Q8",
                "amenity": "fuel",
                "operator": "SERVIZI & GESTIONI ITALIA S.R.L."
            },
            "geometry": {
                "type": "Point",
                "coordinates": [
                    9.224793526458711,
                    45.62338022251562
                ]
            }
        },
        {
            "type": "Feature",
            "properties": {
                "name": "DIEMME SNC",
                "id": "8157",
                "brand": "Esso",
                "amenity": "fuel",
                "operator": "DIEMME SNC DI FRISO DORIANO & FUMAGALLI MONICA DANIELA"
            },
            "geometry": {
                "type": "Point",
                "coordinates": [
                    9.145383909344675,
                    45.60055060353707
                ]
            }
        },
        {
            "type": "Feature",
            "properties": {
                "name": "PERRONE ROBERTO - VERANO BRIANZA",
                "id": "11220",
                "brand": "Esso",
                "amenity": "fuel",
                "operator": "PERRONE ROBERTO"
            },
            "geometry": {
                "type": "Point",
                "coordinates": [
                    9.218151569366455,
                    45.68855167842552
                ]
            }
        },
        {
            "type": "Feature",
            "properties": {
                "name": "SIMPLY SEREGNO",
                "id": "20860",
                "amenity": "fuel",
                "operator": "SMA S.P.A."
            },
            "geometry": {
                "type": "Point",
                "coordinates": [
                    9.211079338098216,
                    45.64682149757903
                ]
            }
        }
    ]
}