{
    "type": "FeatureCollection",
    "features": [
        {
            "type": "Feature",
            "properties": {
                "name": "toalerg 6477",
                "id": "25725",
                "brand": "Total Erg",
                "amenity": "fuel",
                "operator": "MALGESINI SILVANO"
            },
            "geometry": {
                "type": "Point",
                "coordinates": [
                    9.443367272615433,
                    46.13803618346351
                ]
            }
        },
        {
            "type": "Feature",
            "properties": {
                "name": "IPERAL CARBURANTI ROGOLO",
                "id": "31753",
                "amenity": "fuel",
                "operator": "IPERAL2 S.R.L."
            },
            "geometry": {
                "type": "Point",
                "coordinates": [
                    9.48213055729866,
                    46.13574954320293
                ]
            }
        },
        {
            "type": "Feature",
            "properties": {
                "name": "TAMOIL",
                "id": "21898",
                "brand": "Tamoil",
                "amenity": "fuel",
                "operator": "PRATI CRISTINA"
            },
            "geometry": {
                "type": "Point",
                "coordinates": [
                    9.457533448857816,
                    46.15298458946965
                ]
            }
        },
        {
            "type": "Feature",
            "properties": {
                "name": "totalerg",
                "id": "30970",
                "brand": "Total Erg",
                "amenity": "fuel",
                "operator": "RIVA LORENZA"
            },
            "geometry": {
                "type": "Point",
                "coordinates": [
                    9.381857514381409,
                    46.172876783231814
                ]
            }
        },
        {
            "type": "Feature",
            "properties": {
                "name": "St Servizio Esso",
                "id": "27786",
                "brand": "Esso",
                "amenity": "fuel",
                "operator": "DELL'ERA DANIELA"
            },
            "geometry": {
                "type": "Point",
                "coordinates": [
                    9.323822557926178,
                    46.150081899449205
                ]
            }
        },
        {
            "type": "Feature",
            "properties": {
                "name": "GAROLINISAS",
                "id": "7608",
                "brand": "Agip Eni",
                "amenity": "fuel",
                "operator": "GAROLINI SAS DI GAROLINI CHRISTIAN E MICHELE"
            },
            "geometry": {
                "type": "Point",
                "coordinates": [
                    9.423803450531068,
                    46.13938846215067
                ]
            }
        },
        {
            "type": "Feature",
            "properties": {
                "name": "stazione ENI 12758",
                "id": "8075",
                "brand": "Agip Eni",
                "amenity": "fuel",
                "operator": "RIVA LORENZA"
            },
            "geometry": {
                "type": "Point",
                "coordinates": [
                    9.458225626539159,
                    46.13754238150623
                ]
            }
        },
        {
            "type": "Feature",
            "properties": {
                "name": "Q8",
                "id": "21868",
                "brand": "Q8",
                "amenity": "fuel",
                "operator": "MARCHETTI SONIA"
            },
            "geometry": {
                "type": "Point",
                "coordinates": [
                    9.388288020715322,
                    46.13944052662459
                ]
            }
        },
        {
            "type": "Feature",
            "properties": {
                "name": "IPERAL CARBURANTI GERA LARIO",
                "id": "32164",
                "amenity": "fuel",
                "operator": "IPERAL2 S.R.L."
            },
            "geometry": {
                "type": "Point",
                "coordinates": [
                    9.41404402256012,
                    46.141609530834174
                ]
            }
        },
        {
            "type": "Feature",
            "properties": {
                "name": "GASAUTO SAS",
                "id": "21882",
                "amenity": "fuel",
                "operator": "GAS AUTO PIANTEDO S.A.S. DI MALGESINI CARLO E C."
            },
            "geometry": {
                "type": "Point",
                "coordinates": [
                    9.424292743206024,
                    46.13921357193616
                ]
            }
        },
        {
            "type": "Feature",
            "properties": {
                "name": "tamoil",
                "id": "19422",
                "brand": "Tamoil",
                "amenity": "fuel",
                "operator": "COPES OSCAR"
            },
            "geometry": {
                "type": "Point",
                "coordinates": [
                    9.43097565533219,
                    46.17034629367751
                ]
            }
        },
        {
            "type": "Feature",
            "properties": {
                "name": "ESSO",
                "id": "4245",
                "brand": "Esso",
                "amenity": "fuel",
                "operator": "FOMASI CLAUDIO - S.A.S."
            },
            "geometry": {
                "type": "Point",
                "coordinates": [
                    9.371053644180277,
                    46.13569955491895
                ]
            }
        }
    ]
}