{
    "type": "FeatureCollection",
    "features": [
        {
            "type": "Feature",
            "properties": {
                "name": "STRADELLA SUD",
                "id": "3763",
                "brand": "Api-Ip",
                "amenity": "fuel",
                "operator": "STRADELLA S.R.L."
            },
            "geometry": {
                "type": "Point",
                "coordinates": [
                    9.318460822105408,
                    45.08284826823672
                ]
            }
        },
        {
            "type": "Feature",
            "properties": {
                "name": "FANTONI IMPIANTI GAS di Fantoni Paolo e Marco s.n.c.",
                "id": "30330",
                "brand": "Agip Eni",
                "amenity": "fuel",
                "operator": "FANTONI IMPIANTI GAS DI FANTONI PAOLO E MARCO S.N.C."
            },
            "geometry": {
                "type": "Point",
                "coordinates": [
                    9.396825581789017,
                    45.06275832351477
                ]
            }
        },
        {
            "type": "Feature",
            "properties": {
                "name": "IP BALDINI",
                "id": "17458",
                "brand": "Api-Ip",
                "amenity": "fuel",
                "operator": "BALDINI ANDREA E DEBORA SNC"
            },
            "geometry": {
                "type": "Point",
                "coordinates": [
                    9.408680945634842,
                    45.01488825910793
                ]
            }
        },
        {
            "type": "Feature",
            "properties": {
                "name": "Terzoni Alessandro-Scrocchi & c. s.n.c.",
                "id": "10883",
                "brand": "Esso",
                "amenity": "fuel",
                "operator": "TERZONI ALESSANDRO - SCROCCHI & C. S.N.C."
            },
            "geometry": {
                "type": "Point",
                "coordinates": [
                    9.433995347221412,
                    45.060562475572816
                ]
            }
        },
        {
            "type": "Feature",
            "properties": {
                "name": "FANTONI IMPIANTI GAS di Fantoni Paolo e Marco s.n.c.",
                "id": "29153",
                "brand": "Agip Eni",
                "amenity": "fuel",
                "operator": "FANTONI IMPIANTI GAS DI FANTONI PAOLO E MARCO S.N.C."
            },
            "geometry": {
                "type": "Point",
                "coordinates": [
                    9.396825581789017,
                    45.06275832351477
                ]
            }
        },
        {
            "type": "Feature",
            "properties": {
                "name": "stazione servizio ENI di Beretta Emilio",
                "id": "30559",
                "brand": "Agip Eni",
                "amenity": "fuel",
                "operator": "BERETTA EMILIO"
            },
            "geometry": {
                "type": "Point",
                "coordinates": [
                    9.434402231338481,
                    45.060500465480736
                ]
            }
        },
        {
            "type": "Feature",
            "properties": {
                "name": "STAZIONE DI SERVIZIO IP  - F. & F. CAR SNC",
                "id": "10371",
                "brand": "Api-Ip",
                "amenity": "fuel",
                "operator": "F.& F. CAR. S.N.C. DI FARRONATO MAURIZIO E C."
            },
            "geometry": {
                "type": "Point",
                "coordinates": [
                    9.46824964034454,
                    45.01606719660886
                ]
            }
        },
        {
            "type": "Feature",
            "properties": {
                "name": "total erg di Migliazza Flavio",
                "id": "12723",
                "brand": "Total Erg",
                "amenity": "fuel",
                "operator": "MIGLIAZZA FLAVIO"
            },
            "geometry": {
                "type": "Point",
                "coordinates": [
                    9.450975358486176,
                    45.08313083203302
                ]
            }
        },
        {
            "type": "Feature",
            "properties": {
                "name": "TRE C",
                "id": "8885",
                "brand": "Esso",
                "amenity": "fuel",
                "operator": "TRE C. DI CARINI GIANFRANCO & C. - S.N.C."
            },
            "geometry": {
                "type": "Point",
                "coordinates": [
                    9.446962773799896,
                    45.03984820882474
                ]
            }
        },
        {
            "type": "Feature",
            "properties": {
                "name": "TOTAL ERG",
                "id": "8762",
                "brand": "Total Erg",
                "amenity": "fuel",
                "operator": "TASSI GIOVANNI"
            },
            "geometry": {
                "type": "Point",
                "coordinates": [
                    9.449030756950378,
                    45.05696237948434
                ]
            }
        },
        {
            "type": "Feature",
            "properties": {
                "name": "7580",
                "id": "28396",
                "brand": "Tamoil",
                "amenity": "fuel",
                "operator": "T.D.M. S.R.L."
            },
            "geometry": {
                "type": "Point",
                "coordinates": [
                    9.329160153865814,
                    45.067441882497185
                ]
            }
        },
        {
            "type": "Feature",
            "properties": {
                "name": "TOTALERG",
                "id": "24077",
                "brand": "Total Erg",
                "amenity": "fuel",
                "operator": "BRIANZI MARIO LUIGI"
            },
            "geometry": {
                "type": "Point",
                "coordinates": [
                    9.446884989738464,
                    45.020278661147834
                ]
            }
        },
        {
            "type": "Feature",
            "properties": {
                "name": "ESSO",
                "id": "27504",
                "brand": "Esso",
                "amenity": "fuel",
                "operator": "STAZIONE DI SERVIZIO ESSO DI BOZZARELLI ALESSIO E MANSTRETTA GUIDO S.N.C."
            },
            "geometry": {
                "type": "Point",
                "coordinates": [
                    9.409508407115936,
                    45.06169216703229
                ]
            }
        },
        {
            "type": "Feature",
            "properties": {
                "name": "ENI56633",
                "id": "14587",
                "brand": "Agip Eni",
                "amenity": "fuel",
                "operator": "SPORTELLI PLACIDA"
            },
            "geometry": {
                "type": "Point",
                "coordinates": [
                    9.451902050570652,
                    45.05625946301649
                ]
            }
        },
        {
            "type": "Feature",
            "properties": {
                "name": "STAZIONE SERVIZIO Q8",
                "id": "21454",
                "brand": "Q8",
                "amenity": "fuel",
                "operator": "ORLANDI CLAUDIO"
            },
            "geometry": {
                "type": "Point",
                "coordinates": [
                    9.360364973545074,
                    45.03751354452232
                ]
            }
        }
    ]
}