{
    "type": "FeatureCollection",
    "features": [
        {
            "type": "Feature",
            "properties": {
                "name": "AREA DI SOSTA MEA",
                "id": "28065",
                "brand": "Esso",
                "amenity": "fuel",
                "operator": "AREA DI SOSTA MEA DI STEPHAN AMALIE"
            },
            "geometry": {
                "type": "Point",
                "coordinates": [
                    9.37906265258789,
                    45.43389824190153
                ]
            }
        },
        {
            "type": "Feature",
            "properties": {
                "name": "MELEGNANO - DELLA REPUBBLICA 46",
                "id": "28681",
                "brand": "Api-Ip",
                "amenity": "fuel",
                "operator": "IP SERVICES S.R.L."
            },
            "geometry": {
                "type": "Point",
                "coordinates": [
                    9.316932186508211,
                    45.35661507813668
                ]
            }
        },
        {
            "type": "Feature",
            "properties": {
                "name": "totalerg bmc sas",
                "id": "30599",
                "brand": "Total Erg",
                "amenity": "fuel",
                "operator": "BMC S.A.S. DI MAURIZIO BITETTO & C."
            },
            "geometry": {
                "type": "Point",
                "coordinates": [
                    9.343835860490799,
                    45.3839883422355
                ]
            }
        },
        {
            "type": "Feature",
            "properties": {
                "name": "Addaservice",
                "id": "6998",
                "brand": "Tamoil",
                "amenity": "fuel",
                "operator": "ADDA SERVICE DI BENAGLIA ANGELO"
            },
            "geometry": {
                "type": "Point",
                "coordinates": [
                    9.469491018991105,
                    45.402766298966256
                ]
            }
        },
        {
            "type": "Feature",
            "properties": {
                "name": "PAULLO-VIA PASUBIO 35",
                "id": "11667",
                "brand": "Q8",
                "amenity": "fuel",
                "operator": "SERVIZI & GESTIONI ITALIA S.R.L."
            },
            "geometry": {
                "type": "Point",
                "coordinates": [
                    9.406083906745948,
                    45.41698305520679
                ]
            }
        },
        {
            "type": "Feature",
            "properties": {
                "name": "STAZIONE IP",
                "id": "27543",
                "brand": "Api-Ip",
                "amenity": "fuel",
                "operator": "PETROL SERVICE S.N.C. DI CARMEN RODICA ALEXE"
            },
            "geometry": {
                "type": "Point",
                "coordinates": [
                    9.33652549982071,
                    45.36788436478589
                ]
            }
        },
        {
            "type": "Feature",
            "properties": {
                "name": "Melegnano",
                "id": "4669",
                "brand": "Esso",
                "amenity": "fuel",
                "operator": "NUOVA SIDAP  S.R.L."
            },
            "geometry": {
                "type": "Point",
                "coordinates": [
                    9.321247637271881,
                    45.364342728595815
                ]
            }
        },
        {
            "type": "Feature",
            "properties": {
                "name": "MELEGNANO-VIA EMILIA",
                "id": "11666",
                "brand": "Q8",
                "amenity": "fuel",
                "operator": "SERVIZI & GESTIONI ITALIA S.R.L."
            },
            "geometry": {
                "type": "Point",
                "coordinates": [
                    9.32279696693422,
                    45.364287050626245
                ]
            }
        },
        {
            "type": "Feature",
            "properties": {
                "name": "lapa sas di fioriellopasquale & c.",
                "id": "14310",
                "brand": "Agip Eni",
                "amenity": "fuel",
                "operator": "LAPA S.A.S. DI FIORIELLO PASQUALE E C."
            },
            "geometry": {
                "type": "Point",
                "coordinates": [
                    9.380532503128052,
                    45.43492063882045
                ]
            }
        },
        {
            "type": "Feature",
            "properties": {
                "name": "SHEAIB NASHAT",
                "id": "15860",
                "brand": "Total Erg",
                "amenity": "fuel",
                "operator": "SHEAIB NASHAT"
            },
            "geometry": {
                "type": "Point",
                "coordinates": [
                    9.317338988184929,
                    45.431834946447346
                ]
            }
        },
        {
            "type": "Feature",
            "properties": {
                "name": "AGIP",
                "id": "27739",
                "brand": "Agip Eni",
                "amenity": "fuel",
                "operator": "S.M.P. SNC DI OCCHIATO SALVATORE E C."
            },
            "geometry": {
                "type": "Point",
                "coordinates": [
                    9.35614049434662,
                    45.40399284747798
                ]
            }
        },
        {
            "type": "Feature",
            "properties": {
                "name": "TOTALERG F.lli ZACCHETTI",
                "id": "18519",
                "brand": "Total Erg",
                "amenity": "fuel",
                "operator": "F.LLI ZACCHETTI S.N.C. DI ZACCHETTI CLAUDIO E ZACCHETTI MARCO"
            },
            "geometry": {
                "type": "Point",
                "coordinates": [
                    9.362032637000084,
                    45.36496385950364
                ]
            }
        },
        {
            "type": "Feature",
            "properties": {
                "name": "YPSILON SERVICE DI CATELLA CLAUDIO CARLO DOMENICO & C. S.N.C.",
                "id": "19197",
                "brand": "Q8",
                "amenity": "fuel",
                "operator": "YPSILON SERVICE DI CATELLA CLAUDIO CARLO DOMENICO & C. S.N.C."
            },
            "geometry": {
                "type": "Point",
                "coordinates": [
                    9.443078935146332,
                    45.409375496146644
                ]
            }
        },
        {
            "type": "Feature",
            "properties": {
                "name": "maxpa",
                "id": "15087",
                "brand": "Agip Eni",
                "amenity": "fuel",
                "operator": "MAXPA S.N.C. DI COSTA MASSIMO E BERTOLETTI PAOLO"
            },
            "geometry": {
                "type": "Point",
                "coordinates": [
                    9.341106527786224,
                    45.43261637229676
                ]
            }
        },
        {
            "type": "Feature",
            "properties": {
                "name": "esso",
                "id": "26761",
                "brand": "Esso",
                "amenity": "fuel",
                "operator": "ENA SERVICE S.A.S. DI GIULIANI RAFFAELE E C."
            },
            "geometry": {
                "type": "Point",
                "coordinates": [
                    9.381615758029511,
                    45.428771422758736
                ]
            }
        },
        {
            "type": "Feature",
            "properties": {
                "name": "ENI 2443",
                "id": "15784",
                "brand": "Agip Eni",
                "amenity": "fuel",
                "operator": "AUTOSERVICE DI GIOVANNI D'ALOIA S.A.S."
            },
            "geometry": {
                "type": "Point",
                "coordinates": [
                    9.329583942890165,
                    45.393739087586894
                ]
            }
        },
        {
            "type": "Feature",
            "properties": {
                "name": "STAZIONE SERVIZIO ESSO",
                "id": "25857",
                "brand": "Esso",
                "amenity": "fuel",
                "operator": "MARCHIONI & C. DI DIEGO E GIORGIO MARCHIONI  S.N.C."
            },
            "geometry": {
                "type": "Point",
                "coordinates": [
                    9.436743557453156,
                    45.4107786968059
                ]
            }
        },
        {
            "type": "Feature",
            "properties": {
                "name": "TotalErg",
                "id": "29970",
                "brand": "Total Erg",
                "amenity": "fuel",
                "operator": "AS OIL DI SAVOLDI AUGUSTO"
            },
            "geometry": {
                "type": "Point",
                "coordinates": [
                    9.396490305662157,
                    45.371972592663205
                ]
            }
        },
        {
            "type": "Feature",
            "properties": {
                "name": "area di servizio ENI Mantovani Stefano",
                "id": "16419",
                "brand": "Agip Eni",
                "amenity": "fuel",
                "operator": "MANTOVANI STEFANO"
            },
            "geometry": {
                "type": "Point",
                "coordinates": [
                    9.388851374387741,
                    45.418464424397904
                ]
            }
        },
        {
            "type": "Feature",
            "properties": {
                "name": "51958 MELEGNANO",
                "id": "27557",
                "brand": "Agip Eni",
                "amenity": "fuel",
                "operator": "ENI RETE OIL&NONOIL S.P.A."
            },
            "geometry": {
                "type": "Point",
                "coordinates": [
                    9.331047784061411,
                    45.35995714805015
                ]
            }
        },
        {
            "type": "Feature",
            "properties": {
                "name": "Maragnani Giuseppe Via Circonvallazione",
                "id": "10795",
                "brand": "Ies",
                "amenity": "fuel",
                "operator": "MIGLIOR GAS S.R.L."
            },
            "geometry": {
                "type": "Point",
                "coordinates": [
                    9.31739330291748,
                    45.36409924966125
                ]
            }
        },
        {
            "type": "Feature",
            "properties": {
                "name": "Spoldi sas di Spoldi Raffaele & C.",
                "id": "13327",
                "brand": "Agip Eni",
                "amenity": "fuel",
                "operator": "SPOLDI S.A.S. DI SPOLDI RAFFAELE & C."
            },
            "geometry": {
                "type": "Point",
                "coordinates": [
                    9.371882379055023,
                    45.42732298929461
                ]
            }
        },
        {
            "type": "Feature",
            "properties": {
                "name": "fontes angelo",
                "id": "13705",
                "brand": "Api-Ip",
                "amenity": "fuel",
                "operator": "FONTES ANGELO"
            },
            "geometry": {
                "type": "Point",
                "coordinates": [
                    9.326246604323387,
                    45.34518363555176
                ]
            }
        },
        {
            "type": "Feature",
            "properties": {
                "name": "Totalerg MEDIGLIA",
                "id": "32047",
                "brand": "Total Erg",
                "amenity": "fuel",
                "operator": "SPATUZZI MARIO"
            },
            "geometry": {
                "type": "Point",
                "coordinates": [
                    9.320477843284607,
                    45.4035762848147
                ]
            }
        },
        {
            "type": "Feature",
            "properties": {
                "name": "MEDIGLIA-SP. 159",
                "id": "11679",
                "brand": "Q8",
                "amenity": "fuel",
                "operator": "SERVIZI & GESTIONI ITALIA S.R.L."
            },
            "geometry": {
                "type": "Point",
                "coordinates": [
                    9.324344247579575,
                    45.39778872020771
                ]
            }
        },
        {
            "type": "Feature",
            "properties": {
                "name": "SOLETO ALESSANDRO",
                "id": "13239",
                "brand": "Api-Ip",
                "amenity": "fuel",
                "operator": "SOLETO ALESSANDRO"
            },
            "geometry": {
                "type": "Point",
                "coordinates": [
                    9.366163909435272,
                    45.35714683714737
                ]
            }
        },
        {
            "type": "Feature",
            "properties": {
                "name": "totalerg",
                "id": "19273",
                "brand": "Total Erg",
                "amenity": "fuel",
                "operator": "PEPPINAS DI RIZZO GIUSEPPE"
            },
            "geometry": {
                "type": "Point",
                "coordinates": [
                    9.336152801187836,
                    45.36281942179542
                ]
            }
        }
    ]
}