{
    "type": "FeatureCollection",
    "features": [
        {
            "type": "Feature",
            "properties": {
                "name": "Tamoil di Nava e Soggetti snc",
                "id": "11445",
                "brand": "Tamoil",
                "amenity": "fuel",
                "operator": "NAVA E SOGGETTI S.N.C. DI NAVA FRANCA E SOGGETTI AURELIO"
            },
            "geometry": {
                "type": "Point",
                "coordinates": [
                    9.433736801147461,
                    45.915184953192906
                ]
            }
        },
        {
            "type": "Feature",
            "properties": {
                "name": "R.C. DI CHIODINI G.L.E MASTRUZZO R.SNC",
                "id": "16877",
                "brand": "Agip Eni",
                "amenity": "fuel",
                "operator": "R.C. SNC DI CHIODINI GERARDO LIVIO & MASTRUZZO ROBERTO"
            },
            "geometry": {
                "type": "Point",
                "coordinates": [
                    9.36050847172737,
                    45.844615641142525
                ]
            }
        },
        {
            "type": "Feature",
            "properties": {
                "name": "rusconi carlo",
                "id": "12245",
                "brand": "Tamoil",
                "amenity": "fuel",
                "operator": "RUSCONI CARLO"
            },
            "geometry": {
                "type": "Point",
                "coordinates": [
                    9.387699365615845,
                    45.850023964863155
                ]
            }
        },
        {
            "type": "Feature",
            "properties": {
                "name": "MILANI GIULIANA & C SNC",
                "id": "14933",
                "brand": "Total Erg",
                "amenity": "fuel",
                "operator": "MILANI GIULIANA E C. S.N.C."
            },
            "geometry": {
                "type": "Point",
                "coordinates": [
                    9.410685896873474,
                    45.83739587644753
                ]
            }
        },
        {
            "type": "Feature",
            "properties": {
                "name": "MOLTENI MARIO ENRICO",
                "id": "23107",
                "brand": "Total Erg",
                "amenity": "fuel",
                "operator": "MOLTENI MARIO ENRICO"
            },
            "geometry": {
                "type": "Point",
                "coordinates": [
                    9.462996176102479,
                    45.94299001618969
                ]
            }
        },
        {
            "type": "Feature",
            "properties": {
                "name": "PV 1878",
                "id": "29335",
                "brand": "Agip Eni",
                "amenity": "fuel",
                "operator": "GESTIONI INNOVATIVE ITALIA S.R.L."
            },
            "geometry": {
                "type": "Point",
                "coordinates": [
                    9.328036308288574,
                    45.91484905891805
                ]
            }
        },
        {
            "type": "Feature",
            "properties": {
                "name": "G.P.V. di Gilardi Giovanni e c.",
                "id": "10728",
                "amenity": "fuel",
                "operator": "G.P.V. DI GILARDI GIOVANNI & C. S.N.C."
            },
            "geometry": {
                "type": "Point",
                "coordinates": [
                    9.401969263229375,
                    45.85111729549415
                ]
            }
        },
        {
            "type": "Feature",
            "properties": {
                "name": "UNION",
                "id": "18403",
                "amenity": "fuel",
                "operator": "FERRARI EREDI S.R.L."
            },
            "geometry": {
                "type": "Point",
                "coordinates": [
                    9.386954865862435,
                    45.86269029644473
                ]
            }
        },
        {
            "type": "Feature",
            "properties": {
                "name": "GORLA DANIELA",
                "id": "14254",
                "brand": "Total Erg",
                "amenity": "fuel",
                "operator": "GORLA DANIELA"
            },
            "geometry": {
                "type": "Point",
                "coordinates": [
                    9.403393329222126,
                    45.86401784486046
                ]
            }
        },
        {
            "type": "Feature",
            "properties": {
                "name": "DE MARTINI AURELIANO",
                "id": "12265",
                "brand": "Q8",
                "amenity": "fuel",
                "operator": "DE MARTINI AURELIANO"
            },
            "geometry": {
                "type": "Point",
                "coordinates": [
                    9.445652495368222,
                    45.94761998082973
                ]
            }
        },
        {
            "type": "Feature",
            "properties": {
                "name": "C.M.G. DI GALBUSERA G. E MASSETTI F. S.N.C.",
                "id": "11117",
                "brand": "Q8",
                "amenity": "fuel",
                "operator": "C.M.G. DI GALBUSERA G. E MASSETTI F. S.N.C."
            },
            "geometry": {
                "type": "Point",
                "coordinates": [
                    9.376409947872164,
                    45.84955372106636
                ]
            }
        },
        {
            "type": "Feature",
            "properties": {
                "name": "FREMAR",
                "id": "12181",
                "amenity": "fuel",
                "operator": "M.D.O. DI MARCO DELL'ORO & C. S.N.C."
            },
            "geometry": {
                "type": "Point",
                "coordinates": [
                    9.410496653967243,
                    45.83995885119393
                ]
            }
        },
        {
            "type": "Feature",
            "properties": {
                "name": "tamoil",
                "id": "18899",
                "brand": "Tamoil",
                "amenity": "fuel",
                "operator": "RIGAMONTI ARETA"
            },
            "geometry": {
                "type": "Point",
                "coordinates": [
                    9.382136464118958,
                    45.863842723049004
                ]
            }
        },
        {
            "type": "Feature",
            "properties": {
                "name": "GAS AUTO FONTANELLA GIUSEPPE",
                "id": "12112",
                "amenity": "fuel",
                "operator": "FONTANELLA GIUSEPPE"
            },
            "geometry": {
                "type": "Point",
                "coordinates": [
                    9.40238960483623,
                    45.85126900927899
                ]
            }
        },
        {
            "type": "Feature",
            "properties": {
                "name": "UNION",
                "id": "23977",
                "amenity": "fuel",
                "operator": "GIANOLA MASSIMILIANO"
            },
            "geometry": {
                "type": "Point",
                "coordinates": [
                    9.386881282803413,
                    45.86275329795153
                ]
            }
        },
        {
            "type": "Feature",
            "properties": {
                "name": "IP gruppo api GARAGE EUROPA",
                "id": "15178",
                "brand": "Api-Ip",
                "amenity": "fuel",
                "operator": "GARAGE EUROPA DI POLIZZI FLAVIO"
            },
            "geometry": {
                "type": "Point",
                "coordinates": [
                    9.402081350401318,
                    45.86422316399544
                ]
            }
        },
        {
            "type": "Feature",
            "properties": {
                "name": "Agip Ballabio",
                "id": "12285",
                "brand": "Agip Eni",
                "amenity": "fuel",
                "operator": "PERINI LUIGI"
            },
            "geometry": {
                "type": "Point",
                "coordinates": [
                    9.422058463096619,
                    45.89057868627089
                ]
            }
        },
        {
            "type": "Feature",
            "properties": {
                "name": "IMPIANTO TAMOIL 4078",
                "id": "15309",
                "brand": "Tamoil",
                "amenity": "fuel",
                "operator": "VASSENA IDA"
            },
            "geometry": {
                "type": "Point",
                "coordinates": [
                    9.366176649928093,
                    45.8451109636152
                ]
            }
        },
        {
            "type": "Feature",
            "properties": {
                "name": "LECCO-VIA LUNGO LARIO CESARE BATTISTI 13",
                "id": "11617",
                "brand": "Q8",
                "amenity": "fuel",
                "operator": "SERVIZI & GESTIONI ITALIA S.R.L."
            },
            "geometry": {
                "type": "Point",
                "coordinates": [
                    9.38570722922077,
                    45.85664888326723
                ]
            }
        },
        {
            "type": "Feature",
            "properties": {
                "name": "COMMERCIALE PAGANONI",
                "id": "29380",
                "amenity": "fuel",
                "operator": "COMMERCIALE PAGANONI S.P.A."
            },
            "geometry": {
                "type": "Point",
                "coordinates": [
                    9.394026696681976,
                    45.84595529991206
                ]
            }
        },
        {
            "type": "Feature",
            "properties": {
                "name": "Impianto NI006382",
                "id": "16949",
                "brand": "Total Erg",
                "amenity": "fuel",
                "operator": "ZAMPIERI MARIO STAZIONE SERVIZIO ERG"
            },
            "geometry": {
                "type": "Point",
                "coordinates": [
                    9.322861538691768,
                    45.91451261786278
                ]
            }
        },
        {
            "type": "Feature",
            "properties": {
                "name": "Impianto numero 1450",
                "id": "10682",
                "brand": "Q8",
                "amenity": "fuel",
                "operator": "LAMBERTI CIRO"
            },
            "geometry": {
                "type": "Point",
                "coordinates": [
                    9.385449774872995,
                    45.85838772241435
                ]
            }
        },
        {
            "type": "Feature",
            "properties": {
                "name": "Eurogas F.lli Mauri Fabio Alberto Snc",
                "id": "9654",
                "amenity": "fuel",
                "operator": "F.LLI MAURI S.N.C. DI MAURI FABIO E ALBERTO"
            },
            "geometry": {
                "type": "Point",
                "coordinates": [
                    9.37025300301059,
                    45.848000320341754
                ]
            }
        },
        {
            "type": "Feature",
            "properties": {
                "name": "C.SO C. ALBERTO LECCO",
                "id": "23709",
                "brand": "Esso",
                "amenity": "fuel",
                "operator": "SERVIZI E GESTIONI ZENIT S.R.L. IN SIGLA - ZENIT S.R.L."
            },
            "geometry": {
                "type": "Point",
                "coordinates": [
                    9.400478055225335,
                    45.844357261918624
                ]
            }
        },
        {
            "type": "Feature",
            "properties": {
                "name": "GAROLINI SAS ENI",
                "id": "29026",
                "brand": "Agip Eni",
                "amenity": "fuel",
                "operator": "GAROLINI SAS DI GAROLINI CHRISTIAN E MICHELE"
            },
            "geometry": {
                "type": "Point",
                "coordinates": [
                    9.327548146247864,
                    45.91417539838993
                ]
            }
        },
        {
            "type": "Feature",
            "properties": {
                "name": "Autostazione al Ponte",
                "id": "12928",
                "brand": "Api-Ip",
                "amenity": "fuel",
                "operator": "ANSA DI ANGHILERI RENATO E SCOLA IVANA S.N.C."
            },
            "geometry": {
                "type": "Point",
                "coordinates": [
                    9.351589271163903,
                    45.82983514543473
                ]
            }
        },
        {
            "type": "Feature",
            "properties": {
                "name": "rusconi carlo",
                "id": "12261",
                "brand": "Agip Eni",
                "amenity": "fuel",
                "operator": "RUSCONI CARLO"
            },
            "geometry": {
                "type": "Point",
                "coordinates": [
                    9.400053333026335,
                    45.86242569632202
                ]
            }
        },
        {
            "type": "Feature",
            "properties": {
                "name": "totalerg",
                "id": "31518",
                "brand": "Total Erg",
                "amenity": "fuel",
                "operator": "NEGRI BEATRICE"
            },
            "geometry": {
                "type": "Point",
                "coordinates": [
                    9.323684620190418,
                    45.91297402192153
                ]
            }
        },
        {
            "type": "Feature",
            "properties": {
                "name": "Commerciale Paganoni s.p.a.",
                "id": "29259",
                "amenity": "fuel",
                "operator": "SESANA ANDREA"
            },
            "geometry": {
                "type": "Point",
                "coordinates": [
                    9.40404896256564,
                    45.84858005855524
                ]
            }
        }
    ]
}