{
    "type": "FeatureCollection",
    "features": [
        {
            "type": "Feature",
            "properties": {
                "name": "CERNUSCO SUL NAVIGLIO - S.P. 121 - KM. 8+070",
                "id": "30796",
                "brand": "Q8",
                "amenity": "fuel",
                "operator": "SERVIZI & GESTIONI ITALIA S.R.L."
            },
            "geometry": {
                "type": "Point",
                "coordinates": [
                    9.336739286508191,
                    45.5403700891952
                ]
            }
        },
        {
            "type": "Feature",
            "properties": {
                "name": "PESSANO CON BORNAGO VIA PROVINCIALE 83 DISTR.Q8",
                "id": "6443",
                "brand": "Q8",
                "amenity": "fuel",
                "operator": "SERVIZI & GESTIONI ITALIA srl"
            },
            "geometry": {
                "type": "Point",
                "coordinates": [
                    9.39170405396726,
                    45.54389870287802
                ]
            }
        },
        {
            "type": "Feature",
            "properties": {
                "name": "GENERAL OIL",
                "id": "6100",
                "amenity": "fuel",
                "operator": "AMBRO & GIO CARBURANTI S.A.S. DI GIOVANNI CHIAPPARINI E C."
            },
            "geometry": {
                "type": "Point",
                "coordinates": [
                    9.464136958122253,
                    45.52339498972649
                ]
            }
        },
        {
            "type": "Feature",
            "properties": {
                "name": "staz. di serviz. totalerg  fram.snc",
                "id": "10008",
                "brand": "Total Erg",
                "amenity": "fuel",
                "operator": "F.R.A.M. SNC DI FRIERI MASSIMO E RAFFAELE DOMENICO ANTONIO"
            },
            "geometry": {
                "type": "Point",
                "coordinates": [
                    9.3547323346138,
                    45.57534844167456
                ]
            }
        },
        {
            "type": "Feature",
            "properties": {
                "name": "Eni",
                "id": "26890",
                "brand": "Agip Eni",
                "amenity": "fuel",
                "operator": "SERELLA S.N.C. DI IVO ROSSI E FLAVIO ROSSI"
            },
            "geometry": {
                "type": "Point",
                "coordinates": [
                    9.421610534191132,
                    45.49362616657451
                ]
            }
        },
        {
            "type": "Feature",
            "properties": {
                "name": "STAZIONE DI SERVIZIO ESSO",
                "id": "9495",
                "brand": "Esso",
                "amenity": "fuel",
                "operator": "LOMBARDI SALVATORE"
            },
            "geometry": {
                "type": "Point",
                "coordinates": [
                    9.392083724281292,
                    45.53970434830525
                ]
            }
        },
        {
            "type": "Feature",
            "properties": {
                "name": "BRIANZA NORD",
                "id": "3630",
                "brand": "Agip Eni",
                "amenity": "fuel",
                "operator": "3 C S.R.L."
            },
            "geometry": {
                "type": "Point",
                "coordinates": [
                    9.394460000000002,
                    45.5753
                ]
            }
        },
        {
            "type": "Feature",
            "properties": {
                "name": "STAZIONE DI SERVIZIO Q8 di DELLA BASSA ALESSANDRO",
                "id": "10111",
                "brand": "Q8",
                "amenity": "fuel",
                "operator": "DELLA BASSA ALESSANDRO"
            },
            "geometry": {
                "type": "Point",
                "coordinates": [
                    9.413228631019592,
                    45.46788789854411
                ]
            }
        },
        {
            "type": "Feature",
            "properties": {
                "name": "CERNUSCO SUL NAVIGLIO",
                "id": "5819",
                "brand": "Total Erg",
                "amenity": "fuel",
                "operator": "TotalErg SpA"
            },
            "geometry": {
                "type": "Point",
                "coordinates": [
                    9.334395635582041,
                    45.545428060766156
                ]
            }
        },
        {
            "type": "Feature",
            "properties": {
                "name": "CARUGATE",
                "id": "3795",
                "brand": "Tamoil",
                "amenity": "fuel",
                "operator": "D.E.M. DI DELLI SANTI SAVERIO E C. -  S.N.C."
            },
            "geometry": {
                "type": "Point",
                "coordinates": [
                    9.331734635581938,
                    45.55797243904243
                ]
            }
        },
        {
            "type": "Feature",
            "properties": {
                "name": "SERVIZIO IP Paleari Roberto",
                "id": "22496",
                "brand": "Api-Ip",
                "amenity": "fuel",
                "operator": "PALEARI ROBERTO"
            },
            "geometry": {
                "type": "Point",
                "coordinates": [
                    9.412575020203008,
                    45.53279194838815
                ]
            }
        },
        {
            "type": "Feature",
            "properties": {
                "name": "PESSANO CON BORNAGO -S.P 242 KM 4+578",
                "id": "11711",
                "brand": "Q8",
                "amenity": "fuel",
                "operator": "SERVIZI & GESTIONI ITALIA S.R.L."
            },
            "geometry": {
                "type": "Point",
                "coordinates": [
                    9.389155568122874,
                    45.549163863694574
                ]
            }
        },
        {
            "type": "Feature",
            "properties": {
                "name": "STAZIONE SERVIZIO ENI",
                "id": "6164",
                "brand": "Agip Eni",
                "amenity": "fuel",
                "operator": "AG SAS DI ABBATTISTA GIOVANNI"
            },
            "geometry": {
                "type": "Point",
                "coordinates": [
                    9.357555359601973,
                    45.518184092007964
                ]
            }
        },
        {
            "type": "Feature",
            "properties": {
                "name": "BELLINZAGO-FZ.VILLA FORNACI VIA PADANA SUP.148",
                "id": "11663",
                "brand": "Q8",
                "amenity": "fuel",
                "operator": "SERVIZI & GESTIONI ITALIA S.R.L."
            },
            "geometry": {
                "type": "Point",
                "coordinates": [
                    9.450908804893515,
                    45.54661270580156
                ]
            }
        },
        {
            "type": "Feature",
            "properties": {
                "name": "totalerg",
                "id": "16905",
                "brand": "Total Erg",
                "amenity": "fuel",
                "operator": "PREMOLI MAURIZIO"
            },
            "geometry": {
                "type": "Point",
                "coordinates": [
                    9.382855296134949,
                    45.48370010302824
                ]
            }
        },
        {
            "type": "Feature",
            "properties": {
                "name": "CAR GARDEN DI LAURINO R.",
                "id": "15926",
                "brand": "Api-Ip",
                "amenity": "fuel",
                "operator": "CAR GARDEN DI ROBERTO LAURINO"
            },
            "geometry": {
                "type": "Point",
                "coordinates": [
                    9.354792684316635,
                    45.50389487151147
                ]
            }
        },
        {
            "type": "Feature",
            "properties": {
                "name": "DI MEO SNC DI LUIGI DI MEO & C.",
                "id": "20810",
                "brand": "Agip Eni",
                "amenity": "fuel",
                "operator": "DI MEO SNC DI LUIGI DI MEO & C."
            },
            "geometry": {
                "type": "Point",
                "coordinates": [
                    9.356572329998016,
                    45.572182378617036
                ]
            }
        },
        {
            "type": "Feature",
            "properties": {
                "name": "PESSANO CON BORNAGO-PIAZZA CASTELLO 43",
                "id": "11654",
                "brand": "Q8",
                "amenity": "fuel",
                "operator": "SERVIZI & GESTIONI ITALIA S.R.L."
            },
            "geometry": {
                "type": "Point",
                "coordinates": [
                    9.383887171793049,
                    45.55137231340641
                ]
            }
        },
        {
            "type": "Feature",
            "properties": {
                "name": "DUELLE SNC DI SIMONE E MARCO LEVATI",
                "id": "11293",
                "brand": "Agip Eni",
                "amenity": "fuel",
                "operator": "DUELLE S.N.C. DI MARCO E SIMONE LEVATI"
            },
            "geometry": {
                "type": "Point",
                "coordinates": [
                    9.338799389162205,
                    45.50413469611602
                ]
            }
        },
        {
            "type": "Feature",
            "properties": {
                "name": "VIGNATE-CASSANESE SP 103 C/O CC ACQUARIO",
                "id": "11707",
                "brand": "Q8",
                "amenity": "fuel",
                "operator": "SERVIZI & GESTIONI ITALIA S.R.L."
            },
            "geometry": {
                "type": "Point",
                "coordinates": [
                    9.372512698173523,
                    45.504620866862034
                ]
            }
        },
        {
            "type": "Feature",
            "properties": {
                "name": "CARUGATE",
                "id": "3609",
                "brand": "Tamoil",
                "amenity": "fuel",
                "operator": "SISAL DI IANNELLO SALVATORE SAS"
            },
            "geometry": {
                "type": "Point",
                "coordinates": [
                    9.330807317790914,
                    45.558253049041454
                ]
            }
        },
        {
            "type": "Feature",
            "properties": {
                "name": "DISTRIBUTORE TOTALERG",
                "id": "25397",
                "brand": "Total Erg",
                "amenity": "fuel",
                "operator": "CHIAPPINELLI NICOLA"
            },
            "geometry": {
                "type": "Point",
                "coordinates": [
                    9.402837753295898,
                    45.5191846639186
                ]
            }
        },
        {
            "type": "Feature",
            "properties": {
                "name": "Donghi Eugenio & C. Sas",
                "id": "4269",
                "brand": "Agip Eni",
                "amenity": "fuel",
                "operator": "DONGHI EUGENIO & C. S.A.S."
            },
            "geometry": {
                "type": "Point",
                "coordinates": [
                    9.377045631408691,
                    45.56004969052311
                ]
            }
        },
        {
            "type": "Feature",
            "properties": {
                "name": "CASSINA DE' PECCHI-VIA ROMA 70",
                "id": "11688",
                "brand": "Q8",
                "amenity": "fuel",
                "operator": "SERVIZI & GESTIONI ITALIA S.R.L."
            },
            "geometry": {
                "type": "Point",
                "coordinates": [
                    9.365186645507832,
                    45.519360834165944
                ]
            }
        },
        {
            "type": "Feature",
            "properties": {
                "name": "IP di Galli Cristiano",
                "id": "21484",
                "brand": "Api-Ip",
                "amenity": "fuel",
                "operator": "GALLI CRISTIANO"
            },
            "geometry": {
                "type": "Point",
                "coordinates": [
                    9.38589960336685,
                    45.50236088885581
                ]
            }
        },
        {
            "type": "Feature",
            "properties": {
                "name": "ESSO DI INZAGO",
                "id": "13397",
                "brand": "Esso",
                "amenity": "fuel",
                "operator": "SERVICE CAR DI FACCHINETTI GIORGIO & C. S.A.S."
            },
            "geometry": {
                "type": "Point",
                "coordinates": [
                    9.485035389661789,
                    45.53573681023373
                ]
            }
        },
        {
            "type": "Feature",
            "properties": {
                "name": "PIOLTELLO SEGGIANO",
                "id": "24841",
                "brand": "Api-Ip",
                "amenity": "fuel",
                "operator": "CALOR SYSTEMS S.P.A."
            },
            "geometry": {
                "type": "Point",
                "coordinates": [
                    9.330345262077344,
                    45.48677930825931
                ]
            }
        },
        {
            "type": "Feature",
            "properties": {
                "name": "MELZO - S.P. 13 KM 13+600",
                "id": "30795",
                "brand": "Q8",
                "amenity": "fuel",
                "operator": "SERVIZI & GESTIONI ITALIA S.R.L."
            },
            "geometry": {
                "type": "Point",
                "coordinates": [
                    9.41143329325405,
                    45.50687957283047
                ]
            }
        },
        {
            "type": "Feature",
            "properties": {
                "name": "derinni",
                "id": "27344",
                "brand": "Api-Ip",
                "amenity": "fuel",
                "operator": "DERINNI MARIO MASSIMO"
            },
            "geometry": {
                "type": "Point",
                "coordinates": [
                    9.330762773752213,
                    45.50368658314725
                ]
            }
        },
        {
            "type": "Feature",
            "properties": {
                "name": "totalerg",
                "id": "24429",
                "brand": "Total Erg",
                "amenity": "fuel",
                "operator": "CHIUMMO NICOLA"
            },
            "geometry": {
                "type": "Point",
                "coordinates": [
                    9.402365684509277,
                    45.48396864218163
                ]
            }
        },
        {
            "type": "Feature",
            "properties": {
                "name": "distributore carburante lubrificante ip",
                "id": "17701",
                "brand": "Total Erg",
                "amenity": "fuel",
                "operator": "SOLDINI GIUSEPPE"
            },
            "geometry": {
                "type": "Point",
                "coordinates": [
                    9.321983968647826,
                    45.52226296429925
                ]
            }
        },
        {
            "type": "Feature",
            "properties": {
                "name": "VIGNATE",
                "id": "12143",
                "brand": "Agip Eni",
                "amenity": "fuel",
                "operator": "VINPE SERVIZI S.P.A."
            },
            "geometry": {
                "type": "Point",
                "coordinates": [
                    9.378164112567902,
                    45.50568972852001
                ]
            }
        },
        {
            "type": "Feature",
            "properties": {
                "name": "Q8",
                "id": "8545",
                "brand": "Q8",
                "amenity": "fuel",
                "operator": "FERRO MAURO"
            },
            "geometry": {
                "type": "Point",
                "coordinates": [
                    9.335861396237988,
                    45.54868019574484
                ]
            }
        },
        {
            "type": "Feature",
            "properties": {
                "name": "punto vendita IP Effemme sas di Meroni F & c.",
                "id": "15816",
                "brand": "Api-Ip",
                "amenity": "fuel",
                "operator": "EFFEMME SAS DI MERONI FULVIO GASPARE E C."
            },
            "geometry": {
                "type": "Point",
                "coordinates": [
                    9.401620445790627,
                    45.52463732468525
                ]
            }
        },
        {
            "type": "Feature",
            "properties": {
                "name": "BRIANZA SUD",
                "id": "24292",
                "brand": "Agip Eni",
                "amenity": "fuel",
                "operator": "SUPERSERVICE SNC DEI F.LLI CANTARELLI"
            },
            "geometry": {
                "type": "Point",
                "coordinates": [
                    9.394437074661255,
                    45.574416646651166
                ]
            }
        },
        {
            "type": "Feature",
            "properties": {
                "name": "Q8",
                "id": "13884",
                "brand": "Q8",
                "amenity": "fuel",
                "operator": "ALBANO ANTONIO"
            },
            "geometry": {
                "type": "Point",
                "coordinates": [
                    9.41305160522461,
                    45.50681608978823
                ]
            }
        },
        {
            "type": "Feature",
            "properties": {
                "name": "IP",
                "id": "17504",
                "brand": "Api-Ip",
                "amenity": "fuel",
                "operator": "BARLASSINA STEFANO"
            },
            "geometry": {
                "type": "Point",
                "coordinates": [
                    9.469434320926666,
                    45.56802903250556
                ]
            }
        },
        {
            "type": "Feature",
            "properties": {
                "name": "UNIONE GAS AUTO",
                "id": "12915",
                "brand": "Repsol",
                "amenity": "fuel",
                "operator": "MAD-OIL DI CHENGI ADNAN"
            },
            "geometry": {
                "type": "Point",
                "coordinates": [
                    9.37667998544157,
                    45.522561879055665
                ]
            }
        },
        {
            "type": "Feature",
            "properties": {
                "name": "ESSO - OIL COMPANY DI LOVINO FILOMENO",
                "id": "27881",
                "brand": "Esso",
                "amenity": "fuel",
                "operator": "OIL COMPANY DI LOVINO FILOMENO"
            },
            "geometry": {
                "type": "Point",
                "coordinates": [
                    9.331437349319458,
                    45.5150830330387
                ]
            }
        },
        {
            "type": "Feature",
            "properties": {
                "name": "TOTAL ERG",
                "id": "19017",
                "brand": "Total Erg",
                "amenity": "fuel",
                "operator": "R & D S.N.C. DI MORO DAVIDE"
            },
            "geometry": {
                "type": "Point",
                "coordinates": [
                    9.336662292480469,
                    45.55961174441669
                ]
            }
        },
        {
            "type": "Feature",
            "properties": {
                "name": "eni",
                "id": "31794",
                "brand": "Agip Eni",
                "amenity": "fuel",
                "operator": "DIANA S.A.S. DI DIANA GIOVANNI E CORAPI ROBERTA"
            },
            "geometry": {
                "type": "Point",
                "coordinates": [
                    9.376716390252113,
                    45.56006659227493
                ]
            }
        },
        {
            "type": "Feature",
            "properties": {
                "name": "Eni",
                "id": "12081",
                "brand": "Agip Eni",
                "amenity": "fuel",
                "operator": "PNEUSCARS 2 S.A.S. DI TERRANE FABIO & C."
            },
            "geometry": {
                "type": "Point",
                "coordinates": [
                    9.331360636840031,
                    45.50138514073773
                ]
            }
        },
        {
            "type": "Feature",
            "properties": {
                "name": "staz. di serviz. totalerg  fram.snc",
                "id": "10009",
                "brand": "Total Erg",
                "amenity": "fuel",
                "operator": "F.R.A.M. SNC DI FRIERI MASSIMO E RAFFAELE DOMENICO ANTONIO"
            },
            "geometry": {
                "type": "Point",
                "coordinates": [
                    9.3547323346138,
                    45.57534844167456
                ]
            }
        },
        {
            "type": "Feature",
            "properties": {
                "name": "Melzo",
                "id": "4668",
                "brand": "Esso",
                "amenity": "fuel",
                "operator": "NUOVA SIDAP  S.R.L."
            },
            "geometry": {
                "type": "Point",
                "coordinates": [
                    9.411239278295852,
                    45.4939667303875
                ]
            }
        },
        {
            "type": "Feature",
            "properties": {
                "name": "GORGONZOLA - TRIESTE",
                "id": "31060",
                "brand": "Api-Ip",
                "amenity": "fuel",
                "operator": "IP SERVICES S.R.L."
            },
            "geometry": {
                "type": "Point",
                "coordinates": [
                    9.412570495700836,
                    45.532794363330765
                ]
            }
        },
        {
            "type": "Feature",
            "properties": {
                "name": "F.lli Balconi snc(IP)",
                "id": "7178",
                "brand": "Api-Ip",
                "amenity": "fuel",
                "operator": "F.LLI BALCONI DI E. E  G. BALCONI S.N.C."
            },
            "geometry": {
                "type": "Point",
                "coordinates": [
                    9.479581117630005,
                    45.58154768538803
                ]
            }
        },
        {
            "type": "Feature",
            "properties": {
                "name": "Totalerg",
                "id": "28307",
                "brand": "Total Erg",
                "amenity": "fuel",
                "operator": "ROMI S.A.S. DI SCIARROTTA ROMINA E C."
            },
            "geometry": {
                "type": "Point",
                "coordinates": [
                    9.338663220405579,
                    45.57576392359392
                ]
            }
        },
        {
            "type": "Feature",
            "properties": {
                "name": "MELZO-VIA GAVAZZI 47",
                "id": "11682",
                "brand": "Q8",
                "amenity": "fuel",
                "operator": "SERVIZI & GESTIONI ITALIA S.R.L."
            },
            "geometry": {
                "type": "Point",
                "coordinates": [
                    9.423860932540947,
                    45.50700826571132
                ]
            }
        },
        {
            "type": "Feature",
            "properties": {
                "name": "TotalErg",
                "id": "13404",
                "brand": "Total Erg",
                "amenity": "fuel",
                "operator": "REGAZZETTI GIANNI"
            },
            "geometry": {
                "type": "Point",
                "coordinates": [
                    9.389531314373016,
                    45.507531145723064
                ]
            }
        },
        {
            "type": "Feature",
            "properties": {
                "name": "TRUCCAZZANO-VIA NUOVA RIVOLTANA KM 16",
                "id": "11670",
                "brand": "Q8",
                "amenity": "fuel",
                "operator": "SERVIZI & GESTIONI ITALIA S.R.L."
            },
            "geometry": {
                "type": "Point",
                "coordinates": [
                    9.465873177909884,
                    45.48188495528275
                ]
            }
        },
        {
            "type": "Feature",
            "properties": {
                "name": "STAZIONE DI SERVIZIO ESSO DI MARCO LOVINO",
                "id": "11994",
                "brand": "Esso",
                "amenity": "fuel",
                "operator": "LOVINO MARCO"
            },
            "geometry": {
                "type": "Point",
                "coordinates": [
                    9.337177276611328,
                    45.52927095324168
                ]
            }
        },
        {
            "type": "Feature",
            "properties": {
                "name": "stazione di servizio Agip di Ieva michele",
                "id": "7530",
                "brand": "Agip Eni",
                "amenity": "fuel",
                "operator": "IEVA MICHELE"
            },
            "geometry": {
                "type": "Point",
                "coordinates": [
                    9.333864748477936,
                    45.55165355778145
                ]
            }
        },
        {
            "type": "Feature",
            "properties": {
                "name": "GORGONZOLA VIA MILANO 4/6",
                "id": "6430",
                "brand": "Q8",
                "amenity": "fuel",
                "operator": "SERVIZI & GESTIONI ITALIA srl"
            },
            "geometry": {
                "type": "Point",
                "coordinates": [
                    9.396399528836128,
                    45.52720696738999
                ]
            }
        },
        {
            "type": "Feature",
            "properties": {
                "name": "TOTALERG VIA ROMA 119,PIOLTELLO MILANO 20096",
                "id": "21566",
                "brand": "Total Erg",
                "amenity": "fuel",
                "operator": "STATION SERVICE DI CELESTINO CUPELLI"
            },
            "geometry": {
                "type": "Point",
                "coordinates": [
                    9.328356703041095,
                    45.50699777200129
                ]
            }
        },
        {
            "type": "Feature",
            "properties": {
                "name": "PESSANO CON BORNAGO",
                "id": "5825",
                "brand": "Total Erg",
                "amenity": "fuel",
                "operator": "TotalErg SpA"
            },
            "geometry": {
                "type": "Point",
                "coordinates": [
                    9.393037014715219,
                    45.546641094157785
                ]
            }
        },
        {
            "type": "Feature",
            "properties": {
                "name": "GORGONZOLA",
                "id": "5827",
                "brand": "Total Erg",
                "amenity": "fuel",
                "operator": "TotalErg SpA"
            },
            "geometry": {
                "type": "Point",
                "coordinates": [
                    9.40751372883608,
                    45.523963724892056
                ]
            }
        },
        {
            "type": "Feature",
            "properties": {
                "name": "AUTO DUE SNC",
                "id": "22671",
                "amenity": "fuel",
                "operator": "AUTO-DUE SNC DI PERONI CARMELO E MUZIO ANTONIO"
            },
            "geometry": {
                "type": "Point",
                "coordinates": [
                    9.3220529705286,
                    45.548389986823935
                ]
            }
        },
        {
            "type": "Feature",
            "properties": {
                "name": "Q8",
                "id": "24359",
                "brand": "Q8",
                "amenity": "fuel",
                "operator": "SEBA  &  ALE SAS DI SABATINO ALESSANDRO E C."
            },
            "geometry": {
                "type": "Point",
                "coordinates": [
                    9.336791038513184,
                    45.540383057647375
                ]
            }
        },
        {
            "type": "Feature",
            "properties": {
                "name": "Gorgonzola SS11",
                "id": "31807",
                "brand": "Total Erg",
                "amenity": "fuel",
                "operator": "GESTIONI EUROPA - SOCIETA' PER AZIONI"
            },
            "geometry": {
                "type": "Point",
                "coordinates": [
                    9.421110302209856,
                    45.53166344265322
                ]
            }
        },
        {
            "type": "Feature",
            "properties": {
                "name": "PIOLTELLO VIA BELLINI",
                "id": "22338",
                "brand": "Retitalia",
                "amenity": "fuel",
                "operator": "VINPE SERVIZI S.P.A."
            },
            "geometry": {
                "type": "Point",
                "coordinates": [
                    9.331649243831635,
                    45.50699053179848
                ]
            }
        },
        {
            "type": "Feature",
            "properties": {
                "name": "ENI AUTOMARKET SNC",
                "id": "14598",
                "brand": "Agip Eni",
                "amenity": "fuel",
                "operator": "AUTOMARKET DI FUMAGALLI & BRAMBILLA S.N.C."
            },
            "geometry": {
                "type": "Point",
                "coordinates": [
                    9.38745020163242,
                    45.55289646788714
                ]
            }
        },
        {
            "type": "Feature",
            "properties": {
                "name": "AREA DI SERVIZIO RACO",
                "id": "4612",
                "amenity": "fuel",
                "operator": "RACO DI RANTUCCIO GIUSEPPE E CONTI CARLUCCIO S.N.C."
            },
            "geometry": {
                "type": "Point",
                "coordinates": [
                    9.41773831003411,
                    45.57724081192453
                ]
            }
        },
        {
            "type": "Feature",
            "properties": {
                "name": "BUSSERO",
                "id": "12516",
                "brand": "Agip Eni",
                "amenity": "fuel",
                "operator": "DINICASTRO WILLIAM"
            },
            "geometry": {
                "type": "Point",
                "coordinates": [
                    9.374375492334366,
                    45.530790674012344
                ]
            }
        },
        {
            "type": "Feature",
            "properties": {
                "name": "F&M di saso mariella TAMOIL",
                "id": "28851",
                "brand": "Tamoil",
                "amenity": "fuel",
                "operator": "F & M DI SASO MARIELLA"
            },
            "geometry": {
                "type": "Point",
                "coordinates": [
                    9.328521592590278,
                    45.578341491087514
                ]
            }
        },
        {
            "type": "Feature",
            "properties": {
                "name": "TAMOIL",
                "id": "7495",
                "brand": "Tamoil",
                "amenity": "fuel",
                "operator": "GAZZONI ROBERTO E MOTTA IVANO S.N.C."
            },
            "geometry": {
                "type": "Point",
                "coordinates": [
                    9.424421489238739,
                    45.48016459700468
                ]
            }
        }
    ]
}