{
    "type": "FeatureCollection",
    "features": [
        {
            "type": "Feature",
            "properties": {
                "name": "SOMAGLIA EST",
                "id": "3533",
                "brand": "Total Erg",
                "amenity": "fuel",
                "operator": "Acistar Tre"
            },
            "geometry": {
                "type": "Point",
                "coordinates": [
                    9.633907143516582,
                    45.14318378009447
                ]
            }
        },
        {
            "type": "Feature",
            "properties": {
                "name": "TOTAL ERG",
                "id": "10329",
                "brand": "Total Erg",
                "amenity": "fuel",
                "operator": "SINGH JAGDEEP"
            },
            "geometry": {
                "type": "Point",
                "coordinates": [
                    9.55797404050827,
                    45.168169687500466
                ]
            }
        },
        {
            "type": "Feature",
            "properties": {
                "name": "Distributore Tamoil",
                "id": "18408",
                "brand": "Tamoil",
                "amenity": "fuel",
                "operator": "ROAD 66 S.N.C. DI TUSSI FABIO E C."
            },
            "geometry": {
                "type": "Point",
                "coordinates": [
                    9.642133712768555,
                    45.150160422698086
                ]
            }
        },
        {
            "type": "Feature",
            "properties": {
                "name": "02460 Comizzoli Fabrizio",
                "id": "25856",
                "brand": "Agip Eni",
                "amenity": "fuel",
                "operator": "COMIZZOLI FABRIZIO"
            },
            "geometry": {
                "type": "Point",
                "coordinates": [
                    9.494139699492735,
                    45.18185063622555
                ]
            }
        },
        {
            "type": "Feature",
            "properties": {
                "name": "6119",
                "id": "29916",
                "brand": "Tamoil",
                "amenity": "fuel",
                "operator": "T.D.M. S.R.L."
            },
            "geometry": {
                "type": "Point",
                "coordinates": [
                    9.613769352436066,
                    45.20422473598833
                ]
            }
        },
        {
            "type": "Feature",
            "properties": {
                "name": "SOMAGLIA OVEST",
                "id": "3473",
                "brand": "Esso",
                "amenity": "fuel",
                "operator": "PI.CO s.n.c."
            },
            "geometry": {
                "type": "Point",
                "coordinates": [
                    9.634009416007984,
                    45.1419702696609
                ]
            }
        },
        {
            "type": "Feature",
            "properties": {
                "name": "BORGHI GIOVANNI",
                "id": "4219",
                "brand": "Agip Eni",
                "amenity": "fuel",
                "operator": "BORGHI GIOVANNI"
            },
            "geometry": {
                "type": "Point",
                "coordinates": [
                    9.63757809924698,
                    45.17697410477229
                ]
            }
        },
        {
            "type": "Feature",
            "properties": {
                "name": "REPSOL  ITALIA",
                "id": "4926",
                "brand": "Agip Eni",
                "amenity": "fuel",
                "operator": "OCCHIATO LUCA"
            },
            "geometry": {
                "type": "Point",
                "coordinates": [
                    9.6602064371109,
                    45.16757589996223
                ]
            }
        },
        {
            "type": "Feature",
            "properties": {
                "name": "KEROPETROL",
                "id": "26358",
                "amenity": "fuel",
                "operator": "TOTAL ERG DI TREZZOLDI EMANUELE"
            },
            "geometry": {
                "type": "Point",
                "coordinates": [
                    9.550437033176422,
                    45.190040203529904
                ]
            }
        },
        {
            "type": "Feature",
            "properties": {
                "name": "Area di servizio Totalerg",
                "id": "17536",
                "brand": "Total Erg",
                "amenity": "fuel",
                "operator": "MASCHERPA PAOLO"
            },
            "geometry": {
                "type": "Point",
                "coordinates": [
                    9.641144648194313,
                    45.195238877534365
                ]
            }
        },
        {
            "type": "Feature",
            "properties": {
                "name": "Ciserani Lorenzo",
                "id": "30664",
                "amenity": "fuel",
                "operator": "CISERANI LORENZO"
            },
            "geometry": {
                "type": "Point",
                "coordinates": [
                    9.550435692071915,
                    45.19003415453839
                ]
            }
        },
        {
            "type": "Feature",
            "properties": {
                "name": "TAMOIL",
                "id": "26721",
                "brand": "Tamoil",
                "amenity": "fuel",
                "operator": "BELLI PIERPAOLO"
            },
            "geometry": {
                "type": "Point",
                "coordinates": [
                    9.653911203167809,
                    45.17784458950814
                ]
            }
        },
        {
            "type": "Feature",
            "properties": {
                "name": "CASALPUSTERLENGO VIA 25 APRILE, 9",
                "id": "23440",
                "brand": "Q8",
                "amenity": "fuel",
                "operator": "SERVIZI & GESTIONI ITALIA S.R.L."
            },
            "geometry": {
                "type": "Point",
                "coordinates": [
                    9.657734784655757,
                    45.17634332173291
                ]
            }
        },
        {
            "type": "Feature",
            "properties": {
                "name": "Tansini Alberto",
                "id": "26002",
                "brand": "Api-Ip",
                "amenity": "fuel",
                "operator": "DISTRIBUTORE FINA DI TANSINI ALBERTO"
            },
            "geometry": {
                "type": "Point",
                "coordinates": [
                    9.630042314529419,
                    45.19162955153283
                ]
            }
        }
    ]
}