{
    "type": "FeatureCollection",
    "features": [
        {
            "type": "Feature",
            "properties": {
                "name": "CREMA",
                "id": "28982",
                "brand": "Total Erg",
                "amenity": "fuel",
                "operator": "GESTIONI EUROPA - SOCIETA' PER AZIONI"
            },
            "geometry": {
                "type": "Point",
                "coordinates": [
                    9.660909175872803,
                    45.3476016626282
                ]
            }
        },
        {
            "type": "Feature",
            "properties": {
                "name": "TAMOIL",
                "id": "15765",
                "brand": "Tamoil",
                "amenity": "fuel",
                "operator": "PIACENTINI MASSIMILIANO"
            },
            "geometry": {
                "type": "Point",
                "coordinates": [
                    9.646304547786714,
                    45.35929767195693
                ]
            }
        },
        {
            "type": "Feature",
            "properties": {
                "name": "TOTALERG",
                "id": "5604",
                "brand": "Total Erg",
                "amenity": "fuel",
                "operator": "THE BEST COMPANY S.N.C. DI ASSANDRI E MANZONI"
            },
            "geometry": {
                "type": "Point",
                "coordinates": [
                    9.59038384258747,
                    45.40162412385667
                ]
            }
        },
        {
            "type": "Feature",
            "properties": {
                "name": "stazione servizio preti totalerg",
                "id": "18661",
                "brand": "Total Erg",
                "amenity": "fuel",
                "operator": "D. & S. S.N.C. DI PRETI GIORGIO E ENRICO"
            },
            "geometry": {
                "type": "Point",
                "coordinates": [
                    9.540994316424532,
                    45.40338345191539
                ]
            }
        },
        {
            "type": "Feature",
            "properties": {
                "name": "STAZIONE DI SERVIZIO TAMOIL",
                "id": "6150",
                "brand": "Tamoil",
                "amenity": "fuel",
                "operator": "BOSSI ROBERTA E BOSSI GRAZIANO GIUSEPPE - SNC"
            },
            "geometry": {
                "type": "Point",
                "coordinates": [
                    9.627158095000938,
                    45.40269055607812
                ]
            }
        },
        {
            "type": "Feature",
            "properties": {
                "name": "PALAZZI E CALCI SNC",
                "id": "6108",
                "brand": "Total Erg",
                "amenity": "fuel",
                "operator": "PALAZZI & CALCI SNC DI PALAZZI MAURO E C."
            },
            "geometry": {
                "type": "Point",
                "coordinates": [
                    9.657246903674377,
                    45.36000703171047
                ]
            }
        },
        {
            "type": "Feature",
            "properties": {
                "name": "TAMOIL",
                "id": "28403",
                "brand": "Tamoil",
                "amenity": "fuel",
                "operator": "B.A.L.S. SNC DI BARONI MARA E ALTROCCHI GIAN PIETRO"
            },
            "geometry": {
                "type": "Point",
                "coordinates": [
                    9.54939231276512,
                    45.36371329897529
                ]
            }
        },
        {
            "type": "Feature",
            "properties": {
                "name": "stazione eni mazzini",
                "id": "16892",
                "brand": "Agip Eni",
                "amenity": "fuel",
                "operator": "MAZZINI PIERLUIGI"
            },
            "geometry": {
                "type": "Point",
                "coordinates": [
                    9.614822119474411,
                    45.40032540790401
                ]
            }
        },
        {
            "type": "Feature",
            "properties": {
                "name": "Agnadello CR",
                "id": "28236",
                "brand": "Api-Ip",
                "amenity": "fuel",
                "operator": "PETROL TOBER S.R.L."
            },
            "geometry": {
                "type": "Point",
                "coordinates": [
                    9.549567326903343,
                    45.44484475590128
                ]
            }
        },
        {
            "type": "Feature",
            "properties": {
                "name": "TOTALERG",
                "id": "26045",
                "brand": "Total Erg",
                "amenity": "fuel",
                "operator": "GESTIONE CENTRI COMMERCIALI S.P.A."
            },
            "geometry": {
                "type": "Point",
                "coordinates": [
                    9.629519536731097,
                    45.36279318813439
                ]
            }
        },
        {
            "type": "Feature",
            "properties": {
                "name": "6111",
                "id": "24379",
                "brand": "Tamoil",
                "amenity": "fuel",
                "operator": "T.D.M. S.R.L."
            },
            "geometry": {
                "type": "Point",
                "coordinates": [
                    9.59104299545288,
                    45.346412550000146
                ]
            }
        },
        {
            "type": "Feature",
            "properties": {
                "name": "TAMOIL",
                "id": "13548",
                "brand": "Tamoil",
                "amenity": "fuel",
                "operator": "MARTA DANTE GIUSEPPE"
            },
            "geometry": {
                "type": "Point",
                "coordinates": [
                    9.644577832224284,
                    45.44114677644638
                ]
            }
        },
        {
            "type": "Feature",
            "properties": {
                "name": "TOTALERG",
                "id": "7415",
                "brand": "Total Erg",
                "amenity": "fuel",
                "operator": "PALAZZI & CALCI SNC DI PALAZZI MAURO E C."
            },
            "geometry": {
                "type": "Point",
                "coordinates": [
                    9.611685276031494,
                    45.35027839456267
                ]
            }
        },
        {
            "type": "Feature",
            "properties": {
                "name": "TOTALERG",
                "id": "21344",
                "brand": "Total Erg",
                "amenity": "fuel",
                "operator": "BARBATI BIONDO MAURO & C. SNC"
            },
            "geometry": {
                "type": "Point",
                "coordinates": [
                    9.660860896110536,
                    45.34710174068135
                ]
            }
        },
        {
            "type": "Feature",
            "properties": {
                "name": "PANDINO-S.P.35 KM 0+174",
                "id": "11571",
                "brand": "Q8",
                "amenity": "fuel",
                "operator": "SERVIZI & GESTIONI ITALIA S.R.L."
            },
            "geometry": {
                "type": "Point",
                "coordinates": [
                    9.560181224536903,
                    45.40034350073426
                ]
            }
        }
    ]
}