{
    "type": "FeatureCollection",
    "features": [
        {
            "type": "Feature",
            "properties": {
                "name": "Ip di Alberici Omero",
                "id": "4426",
                "brand": "Api-Ip",
                "amenity": "fuel",
                "operator": "ALBERICI OMERO"
            },
            "geometry": {
                "type": "Point",
                "coordinates": [
                    9.655544757843018,
                    45.02531253125124
                ]
            }
        },
        {
            "type": "Feature",
            "properties": {
                "name": "ecogas",
                "id": "21215",
                "amenity": "fuel",
                "operator": "ECO GAS S.N.C. DI COPPETA COSIMO E GUASCONI ETTORE"
            },
            "geometry": {
                "type": "Point",
                "coordinates": [
                    9.638286888082915,
                    45.05473553441972
                ]
            }
        },
        {
            "type": "Feature",
            "properties": {
                "name": "IP ROTTOFRENO",
                "id": "22085",
                "brand": "Api-Ip",
                "amenity": "fuel",
                "operator": "EUROPAM S.R.L."
            },
            "geometry": {
                "type": "Point",
                "coordinates": [
                    9.607586860656738,
                    45.05219278716216
                ]
            }
        },
        {
            "type": "Feature",
            "properties": {
                "name": "self area eni",
                "id": "31993",
                "brand": "Agip Eni",
                "amenity": "fuel",
                "operator": "POGGI & POGGI S.N.C. DI LUIGI E FAUSTO POGGI"
            },
            "geometry": {
                "type": "Point",
                "coordinates": [
                    9.659310579299927,
                    45.054380194452584
                ]
            }
        },
        {
            "type": "Feature",
            "properties": {
                "name": "ENI station di Metallo Marzio e Rebecchi Fabio",
                "id": "16780",
                "brand": "Agip Eni",
                "amenity": "fuel",
                "operator": "METALLO MARZIO & REBECCHI FABIO SNC"
            },
            "geometry": {
                "type": "Point",
                "coordinates": [
                    9.661324693362417,
                    45.05488956972096
                ]
            }
        },
        {
            "type": "Feature",
            "properties": {
                "name": "PV ENI PIGA VALERIO",
                "id": "7364",
                "brand": "Agip Eni",
                "amenity": "fuel",
                "operator": "PIGA VALERIO"
            },
            "geometry": {
                "type": "Point",
                "coordinates": [
                    9.568509086966515,
                    45.02223049481201
                ]
            }
        },
        {
            "type": "Feature",
            "properties": {
                "name": "STAZIONE DI SERVIZIO IP F. & F. CAR SNC ROTTOFRENO",
                "id": "13241",
                "brand": "Api-Ip",
                "amenity": "fuel",
                "operator": "F.& F. CAR. S.N.C. DI FARRONATO MAURIZIO E C."
            },
            "geometry": {
                "type": "Point",
                "coordinates": [
                    9.592674567815266,
                    45.03772590901167
                ]
            }
        },
        {
            "type": "Feature",
            "properties": {
                "name": "TOTALERG",
                "id": "13892",
                "brand": "Total Erg",
                "amenity": "fuel",
                "operator": "GAZZOLO DANIELE"
            },
            "geometry": {
                "type": "Point",
                "coordinates": [
                    9.66283768415451,
                    45.05478340798709
                ]
            }
        },
        {
            "type": "Feature",
            "properties": {
                "name": "PIACENZA VIA EMILIA PAVESE 93",
                "id": "6463",
                "brand": "Q8",
                "amenity": "fuel",
                "operator": "SERVIZI & GESTIONI ITALIA srl"
            },
            "geometry": {
                "type": "Point",
                "coordinates": [
                    9.655692279338837,
                    45.0550130565954
                ]
            }
        },
        {
            "type": "Feature",
            "properties": {
                "name": "GP snc",
                "id": "4047",
                "brand": "Agip Eni",
                "amenity": "fuel",
                "operator": "GP DI GARIBOLDI GIANLUIGI E PIGA MARCO S.N.C."
            },
            "geometry": {
                "type": "Point",
                "coordinates": [
                    9.665986693237299,
                    45.03312772238182
                ]
            }
        },
        {
            "type": "Feature",
            "properties": {
                "name": "ESSO",
                "id": "10616",
                "brand": "Esso",
                "amenity": "fuel",
                "operator": "SOCIETA' PFM DI FERRARI GIUSEPPE E IVANO & MAGNELLI MARCO SNC"
            },
            "geometry": {
                "type": "Point",
                "coordinates": [
                    9.665179252624512,
                    45.04796401738334
                ]
            }
        },
        {
            "type": "Feature",
            "properties": {
                "name": "PIACENZA - EMILIA PAVESE 55/A",
                "id": "24123",
                "brand": "Api-Ip",
                "amenity": "fuel",
                "operator": "IP SERVICES S.R.L."
            },
            "geometry": {
                "type": "Point",
                "coordinates": [
                    9.661900000000061,
                    45.05489242083947
                ]
            }
        },
        {
            "type": "Feature",
            "properties": {
                "name": "KEROPETROL TUNA",
                "id": "31717",
                "amenity": "fuel",
                "operator": "KEROPETROL S.P.A."
            },
            "geometry": {
                "type": "Point",
                "coordinates": [
                    9.573352485895157,
                    44.983322517462504
                ]
            }
        },
        {
            "type": "Feature",
            "properties": {
                "name": "PIACENZA",
                "id": "5837",
                "brand": "Total Erg",
                "amenity": "fuel",
                "operator": "TotalErg SpA"
            },
            "geometry": {
                "type": "Point",
                "coordinates": [
                    9.650732550926248,
                    45.05119331861319
                ]
            }
        },
        {
            "type": "Feature",
            "properties": {
                "name": "Eni",
                "id": "28036",
                "brand": "Agip Eni",
                "amenity": "fuel",
                "operator": "BORGONOVI S.N.C. DI BORGONOVI MARCO & MAURIZIO"
            },
            "geometry": {
                "type": "Point",
                "coordinates": [
                    9.625450372695923,
                    45.05582477717141
                ]
            }
        },
        {
            "type": "Feature",
            "properties": {
                "name": "TREBBIA SUD",
                "id": "28181",
                "brand": "Q8",
                "amenity": "fuel",
                "operator": "SERVIZI & GESTIONI ITALIA S.R.L."
            },
            "geometry": {
                "type": "Point",
                "coordinates": [
                    9.652940105279525,
                    45.06066942964598
                ]
            }
        },
        {
            "type": "Feature",
            "properties": {
                "name": "keropetrol",
                "id": "21771",
                "amenity": "fuel",
                "operator": "DIERRE S.A.S. DI DOMENICO REPETTI"
            },
            "geometry": {
                "type": "Point",
                "coordinates": [
                    9.61452950964815,
                    44.994412627613855
                ]
            }
        },
        {
            "type": "Feature",
            "properties": {
                "name": "ROTTOFRENO S.S. 10 PADANA INFERIORE",
                "id": "6466",
                "brand": "Q8",
                "amenity": "fuel",
                "operator": "SERVIZI & GESTIONI ITALIA srl"
            },
            "geometry": {
                "type": "Point",
                "coordinates": [
                    9.583516716957092,
                    45.056627391676436
                ]
            }
        },
        {
            "type": "Feature",
            "properties": {
                "name": "Q8 PONTE TREBBIA",
                "id": "18206",
                "brand": "Q8",
                "amenity": "fuel",
                "operator": "MANINI FRANCESCO MARIA"
            },
            "geometry": {
                "type": "Point",
                "coordinates": [
                    9.63770404458046,
                    45.05506042623237
                ]
            }
        },
        {
            "type": "Feature",
            "properties": {
                "name": "TREBBIA NORD",
                "id": "3666",
                "brand": "Total Erg",
                "amenity": "fuel",
                "operator": "CRISTELLA PETROLI DI CRISTELLA GAETANO & C. S.N.C."
            },
            "geometry": {
                "type": "Point",
                "coordinates": [
                    9.65164750814438,
                    45.0620104530573
                ]
            }
        }
    ]
}