{
    "type": "FeatureCollection",
    "features": [
        {
            "type": "Feature",
            "properties": {
                "name": "Finali snc di Finali S. e M.",
                "id": "8857",
                "brand": "Total Erg",
                "amenity": "fuel",
                "operator": "FINALI SNC DI FINALI SERGIO E MASSIMO"
            },
            "geometry": {
                "type": "Point",
                "coordinates": [
                    9.506627172231674,
                    45.52830194067591
                ]
            }
        },
        {
            "type": "Feature",
            "properties": {
                "name": "eni station di vertua simone & c snc",
                "id": "29771",
                "brand": "Agip Eni",
                "amenity": "fuel",
                "operator": "ENI STATION DI VERTUA SIMONE & C. SNC"
            },
            "geometry": {
                "type": "Point",
                "coordinates": [
                    9.51851338148117,
                    45.47593448619285
                ]
            }
        },
        {
            "type": "Feature",
            "properties": {
                "name": "m.b.di medica marco & c s.n.c.",
                "id": "8625",
                "brand": "Tamoil",
                "amenity": "fuel",
                "operator": "M.B. DI MEDICA MARCO & C. SNC"
            },
            "geometry": {
                "type": "Point",
                "coordinates": [
                    9.612299501895905,
                    45.57150137862472
                ]
            }
        },
        {
            "type": "Feature",
            "properties": {
                "name": "IP GRUPPO API",
                "id": "8207",
                "brand": "Api-Ip",
                "amenity": "fuel",
                "operator": "SUZZI ARIANNA"
            },
            "geometry": {
                "type": "Point",
                "coordinates": [
                    9.631134052778634,
                    45.501302324614926
                ]
            }
        },
        {
            "type": "Feature",
            "properties": {
                "name": "M.A.T. Metano Autotrazione Treviglio di Mondelli",
                "id": "16962",
                "brand": "Agip Eni",
                "amenity": "fuel",
                "operator": "M.A.T. METANO AUTOTRAZIONE TREVIGLIO DI MONDELLI"
            },
            "geometry": {
                "type": "Point",
                "coordinates": [
                    9.615117450415026,
                    45.52882495118314
                ]
            }
        },
        {
            "type": "Feature",
            "properties": {
                "name": "ESSO",
                "id": "30128",
                "amenity": "fuel",
                "operator": "PIROLA DI PIROLA OSCAR MARIO & C. S.N.C."
            },
            "geometry": {
                "type": "Point",
                "coordinates": [
                    9.618401527404785,
                    45.47662454332198
                ]
            }
        },
        {
            "type": "Feature",
            "properties": {
                "name": "IP",
                "id": "19573",
                "brand": "Api-Ip",
                "amenity": "fuel",
                "operator": "VALERI DI VALERI MAURIZIO E C. S.A.S."
            },
            "geometry": {
                "type": "Point",
                "coordinates": [
                    9.525064452081324,
                    45.51957179393543
                ]
            }
        },
        {
            "type": "Feature",
            "properties": {
                "name": "rancati giuseppe",
                "id": "28046",
                "brand": "Ernesto Rondini",
                "amenity": "fuel",
                "operator": "RANCATI GIUSEPPE"
            },
            "geometry": {
                "type": "Point",
                "coordinates": [
                    9.546107277274132,
                    45.47605448040715
                ]
            }
        },
        {
            "type": "Feature",
            "properties": {
                "name": "Eni station di vertua simone & c S.n.c.",
                "id": "29770",
                "brand": "Agip Eni",
                "amenity": "fuel",
                "operator": "ENI STATION DI VERTUA SIMONE & C. SNC"
            },
            "geometry": {
                "type": "Point",
                "coordinates": [
                    9.509630470886234,
                    45.47492154598232
                ]
            }
        },
        {
            "type": "Feature",
            "properties": {
                "name": "TREVIGLIO - VIA BERGAMO 90",
                "id": "22458",
                "amenity": "fuel",
                "operator": "DITTA MORZENTI ANTONIO S.R.L."
            },
            "geometry": {
                "type": "Point",
                "coordinates": [
                    9.604202163194714,
                    45.54997281747386
                ]
            }
        },
        {
            "type": "Feature",
            "properties": {
                "name": "TAMOIL",
                "id": "28100",
                "brand": "Tamoil",
                "amenity": "fuel",
                "operator": "FA.MA. S.A.S. DI MANGINI MARCO & C."
            },
            "geometry": {
                "type": "Point",
                "coordinates": [
                    9.553792476654053,
                    45.52379601038512
                ]
            }
        },
        {
            "type": "Feature",
            "properties": {
                "name": "TAMOIL MARIO",
                "id": "22646",
                "brand": "Tamoil",
                "amenity": "fuel",
                "operator": "MOHAMED ABDELAZIZ IBRAHIM ISSAM"
            },
            "geometry": {
                "type": "Point",
                "coordinates": [
                    9.5151552625656,
                    45.47055745418897
                ]
            }
        },
        {
            "type": "Feature",
            "properties": {
                "name": "01561",
                "id": "14318",
                "brand": "Agip Eni",
                "amenity": "fuel",
                "operator": "ITAL CARB. DI TANGA  GERARDO E TANGA STEFANO S.N.C."
            },
            "geometry": {
                "type": "Point",
                "coordinates": [
                    9.571079313755035,
                    45.58105133549996
                ]
            }
        },
        {
            "type": "Feature",
            "properties": {
                "name": "Stazione di servizio Q8 di Reggiani Giordano",
                "id": "20985",
                "brand": "Q8",
                "amenity": "fuel",
                "operator": "STAZIONE DI SERVIZIO Q8 DI REGGIANI GIORDANO"
            },
            "geometry": {
                "type": "Point",
                "coordinates": [
                    9.617219343781471,
                    45.58243543479846
                ]
            }
        },
        {
            "type": "Feature",
            "properties": {
                "name": "POZZO D'ADDA",
                "id": "17267",
                "brand": "Total Erg",
                "amenity": "fuel",
                "operator": "SPADA STEFANO E RIVOLTA MARIO E C. S.N.C."
            },
            "geometry": {
                "type": "Point",
                "coordinates": [
                    9.498806521296501,
                    45.56501766447452
                ]
            }
        },
        {
            "type": "Feature",
            "properties": {
                "name": "TOTALERG di c.p.p.",
                "id": "5987",
                "brand": "Total Erg",
                "amenity": "fuel",
                "operator": "MAZZELLI MARINO"
            },
            "geometry": {
                "type": "Point",
                "coordinates": [
                    9.603732526302338,
                    45.524316167872506
                ]
            }
        },
        {
            "type": "Feature",
            "properties": {
                "name": "PITZALIS GIUSEPPE",
                "id": "8822",
                "brand": "Esso",
                "amenity": "fuel",
                "operator": "PITZALIS GIUSEPPE"
            },
            "geometry": {
                "type": "Point",
                "coordinates": [
                    9.5874516073402,
                    45.52761159285304
                ]
            }
        },
        {
            "type": "Feature",
            "properties": {
                "name": "ZENIT SRL - SP 104, 200 CASSANO D'ADDA",
                "id": "25767",
                "brand": "Esso",
                "amenity": "fuel",
                "operator": "SERVIZI E GESTIONI ZENIT S.R.L. IN SIGLA - ZENIT S.R.L."
            },
            "geometry": {
                "type": "Point",
                "coordinates": [
                    9.506143033504486,
                    45.53103756836629
                ]
            }
        },
        {
            "type": "Feature",
            "properties": {
                "name": "Mpm Service Srl",
                "id": "5266",
                "amenity": "fuel",
                "operator": "MPM SERVICE SRL"
            },
            "geometry": {
                "type": "Point",
                "coordinates": [
                    9.639633893966673,
                    45.540424387630885
                ]
            }
        },
        {
            "type": "Feature",
            "properties": {
                "name": "ANGELO VALAPERTA & C SNC",
                "id": "5647",
                "brand": "Agip Eni",
                "amenity": "fuel",
                "operator": "ANGELO VALAPERTA & C. S.N.C."
            },
            "geometry": {
                "type": "Point",
                "coordinates": [
                    9.62776780128479,
                    45.50342415372466
                ]
            }
        },
        {
            "type": "Feature",
            "properties": {
                "name": "agip",
                "id": "19056",
                "brand": "Agip Eni",
                "amenity": "fuel",
                "operator": "LOCATELLI LUIGI & C. SNC"
            },
            "geometry": {
                "type": "Point",
                "coordinates": [
                    9.573665853410944,
                    45.50063009440749
                ]
            }
        },
        {
            "type": "Feature",
            "properties": {
                "name": "ESSO MILANESI ILARIA",
                "id": "25510",
                "brand": "Esso",
                "amenity": "fuel",
                "operator": "MILANESI ILARIA"
            },
            "geometry": {
                "type": "Point",
                "coordinates": [
                    9.650917998147634,
                    45.491119322732686
                ]
            }
        },
        {
            "type": "Feature",
            "properties": {
                "name": "TREVIGLIO-VIALE COL DI LANA 15",
                "id": "11483",
                "brand": "Q8",
                "amenity": "fuel",
                "operator": "SERVIZI & GESTIONI ITALIA S.R.L."
            },
            "geometry": {
                "type": "Point",
                "coordinates": [
                    9.594142915344262,
                    45.528997708952375
                ]
            }
        },
        {
            "type": "Feature",
            "properties": {
                "name": "ENI",
                "id": "24074",
                "brand": "Agip Eni",
                "amenity": "fuel",
                "operator": "GENERAL GAS S.N.C. DI OPRESCU PETRISOR & C."
            },
            "geometry": {
                "type": "Point",
                "coordinates": [
                    9.533606171607971,
                    45.47519006520233
                ]
            }
        },
        {
            "type": "Feature",
            "properties": {
                "name": "ernesto rondini srl",
                "id": "13708",
                "brand": "Ernesto Rondini",
                "amenity": "fuel",
                "operator": "ERNESTO RONDINI S.R.L."
            },
            "geometry": {
                "type": "Point",
                "coordinates": [
                    9.64319720864296,
                    45.507166100295336
                ]
            }
        },
        {
            "type": "Feature",
            "properties": {
                "name": "bb carburanti",
                "id": "29098",
                "amenity": "fuel",
                "operator": "MENTULA SRL"
            },
            "geometry": {
                "type": "Point",
                "coordinates": [
                    9.586678314758274,
                    45.5115041795431
                ]
            }
        },
        {
            "type": "Feature",
            "properties": {
                "name": "Imp. ENI 02158",
                "id": "5015",
                "brand": "Agip Eni",
                "amenity": "fuel",
                "operator": "CERRI E.F.M. DI CERRI MARIO GIUSEPPE &C. SNC"
            },
            "geometry": {
                "type": "Point",
                "coordinates": [
                    9.51205772499236,
                    45.52699390614198
                ]
            }
        },
        {
            "type": "Feature",
            "properties": {
                "name": "Montegrappa",
                "id": "29480",
                "brand": "Api-Ip",
                "amenity": "fuel",
                "operator": "CAR CENTER S.N.C. DI CAVALLI FABRIZIO E C."
            },
            "geometry": {
                "type": "Point",
                "coordinates": [
                    9.584612399339676,
                    45.51880992133698
                ]
            }
        },
        {
            "type": "Feature",
            "properties": {
                "name": "Stazione di Servizio Esso",
                "id": "32079",
                "brand": "Esso",
                "amenity": "fuel",
                "operator": "G.D.S. DI GRILLO FRANCESCO E C. SNC"
            },
            "geometry": {
                "type": "Point",
                "coordinates": [
                    9.515328258275986,
                    45.52627475357902
                ]
            }
        },
        {
            "type": "Feature",
            "properties": {
                "name": "AGIP VALAPERTA ANGELO",
                "id": "5648",
                "brand": "Agip Eni",
                "amenity": "fuel",
                "operator": "VALAPERTA ANGELO"
            },
            "geometry": {
                "type": "Point",
                "coordinates": [
                    9.598204891401679,
                    45.52899797612008
                ]
            }
        }
    ]
}