{
    "type": "FeatureCollection",
    "features": [
        {
            "type": "Feature",
            "properties": {
                "name": "Q8 punto giusto",
                "id": "7501",
                "brand": "Q8",
                "amenity": "fuel",
                "operator": "GALBU DI VAVASSORI G. E BREMBILLA V. & C. S.N.C."
            },
            "geometry": {
                "type": "Point",
                "coordinates": [
                    9.633946053967295,
                    45.665382537231984
                ]
            }
        },
        {
            "type": "Feature",
            "properties": {
                "name": "REPSOL",
                "id": "10576",
                "brand": "Repsol",
                "amenity": "fuel",
                "operator": "A.F. PETROLI S.P.A."
            },
            "geometry": {
                "type": "Point",
                "coordinates": [
                    9.504482746124268,
                    45.58597634333912
                ]
            }
        },
        {
            "type": "Feature",
            "properties": {
                "name": "ENI di Prandi Luigi",
                "id": "9501",
                "brand": "Agip Eni",
                "amenity": "fuel",
                "operator": "PRANDI LUIGI"
            },
            "geometry": {
                "type": "Point",
                "coordinates": [
                    9.645081460475922,
                    45.69341235340417
                ]
            }
        },
        {
            "type": "Feature",
            "properties": {
                "name": "PONTE SAN PIETRO-VIA MANZONI STATALE BRIANTEA",
                "id": "11484",
                "brand": "Q8",
                "amenity": "fuel",
                "operator": "SERVIZI & GESTIONI ITALIA S.R.L."
            },
            "geometry": {
                "type": "Point",
                "coordinates": [
                    9.571070846557634,
                    45.70510489508346
                ]
            }
        },
        {
            "type": "Feature",
            "properties": {
                "name": "DORELEI CARBURANTI SAS",
                "id": "14558",
                "brand": "Esso",
                "amenity": "fuel",
                "operator": "DORELEI CARBURANTI DI GUALCO DAVIDE & C. S.A.S."
            },
            "geometry": {
                "type": "Point",
                "coordinates": [
                    9.602007865905762,
                    45.68602346571805
                ]
            }
        },
        {
            "type": "Feature",
            "properties": {
                "name": "FILAGO - VIA DELLE INDUSTRIE 22",
                "id": "11495",
                "brand": "Q8",
                "amenity": "fuel",
                "operator": "SERVIZI & GESTIONI ITALIA S.R.L."
            },
            "geometry": {
                "type": "Point",
                "coordinates": [
                    9.548567813491786,
                    45.6212924962764
                ]
            }
        },
        {
            "type": "Feature",
            "properties": {
                "name": "LIGURIA GAS",
                "id": "25733",
                "amenity": "fuel",
                "operator": "LIGURIA GAS S.R.L."
            },
            "geometry": {
                "type": "Point",
                "coordinates": [
                    9.51567828655243,
                    45.65813865863665
                ]
            }
        },
        {
            "type": "Feature",
            "properties": {
                "name": "Q8 ancafora giovanni",
                "id": "7020",
                "brand": "Q8",
                "amenity": "fuel",
                "operator": "ACANFORA GIOVANNI"
            },
            "geometry": {
                "type": "Point",
                "coordinates": [
                    9.546937539794953,
                    45.6062302027259
                ]
            }
        },
        {
            "type": "Feature",
            "properties": {
                "name": "BREMBO SUD",
                "id": "25613",
                "brand": "Q8",
                "amenity": "fuel",
                "operator": "NUOVA SIDAP  S.R.L."
            },
            "geometry": {
                "type": "Point",
                "coordinates": [
                    9.600096659217911,
                    45.63188736814508
                ]
            }
        },
        {
            "type": "Feature",
            "properties": {
                "name": "ENI ARIOLI ALDO",
                "id": "11991",
                "brand": "Agip Eni",
                "amenity": "fuel",
                "operator": "ARIOLI ALDO"
            },
            "geometry": {
                "type": "Point",
                "coordinates": [
                    9.593163122672308,
                    45.61735283788998
                ]
            }
        },
        {
            "type": "Feature",
            "properties": {
                "name": "Stazione di Servizio Auchan/Tamoil",
                "id": "7051",
                "brand": "Tamoil",
                "amenity": "fuel",
                "operator": "AUCHAN S.P.A."
            },
            "geometry": {
                "type": "Point",
                "coordinates": [
                    9.607325345277786,
                    45.682876578063784
                ]
            }
        },
        {
            "type": "Feature",
            "properties": {
                "name": "TAMOIL 2337",
                "id": "15814",
                "brand": "Tamoil",
                "amenity": "fuel",
                "operator": "AUTOSERVICE DI GIOVANNI D'ALOIA S.A.S."
            },
            "geometry": {
                "type": "Point",
                "coordinates": [
                    9.495178163051605,
                    45.61488693636995
                ]
            }
        },
        {
            "type": "Feature",
            "properties": {
                "name": "SAN BERNARDINO",
                "id": "28981",
                "brand": "Agip Eni",
                "amenity": "fuel",
                "operator": "CAR CENTER S.N.C. DI CAVALLI FABRIZIO E C."
            },
            "geometry": {
                "type": "Point",
                "coordinates": [
                    9.661661137434407,
                    45.68054779355199
                ]
            }
        },
        {
            "type": "Feature",
            "properties": {
                "name": "PV Levate",
                "id": "31413",
                "brand": "Esso",
                "amenity": "fuel",
                "operator": "TRUSSARDI PETROLI SPA"
            },
            "geometry": {
                "type": "Point",
                "coordinates": [
                    9.620638683991956,
                    45.62810490189467
                ]
            }
        },
        {
            "type": "Feature",
            "properties": {
                "name": "carissoni manuela stazione eni",
                "id": "15328",
                "brand": "Agip Eni",
                "amenity": "fuel",
                "operator": "CARISSONI MANUELA"
            },
            "geometry": {
                "type": "Point",
                "coordinates": [
                    9.655712967984073,
                    45.69337972244972
                ]
            }
        },
        {
            "type": "Feature",
            "properties": {
                "name": "Agip",
                "id": "7465",
                "brand": "Agip Eni",
                "amenity": "fuel",
                "operator": "CAR-PIE DI CANTARELLI CARLO & C. S.A.S."
            },
            "geometry": {
                "type": "Point",
                "coordinates": [
                    9.511590507934557,
                    45.6107376080898
                ]
            }
        },
        {
            "type": "Feature",
            "properties": {
                "name": "Cosma Fabrizio - Stezzano",
                "id": "12534",
                "brand": "Agip Eni",
                "amenity": "fuel",
                "operator": "COSMA FABRIZIO"
            },
            "geometry": {
                "type": "Point",
                "coordinates": [
                    9.632917642593384,
                    45.65147633640459
                ]
            }
        },
        {
            "type": "Feature",
            "properties": {
                "name": "Capriate",
                "id": "4644",
                "brand": "Esso",
                "amenity": "fuel",
                "operator": "NUOVA SIDAP  S.R.L."
            },
            "geometry": {
                "type": "Point",
                "coordinates": [
                    9.530127346515656,
                    45.62114690872449
                ]
            }
        },
        {
            "type": "Feature",
            "properties": {
                "name": "BREMBATE",
                "id": "15101",
                "amenity": "fuel",
                "operator": "IPER MONTEBELLO S.P.A."
            },
            "geometry": {
                "type": "Point",
                "coordinates": [
                    9.542348831892014,
                    45.607890354043235
                ]
            }
        },
        {
            "type": "Feature",
            "properties": {
                "name": "BREMBO NORD",
                "id": "4645",
                "brand": "Esso",
                "amenity": "fuel",
                "operator": "NUOVA SIDAP  S.R.L."
            },
            "geometry": {
                "type": "Point",
                "coordinates": [
                    9.598032832145691,
                    45.63229936377727
                ]
            }
        },
        {
            "type": "Feature",
            "properties": {
                "name": "Stazione di Servizio Auchan/Q8",
                "id": "7050",
                "brand": "Q8",
                "amenity": "fuel",
                "operator": "AUCHAN S.P.A."
            },
            "geometry": {
                "type": "Point",
                "coordinates": [
                    9.650284945964811,
                    45.687022547892184
                ]
            }
        },
        {
            "type": "Feature",
            "properties": {
                "name": "Eni station",
                "id": "9262",
                "brand": "Agip Eni",
                "amenity": "fuel",
                "operator": "A & L S.N.C. DI ALBORGHETTI MICHELE & C."
            },
            "geometry": {
                "type": "Point",
                "coordinates": [
                    9.618783866162175,
                    45.64918536664022
                ]
            }
        },
        {
            "type": "Feature",
            "properties": {
                "name": "Verdellino",
                "id": "26764",
                "brand": "Total Erg",
                "amenity": "fuel",
                "operator": "GESTIONI EUROPA - SOCIETA' PER AZIONI"
            },
            "geometry": {
                "type": "Point",
                "coordinates": [
                    9.618156792065404,
                    45.59005718697457
                ]
            }
        },
        {
            "type": "Feature",
            "properties": {
                "name": "Stazione di Servizio Esso di Paganelli Marco",
                "id": "22937",
                "brand": "Esso",
                "amenity": "fuel",
                "operator": "PAGANELLI MARCO"
            },
            "geometry": {
                "type": "Point",
                "coordinates": [
                    9.521339707340303,
                    45.60670010078877
                ]
            }
        },
        {
            "type": "Feature",
            "properties": {
                "name": "KE.RO.IMPIANTI VIA CARDUCCI",
                "id": "29347",
                "amenity": "fuel",
                "operator": "KE.RO IMPIANTI S.R.L."
            },
            "geometry": {
                "type": "Point",
                "coordinates": [
                    9.647439122200012,
                    45.68943473648696
                ]
            }
        },
        {
            "type": "Feature",
            "properties": {
                "name": "BROSETA",
                "id": "29630",
                "brand": "Total Erg",
                "amenity": "fuel",
                "operator": "GESTIONI EUROPA - SOCIETA' PER AZIONI"
            },
            "geometry": {
                "type": "Point",
                "coordinates": [
                    9.652004434358558,
                    45.69376833520888
                ]
            }
        },
        {
            "type": "Feature",
            "properties": {
                "name": "ESSO",
                "id": "7444",
                "brand": "Esso",
                "amenity": "fuel",
                "operator": "MAFFI MARCO"
            },
            "geometry": {
                "type": "Point",
                "coordinates": [
                    9.64455149517596,
                    45.674222251227576
                ]
            }
        },
        {
            "type": "Feature",
            "properties": {
                "name": "mora renato gaetano",
                "id": "12959",
                "brand": "Agip Eni",
                "amenity": "fuel",
                "operator": "MORA RENATO GAETANO"
            },
            "geometry": {
                "type": "Point",
                "coordinates": [
                    9.616631269454956,
                    45.64649670011113
                ]
            }
        },
        {
            "type": "Feature",
            "properties": {
                "name": "VERDELLO",
                "id": "29321",
                "amenity": "fuel",
                "operator": "AF PETROL S.R.L."
            },
            "geometry": {
                "type": "Point",
                "coordinates": [
                    9.629638250331936,
                    45.60630695674649
                ]
            }
        },
        {
            "type": "Feature",
            "properties": {
                "name": "C.SO EUROPA -  OSIO SOTTO",
                "id": "29720",
                "brand": "Q8",
                "amenity": "fuel",
                "operator": "SERVIZI & GESTIONI ITALIA S.R.L."
            },
            "geometry": {
                "type": "Point",
                "coordinates": [
                    9.58543326812287,
                    45.60547838158742
                ]
            }
        },
        {
            "type": "Feature",
            "properties": {
                "name": "TOTALERG",
                "id": "14374",
                "brand": "Total Erg",
                "amenity": "fuel",
                "operator": "ROSSETTI CLAUDIO"
            },
            "geometry": {
                "type": "Point",
                "coordinates": [
                    9.66190833372957,
                    45.682022681006664
                ]
            }
        },
        {
            "type": "Feature",
            "properties": {
                "name": "co.rina",
                "id": "8053",
                "brand": "Q8",
                "amenity": "fuel",
                "operator": "CO.RINA. S.N.C. DI CORNA, RINALDI & C."
            },
            "geometry": {
                "type": "Point",
                "coordinates": [
                    9.626941680908203,
                    45.6912480253284
                ]
            }
        },
        {
            "type": "Feature",
            "properties": {
                "name": "Q8delbrembo di Carrubba Daniele",
                "id": "5139",
                "brand": "Q8",
                "amenity": "fuel",
                "operator": "CARRUBBA DANIELE"
            },
            "geometry": {
                "type": "Point",
                "coordinates": [
                    9.566516876220705,
                    45.60994570239099
                ]
            }
        },
        {
            "type": "Feature",
            "properties": {
                "name": "Agip",
                "id": "13871",
                "brand": "Agip Eni",
                "amenity": "fuel",
                "operator": "ALESSIO CRISTIANO"
            },
            "geometry": {
                "type": "Point",
                "coordinates": [
                    9.57359640244681,
                    45.69271110310657
                ]
            }
        },
        {
            "type": "Feature",
            "properties": {
                "name": "eni",
                "id": "16536",
                "brand": "Agip Eni",
                "amenity": "fuel",
                "operator": "INVERNIZZI ROBERTO E C. S.N.C."
            },
            "geometry": {
                "type": "Point",
                "coordinates": [
                    9.605836269944803,
                    45.64660578650457
                ]
            }
        },
        {
            "type": "Feature",
            "properties": {
                "name": "IP F.LLI BELOTTI",
                "id": "14436",
                "brand": "Api-Ip",
                "amenity": "fuel",
                "operator": "F.LLI BELOTTI DI OVIDIO E GIOVANNI S.N.C."
            },
            "geometry": {
                "type": "Point",
                "coordinates": [
                    9.64323341846466,
                    45.67358103893454
                ]
            }
        },
        {
            "type": "Feature",
            "properties": {
                "name": "GM CARBURANTI",
                "id": "27831",
                "amenity": "fuel",
                "operator": "FORONI LUCIO"
            },
            "geometry": {
                "type": "Point",
                "coordinates": [
                    9.619697034358978,
                    45.6489901359633
                ]
            }
        },
        {
            "type": "Feature",
            "properties": {
                "name": "TREVIOLO",
                "id": "5519",
                "brand": "Total Erg",
                "amenity": "fuel",
                "operator": "GESTIONI EUROPA S.p.A."
            },
            "geometry": {
                "type": "Point",
                "coordinates": [
                    9.601222000000007,
                    45.671643006037066
                ]
            }
        },
        {
            "type": "Feature",
            "properties": {
                "name": "eni cafe",
                "id": "6307",
                "brand": "Agip Eni",
                "amenity": "fuel",
                "operator": "CASSOTTI PIERANGELO"
            },
            "geometry": {
                "type": "Point",
                "coordinates": [
                    9.632362425327301,
                    45.61512182929679
                ]
            }
        },
        {
            "type": "Feature",
            "properties": {
                "name": "ENI 55990 Paolo Seminati & Figli snc",
                "id": "6852",
                "brand": "Agip Eni",
                "amenity": "fuel",
                "operator": "PAOLO SEMINATI & FIGLI S.N.C. DI DOMENICO SEMINATI E DANIELE SEMINATI"
            },
            "geometry": {
                "type": "Point",
                "coordinates": [
                    9.588001459524548,
                    45.630819013646075
                ]
            }
        },
        {
            "type": "Feature",
            "properties": {
                "name": "TOTALERG",
                "id": "6979",
                "brand": "Total Erg",
                "amenity": "fuel",
                "operator": "MILESI & PALAZZI SNC"
            },
            "geometry": {
                "type": "Point",
                "coordinates": [
                    9.64018939675907,
                    45.67055889885797
                ]
            }
        },
        {
            "type": "Feature",
            "properties": {
                "name": "ALL CAR SERVICE SNC",
                "id": "11306",
                "brand": "Esso",
                "amenity": "fuel",
                "operator": "ALL CAR SERVICE S.N.C. DEI F.LLI SANA"
            },
            "geometry": {
                "type": "Point",
                "coordinates": [
                    9.562004226389263,
                    45.69084381775606
                ]
            }
        },
        {
            "type": "Feature",
            "properties": {
                "name": "ESSO",
                "id": "11342",
                "brand": "Esso",
                "amenity": "fuel",
                "operator": "MAZZOLA ROBERTO"
            },
            "geometry": {
                "type": "Point",
                "coordinates": [
                    9.550803765606702,
                    45.650325480351796
                ]
            }
        },
        {
            "type": "Feature",
            "properties": {
                "name": "CURNO-SS.BRIANTEA 342 VIA BERGAMO 21",
                "id": "11492",
                "brand": "Q8",
                "amenity": "fuel",
                "operator": "SERVIZI & GESTIONI ITALIA S.R.L."
            },
            "geometry": {
                "type": "Point",
                "coordinates": [
                    9.622168979168007,
                    45.69200117253395
                ]
            }
        },
        {
            "type": "Feature",
            "properties": {
                "name": "BERGAMO VIA SAN BERNARDINO DISTR.Q8",
                "id": "6425",
                "brand": "Q8",
                "amenity": "fuel",
                "operator": "SERVIZI & GESTIONI ITALIA srl"
            },
            "geometry": {
                "type": "Point",
                "coordinates": [
                    9.660737890213,
                    45.67485736569532
                ]
            }
        },
        {
            "type": "Feature",
            "properties": {
                "name": "CURNO S.S. 342 BRIANTEA KM.4,885 -Q8",
                "id": "24759",
                "brand": "Q8",
                "amenity": "fuel",
                "operator": "SERVIZI & GESTIONI ITALIA S.R.L."
            },
            "geometry": {
                "type": "Point",
                "coordinates": [
                    9.616742851589947,
                    45.69245442050466
                ]
            }
        },
        {
            "type": "Feature",
            "properties": {
                "name": "Total Erg Manenti Ivan snc",
                "id": "26246",
                "brand": "Total Erg",
                "amenity": "fuel",
                "operator": "MANENTI IVAN & C. S.N.C."
            },
            "geometry": {
                "type": "Point",
                "coordinates": [
                    9.517856240272524,
                    45.6917396529043
                ]
            }
        },
        {
            "type": "Feature",
            "properties": {
                "name": "ENI",
                "id": "28870",
                "brand": "Agip Eni",
                "amenity": "fuel",
                "operator": "TIRONI VITTORIO DI TIRONI ERNESTO & C.SNC"
            },
            "geometry": {
                "type": "Point",
                "coordinates": [
                    9.604947566986084,
                    45.703742718430014
                ]
            }
        },
        {
            "type": "Feature",
            "properties": {
                "name": "BERGAMO S.P.MILANESE.V.MORONI DISTR.Q8",
                "id": "6424",
                "brand": "Q8",
                "amenity": "fuel",
                "operator": "SERVIZI & GESTIONI ITALIA srl"
            },
            "geometry": {
                "type": "Point",
                "coordinates": [
                    9.65119043086338,
                    45.6792499525339
                ]
            }
        },
        {
            "type": "Feature",
            "properties": {
                "name": "CAPRIATE S. GERVASIO-VIA VITTORIO VENETO 8",
                "id": "11490",
                "brand": "Q8",
                "amenity": "fuel",
                "operator": "SERVIZI & GESTIONI ITALIA S.R.L."
            },
            "geometry": {
                "type": "Point",
                "coordinates": [
                    9.530714750289917,
                    45.61010631430588
                ]
            }
        },
        {
            "type": "Feature",
            "properties": {
                "name": "agip",
                "id": "5141",
                "brand": "Agip Eni",
                "amenity": "fuel",
                "operator": "REDOLFI GUALTIERO WALTER"
            },
            "geometry": {
                "type": "Point",
                "coordinates": [
                    9.553237259387968,
                    45.65631661015855
                ]
            }
        },
        {
            "type": "Feature",
            "properties": {
                "name": "CURNO SS 342",
                "id": "22455",
                "amenity": "fuel",
                "operator": "DITTA MORZENTI ANTONIO S.R.L."
            },
            "geometry": {
                "type": "Point",
                "coordinates": [
                    9.618495913108859,
                    45.69221678177161
                ]
            }
        },
        {
            "type": "Feature",
            "properties": {
                "name": "Curno",
                "id": "4643",
                "brand": "Esso",
                "amenity": "fuel",
                "operator": "NUOVA SIDAP  S.R.L."
            },
            "geometry": {
                "type": "Point",
                "coordinates": [
                    9.611384868621826,
                    45.679495640698995
                ]
            }
        },
        {
            "type": "Feature",
            "properties": {
                "name": "TREVIOLO-VIALE EUROPA",
                "id": "11493",
                "brand": "Q8",
                "amenity": "fuel",
                "operator": "SERVIZI & GESTIONI ITALIA S.R.L."
            },
            "geometry": {
                "type": "Point",
                "coordinates": [
                    9.631402682209,
                    45.67589183113847
                ]
            }
        },
        {
            "type": "Feature",
            "properties": {
                "name": "AF PETROL",
                "id": "29322",
                "amenity": "fuel",
                "operator": "AF PETROL S.R.L."
            },
            "geometry": {
                "type": "Point",
                "coordinates": [
                    9.652808394243038,
                    45.653118347973916
                ]
            }
        },
        {
            "type": "Feature",
            "properties": {
                "name": "Agip Bottanuco",
                "id": "28912",
                "brand": "Esso",
                "amenity": "fuel",
                "operator": "STE.MAR S.R.L."
            },
            "geometry": {
                "type": "Point",
                "coordinates": [
                    9.509343504476874,
                    45.64542076938716
                ]
            }
        },
        {
            "type": "Feature",
            "properties": {
                "name": "AF PETROL",
                "id": "21328",
                "amenity": "fuel",
                "operator": "AF PETROL S.R.L."
            },
            "geometry": {
                "type": "Point",
                "coordinates": [
                    9.568731020832047,
                    45.68179171980826
                ]
            }
        },
        {
            "type": "Feature",
            "properties": {
                "name": "Bergamo",
                "id": "10094",
                "brand": "Total Erg",
                "amenity": "fuel",
                "operator": "GESTIONI EUROPA - SOCIETA' PER AZIONI"
            },
            "geometry": {
                "type": "Point",
                "coordinates": [
                    9.656372364279148,
                    45.68440930548873
                ]
            }
        },
        {
            "type": "Feature",
            "properties": {
                "name": "UNION",
                "id": "19877",
                "amenity": "fuel",
                "operator": "CONNEX SR.L."
            },
            "geometry": {
                "type": "Point",
                "coordinates": [
                    9.61466945767211,
                    45.64346949324168
                ]
            }
        },
        {
            "type": "Feature",
            "properties": {
                "name": "ZENI VALERIANO E MARCO SNC IMPIANTO ERG",
                "id": "7676",
                "brand": "Total Erg",
                "amenity": "fuel",
                "operator": "ZENI VALERIANO E MARCO S.N.C."
            },
            "geometry": {
                "type": "Point",
                "coordinates": [
                    9.622553586959839,
                    45.59494972464716
                ]
            }
        },
        {
            "type": "Feature",
            "properties": {
                "name": "Q8 mozzo",
                "id": "15255",
                "brand": "Q8",
                "amenity": "fuel",
                "operator": "C.T. S.N.C. DI COFFETTI GIORGIO  &  C."
            },
            "geometry": {
                "type": "Point",
                "coordinates": [
                    9.605848789215086,
                    45.70475122419452
                ]
            }
        },
        {
            "type": "Feature",
            "properties": {
                "name": "BERGAMO-VIA STEZZANO N. 99 SS.42 KM.17+004",
                "id": "11488",
                "brand": "Q8",
                "amenity": "fuel",
                "operator": "SERVIZI & GESTIONI ITALIA S.R.L."
            },
            "geometry": {
                "type": "Point",
                "coordinates": [
                    9.6569712539673,
                    45.66011751627286
                ]
            }
        },
        {
            "type": "Feature",
            "properties": {
                "name": "agip eni",
                "id": "15327",
                "brand": "Agip Eni",
                "amenity": "fuel",
                "operator": "S.R. DI POMA ALBERTO & C. S.A.S."
            },
            "geometry": {
                "type": "Point",
                "coordinates": [
                    9.660181068122823,
                    45.667651574938596
                ]
            }
        },
        {
            "type": "Feature",
            "properties": {
                "name": "eni",
                "id": "4981",
                "brand": "Agip Eni",
                "amenity": "fuel",
                "operator": "MA.PI. S.N.C. DEI F.LLI CORNAGO"
            },
            "geometry": {
                "type": "Point",
                "coordinates": [
                    9.613474309444427,
                    45.67956670215767
                ]
            }
        },
        {
            "type": "Feature",
            "properties": {
                "name": "Eni Pasini Stefano",
                "id": "20523",
                "brand": "Agip Eni",
                "amenity": "fuel",
                "operator": "PASINI STEFANO"
            },
            "geometry": {
                "type": "Point",
                "coordinates": [
                    9.592960774898529,
                    45.6022267798137
                ]
            }
        },
        {
            "type": "Feature",
            "properties": {
                "name": "ROSSETTI GIOVANNA & C s.N.C.",
                "id": "18664",
                "brand": "Total Erg",
                "amenity": "fuel",
                "operator": "ROSSETTI GIOVANNA & C. S.N.C."
            },
            "geometry": {
                "type": "Point",
                "coordinates": [
                    9.498964296958889,
                    45.66922716031683
                ]
            }
        },
        {
            "type": "Feature",
            "properties": {
                "name": "ENI",
                "id": "29268",
                "brand": "Agip Eni",
                "amenity": "fuel",
                "operator": "CAMANINI FRANCESCO"
            },
            "geometry": {
                "type": "Point",
                "coordinates": [
                    9.651486575603487,
                    45.689412627438784
                ]
            }
        },
        {
            "type": "Feature",
            "properties": {
                "name": "OSIO SOTTO - S.P. 184 KM 1+400",
                "id": "31854",
                "brand": "Q8",
                "amenity": "fuel",
                "operator": "SERVIZI & GESTIONI ITALIA S.R.L."
            },
            "geometry": {
                "type": "Point",
                "coordinates": [
                    9.566535276126842,
                    45.60995496857018
                ]
            }
        },
        {
            "type": "Feature",
            "properties": {
                "name": "Stazione Esso di Ravasio & Volpi S.N.C",
                "id": "27073",
                "brand": "Esso",
                "amenity": "fuel",
                "operator": "DISTRIBUTORE ESSO GIGI DI RAVASIO PIERLUIGI E VOLPI CRISTIAN SNC"
            },
            "geometry": {
                "type": "Point",
                "coordinates": [
                    9.60267936805667,
                    45.685644655219846
                ]
            }
        },
        {
            "type": "Feature",
            "properties": {
                "name": "distrb. q8 miky & enzo. snc",
                "id": "17775",
                "brand": "Q8",
                "amenity": "fuel",
                "operator": "MIKY & ENZO S.N.C. DI VINCENZO ORTORE E MICHELE CAPUTO"
            },
            "geometry": {
                "type": "Point",
                "coordinates": [
                    9.607235491275787,
                    45.58938207264307
                ]
            }
        },
        {
            "type": "Feature",
            "properties": {
                "name": "Retitalia Carvico",
                "id": "30989",
                "brand": "Retitalia",
                "amenity": "fuel",
                "operator": "BRIXIA FINANZIARIA S.R.L."
            },
            "geometry": {
                "type": "Point",
                "coordinates": [
                    9.497610926628113,
                    45.69883779395237
                ]
            }
        }
    ]
}