{
    "type": "FeatureCollection",
    "features": [
        {
            "type": "Feature",
            "properties": {
                "name": "Area Service di Rossetti Massimiliano - Distributore IP",
                "id": "26745",
                "brand": "Api-Ip",
                "amenity": "fuel",
                "operator": "ROSSETTI MASSIMILIANO"
            },
            "geometry": {
                "type": "Point",
                "coordinates": [
                    9.67236511533406,
                    44.29054575156657
                ]
            }
        },
        {
            "type": "Feature",
            "properties": {
                "name": "AGIP BRUGNATO IMP.11297 di Bonavino Valter",
                "id": "30600",
                "brand": "Agip Eni",
                "amenity": "fuel",
                "operator": "BONAVINO VALTER"
            },
            "geometry": {
                "type": "Point",
                "coordinates": [
                    9.72453385591507,
                    44.23599811252215
                ]
            }
        },
        {
            "type": "Feature",
            "properties": {
                "name": "BRUGNATO OVEST",
                "id": "3633",
                "brand": "Tamoil",
                "amenity": "fuel",
                "operator": "PETROL BENZ OVEST DI VALENTE DANIEL & C. S.A.S."
            },
            "geometry": {
                "type": "Point",
                "coordinates": [
                    9.73037302494049,
                    44.22606539526116
                ]
            }
        },
        {
            "type": "Feature",
            "properties": {
                "name": "ESSO",
                "id": "30941",
                "brand": "Esso",
                "amenity": "fuel",
                "operator": "MASSOLO ANDREA"
            },
            "geometry": {
                "type": "Point",
                "coordinates": [
                    9.717910390212978,
                    44.22183833158645
                ]
            }
        },
        {
            "type": "Feature",
            "properties": {
                "name": "BRUGNATO EST",
                "id": "29404",
                "brand": "Q8",
                "amenity": "fuel",
                "operator": "SAMPIETRO LUCIA S.A.S. DI CROXATTO ALESSANDRO & C."
            },
            "geometry": {
                "type": "Point",
                "coordinates": [
                    9.730331821533923,
                    44.22686518262386
                ]
            }
        },
        {
            "type": "Feature",
            "properties": {
                "name": "cima pietro &c s.a.s.",
                "id": "12432",
                "brand": "Total Erg",
                "amenity": "fuel",
                "operator": "CIMA PIETRO E C. - S.A.S."
            },
            "geometry": {
                "type": "Point",
                "coordinates": [
                    9.718256243778795,
                    44.23503212802618
                ]
            }
        }
    ]
}