{
    "type": "FeatureCollection",
    "features": [
        {
            "type": "Feature",
            "properties": {
                "name": "CREMA VIA LIBERO COMUNE - DISTR.Q8",
                "id": "10109",
                "brand": "Q8",
                "amenity": "fuel",
                "operator": "SERVIZI & GESTIONI ITALIA S.R.L."
            },
            "geometry": {
                "type": "Point",
                "coordinates": [
                    9.67638322764742,
                    45.356630113277554
                ]
            }
        },
        {
            "type": "Feature",
            "properties": {
                "name": "VANE",
                "id": "24280",
                "brand": "Total Erg",
                "amenity": "fuel",
                "operator": "VANE DI VIGANI ALBERTO"
            },
            "geometry": {
                "type": "Point",
                "coordinates": [
                    9.67613688399206,
                    45.35905955613782
                ]
            }
        },
        {
            "type": "Feature",
            "properties": {
                "name": "MARZIO PROSPERO DAVIDE",
                "id": "30948",
                "brand": "Tamoil",
                "amenity": "fuel",
                "operator": "MARZIO PROSPERO DAVIDE"
            },
            "geometry": {
                "type": "Point",
                "coordinates": [
                    9.669210495078914,
                    45.35775110685968
                ]
            }
        },
        {
            "type": "Feature",
            "properties": {
                "name": "TOTALERG MIC.CRI. DI CANE ROLAND",
                "id": "29318",
                "brand": "Total Erg",
                "amenity": "fuel",
                "operator": "MIC.CRI. DI CANE ROLAND"
            },
            "geometry": {
                "type": "Point",
                "coordinates": [
                    9.695493578910828,
                    45.382265342293856
                ]
            }
        },
        {
            "type": "Feature",
            "properties": {
                "name": "SONCINO",
                "id": "8563",
                "brand": "Ies",
                "amenity": "fuel",
                "operator": "IES ITALIANA ENERGIA E SERVIZI S.P.A."
            },
            "geometry": {
                "type": "Point",
                "coordinates": [
                    9.82551097869873,
                    45.445442796976465
                ]
            }
        },
        {
            "type": "Feature",
            "properties": {
                "name": "ENI",
                "id": "16310",
                "brand": "Agip Eni",
                "amenity": "fuel",
                "operator": "MANDELLI MICHELE"
            },
            "geometry": {
                "type": "Point",
                "coordinates": [
                    9.671684811531122,
                    45.35800512257267
                ]
            }
        },
        {
            "type": "Feature",
            "properties": {
                "name": "Metano e Gpl di Festari Martino e C. snc",
                "id": "18128",
                "amenity": "fuel",
                "operator": "METANO E GPL DI FESTARI MARTINO E C. SNC"
            },
            "geometry": {
                "type": "Point",
                "coordinates": [
                    9.66932326555252,
                    45.37098674170523
                ]
            }
        },
        {
            "type": "Feature",
            "properties": {
                "name": "_ENI 57609",
                "id": "5259",
                "brand": "Agip Eni",
                "amenity": "fuel",
                "operator": "CECCONI E GUERRINI S.N.C."
            },
            "geometry": {
                "type": "Point",
                "coordinates": [
                    9.713864028453827,
                    45.34874550977314
                ]
            }
        },
        {
            "type": "Feature",
            "properties": {
                "name": "STAZIONE IP",
                "id": "12947",
                "brand": "Api-Ip",
                "amenity": "fuel",
                "operator": "BIONDINI STEFANO"
            },
            "geometry": {
                "type": "Point",
                "coordinates": [
                    9.679346680641174,
                    45.368512240552626
                ]
            }
        },
        {
            "type": "Feature",
            "properties": {
                "name": "carlo MILANESI",
                "id": "8720",
                "brand": "Q8",
                "amenity": "fuel",
                "operator": "FUEL & SERVICING DEI F.LLI MILANESI SNC DI MILANESI CARLO & ENRIC O"
            },
            "geometry": {
                "type": "Point",
                "coordinates": [
                    9.678450822830202,
                    45.36735296387436
                ]
            }
        },
        {
            "type": "Feature",
            "properties": {
                "name": "TAMOIL",
                "id": "15578",
                "brand": "Tamoil",
                "amenity": "fuel",
                "operator": "GORNO FERDINANDO"
            },
            "geometry": {
                "type": "Point",
                "coordinates": [
                    9.678129081089764,
                    45.35931505903469
                ]
            }
        },
        {
            "type": "Feature",
            "properties": {
                "name": "esso",
                "id": "28968",
                "brand": "Esso",
                "amenity": "fuel",
                "operator": "PICCIONE PINUCCIA S.A.S DI PINUCCIA PICCIONE"
            },
            "geometry": {
                "type": "Point",
                "coordinates": [
                    9.744701385498045,
                    45.376831501379094
                ]
            }
        },
        {
            "type": "Feature",
            "properties": {
                "name": "STAZIONE ENI FONTANINI",
                "id": "13367",
                "brand": "Agip Eni",
                "amenity": "fuel",
                "operator": "FONTANINI GIANBATTISTA E FONTANINI MARGHERITA - S.N.C."
            },
            "geometry": {
                "type": "Point",
                "coordinates": [
                    9.687242583991972,
                    45.353567665637094
                ]
            }
        },
        {
            "type": "Feature",
            "properties": {
                "name": "arnoldi renato",
                "id": "15253",
                "brand": "Agip Eni",
                "amenity": "fuel",
                "operator": "ARNOLDI RENATO"
            },
            "geometry": {
                "type": "Point",
                "coordinates": [
                    9.67041291296482,
                    45.359161221125795
                ]
            }
        },
        {
            "type": "Feature",
            "properties": {
                "name": "STAZIONE TAMOIL ORSINI",
                "id": "13594",
                "brand": "Tamoil",
                "amenity": "fuel",
                "operator": "ORSINI OSVALDO"
            },
            "geometry": {
                "type": "Point",
                "coordinates": [
                    9.695587992659739,
                    45.36328357820546
                ]
            }
        },
        {
            "type": "Feature",
            "properties": {
                "name": "stazione eni",
                "id": "13323",
                "brand": "Agip Eni",
                "amenity": "fuel",
                "operator": "ZAGHENI GIACOMO"
            },
            "geometry": {
                "type": "Point",
                "coordinates": [
                    9.736426770687103,
                    45.375885678604966
                ]
            }
        },
        {
            "type": "Feature",
            "properties": {
                "name": "CREMA-VIA LIBERO COMUNE 17",
                "id": "11569",
                "brand": "Q8",
                "amenity": "fuel",
                "operator": "SERVIZI & GESTIONI ITALIA S.R.L."
            },
            "geometry": {
                "type": "Point",
                "coordinates": [
                    9.68726093254088,
                    45.35302648947998
                ]
            }
        },
        {
            "type": "Feature",
            "properties": {
                "name": "CREMA S.P. 235 KM. 56+000",
                "id": "21234",
                "brand": "Q8",
                "amenity": "fuel",
                "operator": "SERVIZI & GESTIONI ITALIA S.R.L."
            },
            "geometry": {
                "type": "Point",
                "coordinates": [
                    9.720732375115972,
                    45.368336259058
                ]
            }
        },
        {
            "type": "Feature",
            "properties": {
                "name": "PV 2002",
                "id": "27841",
                "brand": "Agip Eni",
                "amenity": "fuel",
                "operator": "GESTIONI INNOVATIVE ITALIA S.R.L."
            },
            "geometry": {
                "type": "Point",
                "coordinates": [
                    9.700047969818115,
                    45.42135806889199
                ]
            }
        }
    ]
}