{
    "type": "FeatureCollection",
    "features": [
        {
            "type": "Feature",
            "properties": {
                "name": "LA SPEZIA-VIALE ITALIA ANG. VIA DALMAZIA",
                "id": "11838",
                "brand": "Q8",
                "amenity": "fuel",
                "operator": "SERVIZI & GESTIONI ITALIA S.R.L."
            },
            "geometry": {
                "type": "Point",
                "coordinates": [
                    9.83234099140168,
                    44.10938844484747
                ]
            }
        },
        {
            "type": "Feature",
            "properties": {
                "name": "DE IACO Michael",
                "id": "14812",
                "amenity": "fuel",
                "operator": "DE IACO MICHAEL"
            },
            "geometry": {
                "type": "Point",
                "coordinates": [
                    9.842873824389017,
                    44.11766248916327
                ]
            }
        },
        {
            "type": "Feature",
            "properties": {
                "name": "REPSOL",
                "id": "21814",
                "brand": "Repsol",
                "amenity": "fuel",
                "operator": "C & B SERVICE S.A.S. DI BALLESTRACCI ORIETTA"
            },
            "geometry": {
                "type": "Point",
                "coordinates": [
                    9.80907231909998,
                    44.099732083893734
                ]
            }
        },
        {
            "type": "Feature",
            "properties": {
                "name": "Fratelli Pellizzoni S.n.c.",
                "id": "14393",
                "brand": "Agip Eni",
                "amenity": "fuel",
                "operator": "F.LLI PELLIZZONI DI PELLIZZONI ENRICA E C. - S.N.C."
            },
            "geometry": {
                "type": "Point",
                "coordinates": [
                    9.83451783657074,
                    44.11079486145989
                ]
            }
        },
        {
            "type": "Feature",
            "properties": {
                "name": "stazione servizio eni d'imporzano arianna",
                "id": "21420",
                "brand": "Agip Eni",
                "amenity": "fuel",
                "operator": "D'IMPORZANO ARIANNA"
            },
            "geometry": {
                "type": "Point",
                "coordinates": [
                    9.842026680707932,
                    44.113406591557684
                ]
            }
        },
        {
            "type": "Feature",
            "properties": {
                "name": "Enercoop",
                "id": "27882",
                "amenity": "fuel",
                "operator": "COOP LIGURIA SOCIETA' COOPERATIVA DI CONSUMO"
            },
            "geometry": {
                "type": "Point",
                "coordinates": [
                    9.829593541278086,
                    44.11777485888043
                ]
            }
        },
        {
            "type": "Feature",
            "properties": {
                "name": "eni station sacchelli stefania & c sas",
                "id": "10915",
                "brand": "Agip Eni",
                "amenity": "fuel",
                "operator": "SACCHELLI STEFANIA & C  S.A.S"
            },
            "geometry": {
                "type": "Point",
                "coordinates": [
                    9.810463786125183,
                    44.107779346375146
                ]
            }
        },
        {
            "type": "Feature",
            "properties": {
                "name": "Stazione di Servizio Esso di Gaia R.& C. sas",
                "id": "21483",
                "brand": "Esso",
                "amenity": "fuel",
                "operator": "STAZIONE DI SERVIZIO ESSO DI GAIA RINALDO & C. SAS"
            },
            "geometry": {
                "type": "Point",
                "coordinates": [
                    9.843661487102509,
                    44.11885191429479
                ]
            }
        },
        {
            "type": "Feature",
            "properties": {
                "name": "totalerg di beverinotti gabriele",
                "id": "12009",
                "brand": "Total Erg",
                "amenity": "fuel",
                "operator": "BEVERINOTTI GABRIELE"
            },
            "geometry": {
                "type": "Point",
                "coordinates": [
                    9.759107402423979,
                    44.16129042954159
                ]
            }
        },
        {
            "type": "Feature",
            "properties": {
                "name": "Self area ENI",
                "id": "28154",
                "brand": "Agip Eni",
                "amenity": "fuel",
                "operator": "LOFFI STEFANO"
            },
            "geometry": {
                "type": "Point",
                "coordinates": [
                    9.803290218114853,
                    44.118306037461686
                ]
            }
        },
        {
            "type": "Feature",
            "properties": {
                "name": "La Marina",
                "id": "11046",
                "brand": "Total Erg",
                "amenity": "fuel",
                "operator": "LA MARINA DI BATTISTINI ROBERTO E C. - S.A.S."
            },
            "geometry": {
                "type": "Point",
                "coordinates": [
                    9.823853539425727,
                    44.102047963555535
                ]
            }
        },
        {
            "type": "Feature",
            "properties": {
                "name": "DISTRIBUTORE VALGRAVEGLIA",
                "id": "27370",
                "brand": "Api-Ip",
                "amenity": "fuel",
                "operator": "DESTRI SILVANA"
            },
            "geometry": {
                "type": "Point",
                "coordinates": [
                    9.782443322358631,
                    44.15755250614674
                ]
            }
        },
        {
            "type": "Feature",
            "properties": {
                "name": "LA SPEZIA VIALE  AMENDOLA, 234",
                "id": "9174",
                "brand": "Q8",
                "amenity": "fuel",
                "operator": "SERVIZI & GESTIONI ITALIA S.R.L."
            },
            "geometry": {
                "type": "Point",
                "coordinates": [
                    9.80914708954924,
                    44.10855632698367
                ]
            }
        },
        {
            "type": "Feature",
            "properties": {
                "name": "totalreg",
                "id": "15398",
                "brand": "Total Erg",
                "amenity": "fuel",
                "operator": "TORNATORE SIMONE"
            },
            "geometry": {
                "type": "Point",
                "coordinates": [
                    9.808945655822754,
                    44.1014354391111
                ]
            }
        },
        {
            "type": "Feature",
            "properties": {
                "name": "Q8 SAN REMIGIO",
                "id": "31051",
                "brand": "Q8",
                "amenity": "fuel",
                "operator": "SAMPIETRO LUCIA S.A.S. DI CROXATTO ALESSANDRO & C."
            },
            "geometry": {
                "type": "Point",
                "coordinates": [
                    9.812607730299646,
                    44.200002277708734
                ]
            }
        },
        {
            "type": "Feature",
            "properties": {
                "name": "stretti roberto stazione agip",
                "id": "20017",
                "brand": "Agip Eni",
                "amenity": "fuel",
                "operator": "STRETTI ROBERTO DISTRIBUTORE AGIP"
            },
            "geometry": {
                "type": "Point",
                "coordinates": [
                    9.839064180850983,
                    44.11437676531596
                ]
            }
        },
        {
            "type": "Feature",
            "properties": {
                "name": "LA SPEZIA",
                "id": "5546",
                "brand": "Total Erg",
                "amenity": "fuel",
                "operator": "GESTIONI EUROPA S.p.A."
            },
            "geometry": {
                "type": "Point",
                "coordinates": [
                    9.836993122684477,
                    44.113352034492635
                ]
            }
        },
        {
            "type": "Feature",
            "properties": {
                "name": "Di Somma Roberto & C. S.N.C.",
                "id": "14768",
                "brand": "Esso",
                "amenity": "fuel",
                "operator": "DI SOMMA ROBERTO & C. S.N.C."
            },
            "geometry": {
                "type": "Point",
                "coordinates": [
                    9.828937500715256,
                    44.1066488256157
                ]
            }
        }
    ]
}