{
    "type": "FeatureCollection",
    "features": [
        {
            "type": "Feature",
            "properties": {
                "name": "TAMOIL Autofficina Marauto PV6110",
                "id": "31711",
                "brand": "Tamoil",
                "amenity": "fuel",
                "operator": "AUTOFFICINA MARAUTO DI FUSARI MARIO"
            },
            "geometry": {
                "type": "Point",
                "coordinates": [
                    9.695456698536875,
                    45.21265776834736
                ]
            }
        },
        {
            "type": "Feature",
            "properties": {
                "name": "DRASCO SNC",
                "id": "26191",
                "brand": "Esso",
                "amenity": "fuel",
                "operator": "DRASCO S.N.C. DI SCOGLIO ENRICO & C."
            },
            "geometry": {
                "type": "Point",
                "coordinates": [
                    9.712053744180366,
                    45.16009049256972
                ]
            }
        },
        {
            "type": "Feature",
            "properties": {
                "name": "retitalia",
                "id": "28303",
                "brand": "Retitalia",
                "amenity": "fuel",
                "operator": "PESENTI CLEMENTE & C. SNC"
            },
            "geometry": {
                "type": "Point",
                "coordinates": [
                    9.788996206359798,
                    45.18611120346945
                ]
            }
        },
        {
            "type": "Feature",
            "properties": {
                "name": "LV",
                "id": "23530",
                "amenity": "fuel",
                "operator": "LANDINI & VIGNETTI CARBURANTI  S.R.L."
            },
            "geometry": {
                "type": "Point",
                "coordinates": [
                    9.68693196773529,
                    45.09856971895244
                ]
            }
        },
        {
            "type": "Feature",
            "properties": {
                "name": "Tamoil",
                "id": "18366",
                "brand": "Tamoil",
                "amenity": "fuel",
                "operator": "PIZZOCRI GIUSEPPE"
            },
            "geometry": {
                "type": "Point",
                "coordinates": [
                    9.695445279762225,
                    45.2126643014079
                ]
            }
        },
        {
            "type": "Feature",
            "properties": {
                "name": "Start Service",
                "id": "24344",
                "amenity": "fuel",
                "operator": "START SERVICE S.N.C. DI MATTIA MALABARBA & C."
            },
            "geometry": {
                "type": "Point",
                "coordinates": [
                    9.697594350878944,
                    45.148562679362975
                ]
            }
        },
        {
            "type": "Feature",
            "properties": {
                "name": "API",
                "id": "17008",
                "brand": "Api-Ip",
                "amenity": "fuel",
                "operator": "ALBERTARIO ROBERTO"
            },
            "geometry": {
                "type": "Point",
                "coordinates": [
                    9.705071747303009,
                    45.16582248866625
                ]
            }
        },
        {
            "type": "Feature",
            "properties": {
                "name": "API",
                "id": "15981",
                "brand": "Api-Ip",
                "amenity": "fuel",
                "operator": "CALOR SYSTEMS S.P.A."
            },
            "geometry": {
                "type": "Point",
                "coordinates": [
                    9.758941903710365,
                    45.16646848856578
                ]
            }
        },
        {
            "type": "Feature",
            "properties": {
                "name": "ip di calza",
                "id": "13717",
                "brand": "Api-Ip",
                "amenity": "fuel",
                "operator": "CALZA GIANPIERO"
            },
            "geometry": {
                "type": "Point",
                "coordinates": [
                    9.80564720928669,
                    45.183278740763356
                ]
            }
        },
        {
            "type": "Feature",
            "properties": {
                "name": "Erredue snc",
                "id": "4772",
                "amenity": "fuel",
                "operator": "ERREDUE DI ROMAGNOLI GIOVANNI E C. SNC"
            },
            "geometry": {
                "type": "Point",
                "coordinates": [
                    9.684527809639803,
                    45.103816248230615
                ]
            }
        },
        {
            "type": "Feature",
            "properties": {
                "name": "TAMOIL DI INZADI GIOVANNA",
                "id": "10768",
                "brand": "Tamoil",
                "amenity": "fuel",
                "operator": "INZADI GIOVANNA"
            },
            "geometry": {
                "type": "Point",
                "coordinates": [
                    9.695579784061465,
                    45.16458156863693
                ]
            }
        },
        {
            "type": "Feature",
            "properties": {
                "name": "EGO",
                "id": "11969",
                "brand": "Ego",
                "amenity": "fuel",
                "operator": "CORTESI STEFANO"
            },
            "geometry": {
                "type": "Point",
                "coordinates": [
                    9.704080671072008,
                    45.16563867231088
                ]
            }
        },
        {
            "type": "Feature",
            "properties": {
                "name": "TotalErg",
                "id": "18440",
                "brand": "Total Erg",
                "amenity": "fuel",
                "operator": "CESARETTI ANGELICA S.N.C. DI CESARETTI ANGELICA E C."
            },
            "geometry": {
                "type": "Point",
                "coordinates": [
                    9.76322740316391,
                    45.161939526863186
                ]
            }
        },
        {
            "type": "Feature",
            "properties": {
                "name": "PV 2453",
                "id": "27640",
                "brand": "Agip Eni",
                "amenity": "fuel",
                "operator": "GESTIONI INNOVATIVE ITALIA S.R.L."
            },
            "geometry": {
                "type": "Point",
                "coordinates": [
                    9.685123055819759,
                    45.13876324784166
                ]
            }
        },
        {
            "type": "Feature",
            "properties": {
                "name": "DISTRIBUTORE IP \"GRUPPO API\"",
                "id": "19379",
                "brand": "Api-Ip",
                "amenity": "fuel",
                "operator": "TARENZI MARIO"
            },
            "geometry": {
                "type": "Point",
                "coordinates": [
                    9.77921608829115,
                    45.18405385761389
                ]
            }
        },
        {
            "type": "Feature",
            "properties": {
                "name": "FOMBIO",
                "id": "25073",
                "brand": "Api-Ip",
                "amenity": "fuel",
                "operator": "IP SERVICES S.R.L."
            },
            "geometry": {
                "type": "Point",
                "coordinates": [
                    9.686932186508216,
                    45.12193626502632
                ]
            }
        },
        {
            "type": "Feature",
            "properties": {
                "name": "di bajetti walter",
                "id": "24293",
                "brand": "Tamoil",
                "amenity": "fuel",
                "operator": "AREA DI SERVIZIO DI BAJETTI WALTER NATALINO"
            },
            "geometry": {
                "type": "Point",
                "coordinates": [
                    9.791879620237752,
                    45.18563129546853
                ]
            }
        }
    ]
}