{
    "type": "FeatureCollection",
    "features": [
        {
            "type": "Feature",
            "properties": {
                "name": "stazione di servizio",
                "id": "15437",
                "brand": "Api-Ip",
                "amenity": "fuel",
                "operator": "TOMASINI GIAMPRIETO"
            },
            "geometry": {
                "type": "Point",
                "coordinates": [
                    9.672985716886615,
                    45.68276943477137
                ]
            }
        },
        {
            "type": "Feature",
            "properties": {
                "name": "BERGAMO-VIA GHISLANDI 20",
                "id": "11489",
                "brand": "Q8",
                "amenity": "fuel",
                "operator": "SERVIZI & GESTIONI ITALIA S.R.L."
            },
            "geometry": {
                "type": "Point",
                "coordinates": [
                    9.68528314847947,
                    45.69933300574483
                ]
            }
        },
        {
            "type": "Feature",
            "properties": {
                "name": "Tamoil di Panza Giovanbattista",
                "id": "8559",
                "brand": "Tamoil",
                "amenity": "fuel",
                "operator": "PANZA GIOVANBATTISTA"
            },
            "geometry": {
                "type": "Point",
                "coordinates": [
                    9.69117522239685,
                    45.620918794444336
                ]
            }
        },
        {
            "type": "Feature",
            "properties": {
                "name": "STAZIONE DI SERVIZIO TAMOIL",
                "id": "13634",
                "brand": "Tamoil",
                "amenity": "fuel",
                "operator": "PORRETTI FRANCO"
            },
            "geometry": {
                "type": "Point",
                "coordinates": [
                    9.807806274585685,
                    45.62275580629821
                ]
            }
        },
        {
            "type": "Feature",
            "properties": {
                "name": "F.lli Assolari di Umberto e Michela & C",
                "id": "10416",
                "brand": "Q8",
                "amenity": "fuel",
                "operator": "F.LLI ASSOLARI DI UMBERTO E MICHELA & C. S.N.C."
            },
            "geometry": {
                "type": "Point",
                "coordinates": [
                    9.723622664140294,
                    45.705788531706425
                ]
            }
        },
        {
            "type": "Feature",
            "properties": {
                "name": "GORLAGO VIA I MAGGIO 17 STAZ. Q8",
                "id": "6423",
                "brand": "Q8",
                "amenity": "fuel",
                "operator": "SERVIZI & GESTIONI ITALIA srl"
            },
            "geometry": {
                "type": "Point",
                "coordinates": [
                    9.821029101258093,
                    45.664125261073394
                ]
            }
        },
        {
            "type": "Feature",
            "properties": {
                "name": "BERGAMO - VIA CIRCONVALLAZIONE",
                "id": "7303",
                "brand": "Q8",
                "amenity": "fuel",
                "operator": "SERVIZI & GESTIONI ITALIA S.R.L."
            },
            "geometry": {
                "type": "Point",
                "coordinates": [
                    9.694517321426362,
                    45.69798217478182
                ]
            }
        },
        {
            "type": "Feature",
            "properties": {
                "name": "SERIATE-C.SO ROMA",
                "id": "11486",
                "brand": "Shell",
                "amenity": "fuel",
                "operator": "SERVIZI & GESTIONI ITALIA S.R.L."
            },
            "geometry": {
                "type": "Point",
                "coordinates": [
                    9.704350203704848,
                    45.682567459711585
                ]
            }
        },
        {
            "type": "Feature",
            "properties": {
                "name": "Stazione Servizio Erg",
                "id": "10304",
                "brand": "Total Erg",
                "amenity": "fuel",
                "operator": "STAZIONE SERVIZIO ERG - BAR AUTOLAVAGGIO 24H DI PATELLI ANNAMARIA & C. S.N.C."
            },
            "geometry": {
                "type": "Point",
                "coordinates": [
                    9.789706006220968,
                    45.682095258009234
                ]
            }
        },
        {
            "type": "Feature",
            "properties": {
                "name": "ENI 1576",
                "id": "10629",
                "brand": "Agip Eni",
                "amenity": "fuel",
                "operator": "PEZZALI OSVALDO"
            },
            "geometry": {
                "type": "Point",
                "coordinates": [
                    9.702370027230812,
                    45.690407246616964
                ]
            }
        },
        {
            "type": "Feature",
            "properties": {
                "name": "1643",
                "id": "29871",
                "brand": "Agip Eni",
                "amenity": "fuel",
                "operator": "NOLO S.R.L."
            },
            "geometry": {
                "type": "Point",
                "coordinates": [
                    9.718470722436905,
                    45.6392546439855
                ]
            }
        },
        {
            "type": "Feature",
            "properties": {
                "name": "Cosma Fabrizio - Zanica",
                "id": "12537",
                "brand": "Agip Eni",
                "amenity": "fuel",
                "operator": "COSMA FABRIZIO"
            },
            "geometry": {
                "type": "Point",
                "coordinates": [
                    9.683144688606262,
                    45.648303130214515
                ]
            }
        },
        {
            "type": "Feature",
            "properties": {
                "name": "STATALE SONCINESE 498",
                "id": "21602",
                "brand": "Q8",
                "amenity": "fuel",
                "operator": "BENTOGLIO E ROSSI - S.N.C."
            },
            "geometry": {
                "type": "Point",
                "coordinates": [
                    9.731129244844055,
                    45.67759874008999
                ]
            }
        },
        {
            "type": "Feature",
            "properties": {
                "name": "eni",
                "id": "28127",
                "brand": "Agip Eni",
                "amenity": "fuel",
                "operator": "F.LLI CAPELLI E C. S.N.C."
            },
            "geometry": {
                "type": "Point",
                "coordinates": [
                    9.817123711109161,
                    45.673129359559205
                ]
            }
        },
        {
            "type": "Feature",
            "properties": {
                "name": "BERGAMO - DELLE VALLI",
                "id": "27897",
                "brand": "Api-Ip",
                "amenity": "fuel",
                "operator": "IP SERVICES S.R.L."
            },
            "geometry": {
                "type": "Point",
                "coordinates": [
                    9.696294185582017,
                    45.69983231943525
                ]
            }
        },
        {
            "type": "Feature",
            "properties": {
                "name": "Eni/AGIP di rota benvenuto",
                "id": "17988",
                "brand": "Agip Eni",
                "amenity": "fuel",
                "operator": "ROTA BENVENUTO"
            },
            "geometry": {
                "type": "Point",
                "coordinates": [
                    9.761096388101578,
                    45.68574727229294
                ]
            }
        },
        {
            "type": "Feature",
            "properties": {
                "name": "Retitalia",
                "id": "17529",
                "brand": "Retitalia",
                "amenity": "fuel",
                "operator": "ROMEO LOREDANA"
            },
            "geometry": {
                "type": "Point",
                "coordinates": [
                    9.7470198231847,
                    45.652450919116006
                ]
            }
        },
        {
            "type": "Feature",
            "properties": {
                "name": "SAN PAOLO D'ARGON",
                "id": "22456",
                "amenity": "fuel",
                "operator": "DITTA MORZENTI ANTONIO S.R.L."
            },
            "geometry": {
                "type": "Point",
                "coordinates": [
                    9.784768894314766,
                    45.68288145010684
                ]
            }
        },
        {
            "type": "Feature",
            "properties": {
                "name": "lombardoni",
                "id": "10235",
                "brand": "Api-Ip",
                "amenity": "fuel",
                "operator": "LOMBARDONI BENITO DI LOMBARDONI LAURA E ANGELO S.N.C."
            },
            "geometry": {
                "type": "Point",
                "coordinates": [
                    9.809395354631079,
                    45.59182835383336
                ]
            }
        },
        {
            "type": "Feature",
            "properties": {
                "name": "Esso Mariva snc",
                "id": "26245",
                "brand": "Esso",
                "amenity": "fuel",
                "operator": "MARIVA S.N.C. DI MANENTI IVAN  &  C."
            },
            "geometry": {
                "type": "Point",
                "coordinates": [
                    9.71764862537384,
                    45.67294831199376
                ]
            }
        },
        {
            "type": "Feature",
            "properties": {
                "name": "foresti giacomo",
                "id": "8865",
                "brand": "Api-Ip",
                "amenity": "fuel",
                "operator": "FORESTI GIACOMO"
            },
            "geometry": {
                "type": "Point",
                "coordinates": [
                    9.837793273008629,
                    45.58521583398344
                ]
            }
        },
        {
            "type": "Feature",
            "properties": {
                "name": "pompa bianca",
                "id": "16130",
                "amenity": "fuel",
                "operator": "G.M. SERVIZI AUTO S.N.C. DI GELMINI MARIO E MICHAEL"
            },
            "geometry": {
                "type": "Point",
                "coordinates": [
                    9.713458093254074,
                    45.704569403504
                ]
            }
        },
        {
            "type": "Feature",
            "properties": {
                "name": "BERGAMO BORGO PALAZZO 187",
                "id": "6452",
                "brand": "Q8",
                "amenity": "fuel",
                "operator": "SERVIZI & GESTIONI ITALIA srl"
            },
            "geometry": {
                "type": "Point",
                "coordinates": [
                    9.699706106745907,
                    45.6912308098601
                ]
            }
        },
        {
            "type": "Feature",
            "properties": {
                "name": "sidoni massimo Q8",
                "id": "16313",
                "brand": "Q8",
                "amenity": "fuel",
                "operator": "SIDONI MASSIMO"
            },
            "geometry": {
                "type": "Point",
                "coordinates": [
                    9.838243424892426,
                    45.65413116116016
                ]
            }
        },
        {
            "type": "Feature",
            "properties": {
                "name": "MONTELLO",
                "id": "5775",
                "brand": "Total Erg",
                "amenity": "fuel",
                "operator": "TotalErg SpA"
            },
            "geometry": {
                "type": "Point",
                "coordinates": [
                    9.808178233135209,
                    45.67296225159723
                ]
            }
        },
        {
            "type": "Feature",
            "properties": {
                "name": "A. & A. di Rossi A. & C. s.a.s.",
                "id": "6213",
                "brand": "Q8",
                "amenity": "fuel",
                "operator": "A & A DI ROSSI A. & C. S.A.S."
            },
            "geometry": {
                "type": "Point",
                "coordinates": [
                    9.672400976057475,
                    45.6781041281821
                ]
            }
        },
        {
            "type": "Feature",
            "properties": {
                "name": "kuwait",
                "id": "10057",
                "brand": "Q8",
                "amenity": "fuel",
                "operator": "F.LLI FOIENI GIUSEPPE E PIETRO S.N.C."
            },
            "geometry": {
                "type": "Point",
                "coordinates": [
                    9.705225974321365,
                    45.583706117903844
                ]
            }
        },
        {
            "type": "Feature",
            "properties": {
                "name": "BAGNATICA",
                "id": "5518",
                "brand": "Total Erg",
                "amenity": "fuel",
                "operator": "GESTIONI EUROPA S.p.A."
            },
            "geometry": {
                "type": "Point",
                "coordinates": [
                    9.785804775463133,
                    45.65504349604096
                ]
            }
        },
        {
            "type": "Feature",
            "properties": {
                "name": "STAZIONE DI SERVIZIO GALDINI",
                "id": "13723",
                "brand": "Agip Eni",
                "amenity": "fuel",
                "operator": "STAZIONE DI SERVIZIO GALDINI S.N.C. DI GALDINI CARLO & C."
            },
            "geometry": {
                "type": "Point",
                "coordinates": [
                    9.76289991534418,
                    45.69712328714157
                ]
            }
        },
        {
            "type": "Feature",
            "properties": {
                "name": "ESSO SERVICE S.A.S.",
                "id": "28174",
                "brand": "Esso",
                "amenity": "fuel",
                "operator": "ESSO SERVICE SAS DI ASSI GIANCARLO, VALENTINA & C."
            },
            "geometry": {
                "type": "Point",
                "coordinates": [
                    9.72614841372274,
                    45.68524166091424
                ]
            }
        },
        {
            "type": "Feature",
            "properties": {
                "name": "cornago severo",
                "id": "16652",
                "brand": "Api-Ip",
                "amenity": "fuel",
                "operator": "CORNAGO SEVERO"
            },
            "geometry": {
                "type": "Point",
                "coordinates": [
                    9.808585058860784,
                    45.59884142258003
                ]
            }
        },
        {
            "type": "Feature",
            "properties": {
                "name": "ESSO",
                "id": "18966",
                "brand": "Esso",
                "amenity": "fuel",
                "operator": "GM S.A.S. DI DAINI MARZIA E C."
            },
            "geometry": {
                "type": "Point",
                "coordinates": [
                    9.737209975719452,
                    45.66083215962228
                ]
            }
        },
        {
            "type": "Feature",
            "properties": {
                "name": "AGIP",
                "id": "29677",
                "brand": "Agip Eni",
                "amenity": "fuel",
                "operator": "BAITELLI VALERIO"
            },
            "geometry": {
                "type": "Point",
                "coordinates": [
                    9.807751402258873,
                    45.632490108145774
                ]
            }
        },
        {
            "type": "Feature",
            "properties": {
                "name": "ERNESTO RONDINI SRL",
                "id": "26624",
                "brand": "Ernesto Rondini",
                "amenity": "fuel",
                "operator": "ERNESTO RONDINI S.R.L."
            },
            "geometry": {
                "type": "Point",
                "coordinates": [
                    9.686588220901513,
                    45.70155729667968
                ]
            }
        },
        {
            "type": "Feature",
            "properties": {
                "name": "STAZIONE DI SERVIZIO DI CARBURANTE Q8 DI NORIS G",
                "id": "31826",
                "brand": "Q8",
                "amenity": "fuel",
                "operator": "NORIS GIUSEPPE"
            },
            "geometry": {
                "type": "Point",
                "coordinates": [
                    9.721062988954941,
                    45.6599277587689
                ]
            }
        },
        {
            "type": "Feature",
            "properties": {
                "name": "Bergamo Via Borgo Palazzo",
                "id": "26763",
                "brand": "Total Erg",
                "amenity": "fuel",
                "operator": "GESTIONI EUROPA - SOCIETA' PER AZIONI"
            },
            "geometry": {
                "type": "Point",
                "coordinates": [
                    9.697929292933622,
                    45.691767600392026
                ]
            }
        },
        {
            "type": "Feature",
            "properties": {
                "name": "ZANICA",
                "id": "5776",
                "brand": "Total Erg",
                "amenity": "fuel",
                "operator": "TotalErg SpA"
            },
            "geometry": {
                "type": "Point",
                "coordinates": [
                    9.707625853229386,
                    45.64530849294484
                ]
            }
        },
        {
            "type": "Feature",
            "properties": {
                "name": "TOTALERG",
                "id": "7581",
                "brand": "Total Erg",
                "amenity": "fuel",
                "operator": "BREVI ALESSANDRO"
            },
            "geometry": {
                "type": "Point",
                "coordinates": [
                    9.83449637889862,
                    45.69419210554788
                ]
            }
        },
        {
            "type": "Feature",
            "properties": {
                "name": "Agip imp. 1553 di Landri Paolo",
                "id": "4875",
                "brand": "Agip Eni",
                "amenity": "fuel",
                "operator": "LANDRI PAOLO ROBERTO"
            },
            "geometry": {
                "type": "Point",
                "coordinates": [
                    9.752053320407867,
                    45.64310906456552
                ]
            }
        },
        {
            "type": "Feature",
            "properties": {
                "name": "DISTRIBUTORE ESSO",
                "id": "29269",
                "brand": "Esso",
                "amenity": "fuel",
                "operator": "2C SAS DI CHIAPPARINI RAMONA & C."
            },
            "geometry": {
                "type": "Point",
                "coordinates": [
                    9.685755612831258,
                    45.69069206278745
                ]
            }
        },
        {
            "type": "Feature",
            "properties": {
                "name": "2695",
                "id": "30919",
                "brand": "Tamoil",
                "amenity": "fuel",
                "operator": "T.D.M. S.R.L."
            },
            "geometry": {
                "type": "Point",
                "coordinates": [
                    9.677906334400177,
                    45.68848137789733
                ]
            }
        },
        {
            "type": "Feature",
            "properties": {
                "name": "AZZANO SAN PAOLO - VIA CREMASCA 28",
                "id": "31849",
                "brand": "Q8",
                "amenity": "fuel",
                "operator": "SERVIZI & GESTIONI ITALIA S.R.L."
            },
            "geometry": {
                "type": "Point",
                "coordinates": [
                    9.67961973617628,
                    45.661106125401595
                ]
            }
        },
        {
            "type": "Feature",
            "properties": {
                "name": "SOMMESE URGNANO",
                "id": "28623",
                "brand": "Esso",
                "amenity": "fuel",
                "operator": "SOMMESE CARBURANTE S.R.L."
            },
            "geometry": {
                "type": "Point",
                "coordinates": [
                    9.704639911651611,
                    45.59033970909227
                ]
            }
        },
        {
            "type": "Feature",
            "properties": {
                "name": "TOTAL-ERG",
                "id": "25841",
                "brand": "Total Erg",
                "amenity": "fuel",
                "operator": "PREDA MASSIMO"
            },
            "geometry": {
                "type": "Point",
                "coordinates": [
                    9.841378927230835,
                    45.65292000661521
                ]
            }
        },
        {
            "type": "Feature",
            "properties": {
                "name": "SERIATE",
                "id": "5432",
                "brand": "Agip Eni",
                "amenity": "fuel",
                "operator": "enirete oil&nonoil S.p.A."
            },
            "geometry": {
                "type": "Point",
                "coordinates": [
                    9.741097837686539,
                    45.684079589280294
                ]
            }
        },
        {
            "type": "Feature",
            "properties": {
                "name": "Nuovi impianti di carrara michele",
                "id": "6373",
                "brand": "Agip Eni",
                "amenity": "fuel",
                "operator": "NUOVI IMPIANTI DI CARRARA MICHELE"
            },
            "geometry": {
                "type": "Point",
                "coordinates": [
                    9.68027789741018,
                    45.69465366207806
                ]
            }
        },
        {
            "type": "Feature",
            "properties": {
                "name": "stazione di servizio q8 di Loda Enzo",
                "id": "17760",
                "brand": "Q8",
                "amenity": "fuel",
                "operator": "LODA ENZO"
            },
            "geometry": {
                "type": "Point",
                "coordinates": [
                    9.718696027994156,
                    45.66318624235246
                ]
            }
        },
        {
            "type": "Feature",
            "properties": {
                "name": "via Autostrada 14 [57759]",
                "id": "13003",
                "brand": "Esso",
                "amenity": "fuel",
                "operator": "STE.MAR S.R.L."
            },
            "geometry": {
                "type": "Point",
                "coordinates": [
                    9.66834582824174,
                    45.68642489259134
                ]
            }
        },
        {
            "type": "Feature",
            "properties": {
                "name": "DUE ELLE s.n.c.",
                "id": "5287",
                "brand": "Api-Ip",
                "amenity": "fuel",
                "operator": "DUE ELLE S.N.C. DI LIZZOLA MASSIMILIANO E LOCATELLI PAOLO"
            },
            "geometry": {
                "type": "Point",
                "coordinates": [
                    9.711055755615234,
                    45.68826519213804
                ]
            }
        },
        {
            "type": "Feature",
            "properties": {
                "name": "PV Pedrengo",
                "id": "31789",
                "amenity": "fuel",
                "operator": "TRUSSARDI PETROLI SPA"
            },
            "geometry": {
                "type": "Point",
                "coordinates": [
                    9.756502355819748,
                    45.69763948050284
                ]
            }
        },
        {
            "type": "Feature",
            "properties": {
                "name": "agip",
                "id": "29337",
                "brand": "Agip Eni",
                "amenity": "fuel",
                "operator": "M.M. DI MEDICA MARCO E C. S.N.C."
            },
            "geometry": {
                "type": "Point",
                "coordinates": [
                    9.71866250038147,
                    45.638923084666516
                ]
            }
        },
        {
            "type": "Feature",
            "properties": {
                "name": "STAZIONE DI SERVIZO FULL SERVICES.A.S.DI LAMORTE VITO MICHELE & C.",
                "id": "29511",
                "amenity": "fuel",
                "operator": "FULL SERVICE SAS DI LAMORTE VITO MICHELE & C."
            },
            "geometry": {
                "type": "Point",
                "coordinates": [
                    9.728425741195677,
                    45.587911988318204
                ]
            }
        },
        {
            "type": "Feature",
            "properties": {
                "name": "A&G",
                "id": "4293",
                "brand": "Agip Eni",
                "amenity": "fuel",
                "operator": "A E G DI BELOTTI GIANGIACOMO E C. S.N.C."
            },
            "geometry": {
                "type": "Point",
                "coordinates": [
                    9.839211203427112,
                    45.69083272624912
                ]
            }
        },
        {
            "type": "Feature",
            "properties": {
                "name": "SERIATE - VIA NAZIONALE",
                "id": "22457",
                "amenity": "fuel",
                "operator": "DITTA MORZENTI ANTONIO S.R.L."
            },
            "geometry": {
                "type": "Point",
                "coordinates": [
                    9.728490550926153,
                    45.68527073789514
                ]
            }
        },
        {
            "type": "Feature",
            "properties": {
                "name": "Trex 2.0",
                "id": "29304",
                "brand": "Esso",
                "amenity": "fuel",
                "operator": "TREX S.R.L."
            },
            "geometry": {
                "type": "Point",
                "coordinates": [
                    9.761218361536748,
                    45.682319345456634
                ]
            }
        },
        {
            "type": "Feature",
            "properties": {
                "name": "Distributore Eni",
                "id": "7327",
                "brand": "Agip Eni",
                "amenity": "fuel",
                "operator": "EMPIREO SALVATORE"
            },
            "geometry": {
                "type": "Point",
                "coordinates": [
                    9.684927016496658,
                    45.68627023997114
                ]
            }
        },
        {
            "type": "Feature",
            "properties": {
                "name": "IES",
                "id": "19834",
                "brand": "Ies",
                "amenity": "fuel",
                "operator": "MARTINELLI DANIELE"
            },
            "geometry": {
                "type": "Point",
                "coordinates": [
                    9.76639659247735,
                    45.68458050942296
                ]
            }
        },
        {
            "type": "Feature",
            "properties": {
                "name": "Seriate",
                "id": "4642",
                "brand": "Tamoil",
                "amenity": "fuel",
                "operator": "NUOVA SIDAP  S.R.L."
            },
            "geometry": {
                "type": "Point",
                "coordinates": [
                    9.706686437129976,
                    45.67783264386669
                ]
            }
        },
        {
            "type": "Feature",
            "properties": {
                "name": "MAC CONTINI BERGAMO",
                "id": "14707",
                "brand": "Agip Eni",
                "amenity": "fuel",
                "operator": "M.A.C. METANO AUTOTRAZIONE CONTINI S.N.C. DI MONDELLI VITTORIA & C."
            },
            "geometry": {
                "type": "Point",
                "coordinates": [
                    9.678002893924713,
                    45.66483692808588
                ]
            }
        },
        {
            "type": "Feature",
            "properties": {
                "name": "distributore ip",
                "id": "16570",
                "brand": "Api-Ip",
                "amenity": "fuel",
                "operator": "CORNAGO SEVERO"
            },
            "geometry": {
                "type": "Point",
                "coordinates": [
                    9.690657052778647,
                    45.69388487099713
                ]
            }
        },
        {
            "type": "Feature",
            "properties": {
                "name": "PALOSCO SS 573",
                "id": "22451",
                "amenity": "fuel",
                "operator": "DITTA MORZENTI ANTONIO S.R.L."
            },
            "geometry": {
                "type": "Point",
                "coordinates": [
                    9.819402766864757,
                    45.596996506975614
                ]
            }
        },
        {
            "type": "Feature",
            "properties": {
                "name": "TAMOIL",
                "id": "14315",
                "brand": "Tamoil",
                "amenity": "fuel",
                "operator": "4ERRE DI ROSSONI GIANCARLO & C. S.N.C."
            },
            "geometry": {
                "type": "Point",
                "coordinates": [
                    9.768029227852821,
                    45.59139380354948
                ]
            }
        },
        {
            "type": "Feature",
            "properties": {
                "name": "CMB CARBURANTI",
                "id": "19985",
                "amenity": "fuel",
                "operator": "CMB CARBURANTI MILESI BERGAMO S.R.L."
            },
            "geometry": {
                "type": "Point",
                "coordinates": [
                    9.80393461883068,
                    45.656104012133
                ]
            }
        },
        {
            "type": "Feature",
            "properties": {
                "name": "SERIATE",
                "id": "24148",
                "amenity": "fuel",
                "operator": "IPER MONTEBELLO S.P.A."
            },
            "geometry": {
                "type": "Point",
                "coordinates": [
                    9.742543548345566,
                    45.68094908279095
                ]
            }
        },
        {
            "type": "Feature",
            "properties": {
                "name": "STAZIONE DI SERVIZIO PREVITALI EMANUEL",
                "id": "7367",
                "brand": "Ernesto Rondini",
                "amenity": "fuel",
                "operator": "PREVITALI  EMANUEL"
            },
            "geometry": {
                "type": "Point",
                "coordinates": [
                    9.778866693377495,
                    45.61780164003756
                ]
            }
        },
        {
            "type": "Feature",
            "properties": {
                "name": "eni",
                "id": "7722",
                "brand": "Agip Eni",
                "amenity": "fuel",
                "operator": "ZATTI PIERLORENZO"
            },
            "geometry": {
                "type": "Point",
                "coordinates": [
                    9.791956543922424,
                    45.684717062302326
                ]
            }
        },
        {
            "type": "Feature",
            "properties": {
                "name": "BERGAMO-VIA A.MAY 7/C",
                "id": "11482",
                "brand": "Q8",
                "amenity": "fuel",
                "operator": "SERVIZI & GESTIONI ITALIA S.R.L."
            },
            "geometry": {
                "type": "Point",
                "coordinates": [
                    9.677001516532869,
                    45.69395995197229
                ]
            }
        },
        {
            "type": "Feature",
            "properties": {
                "name": "Idea snc",
                "id": "4706",
                "amenity": "fuel",
                "operator": "IDEA DI CARMINATI MAURIZIO E SERGIO S.N.C."
            },
            "geometry": {
                "type": "Point",
                "coordinates": [
                    9.669371545314789,
                    45.593003812015674
                ]
            }
        },
        {
            "type": "Feature",
            "properties": {
                "name": "AMP",
                "id": "17543",
                "amenity": "fuel",
                "operator": "ROMEO LOREDANA"
            },
            "geometry": {
                "type": "Point",
                "coordinates": [
                    9.828043657189937,
                    45.66658866451956
                ]
            }
        },
        {
            "type": "Feature",
            "properties": {
                "name": "AGIP DI MAFIBEL",
                "id": "31204",
                "brand": "Agip Eni",
                "amenity": "fuel",
                "operator": "MAFIBEL DI MARCO FIORI BELLOTTI & C. S.A.S."
            },
            "geometry": {
                "type": "Point",
                "coordinates": [
                    9.679359240822578,
                    45.59279812999314
                ]
            }
        },
        {
            "type": "Feature",
            "properties": {
                "name": "TOTAL ERG",
                "id": "12141",
                "brand": "Total Erg",
                "amenity": "fuel",
                "operator": "D.M. CARBURANTI DI MAESTRI DANNY"
            },
            "geometry": {
                "type": "Point",
                "coordinates": [
                    9.807473868131638,
                    45.6061348264133
                ]
            }
        },
        {
            "type": "Feature",
            "properties": {
                "name": "AGIP 01648",
                "id": "13126",
                "brand": "Agip Eni",
                "amenity": "fuel",
                "operator": "FARRUKU SHKELQIM"
            },
            "geometry": {
                "type": "Point",
                "coordinates": [
                    9.757032738267299,
                    45.59753469375868
                ]
            }
        },
        {
            "type": "Feature",
            "properties": {
                "name": "SERIATE-SS 42 snc",
                "id": "11496",
                "brand": "Q8",
                "amenity": "fuel",
                "operator": "SERVIZI & GESTIONI ITALIA S.R.L."
            },
            "geometry": {
                "type": "Point",
                "coordinates": [
                    9.736555516719818,
                    45.661557253158634
                ]
            }
        },
        {
            "type": "Feature",
            "properties": {
                "name": "Stazione di Servizio  Cominardi Claudia",
                "id": "23564",
                "brand": "Agip Eni",
                "amenity": "fuel",
                "operator": "COMINARDI CLAUDIA"
            },
            "geometry": {
                "type": "Point",
                "coordinates": [
                    9.793386161327362,
                    45.596883746320444
                ]
            }
        }
    ]
}