{
    "type": "FeatureCollection",
    "features": [
        {
            "type": "Feature",
            "properties": {
                "name": "PIACENZA TANG. SUD DIREZIONE PAVIA",
                "id": "6469",
                "brand": "Q8",
                "amenity": "fuel",
                "operator": "SERVIZI & GESTIONI ITALIA srl"
            },
            "geometry": {
                "type": "Point",
                "coordinates": [
                    9.731073081493378,
                    45.02622021875617
                ]
            }
        },
        {
            "type": "Feature",
            "properties": {
                "name": "self area eni poggi & poggi snc",
                "id": "13285",
                "brand": "Agip Eni",
                "amenity": "fuel",
                "operator": "POGGI & POGGI S.N.C. DI LUIGI E FAUSTO POGGI"
            },
            "geometry": {
                "type": "Point",
                "coordinates": [
                    9.680577711639444,
                    45.042134305330556
                ]
            }
        },
        {
            "type": "Feature",
            "properties": {
                "name": "PIACENZA MANFREDI ANG. VIA GUERRA",
                "id": "6464",
                "brand": "Q8",
                "amenity": "fuel",
                "operator": "SERVIZI & GESTIONI ITALIA srl"
            },
            "geometry": {
                "type": "Point",
                "coordinates": [
                    9.684019088745117,
                    45.03713257474573
                ]
            }
        },
        {
            "type": "Feature",
            "properties": {
                "name": "LE MOSE",
                "id": "10043",
                "brand": "Tamoil",
                "amenity": "fuel",
                "operator": "NURE - S.A.S. DI RAUL CRESCIMANNA & C."
            },
            "geometry": {
                "type": "Point",
                "coordinates": [
                    9.738968163728714,
                    45.042916219835305
                ]
            }
        },
        {
            "type": "Feature",
            "properties": {
                "name": "PIACENZA TANG. SUD DIREZIONE PARMA",
                "id": "6470",
                "brand": "Q8",
                "amenity": "fuel",
                "operator": "SERVIZI & GESTIONI ITALIA srl"
            },
            "geometry": {
                "type": "Point",
                "coordinates": [
                    9.731419086456299,
                    45.02561547451758
                ]
            }
        },
        {
            "type": "Feature",
            "properties": {
                "name": "Eni",
                "id": "31881",
                "brand": "Agip Eni",
                "amenity": "fuel",
                "operator": "S.Z. CARBURANTI S.N.C. DI ZONNO VINCENZO E SESENNA MARCO"
            },
            "geometry": {
                "type": "Point",
                "coordinates": [
                    9.706054776906967,
                    45.043150464427114
                ]
            }
        },
        {
            "type": "Feature",
            "properties": {
                "name": "self area eni di longeri pierluigi",
                "id": "27521",
                "brand": "Agip Eni",
                "amenity": "fuel",
                "operator": "LONGERI PIERLUIGI"
            },
            "geometry": {
                "type": "Point",
                "coordinates": [
                    9.76171463727951,
                    45.01488408768884
                ]
            }
        },
        {
            "type": "Feature",
            "properties": {
                "name": "S&MdiSCAGNELLIGIOVANNI&C.SNC",
                "id": "4578",
                "brand": "Agip Eni",
                "amenity": "fuel",
                "operator": "S & M DI SCAGNELLI GIOVANNI E C. S.N.C."
            },
            "geometry": {
                "type": "Point",
                "coordinates": [
                    9.702850878238678,
                    45.02885372026421
                ]
            }
        },
        {
            "type": "Feature",
            "properties": {
                "name": "METANO PIACENZA",
                "id": "10852",
                "amenity": "fuel",
                "operator": "METANO PIACENZA DI ROBERTO ILLICA - MAGRINI & MAURO PARTEL S.N.C."
            },
            "geometry": {
                "type": "Point",
                "coordinates": [
                    9.732060836056462,
                    45.04394148570063
                ]
            }
        },
        {
            "type": "Feature",
            "properties": {
                "name": "PIACENZA VIA EM.PARMENSE 91",
                "id": "6462",
                "brand": "Q8",
                "amenity": "fuel",
                "operator": "SERVIZI & GESTIONI ITALIA srl"
            },
            "geometry": {
                "type": "Point",
                "coordinates": [
                    9.727590561376928,
                    45.03452744498643
                ]
            }
        },
        {
            "type": "Feature",
            "properties": {
                "name": "eni di pancotti antonio",
                "id": "19420",
                "brand": "Agip Eni",
                "amenity": "fuel",
                "operator": "PANCOTTI ANTONIO"
            },
            "geometry": {
                "type": "Point",
                "coordinates": [
                    9.675712677384922,
                    45.0440310448355
                ]
            }
        },
        {
            "type": "Feature",
            "properties": {
                "name": "NURE SUD",
                "id": "3498",
                "brand": "Total Erg",
                "amenity": "fuel",
                "operator": "PARETI FRATELLI EUGENIO E PIETRO S.N.C."
            },
            "geometry": {
                "type": "Point",
                "coordinates": [
                    9.761470556259155,
                    45.050443407380754
                ]
            }
        },
        {
            "type": "Feature",
            "properties": {
                "name": "ENI",
                "id": "13848",
                "brand": "Agip Eni",
                "amenity": "fuel",
                "operator": "CLINI FABIO"
            },
            "geometry": {
                "type": "Point",
                "coordinates": [
                    9.684521836245722,
                    45.037632366231435
                ]
            }
        },
        {
            "type": "Feature",
            "properties": {
                "name": "Stazione di Servizio Auchan/eni",
                "id": "7062",
                "brand": "Agip Eni",
                "amenity": "fuel",
                "operator": "AUCHAN S.P.A."
            },
            "geometry": {
                "type": "Point",
                "coordinates": [
                    9.708140194416046,
                    45.07257275466459
                ]
            }
        },
        {
            "type": "Feature",
            "properties": {
                "name": "STRADA FARNESIANA - PIACENZA.",
                "id": "7305",
                "brand": "Q8",
                "amenity": "fuel",
                "operator": "SERVIZI & GESTIONI ITALIA S.R.L."
            },
            "geometry": {
                "type": "Point",
                "coordinates": [
                    9.717103711639425,
                    45.02620864743017
                ]
            }
        },
        {
            "type": "Feature",
            "properties": {
                "name": "PV 02686",
                "id": "6805",
                "brand": "Agip Eni",
                "amenity": "fuel",
                "operator": "DEVOTI STEFANO"
            },
            "geometry": {
                "type": "Point",
                "coordinates": [
                    9.706034660339355,
                    45.04315084348611
                ]
            }
        },
        {
            "type": "Feature",
            "properties": {
                "name": "MAGIC DI PICCOLI MARCO E C. SNC - DISTRIBUTORE ENI",
                "id": "19842",
                "brand": "Agip Eni",
                "amenity": "fuel",
                "operator": "MAGIC DI PICCOLI MARCO E C. S.N.C."
            },
            "geometry": {
                "type": "Point",
                "coordinates": [
                    9.728069007396698,
                    45.04517599621339
                ]
            }
        },
        {
            "type": "Feature",
            "properties": {
                "name": "PIACENZA VIA CONCILIAZIONE  51",
                "id": "6465",
                "brand": "Q8",
                "amenity": "fuel",
                "operator": "SERVIZI & GESTIONI ITALIA srl"
            },
            "geometry": {
                "type": "Point",
                "coordinates": [
                    9.705582045368942,
                    45.04218201915507
                ]
            }
        },
        {
            "type": "Feature",
            "properties": {
                "name": "esso montale",
                "id": "9776",
                "brand": "Esso",
                "amenity": "fuel",
                "operator": "B.R.E.D. SN.C DI ELENA ROSSETTI & C."
            },
            "geometry": {
                "type": "Point",
                "coordinates": [
                    9.74578231573105,
                    45.02401960144171
                ]
            }
        },
        {
            "type": "Feature",
            "properties": {
                "name": "NURE NORD",
                "id": "3531",
                "brand": "Tamoil",
                "amenity": "fuel",
                "operator": "NURE - S.A.S. DI RAUL CRESCIMANNA & C."
            },
            "geometry": {
                "type": "Point",
                "coordinates": [
                    9.760499596595764,
                    45.05118318630815
                ]
            }
        },
        {
            "type": "Feature",
            "properties": {
                "name": "agip",
                "id": "30066",
                "brand": "Agip Eni",
                "amenity": "fuel",
                "operator": "MAGNANI SABRINA"
            },
            "geometry": {
                "type": "Point",
                "coordinates": [
                    9.670860841870308,
                    45.03615303468514
                ]
            }
        },
        {
            "type": "Feature",
            "properties": {
                "name": "Staz. di servizio Q8 Antenucci s.n.c.",
                "id": "15602",
                "brand": "Q8",
                "amenity": "fuel",
                "operator": "ANTENUCCI S.N.C. DI GIOVANNI E MASSIMO ANTENUCCI"
            },
            "geometry": {
                "type": "Point",
                "coordinates": [
                    9.69465527354123,
                    45.03579569540306
                ]
            }
        },
        {
            "type": "Feature",
            "properties": {
                "name": "FILIPPI PAOLO",
                "id": "23269",
                "brand": "Agip Eni",
                "amenity": "fuel",
                "operator": "FILIPPI PAOLO"
            },
            "geometry": {
                "type": "Point",
                "coordinates": [
                    9.779828935861586,
                    45.004815208938204
                ]
            }
        },
        {
            "type": "Feature",
            "properties": {
                "name": "TACCHINI CARBURANTI SRL",
                "id": "31081",
                "amenity": "fuel",
                "operator": "TACCHINI CARBURANTI S.R.L."
            },
            "geometry": {
                "type": "Point",
                "coordinates": [
                    9.747759103775024,
                    45.03845932439836
                ]
            }
        },
        {
            "type": "Feature",
            "properties": {
                "name": "PIACENZA LOC SANTA FRANCA",
                "id": "7304",
                "brand": "Q8",
                "amenity": "fuel",
                "operator": "SERVIZI & GESTIONI ITALIA S.R.L."
            },
            "geometry": {
                "type": "Point",
                "coordinates": [
                    9.67634251058962,
                    45.03038858739858
                ]
            }
        },
        {
            "type": "Feature",
            "properties": {
                "name": "Area di servizio Pontenure",
                "id": "20468",
                "amenity": "fuel",
                "operator": "PETROL-FIN S.R.L."
            },
            "geometry": {
                "type": "Point",
                "coordinates": [
                    9.80149536725969,
                    44.99195992939088
                ]
            }
        },
        {
            "type": "Feature",
            "properties": {
                "name": "Q8  ROSSI PAOLO",
                "id": "4251",
                "brand": "Q8",
                "amenity": "fuel",
                "operator": "ROSSI PAOLO  - DISTRUBITORE CARBURANTE"
            },
            "geometry": {
                "type": "Point",
                "coordinates": [
                    9.689763741000434,
                    45.0240826214657
                ]
            }
        },
        {
            "type": "Feature",
            "properties": {
                "name": "EUROPAM VIA MANFREDI",
                "id": "12895",
                "amenity": "fuel",
                "operator": "EUROPAM S.R.L."
            },
            "geometry": {
                "type": "Point",
                "coordinates": [
                    9.683302709862915,
                    45.04329810233164
                ]
            }
        },
        {
            "type": "Feature",
            "properties": {
                "name": "tamoil stazione di servizio di singh kulwinder",
                "id": "25711",
                "brand": "Tamoil",
                "amenity": "fuel",
                "operator": "SINGH KULWINDER"
            },
            "geometry": {
                "type": "Point",
                "coordinates": [
                    9.669743776321411,
                    45.0035703771849
                ]
            }
        },
        {
            "type": "Feature",
            "properties": {
                "name": "TOTALERG",
                "id": "28163",
                "brand": "Total Erg",
                "amenity": "fuel",
                "operator": "MARCO MARUFFI E C. S.A.S."
            },
            "geometry": {
                "type": "Point",
                "coordinates": [
                    9.6862456162728,
                    45.02916323009561
                ]
            }
        },
        {
            "type": "Feature",
            "properties": {
                "name": "PIACENZA CELLA",
                "id": "23211",
                "brand": "Q8",
                "amenity": "fuel",
                "operator": "SERVIZI & GESTIONI ITALIA S.R.L."
            },
            "geometry": {
                "type": "Point",
                "coordinates": [
                    9.673015974868804,
                    45.045124073720295
                ]
            }
        },
        {
            "type": "Feature",
            "properties": {
                "name": "Q8 ROSSI PAOLO 1829",
                "id": "28192",
                "brand": "Q8",
                "amenity": "fuel",
                "operator": "ROSSI PAOLO  - DISTRUBITORE CARBURANTE"
            },
            "geometry": {
                "type": "Point",
                "coordinates": [
                    9.688879251480103,
                    45.02392784397662
                ]
            }
        },
        {
            "type": "Feature",
            "properties": {
                "name": "CUSENZA GASPARE",
                "id": "7552",
                "brand": "Esso",
                "amenity": "fuel",
                "operator": "CUSENZA GASPARE"
            },
            "geometry": {
                "type": "Point",
                "coordinates": [
                    9.736601114273071,
                    45.04335590142241
                ]
            }
        },
        {
            "type": "Feature",
            "properties": {
                "name": "Q8",
                "id": "7920",
                "brand": "Q8",
                "amenity": "fuel",
                "operator": "PROVINI LUISELLA"
            },
            "geometry": {
                "type": "Point",
                "coordinates": [
                    9.723093488885523,
                    45.03711783696911
                ]
            }
        },
        {
            "type": "Feature",
            "properties": {
                "name": "L.T.P SRL",
                "id": "15482",
                "amenity": "fuel",
                "operator": "L.T.P. LOGISTICA TRASPORTI PIACENZA S.R.L. OPPURE: L.T.P. S.R.L."
            },
            "geometry": {
                "type": "Point",
                "coordinates": [
                    9.7258159578804,
                    45.05001485646622
                ]
            }
        },
        {
            "type": "Feature",
            "properties": {
                "name": "stazione agip",
                "id": "7836",
                "brand": "Agip Eni",
                "amenity": "fuel",
                "operator": "STAZIONE AGIP DI ESPOSITO DOMENICO & C. S.A.S."
            },
            "geometry": {
                "type": "Point",
                "coordinates": [
                    9.838950697097742,
                    44.97206963948788
                ]
            }
        },
        {
            "type": "Feature",
            "properties": {
                "name": "ENERCOOP",
                "id": "7509",
                "amenity": "fuel",
                "operator": "ENERCOOP S.R.L."
            },
            "geometry": {
                "type": "Point",
                "coordinates": [
                    9.734657214382878,
                    45.027405781206795
                ]
            }
        },
        {
            "type": "Feature",
            "properties": {
                "name": "TOTALERG",
                "id": "23699",
                "brand": "Total Erg",
                "amenity": "fuel",
                "operator": "PA.MA. CARBURANTI S.N.C. DI PABILLA LORIS E MALVEZZI MARA"
            },
            "geometry": {
                "type": "Point",
                "coordinates": [
                    9.701580852270126,
                    45.03507093427377
                ]
            }
        },
        {
            "type": "Feature",
            "properties": {
                "name": "Piacenza Petroli",
                "id": "28253",
                "amenity": "fuel",
                "operator": "PIACENZA PETROLI S.P.A."
            },
            "geometry": {
                "type": "Point",
                "coordinates": [
                    9.68848705291748,
                    45.018372465309845
                ]
            }
        },
        {
            "type": "Feature",
            "properties": {
                "name": "LONGERI",
                "id": "5621",
                "brand": "Agip Eni",
                "amenity": "fuel",
                "operator": "LONGERI RICCARDO, MASSIMO & C. S.N.C."
            },
            "geometry": {
                "type": "Point",
                "coordinates": [
                    9.716018146032752,
                    45.041165618784035
                ]
            }
        },
        {
            "type": "Feature",
            "properties": {
                "name": "BIANCA",
                "id": "24517",
                "amenity": "fuel",
                "operator": "BOSCHI PIETRO & C. - SOCIETA' A RESPONSABILITA' LIMITATA"
            },
            "geometry": {
                "type": "Point",
                "coordinates": [
                    9.7322529779766,
                    45.044173240397654
                ]
            }
        }
    ]
}