{
    "type": "FeatureCollection",
    "features": [
        {
            "type": "Feature",
            "properties": {
                "name": "PANDOLFI TULLIO",
                "id": "9913",
                "amenity": "fuel",
                "operator": "PANDOLFI TULLIO LUIGI"
            },
            "geometry": {
                "type": "Point",
                "coordinates": [
                    9.760247468948364,
                    45.52739041101075
                ]
            }
        },
        {
            "type": "Feature",
            "properties": {
                "name": "Totalerg",
                "id": "21834",
                "brand": "Total Erg",
                "amenity": "fuel",
                "operator": "LEFOSSE FRANCESCO"
            },
            "geometry": {
                "type": "Point",
                "coordinates": [
                    9.760531783103943,
                    45.57916651799483
                ]
            }
        },
        {
            "type": "Feature",
            "properties": {
                "name": "Sia Fuel Romano di Lombardia",
                "id": "26151",
                "brand": "Sia fuel",
                "amenity": "fuel",
                "operator": "S.I.A. ENGINEERING CONSTRUCTION S.R.L."
            },
            "geometry": {
                "type": "Point",
                "coordinates": [
                    9.733489751815796,
                    45.52311122917369
                ]
            }
        },
        {
            "type": "Feature",
            "properties": {
                "name": "DISTRIBUTORE AGIP",
                "id": "21233",
                "brand": "Agip Eni",
                "amenity": "fuel",
                "operator": "DISTRIBUTORE CARBURANTE AGIP (CHIOSCO) DI UBBIALI GABRIELLA"
            },
            "geometry": {
                "type": "Point",
                "coordinates": [
                    9.806046187877655,
                    45.49266800959137
                ]
            }
        },
        {
            "type": "Feature",
            "properties": {
                "name": "EUROSERVICE SRL",
                "id": "25173",
                "brand": "Ernesto Rondini",
                "amenity": "fuel",
                "operator": "EUROSERVICE S.R.L."
            },
            "geometry": {
                "type": "Point",
                "coordinates": [
                    9.705109298229218,
                    45.53145957869339
                ]
            }
        },
        {
            "type": "Feature",
            "properties": {
                "name": "MOIOLI DANIEL",
                "id": "8803",
                "brand": "Tamoil",
                "amenity": "fuel",
                "operator": "MOIOLI DANIEL"
            },
            "geometry": {
                "type": "Point",
                "coordinates": [
                    9.757233588309761,
                    45.53366759582463
                ]
            }
        },
        {
            "type": "Feature",
            "properties": {
                "name": "ROMANO DI LOMBARDIA-VIA DUCA D'AOSTA",
                "id": "11487",
                "brand": "Q8",
                "amenity": "fuel",
                "operator": "SERVIZI & GESTIONI ITALIA S.R.L."
            },
            "geometry": {
                "type": "Point",
                "coordinates": [
                    9.756842915344237,
                    45.5298043971606
                ]
            }
        },
        {
            "type": "Feature",
            "properties": {
                "name": "UNION",
                "id": "25336",
                "amenity": "fuel",
                "operator": "BACCANELLI S.P.A."
            },
            "geometry": {
                "type": "Point",
                "coordinates": [
                    9.765756726264954,
                    45.51838368158039
                ]
            }
        },
        {
            "type": "Feature",
            "properties": {
                "name": "COLOGNO AL SERIO VIA RONCALLI 5",
                "id": "21900",
                "brand": "Q8",
                "amenity": "fuel",
                "operator": "SERVIZI & GESTIONI ITALIA S.R.L."
            },
            "geometry": {
                "type": "Point",
                "coordinates": [
                    9.70741406931154,
                    45.57519499125785
                ]
            }
        },
        {
            "type": "Feature",
            "properties": {
                "name": "STAZIONE DI SERVIZIO MAFFI NATALE",
                "id": "25315",
                "amenity": "fuel",
                "operator": "STAZIONE DI SERVIZIO AGIP MAFFI NATALE"
            },
            "geometry": {
                "type": "Point",
                "coordinates": [
                    9.759324118494987,
                    45.51988809813455
                ]
            }
        },
        {
            "type": "Feature",
            "properties": {
                "name": "Stazione di servizio Esso di \"Bonaita Maria Luisa\"",
                "id": "9566",
                "brand": "Esso",
                "amenity": "fuel",
                "operator": "BONAITA MARIA LUISA"
            },
            "geometry": {
                "type": "Point",
                "coordinates": [
                    9.760501994971834,
                    45.54832714160366
                ]
            }
        },
        {
            "type": "Feature",
            "properties": {
                "name": "ANTEGNATE VIA DEL COMMERCIO 3-SHOPPING CENTER",
                "id": "6550",
                "brand": "Q8",
                "amenity": "fuel",
                "operator": "SERVIZI & GESTIONI ITALIA srl"
            },
            "geometry": {
                "type": "Point",
                "coordinates": [
                    9.780938029289246,
                    45.48386333271376
                ]
            }
        },
        {
            "type": "Feature",
            "properties": {
                "name": "Bar Europa",
                "id": "20977",
                "amenity": "fuel",
                "operator": "MANGILI SILVANO"
            },
            "geometry": {
                "type": "Point",
                "coordinates": [
                    9.671833594223017,
                    45.58194409700207
                ]
            }
        },
        {
            "type": "Feature",
            "properties": {
                "name": "STAZIONE DI SERVIZIO ARESI MATTIA E C. SNC",
                "id": "12506",
                "brand": "Ernesto Rondini",
                "amenity": "fuel",
                "operator": "ARESI MATTIA E C. SNC"
            },
            "geometry": {
                "type": "Point",
                "coordinates": [
                    9.681335538625717,
                    45.48199067597176
                ]
            }
        },
        {
            "type": "Feature",
            "properties": {
                "name": "Stazione di Servizio Esso di Ludovico Leonardo",
                "id": "7476",
                "brand": "Esso",
                "amenity": "fuel",
                "operator": "LUDOVICO LEONARDO"
            },
            "geometry": {
                "type": "Point",
                "coordinates": [
                    9.753402471542358,
                    45.47757432188982
                ]
            }
        },
        {
            "type": "Feature",
            "properties": {
                "name": "CALOR SYSTEMS",
                "id": "15873",
                "brand": "Api-Ip",
                "amenity": "fuel",
                "operator": "CALOR SYSTEMS S.P.A."
            },
            "geometry": {
                "type": "Point",
                "coordinates": [
                    9.755337685346605,
                    45.52204608100486
                ]
            }
        },
        {
            "type": "Feature",
            "properties": {
                "name": "STAZIONE DI SERVIZIO IP",
                "id": "12144",
                "brand": "Api-Ip",
                "amenity": "fuel",
                "operator": "D.M. CARBURANTI DI MAESTRI DANNY"
            },
            "geometry": {
                "type": "Point",
                "coordinates": [
                    9.822120070457458,
                    45.55730590668098
                ]
            }
        },
        {
            "type": "Feature",
            "properties": {
                "name": "ANTEGNATE S.S.SONCINSE",
                "id": "6451",
                "brand": "Q8",
                "amenity": "fuel",
                "operator": "SERVIZI & GESTIONI ITALIA srl"
            },
            "geometry": {
                "type": "Point",
                "coordinates": [
                    9.791830569975218,
                    45.48119934530878
                ]
            }
        },
        {
            "type": "Feature",
            "properties": {
                "name": "CORTENUOVA",
                "id": "15928",
                "brand": "Api-Ip",
                "amenity": "fuel",
                "operator": "SAINI SRL"
            },
            "geometry": {
                "type": "Point",
                "coordinates": [
                    9.82246197760105,
                    45.528387436941884
                ]
            }
        }
    ]
}