{
    "type": "FeatureCollection",
    "features": [
        {
            "type": "Feature",
            "properties": {
                "name": "Carbogas snc",
                "id": "5748",
                "amenity": "fuel",
                "operator": "CARBOGAS DI P. DELLA CRISTINA E C. S.N.C."
            },
            "geometry": {
                "type": "Point",
                "coordinates": [
                    9.7903311252594,
                    46.16303174106729
                ]
            }
        },
        {
            "type": "Feature",
            "properties": {
                "name": "BERBENNO DI VALTELLINA-VIA NAZIONALE OVEST 138 FZ.S.P",
                "id": "11837",
                "brand": "Q8",
                "amenity": "fuel",
                "operator": "SERVIZI & GESTIONI ITALIA S.R.L."
            },
            "geometry": {
                "type": "Point",
                "coordinates": [
                    9.741870065357034,
                    46.161457161164265
                ]
            }
        },
        {
            "type": "Feature",
            "properties": {
                "name": "IPERAL CARBURANTI CASTIONE",
                "id": "30863",
                "amenity": "fuel",
                "operator": "IPERAL2 S.R.L."
            },
            "geometry": {
                "type": "Point",
                "coordinates": [
                    9.808098077774048,
                    46.16259183080004
                ]
            }
        },
        {
            "type": "Feature",
            "properties": {
                "name": "totalerg",
                "id": "23111",
                "brand": "Total Erg",
                "amenity": "fuel",
                "operator": "CODAZZI ROBERTO"
            },
            "geometry": {
                "type": "Point",
                "coordinates": [
                    9.677944686454111,
                    46.17461434842343
                ]
            }
        },
        {
            "type": "Feature",
            "properties": {
                "name": "RETITALIA TRUTALLI MORENO",
                "id": "10575",
                "brand": "Retitalia",
                "amenity": "fuel",
                "operator": "TRUTALLI MORENO"
            },
            "geometry": {
                "type": "Point",
                "coordinates": [
                    9.693487286567686,
                    46.16391155082243
                ]
            }
        },
        {
            "type": "Feature",
            "properties": {
                "name": "tamoil postalesio",
                "id": "16460",
                "brand": "Tamoil",
                "amenity": "fuel",
                "operator": "ALBERTAZZI RINO"
            },
            "geometry": {
                "type": "Point",
                "coordinates": [
                    9.776566637622864,
                    46.15877324825962
                ]
            }
        },
        {
            "type": "Feature",
            "properties": {
                "name": "area servizio vanoi",
                "id": "7324",
                "brand": "Tamoil",
                "amenity": "fuel",
                "operator": "VANOI GIANNI"
            },
            "geometry": {
                "type": "Point",
                "coordinates": [
                    9.823547601699829,
                    46.16195350897952
                ]
            }
        },
        {
            "type": "Feature",
            "properties": {
                "name": "castione andevenno",
                "id": "24964",
                "brand": "Q8",
                "amenity": "fuel",
                "operator": "SELF PIES S.R.L."
            },
            "geometry": {
                "type": "Point",
                "coordinates": [
                    9.795130917416147,
                    46.16176031582022
                ]
            }
        }
    ]
}