{
    "type": "FeatureCollection",
    "features": [
        {
            "type": "Feature",
            "properties": {
                "name": "egidio",
                "id": "10668",
                "brand": "Agip Eni",
                "amenity": "fuel",
                "operator": "SCHIAVI EGIDIO"
            },
            "geometry": {
                "type": "Point",
                "coordinates": [
                    9.969659596681597,
                    45.09358546656984
                ]
            }
        },
        {
            "type": "Feature",
            "properties": {
                "name": "KEROPETROL CREMONA PO",
                "id": "7824",
                "amenity": "fuel",
                "operator": "KEROPETROL S.P.A."
            },
            "geometry": {
                "type": "Point",
                "coordinates": [
                    9.994865655899048,
                    45.151331708635894
                ]
            }
        },
        {
            "type": "Feature",
            "properties": {
                "name": "Tamoil 3475",
                "id": "5723",
                "brand": "Tamoil",
                "amenity": "fuel",
                "operator": "CREMONA OIL SOCIETA' IN NOME COLLETTIVO DI MALINVERNO GIANNI E CAVALLOTTI BARBARA"
            },
            "geometry": {
                "type": "Point",
                "coordinates": [
                    9.998537040475414,
                    45.137196911779554
                ]
            }
        },
        {
            "type": "Feature",
            "properties": {
                "name": "DISTRIBUTORE ENI di BOTTA FABIO",
                "id": "23550",
                "brand": "Agip Eni",
                "amenity": "fuel",
                "operator": "BOTTA  FABIO"
            },
            "geometry": {
                "type": "Point",
                "coordinates": [
                    9.999936305418373,
                    45.15071793367018
                ]
            }
        },
        {
            "type": "Feature",
            "properties": {
                "name": "stazione di servizio",
                "id": "25914",
                "brand": "Agip Eni",
                "amenity": "fuel",
                "operator": "BAR TRE PONTI SNC DI CREMASCHINI RENATO & C."
            },
            "geometry": {
                "type": "Point",
                "coordinates": [
                    9.969170093536377,
                    45.169590970376845
                ]
            }
        },
        {
            "type": "Feature",
            "properties": {
                "name": "Tamoil 1449",
                "id": "30099",
                "brand": "Tamoil",
                "amenity": "fuel",
                "operator": "BRILLI SOCIETA' IN NOME COLLETTIVO DI CAVALLOTTI BARBARA & C."
            },
            "geometry": {
                "type": "Point",
                "coordinates": [
                    9.987619573541224,
                    45.10602967373841
                ]
            }
        },
        {
            "type": "Feature",
            "properties": {
                "name": "vico snc di violini pietro e c",
                "id": "4471",
                "brand": "Agip Eni",
                "amenity": "fuel",
                "operator": "VICO - S.N.C. DI VIOLINI PIETRO & C."
            },
            "geometry": {
                "type": "Point",
                "coordinates": [
                    9.992589801549911,
                    45.20181786591403
                ]
            }
        },
        {
            "type": "Feature",
            "properties": {
                "name": "CREMONA-VIA MILANO 22",
                "id": "11568",
                "brand": "Q8",
                "amenity": "fuel",
                "operator": "SERVIZI & GESTIONI ITALIA S.R.L."
            },
            "geometry": {
                "type": "Point",
                "coordinates": [
                    9.991887347221336,
                    45.14394135306928
                ]
            }
        },
        {
            "type": "Feature",
            "properties": {
                "name": "Metanouno Srl",
                "id": "4716",
                "amenity": "fuel",
                "operator": "METANOUNO S.R.L."
            },
            "geometry": {
                "type": "Point",
                "coordinates": [
                    9.973847964665199,
                    45.16739504914238
                ]
            }
        },
        {
            "type": "Feature",
            "properties": {
                "name": "Tamoil 2754",
                "id": "30882",
                "brand": "Tamoil",
                "amenity": "fuel",
                "operator": "BRILLI SOCIETA' IN NOME COLLETTIVO DI CAVALLOTTI BARBARA & C."
            },
            "geometry": {
                "type": "Point",
                "coordinates": [
                    9.998665526983588,
                    45.1874028494099
                ]
            }
        },
        {
            "type": "Feature",
            "properties": {
                "name": "tamoil Autolavaggio ACI",
                "id": "10393",
                "brand": "Tamoil",
                "amenity": "fuel",
                "operator": "AUTOLAVAGGIO A.C.I. DI MALINVERNO E CORBARI SOCIETA' IN NOME COLLETTIVO"
            },
            "geometry": {
                "type": "Point",
                "coordinates": [
                    10.013039964000882,
                    45.13465131677536
                ]
            }
        },
        {
            "type": "Feature",
            "properties": {
                "name": "Esso Zanacchi",
                "id": "14533",
                "brand": "Esso",
                "amenity": "fuel",
                "operator": "ZANACCHI SARA"
            },
            "geometry": {
                "type": "Point",
                "coordinates": [
                    10.010289825794985,
                    45.14997516726846
                ]
            }
        },
        {
            "type": "Feature",
            "properties": {
                "name": "1122",
                "id": "27228",
                "brand": "Tamoil",
                "amenity": "fuel",
                "operator": "T.D.M. S.R.L."
            },
            "geometry": {
                "type": "Point",
                "coordinates": [
                    9.994967579841614,
                    45.14383824110986
                ]
            }
        },
        {
            "type": "Feature",
            "properties": {
                "name": "eni",
                "id": "25772",
                "brand": "Agip Eni",
                "amenity": "fuel",
                "operator": "BRAHJA ELONA"
            },
            "geometry": {
                "type": "Point",
                "coordinates": [
                    9.998931884765625,
                    45.130494661325756
                ]
            }
        },
        {
            "type": "Feature",
            "properties": {
                "name": "MONTICELLI D'ONGINA-VIA BREDA",
                "id": "11752",
                "brand": "Q8",
                "amenity": "fuel",
                "operator": "SERVIZI & GESTIONI ITALIA S.R.L."
            },
            "geometry": {
                "type": "Point",
                "coordinates": [
                    9.941784665012392,
                    45.09033408509067
                ]
            }
        },
        {
            "type": "Feature",
            "properties": {
                "name": "carlo e francesco betti snc",
                "id": "18093",
                "brand": "Agip Eni",
                "amenity": "fuel",
                "operator": "CARLO E FRANCESCO BETTI E C. S.N.C."
            },
            "geometry": {
                "type": "Point",
                "coordinates": [
                    9.853719639409292,
                    45.17513810737926
                ]
            }
        },
        {
            "type": "Feature",
            "properties": {
                "name": "Pit Stop di Bertoletti Dino snc",
                "id": "16000",
                "brand": "Agip Eni",
                "amenity": "fuel",
                "operator": "PIT STOP DI BERTOLETTI DINO S.N.C."
            },
            "geometry": {
                "type": "Point",
                "coordinates": [
                    10.010472710485487,
                    45.14626587121347
                ]
            }
        },
        {
            "type": "Feature",
            "properties": {
                "name": "ESSO",
                "id": "28097",
                "brand": "Esso",
                "amenity": "fuel",
                "operator": "FACCIOLO ROSETTA"
            },
            "geometry": {
                "type": "Point",
                "coordinates": [
                    9.998698447082461,
                    45.14278972999743
                ]
            }
        },
        {
            "type": "Feature",
            "properties": {
                "name": "IP CASTELNUOVO BOCCA D'ADDA",
                "id": "29485",
                "brand": "Api-Ip",
                "amenity": "fuel",
                "operator": "EUROPAM S.P.A."
            },
            "geometry": {
                "type": "Point",
                "coordinates": [
                    9.861223921179771,
                    45.111868333086015
                ]
            }
        },
        {
            "type": "Feature",
            "properties": {
                "name": "ROSSI MATTEO",
                "id": "7406",
                "brand": "Agip Eni",
                "amenity": "fuel",
                "operator": "ROSSI MATTEO"
            },
            "geometry": {
                "type": "Point",
                "coordinates": [
                    10.004483398672503,
                    45.142419302659995
                ]
            }
        },
        {
            "type": "Feature",
            "properties": {
                "name": "Visigalli Stefania",
                "id": "12497",
                "amenity": "fuel",
                "operator": "VISIGALLI STEFANIA"
            },
            "geometry": {
                "type": "Point",
                "coordinates": [
                    9.912866306780643,
                    45.17157880977565
                ]
            }
        },
        {
            "type": "Feature",
            "properties": {
                "name": "area di servizio di bajetti walter",
                "id": "28850",
                "brand": "Tamoil",
                "amenity": "fuel",
                "operator": "AREA DI SERVIZIO DI BAJETTI WALTER NATALINO"
            },
            "geometry": {
                "type": "Point",
                "coordinates": [
                    9.936509062843356,
                    45.14829374080883
                ]
            }
        },
        {
            "type": "Feature",
            "properties": {
                "name": "TAMOIL",
                "id": "26235",
                "brand": "Tamoil",
                "amenity": "fuel",
                "operator": "C. & G. SERVICE S.A.S. DI COLIO TIZIANA"
            },
            "geometry": {
                "type": "Point",
                "coordinates": [
                    10.003728269311523,
                    45.14788977693049
                ]
            }
        },
        {
            "type": "Feature",
            "properties": {
                "name": "eni",
                "id": "25062",
                "brand": "Agip Eni",
                "amenity": "fuel",
                "operator": "GHIDOTTI NICOLETTA"
            },
            "geometry": {
                "type": "Point",
                "coordinates": [
                    9.990007148110863,
                    45.119858904401575
                ]
            }
        },
        {
            "type": "Feature",
            "properties": {
                "name": "GESTORE DISTRIBUTORI CRISTIANI/MARIANI",
                "id": "29661",
                "brand": "Total Erg",
                "amenity": "fuel",
                "operator": "GESTORE DISTRIBUTORI CRISTIANI/MARIANI DI ANTONIO CARIDI"
            },
            "geometry": {
                "type": "Point",
                "coordinates": [
                    9.998050560007187,
                    45.14325409006212
                ]
            }
        }
    ]
}