{
    "type": "FeatureCollection",
    "features": [
        {
            "type": "Feature",
            "properties": {
                "name": "RETE ITALIA",
                "id": "26449",
                "brand": "Retitalia",
                "amenity": "fuel",
                "operator": "CELLA MASSIMILIANO"
            },
            "geometry": {
                "type": "Point",
                "coordinates": [
                    9.889930933713913,
                    44.941431586807305
                ]
            }
        },
        {
            "type": "Feature",
            "properties": {
                "name": "FIORENZUOLA D'ARDA S.S. 9 KM 238+750",
                "id": "6467",
                "brand": "Q8",
                "amenity": "fuel",
                "operator": "SERVIZI & GESTIONI ITALIA srl"
            },
            "geometry": {
                "type": "Point",
                "coordinates": [
                    9.917910028836104,
                    44.92437459821989
                ]
            }
        },
        {
            "type": "Feature",
            "properties": {
                "name": "Metano Fiorenzuola",
                "id": "5006",
                "amenity": "fuel",
                "operator": "METANO FIORENZUOLA S.R.L."
            },
            "geometry": {
                "type": "Point",
                "coordinates": [
                    9.900602102279663,
                    44.92958381775513
                ]
            }
        },
        {
            "type": "Feature",
            "properties": {
                "name": "TOSI PIETRO",
                "id": "11310",
                "amenity": "fuel",
                "operator": "TOSI PIETRO"
            },
            "geometry": {
                "type": "Point",
                "coordinates": [
                    9.9900484085083,
                    44.88658452059114
                ]
            }
        },
        {
            "type": "Feature",
            "properties": {
                "name": "ARDA OVEST",
                "id": "3643",
                "brand": "Total Erg",
                "amenity": "fuel",
                "operator": "CRISTELLA CARBURANTI SNC"
            },
            "geometry": {
                "type": "Point",
                "coordinates": [
                    9.905657347221336,
                    44.961650791658755
                ]
            }
        },
        {
            "type": "Feature",
            "properties": {
                "name": "SEIB SPA",
                "id": "23937",
                "amenity": "fuel",
                "operator": "SOCIETA' EMILIANA INDUSTRIA BITUMI - SEIB - S.P.A. (* S.E.I.B. - S.P.A.)"
            },
            "geometry": {
                "type": "Point",
                "coordinates": [
                    9.90914762020111,
                    44.91497571181065
                ]
            }
        },
        {
            "type": "Feature",
            "properties": {
                "name": "ARDA EST",
                "id": "3492",
                "brand": "Agip Eni",
                "amenity": "fuel",
                "operator": "DOLEMA S.N.C. DI BARONI MARCO & C."
            },
            "geometry": {
                "type": "Point",
                "coordinates": [
                    9.90495,
                    44.96339999999999
                ]
            }
        },
        {
            "type": "Feature",
            "properties": {
                "name": "STAZIONE ENI DI SANFILIPPO TABO' GIUSEPPE&C. S.A.S.",
                "id": "16017",
                "brand": "Agip Eni",
                "amenity": "fuel",
                "operator": "STAZIONE ENI DI SANFILIPPO TABO' GIUSEPPE & C. S.A.S."
            },
            "geometry": {
                "type": "Point",
                "coordinates": [
                    9.88982766866684,
                    44.922702794852626
                ]
            }
        },
        {
            "type": "Feature",
            "properties": {
                "name": "ROAD SERVICE DI CRISTELLA GAETANO",
                "id": "19837",
                "brand": "Esso",
                "amenity": "fuel",
                "operator": "ROAD SERVICE DI CRISTELLA GAETANO"
            },
            "geometry": {
                "type": "Point",
                "coordinates": [
                    9.900323152542114,
                    44.935455412694466
                ]
            }
        },
        {
            "type": "Feature",
            "properties": {
                "name": "S.E.I.B. SPA",
                "id": "20644",
                "amenity": "fuel",
                "operator": "SOCIETA' EMILIANA INDUSTRIA BITUMI - SEIB - S.P.A. (* S.E.I.B. - S.P.A.)"
            },
            "geometry": {
                "type": "Point",
                "coordinates": [
                    10.018231719732285,
                    44.844096582977016
                ]
            }
        },
        {
            "type": "Feature",
            "properties": {
                "name": "ENI FIORENZUOLA",
                "id": "30249",
                "brand": "Agip Eni",
                "amenity": "fuel",
                "operator": "ACISTAR SETTE S.R.L."
            },
            "geometry": {
                "type": "Point",
                "coordinates": [
                    9.902759939432144,
                    44.93386690181089
                ]
            }
        },
        {
            "type": "Feature",
            "properties": {
                "name": "STAZIONE DI SERVIZIO IP ZAFFERANI MARIO",
                "id": "31591",
                "brand": "Api-Ip",
                "amenity": "fuel",
                "operator": "ZAFFERANI MARIO"
            },
            "geometry": {
                "type": "Point",
                "coordinates": [
                    9.912033677101135,
                    44.96445253458959
                ]
            }
        },
        {
            "type": "Feature",
            "properties": {
                "name": "Q8",
                "id": "5012",
                "brand": "Q8",
                "amenity": "fuel",
                "operator": "SIROSI VALTER & C. - S.N.C."
            },
            "geometry": {
                "type": "Point",
                "coordinates": [
                    9.88318383693695,
                    44.85891320569394
                ]
            }
        },
        {
            "type": "Feature",
            "properties": {
                "name": "FIORENZUOLA D'ARDA EUROPA 14",
                "id": "6468",
                "brand": "Q8",
                "amenity": "fuel",
                "operator": "SERVIZI & GESTIONI ITALIA srl"
            },
            "geometry": {
                "type": "Point",
                "coordinates": [
                    9.905482836106897,
                    44.93228291655283
                ]
            }
        },
        {
            "type": "Feature",
            "properties": {
                "name": "CRISTELLA CARBURANTI SNC COIL",
                "id": "19832",
                "amenity": "fuel",
                "operator": "CRISTELLA CARBURANTI DI CRISTELLA ANGELO & C. S.N.C."
            },
            "geometry": {
                "type": "Point",
                "coordinates": [
                    9.922285079956055,
                    44.92274229765386
                ]
            }
        },
        {
            "type": "Feature",
            "properties": {
                "name": "ENI",
                "id": "13941",
                "brand": "Agip Eni",
                "amenity": "fuel",
                "operator": "CAVOZZI ORAZIO"
            },
            "geometry": {
                "type": "Point",
                "coordinates": [
                    9.87508088350296,
                    44.85243444465345
                ]
            }
        },
        {
            "type": "Feature",
            "properties": {
                "name": "ESSO",
                "id": "25349",
                "brand": "Esso",
                "amenity": "fuel",
                "operator": "SEGALINI ENRICO"
            },
            "geometry": {
                "type": "Point",
                "coordinates": [
                    9.97011239577023,
                    44.895057196897326
                ]
            }
        },
        {
            "type": "Feature",
            "properties": {
                "name": "FIORENZUOLA D'ARDA - SS9 EMILIA.",
                "id": "7306",
                "brand": "Q8",
                "amenity": "fuel",
                "operator": "SERVIZI & GESTIONI ITALIA S.R.L."
            },
            "geometry": {
                "type": "Point",
                "coordinates": [
                    9.890222278434749,
                    44.93272237495857
                ]
            }
        },
        {
            "type": "Feature",
            "properties": {
                "name": "STAZIONE SERVIZIO AGIP F.LLI MATERA",
                "id": "18026",
                "brand": "Agip Eni",
                "amenity": "fuel",
                "operator": "F.LLI MATERA DI MATERA GAETANO & C. - S.N.C."
            },
            "geometry": {
                "type": "Point",
                "coordinates": [
                    9.925493001937866,
                    44.92032651027707
                ]
            }
        },
        {
            "type": "Feature",
            "properties": {
                "name": "FIORENZUOLA Dâ€™ARDA-SS 9 EMILIA",
                "id": "11753",
                "brand": "Q8",
                "amenity": "fuel",
                "operator": "SERVIZI & GESTIONI ITALIA S.R.L."
            },
            "geometry": {
                "type": "Point",
                "coordinates": [
                    9.891590205032346,
                    44.93359583191155
                ]
            }
        }
    ]
}