{
    "type": "FeatureCollection",
    "features": [
        {
            "type": "Feature",
            "properties": {
                "name": "totalerg",
                "id": "30174",
                "brand": "Total Erg",
                "amenity": "fuel",
                "operator": "FLO DI DE REMIGIS & C. S.N.C."
            },
            "geometry": {
                "type": "Point",
                "coordinates": [
                    9.910048842430115,
                    45.525290322803045
                ]
            }
        },
        {
            "type": "Feature",
            "properties": {
                "name": "CHIARI-VIA MILANO 36",
                "id": "11530",
                "brand": "Q8",
                "amenity": "fuel",
                "operator": "SERVIZI & GESTIONI ITALIA S.R.L."
            },
            "geometry": {
                "type": "Point",
                "coordinates": [
                    9.919831428241764,
                    45.53280855710705
                ]
            }
        },
        {
            "type": "Feature",
            "properties": {
                "name": "TOTALERG - ROVATOIL",
                "id": "27145",
                "brand": "Total Erg",
                "amenity": "fuel",
                "operator": "ROVATOIL S.N.C. DI PAGNONI DARIO E PONTOGLIO GIANMARCO"
            },
            "geometry": {
                "type": "Point",
                "coordinates": [
                    9.985869526863096,
                    45.55651071525958
                ]
            }
        },
        {
            "type": "Feature",
            "properties": {
                "name": "ERBUSCO-VIA ROVATO",
                "id": "24130",
                "brand": "Q8",
                "amenity": "fuel",
                "operator": "SERVIZI & GESTIONI ITALIA S.R.L."
            },
            "geometry": {
                "type": "Point",
                "coordinates": [
                    10.002797110589656,
                    45.58011107154971
                ]
            }
        },
        {
            "type": "Feature",
            "properties": {
                "name": "TOTALERG",
                "id": "11988",
                "brand": "Total Erg",
                "amenity": "fuel",
                "operator": "URBANI GIANMARIO"
            },
            "geometry": {
                "type": "Point",
                "coordinates": [
                    9.963534772396088,
                    45.47495985318752
                ]
            }
        },
        {
            "type": "Feature",
            "properties": {
                "name": "ESSO CASTREZZATO",
                "id": "31398",
                "brand": "Esso",
                "amenity": "fuel",
                "operator": "FERREMI BATTISTA - SOCIETA' PER AZIONI"
            },
            "geometry": {
                "type": "Point",
                "coordinates": [
                    9.980644583702087,
                    45.513867371291305
                ]
            }
        },
        {
            "type": "Feature",
            "properties": {
                "name": "API IP",
                "id": "18199",
                "brand": "Api-Ip",
                "amenity": "fuel",
                "operator": "SALA MAURIZIO"
            },
            "geometry": {
                "type": "Point",
                "coordinates": [
                    10.0010920552254,
                    45.57168989645122
                ]
            }
        },
        {
            "type": "Feature",
            "properties": {
                "name": "AGIP / ENI",
                "id": "4410",
                "brand": "Agip Eni",
                "amenity": "fuel",
                "operator": "DISTRIBUTORE CARBURANTE DI BUELLI SILVIO & C. S.N.C."
            },
            "geometry": {
                "type": "Point",
                "coordinates": [
                    9.94058129513678,
                    45.525132896024495
                ]
            }
        },
        {
            "type": "Feature",
            "properties": {
                "name": "RAVELLI MARIA GRAZIA STAZIONE ESSO",
                "id": "7764",
                "brand": "Esso",
                "amenity": "fuel",
                "operator": "RAVELLI MARIA GRAZIA"
            },
            "geometry": {
                "type": "Point",
                "coordinates": [
                    9.860485643148424,
                    45.51321329381158
                ]
            }
        },
        {
            "type": "Feature",
            "properties": {
                "name": "FIORINI DI FIORINI GIACINTO E C. - S.N.C.",
                "id": "9675",
                "brand": "Agip Eni",
                "amenity": "fuel",
                "operator": "FIORINI DI FIORINI GIACINTO E C. - S.N.C."
            },
            "geometry": {
                "type": "Point",
                "coordinates": [
                    9.944418668746948,
                    45.508037167689054
                ]
            }
        },
        {
            "type": "Feature",
            "properties": {
                "name": "agip b&b di belotti fiorella",
                "id": "27272",
                "brand": "Agip Eni",
                "amenity": "fuel",
                "operator": "B&B DI BELOTTI FIORELLA"
            },
            "geometry": {
                "type": "Point",
                "coordinates": [
                    10.000618994235992,
                    45.56133271114436
                ]
            }
        },
        {
            "type": "Feature",
            "properties": {
                "name": "keropetrol",
                "id": "22449",
                "amenity": "fuel",
                "operator": "COSTARDI AUGUSTO"
            },
            "geometry": {
                "type": "Point",
                "coordinates": [
                    9.845970869064331,
                    45.50635141252747
                ]
            }
        },
        {
            "type": "Feature",
            "properties": {
                "name": "eni 1675",
                "id": "18326",
                "brand": "Agip Eni",
                "amenity": "fuel",
                "operator": "NAVONI GIORGIO"
            },
            "geometry": {
                "type": "Point",
                "coordinates": [
                    9.985603988170624,
                    45.56212218996118
                ]
            }
        },
        {
            "type": "Feature",
            "properties": {
                "name": "PINI LIDIA",
                "id": "20397",
                "brand": "Agip Eni",
                "amenity": "fuel",
                "operator": "PINI LIDIA"
            },
            "geometry": {
                "type": "Point",
                "coordinates": [
                    9.98245607035824,
                    45.50957685553297
                ]
            }
        },
        {
            "type": "Feature",
            "properties": {
                "name": "ip b&b di belotti fiorella",
                "id": "27273",
                "brand": "Api-Ip",
                "amenity": "fuel",
                "operator": "B&B DI BELOTTI FIORELLA"
            },
            "geometry": {
                "type": "Point",
                "coordinates": [
                    9.999133201555425,
                    45.561811844428256
                ]
            }
        },
        {
            "type": "Feature",
            "properties": {
                "name": "Chiafele snc di Chiafele G. & c.",
                "id": "10961",
                "brand": "Api-Ip",
                "amenity": "fuel",
                "operator": "CHIAFELE S.N.C. DI CHIAFELE GIANPAOLO E C."
            },
            "geometry": {
                "type": "Point",
                "coordinates": [
                    9.924350380897522,
                    45.53554273069819
                ]
            }
        },
        {
            "type": "Feature",
            "properties": {
                "name": "ROVATO",
                "id": "5784",
                "brand": "Total Erg",
                "amenity": "fuel",
                "operator": "TotalErg SpA"
            },
            "geometry": {
                "type": "Point",
                "coordinates": [
                    10.01205861568451,
                    45.55522307694609
                ]
            }
        },
        {
            "type": "Feature",
            "properties": {
                "name": "ADS Agip Flli Pezzoni S.n.c",
                "id": "11208",
                "brand": "Agip Eni",
                "amenity": "fuel",
                "operator": "F.LLI PEZZONI S.N.C. DI PEZZONI RIENZO E EMILIANO"
            },
            "geometry": {
                "type": "Point",
                "coordinates": [
                    9.924370394598327,
                    45.582259338233406
                ]
            }
        },
        {
            "type": "Feature",
            "properties": {
                "name": "CHIARI-VIA BRESCIA 4",
                "id": "11533",
                "brand": "Q8",
                "amenity": "fuel",
                "operator": "SERVIZI & GESTIONI ITALIA S.R.L."
            },
            "geometry": {
                "type": "Point",
                "coordinates": [
                    9.939562856483462,
                    45.540162427139016
                ]
            }
        },
        {
            "type": "Feature",
            "properties": {
                "name": "G.F. DI BONETTI GIACOMO & DOMI FRANCESCO SNC",
                "id": "18020",
                "brand": "Q8",
                "amenity": "fuel",
                "operator": "G.F. DI BONETTI GIACOMO & DOMI FRANCESCO SOCIETA' IN NOME COLLETTIVO"
            },
            "geometry": {
                "type": "Point",
                "coordinates": [
                    9.98499110341072,
                    45.52048703456508
                ]
            }
        },
        {
            "type": "Feature",
            "properties": {
                "name": "DAYTONA CARBURANTI - ROVATO",
                "id": "25332",
                "amenity": "fuel",
                "operator": "CARBURANTI SPECIALI S.R.L."
            },
            "geometry": {
                "type": "Point",
                "coordinates": [
                    9.996572437573263,
                    45.56121241581315
                ]
            }
        },
        {
            "type": "Feature",
            "properties": {
                "name": "totalerg cologne",
                "id": "28862",
                "brand": "Total Erg",
                "amenity": "fuel",
                "operator": "BONASSI GERVASIO"
            },
            "geometry": {
                "type": "Point",
                "coordinates": [
                    9.9427683572535,
                    45.57631467637456
                ]
            }
        },
        {
            "type": "Feature",
            "properties": {
                "name": "BONASSI AGOSTINO",
                "id": "10892",
                "brand": "Agip Eni",
                "amenity": "fuel",
                "operator": "BONASSI AGOSTINO"
            },
            "geometry": {
                "type": "Point",
                "coordinates": [
                    9.92380423068846,
                    45.53489664843053
                ]
            }
        },
        {
            "type": "Feature",
            "properties": {
                "name": "IP GRUPPO API",
                "id": "27275",
                "brand": "Api-Ip",
                "amenity": "fuel",
                "operator": "ZANOLETTI PAOLO"
            },
            "geometry": {
                "type": "Point",
                "coordinates": [
                    9.99239725092616,
                    45.56172453772109
                ]
            }
        },
        {
            "type": "Feature",
            "properties": {
                "name": "CHIARI - TANGENZIALE OVEST",
                "id": "31283",
                "brand": "Api-Ip",
                "amenity": "fuel",
                "operator": "IP SERVICES S.R.L."
            },
            "geometry": {
                "type": "Point",
                "coordinates": [
                    9.911735951900482,
                    45.541053726807824
                ]
            }
        },
        {
            "type": "Feature",
            "properties": {
                "name": "stazione esso doneda",
                "id": "15097",
                "brand": "Esso",
                "amenity": "fuel",
                "operator": "DONEDA GIANCARLO"
            },
            "geometry": {
                "type": "Point",
                "coordinates": [
                    9.935203939676285,
                    45.57892696871523
                ]
            }
        },
        {
            "type": "Feature",
            "properties": {
                "name": "Tamoil",
                "id": "20461",
                "brand": "Tamoil",
                "amenity": "fuel",
                "operator": "GOZZINI MARIO & GIANFRANCO S.N.C."
            },
            "geometry": {
                "type": "Point",
                "coordinates": [
                    9.87243551653296,
                    45.517561858392945
                ]
            }
        },
        {
            "type": "Feature",
            "properties": {
                "name": "TOTALERG",
                "id": "26047",
                "brand": "Total Erg",
                "amenity": "fuel",
                "operator": "GESTIONE CENTRI COMMERCIALI S.P.A."
            },
            "geometry": {
                "type": "Point",
                "coordinates": [
                    10.01654863357544,
                    45.55975822727697
                ]
            }
        },
        {
            "type": "Feature",
            "properties": {
                "name": "DAYTONA CARBURANTI ERBUSCO",
                "id": "25331",
                "amenity": "fuel",
                "operator": "CARBURANTI SPECIALI S.R.L."
            },
            "geometry": {
                "type": "Point",
                "coordinates": [
                    10.003969073295593,
                    45.58146658765754
                ]
            }
        },
        {
            "type": "Feature",
            "properties": {
                "name": "PIATTI MICHELE -ESSO",
                "id": "30130",
                "brand": "Esso",
                "amenity": "fuel",
                "operator": "PIATTI MICHELE"
            },
            "geometry": {
                "type": "Point",
                "coordinates": [
                    9.923020040796247,
                    45.50242930696467
                ]
            }
        },
        {
            "type": "Feature",
            "properties": {
                "name": "IP",
                "id": "24048",
                "brand": "Api-Ip",
                "amenity": "fuel",
                "operator": "PARO PAOLO"
            },
            "geometry": {
                "type": "Point",
                "coordinates": [
                    9.885933291738299,
                    45.489259326194215
                ]
            }
        },
        {
            "type": "Feature",
            "properties": {
                "name": "STAZIONEDISERVIZIO SAN GIORGIO",
                "id": "4899",
                "brand": "Api-Ip",
                "amenity": "fuel",
                "operator": "CINQUINI MARIA ROSA"
            },
            "geometry": {
                "type": "Point",
                "coordinates": [
                    10.009692907333374,
                    45.535393178222314
                ]
            }
        }
    ]
}