{
    "type": "FeatureCollection",
    "features": [
        {
            "type": "Feature",
            "properties": {
                "name": "OIL ITALIA",
                "id": "9293",
                "amenity": "fuel",
                "operator": "MANCINI ALESSIO"
            },
            "geometry": {
                "type": "Point",
                "coordinates": [
                    9.936819364418056,
                    44.13492977507988
                ]
            }
        },
        {
            "type": "Feature",
            "properties": {
                "name": "API",
                "id": "5334",
                "brand": "Api-Ip",
                "amenity": "fuel",
                "operator": "LUPOLI GIUSEPPE"
            },
            "geometry": {
                "type": "Point",
                "coordinates": [
                    9.9305460380981,
                    44.13907541535241
                ]
            }
        },
        {
            "type": "Feature",
            "properties": {
                "name": "agip datteri roberto",
                "id": "18542",
                "brand": "Agip Eni",
                "amenity": "fuel",
                "operator": "DATTERI ROBERTO"
            },
            "geometry": {
                "type": "Point",
                "coordinates": [
                    9.878745830688445,
                    44.174383916784684
                ]
            }
        },
        {
            "type": "Feature",
            "properties": {
                "name": "tamoil 2862",
                "id": "18881",
                "brand": "Tamoil",
                "amenity": "fuel",
                "operator": "GARIBBO PAOLO"
            },
            "geometry": {
                "type": "Point",
                "coordinates": [
                    9.969099014997482,
                    44.10079557923321
                ]
            }
        },
        {
            "type": "Feature",
            "properties": {
                "name": "LERICI-FRAZIONE MUGGIANO",
                "id": "11839",
                "brand": "Q8",
                "amenity": "fuel",
                "operator": "SERVIZI & GESTIONI ITALIA S.R.L."
            },
            "geometry": {
                "type": "Point",
                "coordinates": [
                    9.881703847885094,
                    44.08951155904007
                ]
            }
        },
        {
            "type": "Feature",
            "properties": {
                "name": "CHIRICO ISABELLA",
                "id": "18715",
                "brand": "Tamoil",
                "amenity": "fuel",
                "operator": "CHIRICO ISABELLA"
            },
            "geometry": {
                "type": "Point",
                "coordinates": [
                    9.861590713262558,
                    44.0998729514666
                ]
            }
        },
        {
            "type": "Feature",
            "properties": {
                "name": "ENI",
                "id": "24733",
                "brand": "Agip Eni",
                "amenity": "fuel",
                "operator": "CANERI ANTONIO"
            },
            "geometry": {
                "type": "Point",
                "coordinates": [
                    9.96523520352639,
                    44.103981840730164
                ]
            }
        },
        {
            "type": "Feature",
            "properties": {
                "name": "LA SPEZIA-PIAZZA CONCORDIA",
                "id": "11840",
                "brand": "Q8",
                "amenity": "fuel",
                "operator": "SERVIZI & GESTIONI ITALIA S.R.L."
            },
            "geometry": {
                "type": "Point",
                "coordinates": [
                    9.846921050262381,
                    44.12150385092841
                ]
            }
        },
        {
            "type": "Feature",
            "properties": {
                "name": "ENI",
                "id": "17057",
                "brand": "Agip Eni",
                "amenity": "fuel",
                "operator": "CANESE ILARIO E GRISANTI PIETRO - SNC."
            },
            "geometry": {
                "type": "Point",
                "coordinates": [
                    9.851747320438335,
                    44.121684475757974
                ]
            }
        },
        {
            "type": "Feature",
            "properties": {
                "name": "MELARA",
                "id": "3746",
                "brand": "Agip Eni",
                "amenity": "fuel",
                "operator": "MELARA PETROLI DI MAMELI FRANCESCO & C. S.A.S."
            },
            "geometry": {
                "type": "Point",
                "coordinates": [
                    9.880292415618896,
                    44.11573706164504
                ]
            }
        },
        {
            "type": "Feature",
            "properties": {
                "name": "MAGRA EST",
                "id": "3929",
                "brand": "Esso",
                "amenity": "fuel",
                "operator": "MAGRA EST DI MENINI EMILIO E C. - S.A.S."
            },
            "geometry": {
                "type": "Point",
                "coordinates": [
                    9.917242527008057,
                    44.137882531596766
                ]
            }
        },
        {
            "type": "Feature",
            "properties": {
                "name": "api",
                "id": "23222",
                "brand": "Api-Ip",
                "amenity": "fuel",
                "operator": "BELLA SIMONE"
            },
            "geometry": {
                "type": "Point",
                "coordinates": [
                    9.957540296007322,
                    44.1109614185267
                ]
            }
        },
        {
            "type": "Feature",
            "properties": {
                "name": "carassale massimo stazione ENI",
                "id": "14093",
                "brand": "Agip Eni",
                "amenity": "fuel",
                "operator": "CARASSALE MASSIMO"
            },
            "geometry": {
                "type": "Point",
                "coordinates": [
                    9.874175637960434,
                    44.15217225358137
                ]
            }
        },
        {
            "type": "Feature",
            "properties": {
                "name": "Spigas Clienti Srl",
                "id": "22419",
                "amenity": "fuel",
                "operator": "TESTA DAVIDE"
            },
            "geometry": {
                "type": "Point",
                "coordinates": [
                    9.861239499124848,
                    44.11311401355387
                ]
            }
        },
        {
            "type": "Feature",
            "properties": {
                "name": "Esso",
                "id": "21979",
                "brand": "Esso",
                "amenity": "fuel",
                "operator": "TAVOLACCINI PIER FRANCESCO &  MICELI CARMINE S.N.C."
            },
            "geometry": {
                "type": "Point",
                "coordinates": [
                    9.969414174556732,
                    44.20507283237345
                ]
            }
        },
        {
            "type": "Feature",
            "properties": {
                "name": "KEROPETROL CEPARANA",
                "id": "16911",
                "brand": "Api-Ip",
                "amenity": "fuel",
                "operator": "KEROPETROL S.P.A."
            },
            "geometry": {
                "type": "Point",
                "coordinates": [
                    9.876077324151993,
                    44.16756018844846
                ]
            }
        },
        {
            "type": "Feature",
            "properties": {
                "name": "Kerotris - Pallerone",
                "id": "13392",
                "amenity": "fuel",
                "operator": "KT S.R.L."
            },
            "geometry": {
                "type": "Point",
                "coordinates": [
                    10.012644142138699,
                    44.203781688673764
                ]
            }
        },
        {
            "type": "Feature",
            "properties": {
                "name": "SARZANA",
                "id": "5886",
                "brand": "Total Erg",
                "amenity": "fuel",
                "operator": "TOTALERG S.P.A."
            },
            "geometry": {
                "type": "Point",
                "coordinates": [
                    9.946777650537456,
                    44.116676289170684
                ]
            }
        },
        {
            "type": "Feature",
            "properties": {
                "name": "totalerg",
                "id": "18307",
                "brand": "Total Erg",
                "amenity": "fuel",
                "operator": "NARDI MORENO"
            },
            "geometry": {
                "type": "Point",
                "coordinates": [
                    10.001419199100384,
                    44.097116022626025
                ]
            }
        },
        {
            "type": "Feature",
            "properties": {
                "name": "AULLA-QUARTIERE MATTEOTTI 27",
                "id": "11726",
                "brand": "Q8",
                "amenity": "fuel",
                "operator": "SERVIZI & GESTIONI ITALIA S.R.L."
            },
            "geometry": {
                "type": "Point",
                "coordinates": [
                    9.968750961971297,
                    44.20476539053607
                ]
            }
        },
        {
            "type": "Feature",
            "properties": {
                "name": "stazione rifornimento ip di amiri",
                "id": "19386",
                "brand": "Api-Ip",
                "amenity": "fuel",
                "operator": "AMIRI MANOOCHEHR"
            },
            "geometry": {
                "type": "Point",
                "coordinates": [
                    9.871721416711807,
                    44.15891519145738
                ]
            }
        },
        {
            "type": "Feature",
            "properties": {
                "name": "SARZANA VIA BRIGATA MUCCINI DISTR. Q8",
                "id": "6551",
                "brand": "Q8",
                "amenity": "fuel",
                "operator": "SERVIZI & GESTIONI ITALIA srl"
            },
            "geometry": {
                "type": "Point",
                "coordinates": [
                    9.95348020489348,
                    44.10905071004865
                ]
            }
        },
        {
            "type": "Feature",
            "properties": {
                "name": "3D SRL LA SPEZIA",
                "id": "7918",
                "brand": "Q8",
                "amenity": "fuel",
                "operator": "3D S.R.L."
            },
            "geometry": {
                "type": "Point",
                "coordinates": [
                    9.857332706451416,
                    44.114232723073016
                ]
            }
        },
        {
            "type": "Feature",
            "properties": {
                "name": "Ramon Bernardini",
                "id": "21219",
                "brand": "Total Erg",
                "amenity": "fuel",
                "operator": "BERNARDINI RAMON"
            },
            "geometry": {
                "type": "Point",
                "coordinates": [
                    9.949073642492294,
                    44.10740186656949
                ]
            }
        },
        {
            "type": "Feature",
            "properties": {
                "name": "Tamoil",
                "id": "28349",
                "brand": "Tamoil",
                "amenity": "fuel",
                "operator": "V.R. SERVICE DI RAGGI DOMENICO E VALENTE DANIEL SNC"
            },
            "geometry": {
                "type": "Point",
                "coordinates": [
                    9.851088219506096,
                    44.11354682050998
                ]
            }
        },
        {
            "type": "Feature",
            "properties": {
                "name": "MAGRA OVEST",
                "id": "3849",
                "brand": "Agip Eni",
                "amenity": "fuel",
                "operator": "eni rete oil&nonoil"
            },
            "geometry": {
                "type": "Point",
                "coordinates": [
                    9.91608657010056,
                    44.136989766187
                ]
            }
        },
        {
            "type": "Feature",
            "properties": {
                "name": "Sarzana",
                "id": "23078",
                "brand": "Total Erg",
                "amenity": "fuel",
                "operator": "GESTIONI EUROPA - SOCIETA' PER AZIONI"
            },
            "geometry": {
                "type": "Point",
                "coordinates": [
                    9.947052597999573,
                    44.116799626882866
                ]
            }
        },
        {
            "type": "Feature",
            "properties": {
                "name": "GASAUTO SPEZZINA",
                "id": "6818",
                "amenity": "fuel",
                "operator": "GASAUTO SPEZZINA DI CICALA ROBERTA E C. S.A.S."
            },
            "geometry": {
                "type": "Point",
                "coordinates": [
                    9.850788174562581,
                    44.11441888324018
                ]
            }
        },
        {
            "type": "Feature",
            "properties": {
                "name": "Totalerg",
                "id": "9653",
                "brand": "Total Erg",
                "amenity": "fuel",
                "operator": "FRANCINI ALBERTO"
            },
            "geometry": {
                "type": "Point",
                "coordinates": [
                    9.893540481861578,
                    44.127768624466476
                ]
            }
        },
        {
            "type": "Feature",
            "properties": {
                "name": "SANTO STEFANO DI MAGRA-VIA NAZIONALE CISA SUD",
                "id": "11841",
                "brand": "Q8",
                "amenity": "fuel",
                "operator": "SERVIZI & GESTIONI ITALIA S.R.L."
            },
            "geometry": {
                "type": "Point",
                "coordinates": [
                    9.918273186508145,
                    44.15639393600527
                ]
            }
        },
        {
            "type": "Feature",
            "properties": {
                "name": "AUTOSERVICE DI LANATI ALBERTO",
                "id": "17913",
                "brand": "Agip Eni",
                "amenity": "fuel",
                "operator": "AUTOSERVICE DI LANATI ALBERTO"
            },
            "geometry": {
                "type": "Point",
                "coordinates": [
                    9.914797693490982,
                    44.153161420003194
                ]
            }
        },
        {
            "type": "Feature",
            "properties": {
                "name": "Raspini Massimo",
                "id": "16640",
                "brand": "Agip Eni",
                "amenity": "fuel",
                "operator": "RASPINI MASSIMO E C. - S.A.S."
            },
            "geometry": {
                "type": "Point",
                "coordinates": [
                    9.892802238464355,
                    44.16794767324353
                ]
            }
        },
        {
            "type": "Feature",
            "properties": {
                "name": "Tamoil",
                "id": "29260",
                "brand": "Tamoil",
                "amenity": "fuel",
                "operator": "FABIO SERVICE S.A.S. DI BANCALARI FABIO"
            },
            "geometry": {
                "type": "Point",
                "coordinates": [
                    9.847403168678284,
                    44.111421517774
                ]
            }
        },
        {
            "type": "Feature",
            "properties": {
                "name": "PADULO ALBA",
                "id": "6176",
                "brand": "Tamoil",
                "amenity": "fuel",
                "operator": "PADULO ALBA"
            },
            "geometry": {
                "type": "Point",
                "coordinates": [
                    9.92341160774231,
                    44.10914095003502
                ]
            }
        },
        {
            "type": "Feature",
            "properties": {
                "name": "DE IACO Michael",
                "id": "14811",
                "amenity": "fuel",
                "operator": "DE IACO MICHAEL"
            },
            "geometry": {
                "type": "Point",
                "coordinates": [
                    9.84660118818283,
                    44.120755097870166
                ]
            }
        }
    ]
}