{
    "type": "FeatureCollection",
    "features": [
        {
            "type": "Feature",
            "properties": {
                "name": "BARISELLI OSCAR E MICHELE SNC",
                "id": "21142",
                "brand": "Agip Eni",
                "amenity": "fuel",
                "operator": "BARISELLI OSCAR E MICHELE S.N.C."
            },
            "geometry": {
                "type": "Point",
                "coordinates": [
                    9.935424556891576,
                    45.41615119706559
                ]
            }
        },
        {
            "type": "Feature",
            "properties": {
                "name": "STAZIONE DI SERVIZIO FUEL time",
                "id": "9285",
                "amenity": "fuel",
                "operator": "GIRELLI MARIA TERESA"
            },
            "geometry": {
                "type": "Point",
                "coordinates": [
                    9.984764898147546,
                    45.429779527160186
                ]
            }
        },
        {
            "type": "Feature",
            "properties": {
                "name": "SONCINO - S.S. 235 VAR.",
                "id": "31320",
                "brand": "Api-Ip",
                "amenity": "fuel",
                "operator": "IP SERVICES S.R.L."
            },
            "geometry": {
                "type": "Point",
                "coordinates": [
                    9.869462449073808,
                    45.41046610650773
                ]
            }
        },
        {
            "type": "Feature",
            "properties": {
                "name": "LA GASOLINA",
                "id": "16963",
                "brand": "Tamoil",
                "amenity": "fuel",
                "operator": "LA GASOLINA DI BISSA PAOLO LUIGI"
            },
            "geometry": {
                "type": "Point",
                "coordinates": [
                    9.85229018332825,
                    45.387734564485044
                ]
            }
        },
        {
            "type": "Feature",
            "properties": {
                "name": "IP",
                "id": "12885",
                "brand": "Api-Ip",
                "amenity": "fuel",
                "operator": "WASH TIME S.A.S. DI CITTI MARCO & GUELI ENRICO"
            },
            "geometry": {
                "type": "Point",
                "coordinates": [
                    9.930363893508911,
                    45.38831953547429
                ]
            }
        },
        {
            "type": "Feature",
            "properties": {
                "name": "Sia Fuel Pompiano",
                "id": "26153",
                "brand": "Sia fuel",
                "amenity": "fuel",
                "operator": "S.I.A. ENGINEERING CONSTRUCTION S.R.L."
            },
            "geometry": {
                "type": "Point",
                "coordinates": [
                    9.990128874778748,
                    45.432230972499106
                ]
            }
        },
        {
            "type": "Feature",
            "properties": {
                "name": "fratelli pedroni snc di pedroni claudio",
                "id": "13178",
                "brand": "Total Erg",
                "amenity": "fuel",
                "operator": "FRATELLI PEDRONI S.N.C. DI PEDRONI CLAUDIO & C."
            },
            "geometry": {
                "type": "Point",
                "coordinates": [
                    9.977910071611404,
                    45.344205046991874
                ]
            }
        },
        {
            "type": "Feature",
            "properties": {
                "name": "ORZINUOVI-VIA MILANO 10",
                "id": "11524",
                "brand": "Q8",
                "amenity": "fuel",
                "operator": "SERVIZI & GESTIONI ITALIA S.R.L."
            },
            "geometry": {
                "type": "Point",
                "coordinates": [
                    9.916740953922272,
                    45.40084331591959
                ]
            }
        },
        {
            "type": "Feature",
            "properties": {
                "name": "ENI STATION DI FERRARI GIANPAOLO",
                "id": "22634",
                "brand": "Agip Eni",
                "amenity": "fuel",
                "operator": "FERRARI GIANPAOLO"
            },
            "geometry": {
                "type": "Point",
                "coordinates": [
                    9.869376193393007,
                    45.40087449255792
                ]
            }
        },
        {
            "type": "Feature",
            "properties": {
                "name": "Distributore Total Erg di Tonsi Simone",
                "id": "17455",
                "brand": "Total Erg",
                "amenity": "fuel",
                "operator": "TONSI SIMONE"
            },
            "geometry": {
                "type": "Point",
                "coordinates": [
                    9.935060441493986,
                    45.40666766465073
                ]
            }
        },
        {
            "type": "Feature",
            "properties": {
                "name": "ORZINUOVI",
                "id": "16028",
                "brand": "Api-Ip",
                "amenity": "fuel",
                "operator": "SAINI SRL"
            },
            "geometry": {
                "type": "Point",
                "coordinates": [
                    9.939496491262846,
                    45.41219417720595
                ]
            }
        },
        {
            "type": "Feature",
            "properties": {
                "name": "ENI STATION DI LAURA RONGA",
                "id": "12090",
                "brand": "Agip Eni",
                "amenity": "fuel",
                "operator": "ENI STATION DI LAURA RONGA"
            },
            "geometry": {
                "type": "Point",
                "coordinates": [
                    9.969641271163935,
                    45.42228840906633
                ]
            }
        },
        {
            "type": "Feature",
            "properties": {
                "name": "rossini francesco",
                "id": "9605",
                "brand": "Esso",
                "amenity": "fuel",
                "operator": "ROSSINI FRANCESCO"
            },
            "geometry": {
                "type": "Point",
                "coordinates": [
                    9.927837252616884,
                    45.40701453047089
                ]
            }
        },
        {
            "type": "Feature",
            "properties": {
                "name": "TAMOIL",
                "id": "22142",
                "brand": "Tamoil",
                "amenity": "fuel",
                "operator": "LA GASOLINA DI BISSA PAOLO LUIGI"
            },
            "geometry": {
                "type": "Point",
                "coordinates": [
                    9.961253553628922,
                    45.405147606746006
                ]
            }
        },
        {
            "type": "Feature",
            "properties": {
                "name": "di bi service",
                "id": "18537",
                "brand": "Api-Ip",
                "amenity": "fuel",
                "operator": "DIBI SERVICE DI DONATI FABRIZIO E C. - S.A.S."
            },
            "geometry": {
                "type": "Point",
                "coordinates": [
                    9.866217523813248,
                    45.399316132856875
                ]
            }
        },
        {
            "type": "Feature",
            "properties": {
                "name": "briola carburanti",
                "id": "20639",
                "brand": "Agip Eni",
                "amenity": "fuel",
                "operator": "BRIOLA CARBURANTI DEI FRATELLI BRIOLA & C. SNC"
            },
            "geometry": {
                "type": "Point",
                "coordinates": [
                    9.931710283467053,
                    45.40054203512027
                ]
            }
        },
        {
            "type": "Feature",
            "properties": {
                "name": "AREA DI SERVIZIO ALESSANDRINI",
                "id": "7377",
                "brand": "Agip Eni",
                "amenity": "fuel",
                "operator": "ALESSANDRINI GIANMARIO SOCIETA' A RESPONSABILITA' LIMITATA, IN SI GLA ALESSANDRINI GIANMARIO S.R.L."
            },
            "geometry": {
                "type": "Point",
                "coordinates": [
                    9.920302927494049,
                    45.4498614806418
                ]
            }
        }
    ]
}