{
    "type": "FeatureCollection",
    "features": [
        {
            "type": "Feature",
            "properties": {
                "name": "CLUSANE GAS S.N.C. DI BONASSI EMANUELA & C.",
                "id": "27956",
                "amenity": "fuel",
                "operator": "CLUSANE GAS S.N.C. DI BONASSI EMANUELA & C."
            },
            "geometry": {
                "type": "Point",
                "coordinates": [
                    9.975714683532715,
                    45.66113509557658
                ]
            }
        },
        {
            "type": "Feature",
            "properties": {
                "name": "VILLONGO",
                "id": "14466",
                "brand": "Agip Eni",
                "amenity": "fuel",
                "operator": "FENAROLI MAURIZIO"
            },
            "geometry": {
                "type": "Point",
                "coordinates": [
                    9.939215852114899,
                    45.66865605351997
                ]
            }
        },
        {
            "type": "Feature",
            "properties": {
                "name": "AUTOFFICINA PAGANI LUIGI",
                "id": "16438",
                "brand": "Api-Ip",
                "amenity": "fuel",
                "operator": "PAGANI LUIGI"
            },
            "geometry": {
                "type": "Point",
                "coordinates": [
                    9.887100360782597,
                    45.612576895793524
                ]
            }
        },
        {
            "type": "Feature",
            "properties": {
                "name": "NOVALI CLAUDIO",
                "id": "12400",
                "brand": "Agip Eni",
                "amenity": "fuel",
                "operator": "NOVALI CLAUDIO"
            },
            "geometry": {
                "type": "Point",
                "coordinates": [
                    9.857691451907158,
                    45.63047384884361
                ]
            }
        },
        {
            "type": "Feature",
            "properties": {
                "name": "STAZIONE DI SERVIZIO ZAMBETTI ANGELO",
                "id": "6808",
                "amenity": "fuel",
                "operator": "ZAMBETTI ANGELO"
            },
            "geometry": {
                "type": "Point",
                "coordinates": [
                    9.863693565130234,
                    45.70603730501884
                ]
            }
        },
        {
            "type": "Feature",
            "properties": {
                "name": "New Station Service di Cinesi Roberto",
                "id": "13148",
                "brand": "Shell",
                "amenity": "fuel",
                "operator": "NEW STATION SERVICE DI CINESI ROBERTO"
            },
            "geometry": {
                "type": "Point",
                "coordinates": [
                    9.887747736987308,
                    45.638208383323665
                ]
            }
        },
        {
            "type": "Feature",
            "properties": {
                "name": "SEBINO SUD",
                "id": "3552",
                "brand": "Esso",
                "amenity": "fuel",
                "operator": "Nuova Sidap SRL"
            },
            "geometry": {
                "type": "Point",
                "coordinates": [
                    9.965565597553223,
                    45.5932297314067
                ]
            }
        },
        {
            "type": "Feature",
            "properties": {
                "name": "COLLA FABIO",
                "id": "9952",
                "brand": "Api-Ip",
                "amenity": "fuel",
                "operator": "COLLA FABIO"
            },
            "geometry": {
                "type": "Point",
                "coordinates": [
                    9.893827898112932,
                    45.6028196962389
                ]
            }
        },
        {
            "type": "Feature",
            "properties": {
                "name": "SHELL",
                "id": "18992",
                "brand": "Shell",
                "amenity": "fuel",
                "operator": "PARIS LORENZO & C.S.N.C"
            },
            "geometry": {
                "type": "Point",
                "coordinates": [
                    9.924962120186818,
                    45.657662047567996
                ]
            }
        },
        {
            "type": "Feature",
            "properties": {
                "name": "Ip Ferrari Marco",
                "id": "21203",
                "brand": "Api-Ip",
                "amenity": "fuel",
                "operator": "FERRARI MARCO"
            },
            "geometry": {
                "type": "Point",
                "coordinates": [
                    10.009640604257584,
                    45.63417039385652
                ]
            }
        },
        {
            "type": "Feature",
            "properties": {
                "name": "Palazzolo sull'Oglio via Bergamo 70",
                "id": "28473",
                "amenity": "fuel",
                "operator": "DITTA MORZENTI ANTONIO S.R.L."
            },
            "geometry": {
                "type": "Point",
                "coordinates": [
                    9.862642139196396,
                    45.59971812652844
                ]
            }
        },
        {
            "type": "Feature",
            "properties": {
                "name": "SEBINO NORD",
                "id": "21924",
                "brand": "Total Erg",
                "amenity": "fuel",
                "operator": "BAIGUERA MARCO & C SNC"
            },
            "geometry": {
                "type": "Point",
                "coordinates": [
                    9.965235482139633,
                    45.594614779510835
                ]
            }
        },
        {
            "type": "Feature",
            "properties": {
                "name": "Agip n. 1767",
                "id": "24114",
                "brand": "Agip Eni",
                "amenity": "fuel",
                "operator": "LONGONI LUCA"
            },
            "geometry": {
                "type": "Point",
                "coordinates": [
                    9.877138109925909,
                    45.60023978063671
                ]
            }
        },
        {
            "type": "Feature",
            "properties": {
                "name": "CREDARO-VIA ROMA 53",
                "id": "11491",
                "brand": "Q8",
                "amenity": "fuel",
                "operator": "SERVIZI & GESTIONI ITALIA S.R.L."
            },
            "geometry": {
                "type": "Point",
                "coordinates": [
                    9.929875509262047,
                    45.66281997075633
                ]
            }
        },
        {
            "type": "Feature",
            "properties": {
                "name": "IP",
                "id": "29869",
                "brand": "Api-Ip",
                "amenity": "fuel",
                "operator": "FIENI  PIERLUIGI"
            },
            "geometry": {
                "type": "Point",
                "coordinates": [
                    9.94638535889544,
                    45.69775192308922
                ]
            }
        },
        {
            "type": "Feature",
            "properties": {
                "name": "ADRO-SP. 12 ROVATO/CAPRIOLO",
                "id": "11538",
                "brand": "Q8",
                "amenity": "fuel",
                "operator": "SERVIZI & GESTIONI ITALIA S.R.L."
            },
            "geometry": {
                "type": "Point",
                "coordinates": [
                    9.953181445598602,
                    45.625758144689925
                ]
            }
        },
        {
            "type": "Feature",
            "properties": {
                "name": "ADS AGIP DI TURELLI PAOLO",
                "id": "13514",
                "brand": "Agip Eni",
                "amenity": "fuel",
                "operator": "TURELLI PAOLO CARBURANTI E C. S.A.S."
            },
            "geometry": {
                "type": "Point",
                "coordinates": [
                    10.007487901782952,
                    45.628840832480094
                ]
            }
        },
        {
            "type": "Feature",
            "properties": {
                "name": "ESSO",
                "id": "29829",
                "brand": "Esso",
                "amenity": "fuel",
                "operator": "ORLANDI STEFANO"
            },
            "geometry": {
                "type": "Point",
                "coordinates": [
                    9.872504621744156,
                    45.59571132985826
                ]
            }
        },
        {
            "type": "Feature",
            "properties": {
                "name": "AUTOLAVAGGI GSD SRL",
                "id": "13756",
                "brand": "Tamoil",
                "amenity": "fuel",
                "operator": "AUTOLAVAGGI GSD S.R.L."
            },
            "geometry": {
                "type": "Point",
                "coordinates": [
                    9.959585068786621,
                    45.666420136130235
                ]
            }
        },
        {
            "type": "Feature",
            "properties": {
                "name": "fedrighini maria grazia e c. s.n.c.",
                "id": "15212",
                "brand": "Api-Ip",
                "amenity": "fuel",
                "operator": "FEDRIGHINI MARIA GRAZIA & C.S.N.C"
            },
            "geometry": {
                "type": "Point",
                "coordinates": [
                    9.997755493917794,
                    45.67838142179685
                ]
            }
        },
        {
            "type": "Feature",
            "properties": {
                "name": "ENI CAFE Bino Daniele",
                "id": "28368",
                "brand": "Agip Eni",
                "amenity": "fuel",
                "operator": "BINO DANIELE"
            },
            "geometry": {
                "type": "Point",
                "coordinates": [
                    9.93032231926918,
                    45.62820448566603
                ]
            }
        },
        {
            "type": "Feature",
            "properties": {
                "name": "STAZIONE ESSO DI GERVASONI FRANCESCO",
                "id": "20084",
                "brand": "Esso",
                "amenity": "fuel",
                "operator": "STAZIONE ESSO DI GERVASONI FRANCESCO"
            },
            "geometry": {
                "type": "Point",
                "coordinates": [
                    9.951585611917153,
                    45.67096037728799
                ]
            }
        },
        {
            "type": "Feature",
            "properties": {
                "name": "stazione di servizio IP",
                "id": "11323",
                "brand": "Api-Ip",
                "amenity": "fuel",
                "operator": "CADEO DIEGO  & C. S.N.C."
            },
            "geometry": {
                "type": "Point",
                "coordinates": [
                    9.899529218673706,
                    45.59093620582133
                ]
            }
        },
        {
            "type": "Feature",
            "properties": {
                "name": "Area di servizio Tamoil",
                "id": "17133",
                "brand": "Tamoil",
                "amenity": "fuel",
                "operator": "RAVELLI GIUSEPPE"
            },
            "geometry": {
                "type": "Point",
                "coordinates": [
                    9.894026410494007,
                    45.61019039769576
                ]
            }
        },
        {
            "type": "Feature",
            "properties": {
                "name": "ESSO",
                "id": "27171",
                "brand": "Esso",
                "amenity": "fuel",
                "operator": "UBERTI COSTANTINO"
            },
            "geometry": {
                "type": "Point",
                "coordinates": [
                    9.960251448362214,
                    45.61626888631427
                ]
            }
        },
        {
            "type": "Feature",
            "properties": {
                "name": "TengattiniAnna & C. s.n.c.",
                "id": "10637",
                "brand": "Agip Eni",
                "amenity": "fuel",
                "operator": "TENGATTINI ANNA & C. S.N.C."
            },
            "geometry": {
                "type": "Point",
                "coordinates": [
                    9.955415725708008,
                    45.65447237959524
                ]
            }
        },
        {
            "type": "Feature",
            "properties": {
                "name": "BOFFELLI DIEGO",
                "id": "12475",
                "brand": "Api-Ip",
                "amenity": "fuel",
                "operator": "BOFFELLI DIEGO"
            },
            "geometry": {
                "type": "Point",
                "coordinates": [
                    9.95344258628677,
                    45.67118048456411
                ]
            }
        },
        {
            "type": "Feature",
            "properties": {
                "name": "PALAZZOLO SULL'OGLIO-VIA BRESCIA",
                "id": "11526",
                "brand": "Q8",
                "amenity": "fuel",
                "operator": "SERVIZI & GESTIONI ITALIA S.R.L."
            },
            "geometry": {
                "type": "Point",
                "coordinates": [
                    9.89485900859836,
                    45.59263243201057
                ]
            }
        },
        {
            "type": "Feature",
            "properties": {
                "name": "PARATICO S.S.469 KM.27+595",
                "id": "24670",
                "brand": "Total Erg",
                "amenity": "fuel",
                "operator": "TOTALERG S.P.A."
            },
            "geometry": {
                "type": "Point",
                "coordinates": [
                    9.961807429790497,
                    45.656958336452426
                ]
            }
        },
        {
            "type": "Feature",
            "properties": {
                "name": "AREA DI SERVIZIO OASI",
                "id": "6207",
                "brand": "Agip Eni",
                "amenity": "fuel",
                "operator": "AREA SERVIZIO (AGIP) OASI DI PAGNONCELLI MASSIMILIANO E C. S.N.C"
            },
            "geometry": {
                "type": "Point",
                "coordinates": [
                    9.873328730463982,
                    45.62995223544087
                ]
            }
        },
        {
            "type": "Feature",
            "properties": {
                "name": "Q8",
                "id": "27623",
                "brand": "Q8",
                "amenity": "fuel",
                "operator": "MAURO LORENZO RINALDI"
            },
            "geometry": {
                "type": "Point",
                "coordinates": [
                    9.96282904113923,
                    45.604563670875585
                ]
            }
        },
        {
            "type": "Feature",
            "properties": {
                "name": "toalerg",
                "id": "30945",
                "brand": "Total Erg",
                "amenity": "fuel",
                "operator": "BONDIO ROBERTO & BONASSI STEFANO S.N.C."
            },
            "geometry": {
                "type": "Point",
                "coordinates": [
                    9.91267740726471,
                    45.59457361022774
                ]
            }
        },
        {
            "type": "Feature",
            "properties": {
                "name": "distributore carburanti ANTONIOLI VALERIO",
                "id": "8899",
                "brand": "Api-Ip",
                "amenity": "fuel",
                "operator": "ANTONIOLI VALERIO"
            },
            "geometry": {
                "type": "Point",
                "coordinates": [
                    9.854960629499828,
                    45.68763897323241
                ]
            }
        },
        {
            "type": "Feature",
            "properties": {
                "name": "CALISSI REMO",
                "id": "18232",
                "brand": "Q8",
                "amenity": "fuel",
                "operator": "OFFICINA MECCANICA CALISSI REMO"
            },
            "geometry": {
                "type": "Point",
                "coordinates": [
                    9.89862967857357,
                    45.639862581972274
                ]
            }
        }
    ]
}