{
    "type": "FeatureCollection",
    "features": [
        {
            "type": "Feature",
            "properties": {
                "name": "esso",
                "id": "28068",
                "brand": "Esso",
                "amenity": "fuel",
                "operator": "LUZARDI MASSIMO  E C. SOCIETA' IN ACCOMANDITA SEMPLICE"
            },
            "geometry": {
                "type": "Point",
                "coordinates": [
                    10.193341076374054,
                    45.63908548897585
                ]
            }
        },
        {
            "type": "Feature",
            "properties": {
                "name": "IMPIANTO Q8",
                "id": "27814",
                "brand": "Q8",
                "amenity": "fuel",
                "operator": "LUBE S.N.C. DI BERVEGLIERI LUCA & C."
            },
            "geometry": {
                "type": "Point",
                "coordinates": [
                    10.069176256656647,
                    45.59789173838502
                ]
            }
        },
        {
            "type": "Feature",
            "properties": {
                "name": "ip di riccardo bolpagni",
                "id": "9397",
                "brand": "Api-Ip",
                "amenity": "fuel",
                "operator": "BOLPAGNI RICCARDO"
            },
            "geometry": {
                "type": "Point",
                "coordinates": [
                    10.156019479036331,
                    45.588946607319556
                ]
            }
        },
        {
            "type": "Feature",
            "properties": {
                "name": "SERVIZIO TAMOIL BIEMME",
                "id": "7243",
                "brand": "Tamoil",
                "amenity": "fuel",
                "operator": "BIEMME DI BONIOTTI SILVANO E MELIGA BRUNO S.N.C."
            },
            "geometry": {
                "type": "Point",
                "coordinates": [
                    10.0859534740448,
                    45.60265913965405
                ]
            }
        },
        {
            "type": "Feature",
            "properties": {
                "name": "AGIP",
                "id": "6008",
                "brand": "Agip Eni",
                "amenity": "fuel",
                "operator": "FAGLIA MICHELE"
            },
            "geometry": {
                "type": "Point",
                "coordinates": [
                    10.08669376373291,
                    45.60278524398939
                ]
            }
        },
        {
            "type": "Feature",
            "properties": {
                "name": "ISEO VIA ROMA 5 DISTR. Q8",
                "id": "8437",
                "brand": "Q8",
                "amenity": "fuel",
                "operator": "SERVIZI & GESTIONI ITALIA S.R.L."
            },
            "geometry": {
                "type": "Point",
                "coordinates": [
                    10.04964278747616,
                    45.65389796398294
                ]
            }
        },
        {
            "type": "Feature",
            "properties": {
                "name": "IP  FLLI  TANCREDI",
                "id": "16599",
                "brand": "Api-Ip",
                "amenity": "fuel",
                "operator": "F.LLI TANCREDI DI TANCREDI CORNELIO & C. SNC"
            },
            "geometry": {
                "type": "Point",
                "coordinates": [
                    10.106998368082714,
                    45.59229934695986
                ]
            }
        },
        {
            "type": "Feature",
            "properties": {
                "name": "ga-bo snc di boschetti marco e c.",
                "id": "18672",
                "brand": "Agip Eni",
                "amenity": "fuel",
                "operator": "GA-BO DI BOSCHETTI MARCO E C. S.N.C."
            },
            "geometry": {
                "type": "Point",
                "coordinates": [
                    10.049928724765778,
                    45.653478715893485
                ]
            }
        },
        {
            "type": "Feature",
            "properties": {
                "name": "emo snc di franceschini m.e c. snc",
                "id": "10336",
                "brand": "Api-Ip",
                "amenity": "fuel",
                "operator": "E.M.O. DI FRANCESCHINI M. & C. S.N.C."
            },
            "geometry": {
                "type": "Point",
                "coordinates": [
                    10.10723277926445,
                    45.59195387701253
                ]
            }
        },
        {
            "type": "Feature",
            "properties": {
                "name": "ERREBI DI RUMI E BARTOLI SNC",
                "id": "13566",
                "brand": "Api-Ip",
                "amenity": "fuel",
                "operator": "ERREBI DI RUMI E BARTOLI SNC"
            },
            "geometry": {
                "type": "Point",
                "coordinates": [
                    10.076183527708054,
                    45.62056761672224
                ]
            }
        },
        {
            "type": "Feature",
            "properties": {
                "name": "Stazione di servizio Esso di Pezzotti Giancarlo",
                "id": "28542",
                "brand": "Esso",
                "amenity": "fuel",
                "operator": "PEZZOTTI GIANCARLO"
            },
            "geometry": {
                "type": "Point",
                "coordinates": [
                    10.02335473895073,
                    45.65167732738055
                ]
            }
        },
        {
            "type": "Feature",
            "properties": {
                "name": "tommasini s.& belleri l snc",
                "id": "8913",
                "brand": "Q8",
                "amenity": "fuel",
                "operator": "TOMMASINI SERGIO & BELLERI LUCIANO S.N.C."
            },
            "geometry": {
                "type": "Point",
                "coordinates": [
                    10.195236313491819,
                    45.66539593802094
                ]
            }
        },
        {
            "type": "Feature",
            "properties": {
                "name": "STAZIONE DI SERVIZIO DI PELI F. E CONTIN F. SNC",
                "id": "10723",
                "brand": "Api-Ip",
                "amenity": "fuel",
                "operator": "STAZIONE DI SERVIZIO DI PELI FABIANO E CONTIN FLAVIO SNC"
            },
            "geometry": {
                "type": "Point",
                "coordinates": [
                    10.186712860679108,
                    45.671901322876906
                ]
            }
        },
        {
            "type": "Feature",
            "properties": {
                "name": "LUBE SNC",
                "id": "24314",
                "brand": "Api-Ip",
                "amenity": "fuel",
                "operator": "LUBE S.N.C. DI BERVEGLIERI LUCA & C."
            },
            "geometry": {
                "type": "Point",
                "coordinates": [
                    10.082318067675715,
                    45.62430948317562
                ]
            }
        },
        {
            "type": "Feature",
            "properties": {
                "name": "agip",
                "id": "7429",
                "brand": "Agip Eni",
                "amenity": "fuel",
                "operator": "VIAR S.A.S. DI ARCHETTI GIANPIETRO E C."
            },
            "geometry": {
                "type": "Point",
                "coordinates": [
                    10.076718628406525,
                    45.61934973333599
                ]
            }
        },
        {
            "type": "Feature",
            "properties": {
                "name": "esso f.lli boglioni&c.s.n.c.",
                "id": "27151",
                "brand": "Esso",
                "amenity": "fuel",
                "operator": "F.LLI BOGLIONI  & C. S.N.C."
            },
            "geometry": {
                "type": "Point",
                "coordinates": [
                    10.044888854026794,
                    45.63006664944058
                ]
            }
        },
        {
            "type": "Feature",
            "properties": {
                "name": "ENI",
                "id": "9300",
                "brand": "Agip Eni",
                "amenity": "fuel",
                "operator": "UBERTI & ZECCHETTI - S.N.C."
            },
            "geometry": {
                "type": "Point",
                "coordinates": [
                    10.156133472919464,
                    45.589632088299155
                ]
            }
        },
        {
            "type": "Feature",
            "properties": {
                "name": "tamoi di cortesi piergiorgio",
                "id": "19405",
                "brand": "Tamoil",
                "amenity": "fuel",
                "operator": "CORTESI PIERGIORGIO"
            },
            "geometry": {
                "type": "Point",
                "coordinates": [
                    10.121916548479474,
                    45.6217068308883
                ]
            }
        },
        {
            "type": "Feature",
            "properties": {
                "name": "tamoil guerini e pedretti",
                "id": "7085",
                "brand": "Tamoil",
                "amenity": "fuel",
                "operator": "GUERINI E PEDRETTI DI GUERINI PIERLORENZO & C. S.N.C."
            },
            "geometry": {
                "type": "Point",
                "coordinates": [
                    10.186078732962415,
                    45.67380100330237
                ]
            }
        },
        {
            "type": "Feature",
            "properties": {
                "name": "Marval di Cabassi M&C snc",
                "id": "22655",
                "brand": "Api-Ip",
                "amenity": "fuel",
                "operator": "MARVAL DI CABASSI MARCO & C. SNC"
            },
            "geometry": {
                "type": "Point",
                "coordinates": [
                    10.194173902273178,
                    45.603887893981195
                ]
            }
        }
    ]
}