{
    "type": "FeatureCollection",
    "features": [
        {
            "type": "Feature",
            "properties": {
                "name": "TOTALERG",
                "id": "16103",
                "brand": "Total Erg",
                "amenity": "fuel",
                "operator": "NASI ROSANNA"
            },
            "geometry": {
                "type": "Point",
                "coordinates": [
                    10.181470289826393,
                    44.87991596530513
                ]
            }
        },
        {
            "type": "Feature",
            "properties": {
                "name": "METANO FIDENZA",
                "id": "29884",
                "brand": "Api-Ip",
                "amenity": "fuel",
                "operator": "METANO FIDENZA S.R.L."
            },
            "geometry": {
                "type": "Point",
                "coordinates": [
                    10.077489942852822,
                    44.85982443652352
                ]
            }
        },
        {
            "type": "Feature",
            "properties": {
                "name": "Ludoil 3034",
                "id": "31979",
                "brand": "Q8",
                "amenity": "fuel",
                "operator": "IEVA ERMANNO"
            },
            "geometry": {
                "type": "Point",
                "coordinates": [
                    10.083300769329071,
                    44.87475186036073
                ]
            }
        },
        {
            "type": "Feature",
            "properties": {
                "name": "AGIP 22978 253316 (0)",
                "id": "16819",
                "brand": "Agip Eni",
                "amenity": "fuel",
                "operator": "GAGLIONE GIUSEPPE"
            },
            "geometry": {
                "type": "Point",
                "coordinates": [
                    10.14190100133419,
                    44.95024092338162
                ]
            }
        },
        {
            "type": "Feature",
            "properties": {
                "name": "MARINO EMMA",
                "id": "7080",
                "brand": "Agip Eni",
                "amenity": "fuel",
                "operator": "MARINO EMMA"
            },
            "geometry": {
                "type": "Point",
                "coordinates": [
                    10.078636407852173,
                    44.86047755158984
                ]
            }
        },
        {
            "type": "Feature",
            "properties": {
                "name": "FIDENZA-VIA 24 MAGGIO 31",
                "id": "11780",
                "brand": "Q8",
                "amenity": "fuel",
                "operator": "SERVIZI & GESTIONI ITALIA S.R.L."
            },
            "geometry": {
                "type": "Point",
                "coordinates": [
                    10.06931032142643,
                    44.86160913058338
                ]
            }
        },
        {
            "type": "Feature",
            "properties": {
                "name": "TACCHINI CARBURANTI",
                "id": "30592",
                "brand": "Agip Eni",
                "amenity": "fuel",
                "operator": "TACCHINI CARBURANTI S.R.L."
            },
            "geometry": {
                "type": "Point",
                "coordinates": [
                    10.071712093254064,
                    44.952632554240466
                ]
            }
        },
        {
            "type": "Feature",
            "properties": {
                "name": "Shell",
                "id": "4840",
                "brand": "Shell",
                "amenity": "fuel",
                "operator": "FIDENZA OIL SOCIETA' IN NOME COLLETTIVO DI DANIELE MANINI & C."
            },
            "geometry": {
                "type": "Point",
                "coordinates": [
                    10.092020630836487,
                    44.857318396097796
                ]
            }
        },
        {
            "type": "Feature",
            "properties": {
                "name": "STAZIONE ESSO DI BROGGI ALESSANDRO",
                "id": "6977",
                "brand": "Esso",
                "amenity": "fuel",
                "operator": "BROGGI ALESSANDRO"
            },
            "geometry": {
                "type": "Point",
                "coordinates": [
                    10.08543482264349,
                    44.88263474974469
                ]
            }
        },
        {
            "type": "Feature",
            "properties": {
                "name": "STAZIONE DI SERVIZIO IP",
                "id": "7612",
                "brand": "Api-Ip",
                "amenity": "fuel",
                "operator": "D'ANDREA CLAUDIA"
            },
            "geometry": {
                "type": "Point",
                "coordinates": [
                    10.080264508724213,
                    44.86077490178029
                ]
            }
        },
        {
            "type": "Feature",
            "properties": {
                "name": "Pastori Romana",
                "id": "13496",
                "brand": "Agip Eni",
                "amenity": "fuel",
                "operator": "PASTORI ROMANA"
            },
            "geometry": {
                "type": "Point",
                "coordinates": [
                    10.11829152703285,
                    44.926998545784144
                ]
            }
        },
        {
            "type": "Feature",
            "properties": {
                "name": "IPER CARBURANTI",
                "id": "27115",
                "amenity": "fuel",
                "operator": "SULIS MONICA"
            },
            "geometry": {
                "type": "Point",
                "coordinates": [
                    10.153849862243646,
                    44.840345651649855
                ]
            }
        },
        {
            "type": "Feature",
            "properties": {
                "name": "AGIP SOCOGAS",
                "id": "17265",
                "brand": "Agip Eni",
                "amenity": "fuel",
                "operator": "GATTI CLAUDIO"
            },
            "geometry": {
                "type": "Point",
                "coordinates": [
                    10.083657503128052,
                    44.87641822333227
                ]
            }
        },
        {
            "type": "Feature",
            "properties": {
                "name": "CALZETTI CRISTIAN",
                "id": "4203",
                "brand": "Agip Eni",
                "amenity": "fuel",
                "operator": "CALZETTI CRISTIAN"
            },
            "geometry": {
                "type": "Point",
                "coordinates": [
                    10.163560042471318,
                    44.88536653809719
                ]
            }
        },
        {
            "type": "Feature",
            "properties": {
                "name": "EXPRESS CAFE' S.N.C. DI MAESTRI CLAUDIA &C.",
                "id": "25065",
                "brand": "Esso",
                "amenity": "fuel",
                "operator": "EXPRESS CAFE' S.N.C. DI MAESTRI CLAUDIA & C."
            },
            "geometry": {
                "type": "Point",
                "coordinates": [
                    10.075278282165527,
                    44.870706732980736
                ]
            }
        },
        {
            "type": "Feature",
            "properties": {
                "name": "DISTRIBUTORI IP",
                "id": "29857",
                "brand": "Api-Ip",
                "amenity": "fuel",
                "operator": "CESARI CRISTINA"
            },
            "geometry": {
                "type": "Point",
                "coordinates": [
                    10.173564478754997,
                    44.859814972246625
                ]
            }
        },
        {
            "type": "Feature",
            "properties": {
                "name": "totalerg",
                "id": "27921",
                "brand": "Total Erg",
                "amenity": "fuel",
                "operator": "USHINA AFERDITA"
            },
            "geometry": {
                "type": "Point",
                "coordinates": [
                    10.054242387413979,
                    44.86744301393862
                ]
            }
        },
        {
            "type": "Feature",
            "properties": {
                "name": "ESSO OIL FIDENZA",
                "id": "22120",
                "brand": "Esso",
                "amenity": "fuel",
                "operator": "OIL FIDENZA DI IEVA EMANUELE & C. SOCIETA' IN NOME COLLETTIVO"
            },
            "geometry": {
                "type": "Point",
                "coordinates": [
                    10.050364583730698,
                    44.86924873696558
                ]
            }
        }
    ]
}