{
    "type": "FeatureCollection",
    "features": [
        {
            "type": "Feature",
            "properties": {
                "name": "Totalerg",
                "id": "13500",
                "brand": "Total Erg",
                "amenity": "fuel",
                "operator": "MOSTI EGIDIO"
            },
            "geometry": {
                "type": "Point",
                "coordinates": [
                    10.08070051527477,
                    44.021555697983516
                ]
            }
        },
        {
            "type": "Feature",
            "properties": {
                "name": "D.T.snc di DELLA TOMMASINA O.",
                "id": "12510",
                "brand": "Api-Ip",
                "amenity": "fuel",
                "operator": "D.T. S.N.C. DI DELLA TOMMASINA ORLANDO  &  C."
            },
            "geometry": {
                "type": "Point",
                "coordinates": [
                    10.10434413412463,
                    44.03719134798374
                ]
            }
        },
        {
            "type": "Feature",
            "properties": {
                "name": "Staz. di servizio IP Bronzoni Davide",
                "id": "13519",
                "brand": "Api-Ip",
                "amenity": "fuel",
                "operator": "BRONZONI DAVIDE"
            },
            "geometry": {
                "type": "Point",
                "coordinates": [
                    10.042919443191524,
                    44.038730814986295
                ]
            }
        },
        {
            "type": "Feature",
            "properties": {
                "name": "primax carburanti",
                "id": "10542",
                "brand": "Agip Eni",
                "amenity": "fuel",
                "operator": "PRIMAX CARBURANTI S.N.C. DEI F.LLI PRIMO E MASSIMO MANFREDI"
            },
            "geometry": {
                "type": "Point",
                "coordinates": [
                    10.119977789549239,
                    44.02248581972937
                ]
            }
        },
        {
            "type": "Feature",
            "properties": {
                "name": "B. & B. S.N.C. DI BELLE' GIAN CARLO, BOMBARDA MICHELE & C.",
                "id": "20038",
                "brand": "Esso",
                "amenity": "fuel",
                "operator": "B. & B. S.N.C. DI BELLE' GIAN CARLO, BOMBARDA MICHELE & C."
            },
            "geometry": {
                "type": "Point",
                "coordinates": [
                    10.045073926448822,
                    44.05961233809151
                ]
            }
        },
        {
            "type": "Feature",
            "properties": {
                "name": "MASSA-VIALE DEMOCRAZIA",
                "id": "11725",
                "brand": "Q8",
                "amenity": "fuel",
                "operator": "SERVIZI & GESTIONI ITALIA S.R.L."
            },
            "geometry": {
                "type": "Point",
                "coordinates": [
                    10.141655568122815,
                    44.03337327674089
                ]
            }
        },
        {
            "type": "Feature",
            "properties": {
                "name": "STAZIONE DI SERVIZIO Q8",
                "id": "7983",
                "brand": "Q8",
                "amenity": "fuel",
                "operator": "Q8 DI LELAUMIER BRIGITTE"
            },
            "geometry": {
                "type": "Point",
                "coordinates": [
                    10.043038361307481,
                    44.05336525015798
                ]
            }
        },
        {
            "type": "Feature",
            "properties": {
                "name": "IP di braconi massimo",
                "id": "26489",
                "brand": "Api-Ip",
                "amenity": "fuel",
                "operator": "BRACONI MASSIMO"
            },
            "geometry": {
                "type": "Point",
                "coordinates": [
                    10.166631639003754,
                    44.01420586824598
                ]
            }
        },
        {
            "type": "Feature",
            "properties": {
                "name": "cuma snc",
                "id": "19961",
                "amenity": "fuel",
                "operator": "CUMA DI CUCURNIA LUCIO E MAINARDI LUCIANO S.N.C."
            },
            "geometry": {
                "type": "Point",
                "coordinates": [
                    10.078521072864532,
                    44.03105870502335
                ]
            }
        },
        {
            "type": "Feature",
            "properties": {
                "name": "fini maurizio",
                "id": "10241",
                "brand": "Agip Eni",
                "amenity": "fuel",
                "operator": "FINI MAURIZIO"
            },
            "geometry": {
                "type": "Point",
                "coordinates": [
                    10.040425658226013,
                    44.05325478202659
                ]
            }
        },
        {
            "type": "Feature",
            "properties": {
                "name": "PIERONI GIUSEPPE",
                "id": "11189",
                "brand": "Total Erg",
                "amenity": "fuel",
                "operator": "PIERONI GIUSEPPE"
            },
            "geometry": {
                "type": "Point",
                "coordinates": [
                    10.143351584586298,
                    44.03225707072638
                ]
            }
        },
        {
            "type": "Feature",
            "properties": {
                "name": "CARRARA",
                "id": "23471",
                "brand": "Agip Eni",
                "amenity": "fuel",
                "operator": "OIL SERVICE S.R.L."
            },
            "geometry": {
                "type": "Point",
                "coordinates": [
                    10.065324604511261,
                    44.056704855734196
                ]
            }
        },
        {
            "type": "Feature",
            "properties": {
                "name": "keropetrol",
                "id": "29128",
                "amenity": "fuel",
                "operator": "ASTROGAS - S.R.L."
            },
            "geometry": {
                "type": "Point",
                "coordinates": [
                    10.15672355890274,
                    43.99989359052939
                ]
            }
        },
        {
            "type": "Feature",
            "properties": {
                "name": "MASSA VIA AURELIA LOC. CASTAGNOLA",
                "id": "6600",
                "brand": "Q8",
                "amenity": "fuel",
                "operator": "SERVIZI & GESTIONI ITALIA srl"
            },
            "geometry": {
                "type": "Point",
                "coordinates": [
                    10.124801631946525,
                    44.04037177781712
                ]
            }
        },
        {
            "type": "Feature",
            "properties": {
                "name": "TOTALERG",
                "id": "9472",
                "brand": "Total Erg",
                "amenity": "fuel",
                "operator": "BERTELLONI CLAUDIO"
            },
            "geometry": {
                "type": "Point",
                "coordinates": [
                    10.066048559524575,
                    44.0546021968002
                ]
            }
        },
        {
            "type": "Feature",
            "properties": {
                "name": "BMP SNC",
                "id": "7073",
                "brand": "Agip Eni",
                "amenity": "fuel",
                "operator": "B.M.P. SNC DI PERINI MARCO & C."
            },
            "geometry": {
                "type": "Point",
                "coordinates": [
                    10.156301105487842,
                    44.015492972813355
                ]
            }
        },
        {
            "type": "Feature",
            "properties": {
                "name": "CARRARA - XX SETTEMBRE",
                "id": "24780",
                "brand": "Api-Ip",
                "amenity": "fuel",
                "operator": "IP SERVICES S.R.L."
            },
            "geometry": {
                "type": "Point",
                "coordinates": [
                    10.048612804435379,
                    44.04231232849551
                ]
            }
        },
        {
            "type": "Feature",
            "properties": {
                "name": "eni antonioli e grassi snc",
                "id": "4980",
                "brand": "Agip Eni",
                "amenity": "fuel",
                "operator": "ANTONIOLI MARIO E GRASSI ANTONIO S.N.C. DI ANTONIOLI MARIO E GRASSI ANTONIO"
            },
            "geometry": {
                "type": "Point",
                "coordinates": [
                    10.074792114253796,
                    44.05005887634847
                ]
            }
        },
        {
            "type": "Feature",
            "properties": {
                "name": "ENI 04510",
                "id": "18690",
                "brand": "Agip Eni",
                "amenity": "fuel",
                "operator": "MF MULTISERVICE DI FINI MAURIZIO & C. S.N.C."
            },
            "geometry": {
                "type": "Point",
                "coordinates": [
                    10.072967559099197,
                    44.06448827646825
                ]
            }
        },
        {
            "type": "Feature",
            "properties": {
                "name": "Stazione di Servizio Q8 Massa",
                "id": "8018",
                "brand": "Q8",
                "amenity": "fuel",
                "operator": "PIT STOP DI GATTI CRISTIANO E NICOLA S.N.C."
            },
            "geometry": {
                "type": "Point",
                "coordinates": [
                    10.138817131519318,
                    44.03886092155692
                ]
            }
        },
        {
            "type": "Feature",
            "properties": {
                "name": "bertocchi giuseppe",
                "id": "10978",
                "brand": "Agip Eni",
                "amenity": "fuel",
                "operator": "BERTOCCHI GIUSEPPE"
            },
            "geometry": {
                "type": "Point",
                "coordinates": [
                    10.035468935966492,
                    44.049260094285444
                ]
            }
        },
        {
            "type": "Feature",
            "properties": {
                "name": "IP DI DEL GRANDE MARCO",
                "id": "22094",
                "amenity": "fuel",
                "operator": "DEL GRANDE MARCO"
            },
            "geometry": {
                "type": "Point",
                "coordinates": [
                    10.144764930009842,
                    43.97728416251269
                ]
            }
        },
        {
            "type": "Feature",
            "properties": {
                "name": "Esso - Universal Motors",
                "id": "19822",
                "brand": "Esso",
                "amenity": "fuel",
                "operator": "UNIVERSAL MOTORS SOCIETA' IN NOME COLLETTIVO DI BELLE' G. & C."
            },
            "geometry": {
                "type": "Point",
                "coordinates": [
                    10.095707327127457,
                    44.038955786756276
                ]
            }
        },
        {
            "type": "Feature",
            "properties": {
                "name": "Total erg",
                "id": "25340",
                "brand": "Total Erg",
                "amenity": "fuel",
                "operator": "I. & T. PETROL S.N.C. DI INFERRERA ANTONINO & TORTI MARCO"
            },
            "geometry": {
                "type": "Point",
                "coordinates": [
                    10.06489410996437,
                    44.05707803301223
                ]
            }
        },
        {
            "type": "Feature",
            "properties": {
                "name": "TOTALERG",
                "id": "31939",
                "brand": "Total Erg",
                "amenity": "fuel",
                "operator": "SOCIETA' PETROLIFERA TIRRENA - SO.PE.TI. - S.R.L."
            },
            "geometry": {
                "type": "Point",
                "coordinates": [
                    10.176435112953188,
                    43.994984934892955
                ]
            }
        },
        {
            "type": "Feature",
            "properties": {
                "name": "Tongiani Carburanti",
                "id": "4920",
                "brand": "Agip Eni",
                "amenity": "fuel",
                "operator": "TONGIANI CARBURANTI S.A.S. DI TONGIANI FRANCESCO & C."
            },
            "geometry": {
                "type": "Point",
                "coordinates": [
                    10.110791884655782,
                    44.02720699509202
                ]
            }
        },
        {
            "type": "Feature",
            "properties": {
                "name": "CARRARA - MARINA DI CARRARA",
                "id": "31902",
                "brand": "Api-Ip",
                "amenity": "fuel",
                "operator": "IP SERVICES S.R.L."
            },
            "geometry": {
                "type": "Point",
                "coordinates": [
                    10.042381224536939,
                    44.036703856451595
                ]
            }
        },
        {
            "type": "Feature",
            "properties": {
                "name": "eni",
                "id": "4841",
                "brand": "Agip Eni",
                "amenity": "fuel",
                "operator": "MARCHINI A. E G. S.N.C. DI MARCHINI GIUSEPPE E LAZZONI ANDREA"
            },
            "geometry": {
                "type": "Point",
                "coordinates": [
                    10.141129673016394,
                    44.03382551779129
                ]
            }
        },
        {
            "type": "Feature",
            "properties": {
                "name": "meruzzi lorenzo",
                "id": "11348",
                "brand": "Esso",
                "amenity": "fuel",
                "operator": "MERUZZI LORENZO"
            },
            "geometry": {
                "type": "Point",
                "coordinates": [
                    10.093969752632574,
                    44.07374215228781
                ]
            }
        },
        {
            "type": "Feature",
            "properties": {
                "name": "TOTALERG",
                "id": "11381",
                "brand": "Total Erg",
                "amenity": "fuel",
                "operator": "MOSTI PIERO"
            },
            "geometry": {
                "type": "Point",
                "coordinates": [
                    10.043998360633852,
                    44.05578809407464
                ]
            }
        },
        {
            "type": "Feature",
            "properties": {
                "name": "rocchi davide",
                "id": "29055",
                "brand": "Tamoil",
                "amenity": "fuel",
                "operator": "ROCCHI DAVIDE"
            },
            "geometry": {
                "type": "Point",
                "coordinates": [
                    10.032385653967253,
                    44.076205736224146
                ]
            }
        },
        {
            "type": "Feature",
            "properties": {
                "name": "FORTE DEI MARMI",
                "id": "30878",
                "brand": "Tamoil",
                "amenity": "fuel",
                "operator": "OIL SERVICE S.R.L."
            },
            "geometry": {
                "type": "Point",
                "coordinates": [
                    10.186438411474226,
                    43.965067706516706
                ]
            }
        },
        {
            "type": "Feature",
            "properties": {
                "name": "STAZIONE DI SERVIZIO DI SPALLANZANI ANDREA",
                "id": "25269",
                "brand": "Total Erg",
                "amenity": "fuel",
                "operator": "STAZIONE DI SERVIZIO DI SPALLANZANI ANDREA"
            },
            "geometry": {
                "type": "Point",
                "coordinates": [
                    10.096215605735779,
                    44.014347067920845
                ]
            }
        },
        {
            "type": "Feature",
            "properties": {
                "name": "esso",
                "id": "15254",
                "brand": "Esso",
                "amenity": "fuel",
                "operator": "DALLE LUCHE JARNO"
            },
            "geometry": {
                "type": "Point",
                "coordinates": [
                    10.130729451590014,
                    44.02959689052256
                ]
            }
        },
        {
            "type": "Feature",
            "properties": {
                "name": "S.I.M srl",
                "id": "19271",
                "amenity": "fuel",
                "operator": "S.I.M. - SRL"
            },
            "geometry": {
                "type": "Point",
                "coordinates": [
                    10.058365613222122,
                    44.04625300869024
                ]
            }
        },
        {
            "type": "Feature",
            "properties": {
                "name": "totalerg",
                "id": "29351",
                "brand": "Total Erg",
                "amenity": "fuel",
                "operator": "CRISALLI RAFFAELE"
            },
            "geometry": {
                "type": "Point",
                "coordinates": [
                    10.19401967525482,
                    43.97255740289798
                ]
            }
        },
        {
            "type": "Feature",
            "properties": {
                "name": "Strentab Barbara & c. Snc",
                "id": "16699",
                "brand": "Total Erg",
                "amenity": "fuel",
                "operator": "STRENTA BARBARA & C. S.N.C."
            },
            "geometry": {
                "type": "Point",
                "coordinates": [
                    10.117011839811765,
                    44.01221985604788
                ]
            }
        },
        {
            "type": "Feature",
            "properties": {
                "name": "ENI - FINI SIMONE",
                "id": "15280",
                "brand": "Agip Eni",
                "amenity": "fuel",
                "operator": "FINI SIMONE"
            },
            "geometry": {
                "type": "Point",
                "coordinates": [
                    10.05288451910019,
                    44.04865456365699
                ]
            }
        },
        {
            "type": "Feature",
            "properties": {
                "name": "LAZZONI CARBURANTI DI LAZZONI LEONARDO & C. S.A.S.",
                "id": "22786",
                "brand": "Shell",
                "amenity": "fuel",
                "operator": "LAZZONI CARBURANTI DI LAZZONI LEONARDO & C. - S.A.S."
            },
            "geometry": {
                "type": "Point",
                "coordinates": [
                    10.079673720129675,
                    44.06903340932301
                ]
            }
        },
        {
            "type": "Feature",
            "properties": {
                "name": "OIL I TALIA",
                "id": "8565",
                "amenity": "fuel",
                "operator": "GABELLONI MAURIZIO"
            },
            "geometry": {
                "type": "Point",
                "coordinates": [
                    10.029363933796503,
                    44.06719871325803
                ]
            }
        },
        {
            "type": "Feature",
            "properties": {
                "name": "IMPIANTO TOTALERG F.LLI ANTIBO S.N.C.",
                "id": "31156",
                "brand": "Total Erg",
                "amenity": "fuel",
                "operator": "F.LLI ANTIBO SNC DI SALVATORE MARIA E ALESSANDRO ANTIBO"
            },
            "geometry": {
                "type": "Point",
                "coordinates": [
                    10.101488849568113,
                    44.018657908914555
                ]
            }
        },
        {
            "type": "Feature",
            "properties": {
                "name": "PALAGI LINO",
                "id": "12017",
                "brand": "Esso",
                "amenity": "fuel",
                "operator": "PALAGI LINO"
            },
            "geometry": {
                "type": "Point",
                "coordinates": [
                    10.052110753195166,
                    44.03317760198014
                ]
            }
        },
        {
            "type": "Feature",
            "properties": {
                "name": "totalerg",
                "id": "11257",
                "brand": "Total Erg",
                "amenity": "fuel",
                "operator": "G & P S.N.C. DI GENTILI ARMANDO E PAOLINI EUGENIO"
            },
            "geometry": {
                "type": "Point",
                "coordinates": [
                    10.119211499722269,
                    44.01509615302672
                ]
            }
        },
        {
            "type": "Feature",
            "properties": {
                "name": "Carrara Carburanti Doganella",
                "id": "29203",
                "amenity": "fuel",
                "operator": "CARRARA CARBURANTI S.R.L."
            },
            "geometry": {
                "type": "Point",
                "coordinates": [
                    10.053415271163885,
                    44.04598199999999
                ]
            }
        },
        {
            "type": "Feature",
            "properties": {
                "name": "TotalErg",
                "id": "13602",
                "brand": "Total Erg",
                "amenity": "fuel",
                "operator": "CRISTIANI PAOLO"
            },
            "geometry": {
                "type": "Point",
                "coordinates": [
                    10.109748483605927,
                    44.01577332501576
                ]
            }
        },
        {
            "type": "Feature",
            "properties": {
                "name": "IES Massa sas",
                "id": "12924",
                "brand": "Ies",
                "amenity": "fuel",
                "operator": "IES MASSA S.A.S. DI MENINI MATTEO E MANNINI CLAUDIO & C. IN SIGLA IES MASSA S.A.S."
            },
            "geometry": {
                "type": "Point",
                "coordinates": [
                    10.090928971767426,
                    44.03026110957323
                ]
            }
        },
        {
            "type": "Feature",
            "properties": {
                "name": "Stazione di servizio ESSO di Inghirami e Vita s.n.c.",
                "id": "10529",
                "brand": "Esso",
                "amenity": "fuel",
                "operator": "INGHIRAMI E VITA S.N.C. DI INGHIRAMI CARLO E VITA GIULIANA"
            },
            "geometry": {
                "type": "Point",
                "coordinates": [
                    10.043041438331898,
                    44.05524180145967
                ]
            }
        },
        {
            "type": "Feature",
            "properties": {
                "name": "Tongiani Carburanti",
                "id": "4921",
                "amenity": "fuel",
                "operator": "TONGIANI CARBURANTI S.A.S. DI TONGIANI FRANCESCO & C."
            },
            "geometry": {
                "type": "Point",
                "coordinates": [
                    10.110791884655782,
                    44.02720699509202
                ]
            }
        },
        {
            "type": "Feature",
            "properties": {
                "name": "bertelloni alessandro",
                "id": "24287",
                "brand": "Total Erg",
                "amenity": "fuel",
                "operator": "BERTELLONI ALESSANDRO"
            },
            "geometry": {
                "type": "Point",
                "coordinates": [
                    10.048863399170841,
                    44.0592218801417
                ]
            }
        },
        {
            "type": "Feature",
            "properties": {
                "name": "MASSA",
                "id": "5953",
                "brand": "Total Erg",
                "amenity": "fuel",
                "operator": "GESTIONI EUROPA S.p.A."
            },
            "geometry": {
                "type": "Point",
                "coordinates": [
                    10.124505271163912,
                    44.032890856699716
                ]
            }
        },
        {
            "type": "Feature",
            "properties": {
                "name": "STRENTA BARBARA & C. S.n.c.",
                "id": "16687",
                "brand": "Total Erg",
                "amenity": "fuel",
                "operator": "STRENTA BARBARA & C. S.N.C."
            },
            "geometry": {
                "type": "Point",
                "coordinates": [
                    10.095852983373334,
                    44.07457765340431
                ]
            }
        },
        {
            "type": "Feature",
            "properties": {
                "name": "FORTE DEI MARMI",
                "id": "22401",
                "brand": "Win",
                "amenity": "fuel",
                "operator": "TONACCI LUANA"
            },
            "geometry": {
                "type": "Point",
                "coordinates": [
                    10.179361543008783,
                    43.96407033501724
                ]
            }
        }
    ]
}