{
    "type": "FeatureCollection",
    "features": [
        {
            "type": "Feature",
            "properties": {
                "name": "VALTROMPIA SUD",
                "id": "31429",
                "brand": "Api-Ip",
                "amenity": "fuel",
                "operator": "GE.DI.A. S.R.L."
            },
            "geometry": {
                "type": "Point",
                "coordinates": [
                    10.149385035037993,
                    45.53212960267747
                ]
            }
        },
        {
            "type": "Feature",
            "properties": {
                "name": "CASAGRANDE & C s.n.c.",
                "id": "11048",
                "brand": "Agip Eni",
                "amenity": "fuel",
                "operator": "CASAGRANDE & C. S.N.C."
            },
            "geometry": {
                "type": "Point",
                "coordinates": [
                    10.046496607128915,
                    45.47874841994936
                ]
            }
        },
        {
            "type": "Feature",
            "properties": {
                "name": "Agip",
                "id": "24037",
                "brand": "Agip Eni",
                "amenity": "fuel",
                "operator": "GRECHI ALESSANDRO"
            },
            "geometry": {
                "type": "Point",
                "coordinates": [
                    10.110132247209549,
                    45.58235114708772
                ]
            }
        },
        {
            "type": "Feature",
            "properties": {
                "name": "q8 soloerre",
                "id": "7911",
                "brand": "Q8",
                "amenity": "fuel",
                "operator": "SO.LO.ERRE S.A.S. DI RANDISI LEO E C."
            },
            "geometry": {
                "type": "Point",
                "coordinates": [
                    10.189765691757202,
                    45.529252163163
                ]
            }
        },
        {
            "type": "Feature",
            "properties": {
                "name": "Distributore IP Bertolani Giuseppe",
                "id": "28882",
                "brand": "Api-Ip",
                "amenity": "fuel",
                "operator": "BERTOLANI GIUSEPPE"
            },
            "geometry": {
                "type": "Point",
                "coordinates": [
                    10.183693922228938,
                    45.53049109777249
                ]
            }
        },
        {
            "type": "Feature",
            "properties": {
                "name": "_stazione di servizio agip di tonoli e graffigna snc",
                "id": "4241",
                "brand": "Agip Eni",
                "amenity": "fuel",
                "operator": "TONOLI E GRAFFIGNA SNC DI TONOLI FRANCESCO E GRAFFIGNA MANUEL"
            },
            "geometry": {
                "type": "Point",
                "coordinates": [
                    10.178110152482986,
                    45.57952321129192
                ]
            }
        },
        {
            "type": "Feature",
            "properties": {
                "name": "CASTEGNATO - FRANCHI",
                "id": "25070",
                "brand": "Api-Ip",
                "amenity": "fuel",
                "operator": "IP SERVICES S.R.L."
            },
            "geometry": {
                "type": "Point",
                "coordinates": [
                    10.111473936176253,
                    45.55624085815493
                ]
            }
        },
        {
            "type": "Feature",
            "properties": {
                "name": "OSPITALETTO-VIA NUOVA CIRCONVALLAZIONE",
                "id": "11539",
                "brand": "Q8",
                "amenity": "fuel",
                "operator": "SERVIZI & GESTIONI ITALIA S.R.L."
            },
            "geometry": {
                "type": "Point",
                "coordinates": [
                    10.090091953372962,
                    45.55230893789718
                ]
            }
        },
        {
            "type": "Feature",
            "properties": {
                "name": "agip 1762",
                "id": "5693",
                "brand": "Agip Eni",
                "amenity": "fuel",
                "operator": "ROZZINI STEFANIA"
            },
            "geometry": {
                "type": "Point",
                "coordinates": [
                    10.178846418857574,
                    45.48325291140422
                ]
            }
        },
        {
            "type": "Feature",
            "properties": {
                "name": "agip 11739",
                "id": "9252",
                "brand": "Agip Eni",
                "amenity": "fuel",
                "operator": "BAIGUERA MARCO & C. S.N.C."
            },
            "geometry": {
                "type": "Point",
                "coordinates": [
                    10.071242898702621,
                    45.57537829336239
                ]
            }
        },
        {
            "type": "Feature",
            "properties": {
                "name": "VALTROMPIA NORD",
                "id": "3594",
                "brand": "Total Erg",
                "amenity": "fuel",
                "operator": "ri.val.sas di Girelli Mario & c"
            },
            "geometry": {
                "type": "Point",
                "coordinates": [
                    10.150197073817253,
                    45.53283606917308
                ]
            }
        },
        {
            "type": "Feature",
            "properties": {
                "name": "q8 soloerre",
                "id": "7913",
                "brand": "Q8",
                "amenity": "fuel",
                "operator": "SO.LO.ERRE S.A.S. DI RANDISI LEO E C."
            },
            "geometry": {
                "type": "Point",
                "coordinates": [
                    10.189765691757202,
                    45.529252163163
                ]
            }
        },
        {
            "type": "Feature",
            "properties": {
                "name": "sola renato e uberti marco snc",
                "id": "12253",
                "brand": "Esso",
                "amenity": "fuel",
                "operator": "SOLA RENATO E UBERTI MARCO S.N.C."
            },
            "geometry": {
                "type": "Point",
                "coordinates": [
                    10.170008540153503,
                    45.582710823833985
                ]
            }
        },
        {
            "type": "Feature",
            "properties": {
                "name": "MINGARDI TOTAL ERG",
                "id": "26946",
                "brand": "Total Erg",
                "amenity": "fuel",
                "operator": "F.LLI MINGARDI SNC DI A. & G. MINGARDI"
            },
            "geometry": {
                "type": "Point",
                "coordinates": [
                    10.068902671337128,
                    45.56805156499202
                ]
            }
        },
        {
            "type": "Feature",
            "properties": {
                "name": "CAPRIANO DEL COLLE-FZ.FENILI BELASI VIA TRENTO 125",
                "id": "11536",
                "brand": "Q8",
                "amenity": "fuel",
                "operator": "SERVIZI & GESTIONI ITALIA S.R.L."
            },
            "geometry": {
                "type": "Point",
                "coordinates": [
                    10.136845707893372,
                    45.47786414217547
                ]
            }
        },
        {
            "type": "Feature",
            "properties": {
                "name": "MARELLI IVO",
                "id": "13585",
                "brand": "Q8",
                "amenity": "fuel",
                "operator": "MARELLI IVO"
            },
            "geometry": {
                "type": "Point",
                "coordinates": [
                    10.160254687070845,
                    45.54807329293446
                ]
            }
        },
        {
            "type": "Feature",
            "properties": {
                "name": "Eni",
                "id": "23470",
                "brand": "Agip Eni",
                "amenity": "fuel",
                "operator": "STAZIONE SERVIZIO DI MENSI ALBERTINO"
            },
            "geometry": {
                "type": "Point",
                "coordinates": [
                    10.17828927182768,
                    45.54678728170924
                ]
            }
        },
        {
            "type": "Feature",
            "properties": {
                "name": "BRESCIA-VIA ORZINUOVI 74",
                "id": "11529",
                "brand": "Shell",
                "amenity": "fuel",
                "operator": "SERVIZI & GESTIONI ITALIA S.R.L."
            },
            "geometry": {
                "type": "Point",
                "coordinates": [
                    10.182807927751583,
                    45.53114028989275
                ]
            }
        },
        {
            "type": "Feature",
            "properties": {
                "name": "PV 51749",
                "id": "25877",
                "brand": "Agip Eni",
                "amenity": "fuel",
                "operator": "GESTIONI INNOVATIVE ITALIA S.R.L."
            },
            "geometry": {
                "type": "Point",
                "coordinates": [
                    10.061357617378235,
                    45.48669909139356
                ]
            }
        },
        {
            "type": "Feature",
            "properties": {
                "name": "Q8",
                "id": "6113",
                "brand": "Q8",
                "amenity": "fuel",
                "operator": "B13 SNC DI BUIZZA MARIO & C."
            },
            "geometry": {
                "type": "Point",
                "coordinates": [
                    10.106172281228623,
                    45.53300249528117
                ]
            }
        },
        {
            "type": "Feature",
            "properties": {
                "name": "Rinaldi Mario Distributore IP",
                "id": "27550",
                "brand": "Api-Ip",
                "amenity": "fuel",
                "operator": "RINALDI MARIO"
            },
            "geometry": {
                "type": "Point",
                "coordinates": [
                    10.039199888706207,
                    45.55803270479358
                ]
            }
        },
        {
            "type": "Feature",
            "properties": {
                "name": "IP",
                "id": "27326",
                "brand": "Api-Ip",
                "amenity": "fuel",
                "operator": "BROGNOLI CESARE"
            },
            "geometry": {
                "type": "Point",
                "coordinates": [
                    10.152586218998977,
                    45.49352238234918
                ]
            }
        },
        {
            "type": "Feature",
            "properties": {
                "name": "Distribuzione Carburanti Pasini Vittorio",
                "id": "14425",
                "brand": "Api-Ip",
                "amenity": "fuel",
                "operator": "DISTRIBUZIONE CARBURANTI PASINI VITTORIO"
            },
            "geometry": {
                "type": "Point",
                "coordinates": [
                    10.176078743407516,
                    45.488934298631975
                ]
            }
        },
        {
            "type": "Feature",
            "properties": {
                "name": "STAZIONE DI SERVIZIO Q8 GEST. SILVI",
                "id": "27587",
                "brand": "Q8",
                "amenity": "fuel",
                "operator": "SILVI DI BERTAZZI SILVANA E C. S.N.C."
            },
            "geometry": {
                "type": "Point",
                "coordinates": [
                    10.078003406524658,
                    45.50080468089394
                ]
            }
        },
        {
            "type": "Feature",
            "properties": {
                "name": "DOLFINI & GUANA SNC",
                "id": "21549",
                "brand": "Api-Ip",
                "amenity": "fuel",
                "operator": "DOLFINI G. & GUANA E. SNC"
            },
            "geometry": {
                "type": "Point",
                "coordinates": [
                    10.151490052709164,
                    45.54891766289215
                ]
            }
        },
        {
            "type": "Feature",
            "properties": {
                "name": "GHI MAR",
                "id": "24755",
                "brand": "Tamoil",
                "amenity": "fuel",
                "operator": "GHI.MAR DI GHIDETTI ROBERTO E CALEGARI F.LLI SNC"
            },
            "geometry": {
                "type": "Point",
                "coordinates": [
                    10.07020499073792,
                    45.51719798235721
                ]
            }
        },
        {
            "type": "Feature",
            "properties": {
                "name": "Area di servizio Cazzago S.M.",
                "id": "20464",
                "brand": "Shell",
                "amenity": "fuel",
                "operator": "PETROL-FIN S.R.L."
            },
            "geometry": {
                "type": "Point",
                "coordinates": [
                    10.053667899563038,
                    45.53624165635812
                ]
            }
        },
        {
            "type": "Feature",
            "properties": {
                "name": "gima snc",
                "id": "13202",
                "brand": "Api-Ip",
                "amenity": "fuel",
                "operator": "GI.MA S.N.C. DI FERLUCCI G.  &  GAZZOLI M."
            },
            "geometry": {
                "type": "Point",
                "coordinates": [
                    10.18580338332822,
                    45.54992621615375
                ]
            }
        },
        {
            "type": "Feature",
            "properties": {
                "name": "SIMPLY RETITALIA",
                "id": "22861",
                "amenity": "fuel",
                "operator": "SMA S.P.A."
            },
            "geometry": {
                "type": "Point",
                "coordinates": [
                    10.118241906166077,
                    45.5789938022191
                ]
            }
        },
        {
            "type": "Feature",
            "properties": {
                "name": "CARBURANTI ZOPPELLO SNC",
                "id": "9318",
                "brand": "Esso",
                "amenity": "fuel",
                "operator": "CARBURANTI ZOPPELLO DI CHIESA V. E C. SNC"
            },
            "geometry": {
                "type": "Point",
                "coordinates": [
                    10.169735267459144,
                    45.54722601376926
                ]
            }
        },
        {
            "type": "Feature",
            "properties": {
                "name": "ENI",
                "id": "14829",
                "brand": "Agip Eni",
                "amenity": "fuel",
                "operator": "LU.DA. SERVICE DI BIGNOTTI LEONARDO & C. SAS"
            },
            "geometry": {
                "type": "Point",
                "coordinates": [
                    10.133235454559326,
                    45.57219965242819
                ]
            }
        },
        {
            "type": "Feature",
            "properties": {
                "name": "DISTRIBUTORE CARBURANTI DI BERTOLI ALCEO",
                "id": "16718",
                "brand": "Agip Eni",
                "amenity": "fuel",
                "operator": "DISTRIBUTORE CARBURANTI DI BERTOLI ALCEO"
            },
            "geometry": {
                "type": "Point",
                "coordinates": [
                    10.156018137931824,
                    45.49077120170517
                ]
            }
        },
        {
            "type": "Feature",
            "properties": {
                "name": "SCALVINI FRANCESCO",
                "id": "17770",
                "brand": "Api-Ip",
                "amenity": "fuel",
                "operator": "SCALVINI FRANCESCO"
            },
            "geometry": {
                "type": "Point",
                "coordinates": [
                    10.087964741803034,
                    45.52236189185017
                ]
            }
        },
        {
            "type": "Feature",
            "properties": {
                "name": "bignotti luciano",
                "id": "17099",
                "amenity": "fuel",
                "operator": "BIGNOTTI LUCIANO"
            },
            "geometry": {
                "type": "Point",
                "coordinates": [
                    10.080133751034737,
                    45.555222137890205
                ]
            }
        },
        {
            "type": "Feature",
            "properties": {
                "name": "ies",
                "id": "17758",
                "brand": "Ies",
                "amenity": "fuel",
                "operator": "NEGRETTI MASSIMO"
            },
            "geometry": {
                "type": "Point",
                "coordinates": [
                    10.121457523803656,
                    45.47102380514512
                ]
            }
        },
        {
            "type": "Feature",
            "properties": {
                "name": "Stazione di Servizio Auchan",
                "id": "28188",
                "brand": "Auchan",
                "amenity": "fuel",
                "operator": "AUCHAN S.P.A."
            },
            "geometry": {
                "type": "Point",
                "coordinates": [
                    10.148647427558899,
                    45.533814209949824
                ]
            }
        },
        {
            "type": "Feature",
            "properties": {
                "name": "stazione di servizio IP",
                "id": "15855",
                "brand": "Api-Ip",
                "amenity": "fuel",
                "operator": "SISTI TIZIANA"
            },
            "geometry": {
                "type": "Point",
                "coordinates": [
                    10.18236987546311,
                    45.54723473755253
                ]
            }
        },
        {
            "type": "Feature",
            "properties": {
                "name": "GELMI MASSIMO",
                "id": "17489",
                "amenity": "fuel",
                "operator": "GELMI MASSIMO"
            },
            "geometry": {
                "type": "Point",
                "coordinates": [
                    10.185254886746405,
                    45.513359710094576
                ]
            }
        },
        {
            "type": "Feature",
            "properties": {
                "name": "AREA DI SERVIZIO ESSO",
                "id": "26446",
                "brand": "Esso",
                "amenity": "fuel",
                "operator": "A.D.S. RONCADELLE DI TOBANELLI RENATO E C. S.A.S."
            },
            "geometry": {
                "type": "Point",
                "coordinates": [
                    10.152504444122314,
                    45.53718928522758
                ]
            }
        },
        {
            "type": "Feature",
            "properties": {
                "name": "ENI di Tregambe & Guadrini snc",
                "id": "4499",
                "brand": "Agip Eni",
                "amenity": "fuel",
                "operator": "DISTRIBUTORE AGIP DI TREGAMBE GERARDO E GUADRINI ALBINA S.N.C."
            },
            "geometry": {
                "type": "Point",
                "coordinates": [
                    10.169379562139511,
                    45.583232689043555
                ]
            }
        },
        {
            "type": "Feature",
            "properties": {
                "name": "DISTRIBUTORE AGIP DI MUSCIO ROBERTO",
                "id": "6944",
                "brand": "Agip Eni",
                "amenity": "fuel",
                "operator": "MUSCIO ROBERTO"
            },
            "geometry": {
                "type": "Point",
                "coordinates": [
                    10.130022168159485,
                    45.5167741650553
                ]
            }
        },
        {
            "type": "Feature",
            "properties": {
                "name": "STAZIONE DI SERVIZIO MEHDI MUHAMMAD ZAMAN",
                "id": "24690",
                "brand": "Esso",
                "amenity": "fuel",
                "operator": "MEHDI MUHAMMAD ZAMAN"
            },
            "geometry": {
                "type": "Point",
                "coordinates": [
                    10.183895724298054,
                    45.53089896270123
                ]
            }
        },
        {
            "type": "Feature",
            "properties": {
                "name": "2599",
                "id": "25373",
                "brand": "Tamoil",
                "amenity": "fuel",
                "operator": "T.D.M. S.R.L."
            },
            "geometry": {
                "type": "Point",
                "coordinates": [
                    10.194647468717221,
                    45.51442799442946
                ]
            }
        },
        {
            "type": "Feature",
            "properties": {
                "name": "Brescia Valcamonica",
                "id": "28043",
                "brand": "Total Erg",
                "amenity": "fuel",
                "operator": "GESTIONI EUROPA - SOCIETA' PER AZIONI"
            },
            "geometry": {
                "type": "Point",
                "coordinates": [
                    10.180791020393372,
                    45.54693836466013
                ]
            }
        },
        {
            "type": "Feature",
            "properties": {
                "name": "stazione servizio agip",
                "id": "5375",
                "brand": "Agip Eni",
                "amenity": "fuel",
                "operator": "TRE.B. DI METELLI MARIAGRAZIA & C. SOCIETA' IN ACCOMANDITA SEMPLICE"
            },
            "geometry": {
                "type": "Point",
                "coordinates": [
                    10.054539442062378,
                    45.536370147307395
                ]
            }
        },
        {
            "type": "Feature",
            "properties": {
                "name": "RONCADELLE - V. MARTIRI LIBERTA'",
                "id": "25072",
                "brand": "Api-Ip",
                "amenity": "fuel",
                "operator": "IP SERVICES S.R.L."
            },
            "geometry": {
                "type": "Point",
                "coordinates": [
                    10.155743673610687,
                    45.524973691890686
                ]
            }
        },
        {
            "type": "Feature",
            "properties": {
                "name": "AREA DI SERVIZIO ESSO",
                "id": "26444",
                "brand": "Esso",
                "amenity": "fuel",
                "operator": "A.D.S. RONCADELLE DI TOBANELLI RENATO E C. S.A.S."
            },
            "geometry": {
                "type": "Point",
                "coordinates": [
                    10.152504444122314,
                    45.53718928522758
                ]
            }
        },
        {
            "type": "Feature",
            "properties": {
                "name": "Q8",
                "id": "12809",
                "brand": "Q8",
                "amenity": "fuel",
                "operator": "F.LLI UBERTI  DI UBERTI ANDREA E MAURO SNC"
            },
            "geometry": {
                "type": "Point",
                "coordinates": [
                    10.187760125933892,
                    45.562631874470654
                ]
            }
        },
        {
            "type": "Feature",
            "properties": {
                "name": "agip",
                "id": "7111",
                "brand": "Agip Eni",
                "amenity": "fuel",
                "operator": "SA.MAR. DI MARIOTTI GRAZIELLA E C. SNC O BREVEMENTE \"SA.MAR. SNC\""
            },
            "geometry": {
                "type": "Point",
                "coordinates": [
                    10.1603364944458,
                    45.496763753607965
                ]
            }
        },
        {
            "type": "Feature",
            "properties": {
                "name": "6282",
                "id": "28171",
                "brand": "Tamoil",
                "amenity": "fuel",
                "operator": "T.D.M. S.R.L."
            },
            "geometry": {
                "type": "Point",
                "coordinates": [
                    10.077123641967773,
                    45.5806090473448
                ]
            }
        },
        {
            "type": "Feature",
            "properties": {
                "name": "40962",
                "id": "27583",
                "brand": "Api-Ip",
                "amenity": "fuel",
                "operator": "BRAGA ANGELO"
            },
            "geometry": {
                "type": "Point",
                "coordinates": [
                    10.12176901102066,
                    45.51467292863712
                ]
            }
        },
        {
            "type": "Feature",
            "properties": {
                "name": "6059",
                "id": "27165",
                "brand": "Tamoil",
                "amenity": "fuel",
                "operator": "T.D.M. S.R.L."
            },
            "geometry": {
                "type": "Point",
                "coordinates": [
                    10.13626366853714,
                    45.55016238763047
                ]
            }
        },
        {
            "type": "Feature",
            "properties": {
                "name": "Stazione di servizio IP",
                "id": "24341",
                "brand": "Api-Ip",
                "amenity": "fuel",
                "operator": "A. & C. DI ARMOGIDA R. E C. SNC"
            },
            "geometry": {
                "type": "Point",
                "coordinates": [
                    10.187611877918242,
                    45.52985870371099
                ]
            }
        }
    ]
}