{
    "type": "FeatureCollection",
    "features": [
        {
            "type": "Feature",
            "properties": {
                "name": "VIA_ANSELMI",
                "id": "14398",
                "brand": "Euroself",
                "amenity": "fuel",
                "operator": "C.I.S. NORD S.R.L."
            },
            "geometry": {
                "type": "Point",
                "coordinates": [
                    10.315312707005203,
                    44.81233199504441
                ]
            }
        },
        {
            "type": "Feature",
            "properties": {
                "name": "p.e.g.g. snc",
                "id": "15238",
                "brand": "Agip Eni",
                "amenity": "fuel",
                "operator": "P.E.G.G. - S.N.C. - DI GRAZIOSI GENEROSO & C."
            },
            "geometry": {
                "type": "Point",
                "coordinates": [
                    10.325675904750822,
                    44.817489356928014
                ]
            }
        },
        {
            "type": "Feature",
            "properties": {
                "name": "PUNTO V. 1129 RICCARDI LINO, SERGIO E C. - S.N.C .",
                "id": "17245",
                "brand": "Esso",
                "amenity": "fuel",
                "operator": "RICCARDI LINO, SERGIO E C. - S.N.C."
            },
            "geometry": {
                "type": "Point",
                "coordinates": [
                    10.286679469697559,
                    44.8101070692591
                ]
            }
        },
        {
            "type": "Feature",
            "properties": {
                "name": "eni",
                "id": "13792",
                "brand": "Agip Eni",
                "amenity": "fuel",
                "operator": "PIT STOP S.N.C. DI MAZZA  MARCO & CRUGNOLA DANIELE DETTA PIU' BREVEMENTE: \" PIT STOP S.N.C.\""
            },
            "geometry": {
                "type": "Point",
                "coordinates": [
                    10.362882167100906,
                    44.800596005888636
                ]
            }
        },
        {
            "type": "Feature",
            "properties": {
                "name": "Stazione di servizio Q8 di Di Cristo Aniello",
                "id": "9482",
                "brand": "Q8",
                "amenity": "fuel",
                "operator": "DI CRISTO ANIELLO"
            },
            "geometry": {
                "type": "Point",
                "coordinates": [
                    10.337261036038397,
                    44.82606353742465
                ]
            }
        },
        {
            "type": "Feature",
            "properties": {
                "name": "PERRONE E ROSSETTI SNC",
                "id": "15410",
                "brand": "Esso",
                "amenity": "fuel",
                "operator": "PERRONE E ROSSETTI S.N.C. DI PERRONE EDOARDO E ROSSETTI FABIO"
            },
            "geometry": {
                "type": "Point",
                "coordinates": [
                    10.351613251589924,
                    44.79482740517059
                ]
            }
        },
        {
            "type": "Feature",
            "properties": {
                "name": "STA.SERV. ENI DI RENZI ROSA",
                "id": "13600",
                "brand": "Agip Eni",
                "amenity": "fuel",
                "operator": "RENZI ROSA"
            },
            "geometry": {
                "type": "Point",
                "coordinates": [
                    10.208022831352194,
                    44.748335188080944
                ]
            }
        },
        {
            "type": "Feature",
            "properties": {
                "name": "LEPORATI SNC DI LEPORATI PAOLO E C",
                "id": "10809",
                "brand": "Agip Eni",
                "amenity": "fuel",
                "operator": "LEPORATI S.N.C. DI LEPORATI PAOLO E C."
            },
            "geometry": {
                "type": "Point",
                "coordinates": [
                    10.339722633361816,
                    44.787233905421715
                ]
            }
        },
        {
            "type": "Feature",
            "properties": {
                "name": "AGIP",
                "id": "16720",
                "brand": "Agip Eni",
                "amenity": "fuel",
                "operator": "ANNA FERRUA SOCIETA' IN ACCOMANDITA SEMPLICE DI ANNA FERRUA E C."
            },
            "geometry": {
                "type": "Point",
                "coordinates": [
                    10.358865559101107,
                    44.81230861590882
                ]
            }
        },
        {
            "type": "Feature",
            "properties": {
                "name": "STAZIONE DI SERVIZIO ESSO ORSI SATURNINO",
                "id": "15475",
                "brand": "Esso",
                "amenity": "fuel",
                "operator": "ORSI SATURNINO"
            },
            "geometry": {
                "type": "Point",
                "coordinates": [
                    10.356477051973343,
                    44.75758066408294
                ]
            }
        },
        {
            "type": "Feature",
            "properties": {
                "name": "Eni",
                "id": "29238",
                "brand": "Agip Eni",
                "amenity": "fuel",
                "operator": "S.Z. CARBURANTI S.N.C. DI ZONNO VINCENZO E SESENNA MARCO"
            },
            "geometry": {
                "type": "Point",
                "coordinates": [
                    10.348301014680487,
                    44.795548580349575
                ]
            }
        },
        {
            "type": "Feature",
            "properties": {
                "name": "PARMA VIA FLEMING N.30/A",
                "id": "6523",
                "brand": "Q8",
                "amenity": "fuel",
                "operator": "SERVIZI & GESTIONI ITALIA srl"
            },
            "geometry": {
                "type": "Point",
                "coordinates": [
                    10.304679739881067,
                    44.79999688973217
                ]
            }
        },
        {
            "type": "Feature",
            "properties": {
                "name": "PUNTO V. 5739 RICCARDI LINO, SERGIO E C. - S.N.C.",
                "id": "17253",
                "brand": "Shell",
                "amenity": "fuel",
                "operator": "RICCARDI LINO, SERGIO E C. - S.N.C."
            },
            "geometry": {
                "type": "Point",
                "coordinates": [
                    10.20974412560463,
                    44.82547456463478
                ]
            }
        },
        {
            "type": "Feature",
            "properties": {
                "name": "REVERBERI SIMONE",
                "id": "27437",
                "amenity": "fuel",
                "operator": "REVERBERI SIMONE"
            },
            "geometry": {
                "type": "Point",
                "coordinates": [
                    10.240357518196108,
                    44.81912103794109
                ]
            }
        },
        {
            "type": "Feature",
            "properties": {
                "name": "DISTRIBUTORE IP 2401",
                "id": "10346",
                "brand": "Api-Ip",
                "amenity": "fuel",
                "operator": "BOLOGNESI  PAOLO"
            },
            "geometry": {
                "type": "Point",
                "coordinates": [
                    10.350853960713266,
                    44.79478784417481
                ]
            }
        },
        {
            "type": "Feature",
            "properties": {
                "name": "stazione di servizio IP GBE DI FERRARI ENRICO",
                "id": "6161",
                "brand": "Api-Ip",
                "amenity": "fuel",
                "operator": "GBE  DI FERRARI ENRICO"
            },
            "geometry": {
                "type": "Point",
                "coordinates": [
                    10.304830930688468,
                    44.72074143685427
                ]
            }
        },
        {
            "type": "Feature",
            "properties": {
                "name": "PARMA-VIA CREMONESE",
                "id": "32003",
                "brand": "Tamoil",
                "amenity": "fuel",
                "operator": "ENERGY RETE S.R.L."
            },
            "geometry": {
                "type": "Point",
                "coordinates": [
                    10.286665856838226,
                    44.8184269703021
                ]
            }
        },
        {
            "type": "Feature",
            "properties": {
                "name": "Area di Servizio Nicola",
                "id": "16847",
                "brand": "Tamoil",
                "amenity": "fuel",
                "operator": "CARLOMAGNO NICOLA"
            },
            "geometry": {
                "type": "Point",
                "coordinates": [
                    10.357972383499146,
                    44.81790793638915
                ]
            }
        },
        {
            "type": "Feature",
            "properties": {
                "name": "ENI",
                "id": "17281",
                "brand": "Agip Eni",
                "amenity": "fuel",
                "operator": "CALZETTI CRISTIAN"
            },
            "geometry": {
                "type": "Point",
                "coordinates": [
                    10.30422359444276,
                    44.802817602339154
                ]
            }
        },
        {
            "type": "Feature",
            "properties": {
                "name": "PARMA VIA EMILIA EST 111/A P.V.Q8",
                "id": "6524",
                "brand": "Q8",
                "amenity": "fuel",
                "operator": "SERVIZI & GESTIONI ITALIA srl"
            },
            "geometry": {
                "type": "Point",
                "coordinates": [
                    10.35361245211493,
                    44.79380842052864
                ]
            }
        },
        {
            "type": "Feature",
            "properties": {
                "name": "Collecchio (PR)",
                "id": "24022",
                "brand": "Total Erg",
                "amenity": "fuel",
                "operator": "GESTIONI EUROPA - SOCIETA' PER AZIONI"
            },
            "geometry": {
                "type": "Point",
                "coordinates": [
                    10.26724398136139,
                    44.772108769915754
                ]
            }
        },
        {
            "type": "Feature",
            "properties": {
                "name": "Stazione Servizio SPAGGIARI SNC",
                "id": "14771",
                "brand": "Agip Eni",
                "amenity": "fuel",
                "operator": "STAZIONE SERVIZIO SPAGGIARI S.N.C DI SERENA SPAGGIARI"
            },
            "geometry": {
                "type": "Point",
                "coordinates": [
                    10.364287080426038,
                    44.811683401978094
                ]
            }
        },
        {
            "type": "Feature",
            "properties": {
                "name": "LV ( Riccardi Lino, Sergio e C SNC)",
                "id": "31271",
                "amenity": "fuel",
                "operator": "RICCARDI LINO, SERGIO E C. - S.N.C."
            },
            "geometry": {
                "type": "Point",
                "coordinates": [
                    10.319766998291014,
                    44.769466529258764
                ]
            }
        },
        {
            "type": "Feature",
            "properties": {
                "name": "REPSOL",
                "id": "18019",
                "brand": "Repsol",
                "amenity": "fuel",
                "operator": "TRAGNI MICHELE"
            },
            "geometry": {
                "type": "Point",
                "coordinates": [
                    10.279755265973677,
                    44.791216461956004
                ]
            }
        },
        {
            "type": "Feature",
            "properties": {
                "name": "Berni Rubens e C. Snc",
                "id": "5335",
                "brand": "Agip Eni",
                "amenity": "fuel",
                "operator": "BERNI RUBENS E C. S.N.C."
            },
            "geometry": {
                "type": "Point",
                "coordinates": [
                    10.315042539881235,
                    44.811823944738286
                ]
            }
        },
        {
            "type": "Feature",
            "properties": {
                "name": "PARMA-Largo Simonini incrocio Str. Martinella",
                "id": "11783",
                "brand": "Q8",
                "amenity": "fuel",
                "operator": "SERVIZI & GESTIONI ITALIA S.R.L."
            },
            "geometry": {
                "type": "Point",
                "coordinates": [
                    10.325814576721198,
                    44.766361913486655
                ]
            }
        },
        {
            "type": "Feature",
            "properties": {
                "name": "ESSO VIA LA SPEZIA",
                "id": "29469",
                "brand": "Esso",
                "amenity": "fuel",
                "operator": "ROME S.N.C. DI ALI A., IQBAL N. E ROME I."
            },
            "geometry": {
                "type": "Point",
                "coordinates": [
                    10.293045666409284,
                    44.78463775470751
                ]
            }
        },
        {
            "type": "Feature",
            "properties": {
                "name": "eni europa",
                "id": "13845",
                "brand": "Agip Eni",
                "amenity": "fuel",
                "operator": "EUROPA DI BABARELLI PIER LUIGI, BABARELLI MARTINA & C. S.N.C. DETTA PIU' BREVEMENTE \"EUROPA DI BABARELLI P.L. & C. S.N.C.\""
            },
            "geometry": {
                "type": "Point",
                "coordinates": [
                    10.330652743577957,
                    44.830742385019605
                ]
            }
        },
        {
            "type": "Feature",
            "properties": {
                "name": "PARMA",
                "id": "5962",
                "brand": "Total Erg",
                "amenity": "fuel",
                "operator": "GESTIONI EUROPA S.p.A."
            },
            "geometry": {
                "type": "Point",
                "coordinates": [
                    10.343984728836062,
                    44.829830391069436
                ]
            }
        },
        {
            "type": "Feature",
            "properties": {
                "name": "AGIP 22983",
                "id": "11976",
                "brand": "Agip Eni",
                "amenity": "fuel",
                "operator": "MB SNC DI MAINI A. E BACCHINI P"
            },
            "geometry": {
                "type": "Point",
                "coordinates": [
                    10.23861810564995,
                    44.73747013719095
                ]
            }
        },
        {
            "type": "Feature",
            "properties": {
                "name": "STAZIONE ESSO DI FERRARI E BACCHI SNC",
                "id": "10437",
                "brand": "Esso",
                "amenity": "fuel",
                "operator": "FERRARI WALTER & BACCHI STEFANI PAOLO - SOCIETA' IN NOME COLLETTIVO"
            },
            "geometry": {
                "type": "Point",
                "coordinates": [
                    10.357607834779401,
                    44.78579878846799
                ]
            }
        },
        {
            "type": "Feature",
            "properties": {
                "name": "Marcus Motors",
                "id": "24013",
                "brand": "Esso",
                "amenity": "fuel",
                "operator": "MARCUS MOTORS DI MARCO GODI"
            },
            "geometry": {
                "type": "Point",
                "coordinates": [
                    10.334138403041038,
                    44.80769003822909
                ]
            }
        },
        {
            "type": "Feature",
            "properties": {
                "name": "BERNAZZOLI S.N.C.",
                "id": "17996",
                "brand": "Agip Eni",
                "amenity": "fuel",
                "operator": "BERNAZZOLI S.N.C. DI BERNAZZOLI DANIELE E C."
            },
            "geometry": {
                "type": "Point",
                "coordinates": [
                    10.33891867314469,
                    44.832322755943686
                ]
            }
        },
        {
            "type": "Feature",
            "properties": {
                "name": "PARMA-VIA EMILIA OVEST 75/A",
                "id": "11779",
                "brand": "Q8",
                "amenity": "fuel",
                "operator": "SERVIZI & GESTIONI ITALIA S.R.L."
            },
            "geometry": {
                "type": "Point",
                "coordinates": [
                    10.294861339950558,
                    44.80841836566897
                ]
            }
        },
        {
            "type": "Feature",
            "properties": {
                "name": "ERGOSYSTEM SNC",
                "id": "15290",
                "brand": "Total Erg",
                "amenity": "fuel",
                "operator": "ERGOSYSTEM DI OLIVIERI MASSIMO SNC"
            },
            "geometry": {
                "type": "Point",
                "coordinates": [
                    10.30799612402916,
                    44.7297113224886
                ]
            }
        },
        {
            "type": "Feature",
            "properties": {
                "name": "Eni",
                "id": "13957",
                "brand": "Agip Eni",
                "amenity": "fuel",
                "operator": "MONTALI FABRIZIO E C. S.N.C."
            },
            "geometry": {
                "type": "Point",
                "coordinates": [
                    10.232304781822904,
                    44.71689616197655
                ]
            }
        },
        {
            "type": "Feature",
            "properties": {
                "name": "METANO AMICO",
                "id": "4551",
                "amenity": "fuel",
                "operator": "METANO AMICO  DI PETTENATI ROBERTO"
            },
            "geometry": {
                "type": "Point",
                "coordinates": [
                    10.286129415035248,
                    44.80974395028912
                ]
            }
        },
        {
            "type": "Feature",
            "properties": {
                "name": "staz.serv. eni di Asioli Maria Luisa",
                "id": "14433",
                "brand": "Agip Eni",
                "amenity": "fuel",
                "operator": "ASIOLI MARIA LUISA"
            },
            "geometry": {
                "type": "Point",
                "coordinates": [
                    10.331010818481447,
                    44.821971802770136
                ]
            }
        },
        {
            "type": "Feature",
            "properties": {
                "name": "ENI di berti Stefano",
                "id": "12689",
                "brand": "Agip Eni",
                "amenity": "fuel",
                "operator": "BERTI STEFANO"
            },
            "geometry": {
                "type": "Point",
                "coordinates": [
                    10.340237828172349,
                    44.78650846651485
                ]
            }
        },
        {
            "type": "Feature",
            "properties": {
                "name": "PARMA",
                "id": "5852",
                "brand": "Total Erg",
                "amenity": "fuel",
                "operator": "TotalErg SpA"
            },
            "geometry": {
                "type": "Point",
                "coordinates": [
                    10.28229227976226,
                    44.798454032683324
                ]
            }
        },
        {
            "type": "Feature",
            "properties": {
                "name": "52438 eni",
                "id": "20736",
                "brand": "Agip Eni",
                "amenity": "fuel",
                "operator": "IEVA VINCENZO"
            },
            "geometry": {
                "type": "Point",
                "coordinates": [
                    10.218495503067972,
                    44.823691249321975
                ]
            }
        },
        {
            "type": "Feature",
            "properties": {
                "name": "PARMA-VIA S.LEONARDO 193/A",
                "id": "11782",
                "brand": "Q8",
                "amenity": "fuel",
                "operator": "SERVIZI & GESTIONI ITALIA S.R.L."
            },
            "geometry": {
                "type": "Point",
                "coordinates": [
                    10.33956973743443,
                    44.8346994365192
                ]
            }
        },
        {
            "type": "Feature",
            "properties": {
                "name": "IPERCARBURANTI",
                "id": "5603",
                "amenity": "fuel",
                "operator": "STAZIONE DI SERVIZIO DI ZUCCHELLI MARCO & C. SOCIETA' IN ACCOMAND ITA SEMPLICE O IN FORMA ABBREVIATA: \"STAZIONE DI SERVIZIO DI ZUCCHELLI MARCO & C. S.A.S.\""
            },
            "geometry": {
                "type": "Point",
                "coordinates": [
                    10.228401571512222,
                    44.757701797500964
                ]
            }
        },
        {
            "type": "Feature",
            "properties": {
                "name": "TotalErg",
                "id": "11397",
                "brand": "Total Erg",
                "amenity": "fuel",
                "operator": "BOCCHI ROBERTO"
            },
            "geometry": {
                "type": "Point",
                "coordinates": [
                    10.322947131282831,
                    44.78054474105949
                ]
            }
        },
        {
            "type": "Feature",
            "properties": {
                "name": "Manzini Mauro & C. s.n.c.",
                "id": "17277",
                "brand": "Esso",
                "amenity": "fuel",
                "operator": "MANZINI MAURO & C. S.N.C."
            },
            "geometry": {
                "type": "Point",
                "coordinates": [
                    10.343481424502215,
                    44.79665294776395
                ]
            }
        },
        {
            "type": "Feature",
            "properties": {
                "name": "PARMA-VIA EMILIA EST",
                "id": "32002",
                "brand": "Tamoil",
                "amenity": "fuel",
                "operator": "ENERGY RETE S.R.L."
            },
            "geometry": {
                "type": "Point",
                "coordinates": [
                    10.355504751205446,
                    44.79349645264633
                ]
            }
        },
        {
            "type": "Feature",
            "properties": {
                "name": "TotalErg 8475",
                "id": "18203",
                "brand": "Total Erg",
                "amenity": "fuel",
                "operator": "CURATI MASSIMO"
            },
            "geometry": {
                "type": "Point",
                "coordinates": [
                    10.324867218732834,
                    44.78321110527277
                ]
            }
        },
        {
            "type": "Feature",
            "properties": {
                "name": "COIL",
                "id": "31676",
                "amenity": "fuel",
                "operator": "VECAR S.R.L."
            },
            "geometry": {
                "type": "Point",
                "coordinates": [
                    10.33644147500695,
                    44.8354618558945
                ]
            }
        },
        {
            "type": "Feature",
            "properties": {
                "name": "PARMA - CENTRO TORRI",
                "id": "25478",
                "brand": "Api-Ip",
                "amenity": "fuel",
                "operator": "IP SERVICES S.R.L."
            },
            "geometry": {
                "type": "Point",
                "coordinates": [
                    10.338865538692515,
                    44.82134102212925
                ]
            }
        },
        {
            "type": "Feature",
            "properties": {
                "name": "PARMA-VIA EMILIO LEPIDO 53/A",
                "id": "11781",
                "brand": "Q8",
                "amenity": "fuel",
                "operator": "SERVIZI & GESTIONI ITALIA S.R.L."
            },
            "geometry": {
                "type": "Point",
                "coordinates": [
                    10.367942100524942,
                    44.78890838124749
                ]
            }
        },
        {
            "type": "Feature",
            "properties": {
                "name": "mdf-Q8",
                "id": "5113",
                "brand": "Q8",
                "amenity": "fuel",
                "operator": "M.D.F. S.N.C. DI MICHELINA LEONE E FRANCO STRINI E C."
            },
            "geometry": {
                "type": "Point",
                "coordinates": [
                    10.237081199884415,
                    44.758239657349606
                ]
            }
        },
        {
            "type": "Feature",
            "properties": {
                "name": "IP",
                "id": "24324",
                "brand": "Api-Ip",
                "amenity": "fuel",
                "operator": "POSTOLACHI SERGIU"
            },
            "geometry": {
                "type": "Point",
                "coordinates": [
                    10.226724696464546,
                    44.75361277756581
                ]
            }
        },
        {
            "type": "Feature",
            "properties": {
                "name": "stazione servizio Valera",
                "id": "25626",
                "brand": "Api-Ip",
                "amenity": "fuel",
                "operator": "CARBUREX S.R.L."
            },
            "geometry": {
                "type": "Point",
                "coordinates": [
                    10.2814556658268,
                    44.79861742921953
                ]
            }
        },
        {
            "type": "Feature",
            "properties": {
                "name": "IP gruppo Api di Ferrari Claudio",
                "id": "12852",
                "brand": "Api-Ip",
                "amenity": "fuel",
                "operator": "FERRARI CLAUDIO"
            },
            "geometry": {
                "type": "Point",
                "coordinates": [
                    10.33093192275396,
                    44.81185366967158
                ]
            }
        },
        {
            "type": "Feature",
            "properties": {
                "name": "BZ",
                "id": "22573",
                "amenity": "fuel",
                "operator": "FRAORE SERVICE SOCIETA' IN ACCOMANDITA SEMPLICE DI BOMBANA LUCA ALBINO O IN FORMA ABBREVIATA \"FRAORE SERVICE S.A.S. DI BOMBANA LUCA ALBINO\""
            },
            "geometry": {
                "type": "Point",
                "coordinates": [
                    10.240342766046524,
                    44.81906700442158
                ]
            }
        },
        {
            "type": "Feature",
            "properties": {
                "name": "Stazione di servizio agip di Ferramola Fabrizio",
                "id": "16404",
                "brand": "Agip Eni",
                "amenity": "fuel",
                "operator": "FERRAMOLA FABRIZIO"
            },
            "geometry": {
                "type": "Point",
                "coordinates": [
                    10.303296204229696,
                    44.78943507168297
                ]
            }
        },
        {
            "type": "Feature",
            "properties": {
                "name": "PARMA STRADA LANGHIRANO  67/A",
                "id": "6522",
                "brand": "Q8",
                "amenity": "fuel",
                "operator": "SERVIZI & GESTIONI ITALIA srl"
            },
            "geometry": {
                "type": "Point",
                "coordinates": [
                    10.321901023942587,
                    44.77549092294688
                ]
            }
        },
        {
            "type": "Feature",
            "properties": {
                "name": "totalerg",
                "id": "19886",
                "brand": "Total Erg",
                "amenity": "fuel",
                "operator": "BODRIA MARCO E DEL PRATO GIUSEPPE & C. S.N.C."
            },
            "geometry": {
                "type": "Point",
                "coordinates": [
                    10.292368082070197,
                    44.80861199385168
                ]
            }
        },
        {
            "type": "Feature",
            "properties": {
                "name": "PARMA",
                "id": "5538",
                "brand": "Total Erg",
                "amenity": "fuel",
                "operator": "GESTIONI EUROPA S.p.A."
            },
            "geometry": {
                "type": "Point",
                "coordinates": [
                    10.35214211656762,
                    44.794300193190054
                ]
            }
        },
        {
            "type": "Feature",
            "properties": {
                "name": "R.P. SAS DI RADICI E C.",
                "id": "27501",
                "brand": "Q8",
                "amenity": "fuel",
                "operator": "R.P. S.A.S. DI RADICI DAVIDE E C."
            },
            "geometry": {
                "type": "Point",
                "coordinates": [
                    10.370148450331842,
                    44.73395032987686
                ]
            }
        },
        {
            "type": "Feature",
            "properties": {
                "name": "Centrale Metano",
                "id": "4990",
                "brand": "Agip Eni",
                "amenity": "fuel",
                "operator": "VIRGINIO ALBERTI SNC DI MILENA ALBERTI E C."
            },
            "geometry": {
                "type": "Point",
                "coordinates": [
                    10.313711730987508,
                    44.79339774252164
                ]
            }
        },
        {
            "type": "Feature",
            "properties": {
                "name": "PARMA",
                "id": "29109",
                "brand": "Total Erg",
                "amenity": "fuel",
                "operator": "GESTIONI EUROPA - SOCIETA' PER AZIONI"
            },
            "geometry": {
                "type": "Point",
                "coordinates": [
                    10.307663530111313,
                    44.83684984396023
                ]
            }
        },
        {
            "type": "Feature",
            "properties": {
                "name": "PUNTO V. 1 RICCARDI LINO, SERGIO E C. - S.N.C.",
                "id": "17249",
                "amenity": "fuel",
                "operator": "RICCARDI LINO, SERGIO E C. - S.N.C."
            },
            "geometry": {
                "type": "Point",
                "coordinates": [
                    10.300705173016356,
                    44.78777610335433
                ]
            }
        },
        {
            "type": "Feature",
            "properties": {
                "name": "TOTALERG",
                "id": "7979",
                "brand": "Total Erg",
                "amenity": "fuel",
                "operator": "BONINI MATTEO"
            },
            "geometry": {
                "type": "Point",
                "coordinates": [
                    10.209265351295471,
                    44.759220895890536
                ]
            }
        },
        {
            "type": "Feature",
            "properties": {
                "name": "intange",
                "id": "8687",
                "brand": "Esso",
                "amenity": "fuel",
                "operator": "INTANGE S.A.S. DI BANDINI ELENA E C."
            },
            "geometry": {
                "type": "Point",
                "coordinates": [
                    10.29347598552704,
                    44.7801958344459
                ]
            }
        },
        {
            "type": "Feature",
            "properties": {
                "name": "Agip",
                "id": "24073",
                "brand": "Agip Eni",
                "amenity": "fuel",
                "operator": "STOCK'S FUEL DI STOCCHI SIMONE"
            },
            "geometry": {
                "type": "Point",
                "coordinates": [
                    10.313202732154876,
                    44.81463772734437
                ]
            }
        },
        {
            "type": "Feature",
            "properties": {
                "name": "STAZIONE DI SERVIZIO IP DI MAURICI FRANCESCO",
                "id": "12954",
                "brand": "Api-Ip",
                "amenity": "fuel",
                "operator": "MAURICI FRANCESCO"
            },
            "geometry": {
                "type": "Point",
                "coordinates": [
                    10.28147041797638,
                    44.79862425972653
                ]
            }
        },
        {
            "type": "Feature",
            "properties": {
                "name": "PARMA - TRENTO 37",
                "id": "24275",
                "brand": "Api-Ip",
                "amenity": "fuel",
                "operator": "IP SERVICES S.R.L."
            },
            "geometry": {
                "type": "Point",
                "coordinates": [
                    10.33092548098557,
                    44.81184947350022
                ]
            }
        },
        {
            "type": "Feature",
            "properties": {
                "name": "2071",
                "id": "28201",
                "brand": "Tamoil",
                "amenity": "fuel",
                "operator": "T.D.M. S.R.L."
            },
            "geometry": {
                "type": "Point",
                "coordinates": [
                    10.323709845542908,
                    44.77265488186789
                ]
            }
        }
    ]
}