{
    "type": "FeatureCollection",
    "features": [
        {
            "type": "Feature",
            "properties": {
                "name": "TAMOIL",
                "id": "22789",
                "brand": "Tamoil",
                "amenity": "fuel",
                "operator": "RETE NORD PETROLI S.R.L."
            },
            "geometry": {
                "type": "Point",
                "coordinates": [
                    10.257494151592255,
                    44.893818351355634
                ]
            }
        },
        {
            "type": "Feature",
            "properties": {
                "name": "i girasoli s.n.c.",
                "id": "24476",
                "brand": "Tamoil",
                "amenity": "fuel",
                "operator": "I GIRASOLI DI CALERSI PIETRO E C. S.N.C."
            },
            "geometry": {
                "type": "Point",
                "coordinates": [
                    10.370990484952927,
                    44.9218500633706
                ]
            }
        },
        {
            "type": "Feature",
            "properties": {
                "name": "mancini cristian",
                "id": "10774",
                "brand": "Q8",
                "amenity": "fuel",
                "operator": "MANCINI CRISTIAN"
            },
            "geometry": {
                "type": "Point",
                "coordinates": [
                    10.259792221212818,
                    44.85027259937631
                ]
            }
        },
        {
            "type": "Feature",
            "properties": {
                "name": "San Quirico",
                "id": "23017",
                "amenity": "fuel",
                "operator": "METANOIL SOCIETA' IN NOME COLLETTIVO DI TAMBASSI ALIDE E C.O IN F ORMA ABBREVIATA \"METANOIL S.N.C. DI TAMBASSI ALIDE E C.\""
            },
            "geometry": {
                "type": "Point",
                "coordinates": [
                    10.260299672244287,
                    44.91483165894078
                ]
            }
        },
        {
            "type": "Feature",
            "properties": {
                "name": "IPERCARCARBURANTI",
                "id": "25359",
                "amenity": "fuel",
                "operator": "ANNA FERRUA SOCIETA' IN ACCOMANDITA SEMPLICE DI ANNA FERRUA E C."
            },
            "geometry": {
                "type": "Point",
                "coordinates": [
                    10.314673483371735,
                    44.86651589307448
                ]
            }
        },
        {
            "type": "Feature",
            "properties": {
                "name": "METIS DI PINI PAOLO,LUIGI ZERMANI S.A.S",
                "id": "15373",
                "brand": "Agip Eni",
                "amenity": "fuel",
                "operator": "METIS DI PINI PAOLO, LUIGI ZERMANI & C. S.A.S."
            },
            "geometry": {
                "type": "Point",
                "coordinates": [
                    10.230232179164886,
                    44.84471655404263
                ]
            }
        },
        {
            "type": "Feature",
            "properties": {
                "name": "Stazione di Servizio SAC S.p.A.",
                "id": "25661",
                "amenity": "fuel",
                "operator": "SAC - SOCIETA' PER AZIONI"
            },
            "geometry": {
                "type": "Point",
                "coordinates": [
                    10.359828472137451,
                    44.84486610175818
                ]
            }
        },
        {
            "type": "Feature",
            "properties": {
                "name": "TAP SAN POLO",
                "id": "13945",
                "amenity": "fuel",
                "operator": "BOLOGNA F.LLI S.N.C. DI ANDREA E VITTORIO BOLOGNA"
            },
            "geometry": {
                "type": "Point",
                "coordinates": [
                    10.35566031932831,
                    44.89170043892536
                ]
            }
        },
        {
            "type": "Feature",
            "properties": {
                "name": "PAVLOV EVGENY Q8",
                "id": "17013",
                "brand": "Q8",
                "amenity": "fuel",
                "operator": "PAVLOV EVGENY"
            },
            "geometry": {
                "type": "Point",
                "coordinates": [
                    10.369432121515274,
                    44.91891193614661
                ]
            }
        },
        {
            "type": "Feature",
            "properties": {
                "name": "Stazione di Servizio SAC S.p.A.",
                "id": "16742",
                "brand": "Esso",
                "amenity": "fuel",
                "operator": "SAC - SOCIETA' PER AZIONI"
            },
            "geometry": {
                "type": "Point",
                "coordinates": [
                    10.359828472137451,
                    44.84486610175818
                ]
            }
        },
        {
            "type": "Feature",
            "properties": {
                "name": "i girasoli snc",
                "id": "4539",
                "brand": "Tamoil",
                "amenity": "fuel",
                "operator": "I GIRASOLI DI CALERSI PIETRO E C. S.N.C."
            },
            "geometry": {
                "type": "Point",
                "coordinates": [
                    10.349345058202745,
                    44.87499002377199
                ]
            }
        },
        {
            "type": "Feature",
            "properties": {
                "name": "Shell Mattiazzi Luca",
                "id": "5152",
                "amenity": "fuel",
                "operator": "IMPIANTO SHELL DI MATTIAZZI LUCA"
            },
            "geometry": {
                "type": "Point",
                "coordinates": [
                    10.341176390647888,
                    44.84955171880838
                ]
            }
        },
        {
            "type": "Feature",
            "properties": {
                "name": "totalerg",
                "id": "15283",
                "brand": "Total Erg",
                "amenity": "fuel",
                "operator": "TAVONI GIOVANNI"
            },
            "geometry": {
                "type": "Point",
                "coordinates": [
                    10.261576473712921,
                    44.95837019240155
                ]
            }
        },
        {
            "type": "Feature",
            "properties": {
                "name": "IP",
                "id": "13254",
                "brand": "Total Erg",
                "amenity": "fuel",
                "operator": "PETRONELLA GIUSEPPE"
            },
            "geometry": {
                "type": "Point",
                "coordinates": [
                    10.231536177449017,
                    44.92215174455015
                ]
            }
        },
        {
            "type": "Feature",
            "properties": {
                "name": "totalerg",
                "id": "15282",
                "brand": "Total Erg",
                "amenity": "fuel",
                "operator": "TAVONI GIOVANNI"
            },
            "geometry": {
                "type": "Point",
                "coordinates": [
                    10.261576473712921,
                    44.95837019240155
                ]
            }
        },
        {
            "type": "Feature",
            "properties": {
                "name": "22974 eni",
                "id": "20734",
                "brand": "Agip Eni",
                "amenity": "fuel",
                "operator": "IEVA VINCENZO"
            },
            "geometry": {
                "type": "Point",
                "coordinates": [
                    10.349759459495544,
                    44.89526546442307
                ]
            }
        },
        {
            "type": "Feature",
            "properties": {
                "name": "ENI 22975",
                "id": "18266",
                "brand": "Agip Eni",
                "amenity": "fuel",
                "operator": "PENINI MONIA"
            },
            "geometry": {
                "type": "Point",
                "coordinates": [
                    10.247738286852837,
                    44.91803654650039
                ]
            }
        }
    ]
}