{
    "type": "FeatureCollection",
    "features": [
        {
            "type": "Feature",
            "properties": {
                "name": "Eni",
                "id": "7037",
                "brand": "Agip Eni",
                "amenity": "fuel",
                "operator": "ARCO DI COPPINI E ARRIGONI GIAN BATTISTA & C  S.N.C."
            },
            "geometry": {
                "type": "Point",
                "coordinates": [
                    10.33315488783569,
                    45.49985157292629
                ]
            }
        },
        {
            "type": "Feature",
            "properties": {
                "name": "amidani sciascia",
                "id": "11430",
                "brand": "Q8",
                "amenity": "fuel",
                "operator": "AMIDANI SCIASCIA"
            },
            "geometry": {
                "type": "Point",
                "coordinates": [
                    10.2040296792984,
                    45.52675659702511
                ]
            }
        },
        {
            "type": "Feature",
            "properties": {
                "name": "BRESCIA PUSTERLA SNC",
                "id": "21495",
                "brand": "Esso",
                "amenity": "fuel",
                "operator": "BRESCIA PUSTERLA DI CAPRIOLI MARIO E C. S.N.C."
            },
            "geometry": {
                "type": "Point",
                "coordinates": [
                    10.230036592590295,
                    45.544076594564494
                ]
            }
        },
        {
            "type": "Feature",
            "properties": {
                "name": "_Distributore Eni di Sisti Roberto",
                "id": "8406",
                "brand": "Agip Eni",
                "amenity": "fuel",
                "operator": "SISTI ROBERTO"
            },
            "geometry": {
                "type": "Point",
                "coordinates": [
                    10.287221074104309,
                    45.48099997435089
                ]
            }
        },
        {
            "type": "Feature",
            "properties": {
                "name": "Repsol_Brescia (BS001)",
                "id": "30534",
                "brand": "Repsol",
                "amenity": "fuel",
                "operator": "REPSOL ITALIA S.P.A."
            },
            "geometry": {
                "type": "Point",
                "coordinates": [
                    10.26437536165463,
                    45.5000384243213
                ]
            }
        },
        {
            "type": "Feature",
            "properties": {
                "name": "glr di rizza gianluca",
                "id": "31474",
                "brand": "Esso",
                "amenity": "fuel",
                "operator": "GLR DI RIZZA GIANLUCA"
            },
            "geometry": {
                "type": "Point",
                "coordinates": [
                    10.229457020759583,
                    45.565472281164126
                ]
            }
        },
        {
            "type": "Feature",
            "properties": {
                "name": "MARANGONI ANDREA & C. S.N.C.",
                "id": "11255",
                "brand": "Api-Ip",
                "amenity": "fuel",
                "operator": "MARANGONI ANDREA & C. S.N.C."
            },
            "geometry": {
                "type": "Point",
                "coordinates": [
                    10.295951664447786,
                    45.531553525279556
                ]
            }
        },
        {
            "type": "Feature",
            "properties": {
                "name": "tamoil",
                "id": "9583",
                "brand": "Tamoil",
                "amenity": "fuel",
                "operator": "BERARDI PAOLA"
            },
            "geometry": {
                "type": "Point",
                "coordinates": [
                    10.20520588213958,
                    45.54339776803888
                ]
            }
        },
        {
            "type": "Feature",
            "properties": {
                "name": "_ESSO",
                "id": "6031",
                "brand": "Esso",
                "amenity": "fuel",
                "operator": "MAURO SERVICE DI POLETTI RENATO & C. SAS"
            },
            "geometry": {
                "type": "Point",
                "coordinates": [
                    10.302477478981018,
                    45.49884234624083
                ]
            }
        },
        {
            "type": "Feature",
            "properties": {
                "name": "I.P: di Boldini Angelo",
                "id": "12704",
                "brand": "Api-Ip",
                "amenity": "fuel",
                "operator": "BOLDINI ANGELO"
            },
            "geometry": {
                "type": "Point",
                "coordinates": [
                    10.196557096889478,
                    45.522536906713775
                ]
            }
        },
        {
            "type": "Feature",
            "properties": {
                "name": "C.P.R. di Pradella C.& C. s.n.c.",
                "id": "10981",
                "brand": "Esso",
                "amenity": "fuel",
                "operator": "C.P.R. DI PRADELLA CRISTOFORO & C. S.N.C."
            },
            "geometry": {
                "type": "Point",
                "coordinates": [
                    10.252633638623024,
                    45.529814860749894
                ]
            }
        },
        {
            "type": "Feature",
            "properties": {
                "name": "3G Carburanti",
                "id": "3999",
                "amenity": "fuel",
                "operator": "IMMOBILIARE GIACOMINI DI GIACOMINI NATALE E C. S.N.C."
            },
            "geometry": {
                "type": "Point",
                "coordinates": [
                    10.30485892383308,
                    45.514002359757306
                ]
            }
        },
        {
            "type": "Feature",
            "properties": {
                "name": "A2A Energie",
                "id": "14671",
                "amenity": "fuel",
                "operator": "GESTIONI M3 S.N.C. DI SEVERINO MAURIZIO & C."
            },
            "geometry": {
                "type": "Point",
                "coordinates": [
                    10.211710184812546,
                    45.51811831371463
                ]
            }
        },
        {
            "type": "Feature",
            "properties": {
                "name": "BRESCIA-VIA TRIUMPLINA 8",
                "id": "11525",
                "brand": "Q8",
                "amenity": "fuel",
                "operator": "SERVIZI & GESTIONI ITALIA S.R.L."
            },
            "geometry": {
                "type": "Point",
                "coordinates": [
                    10.228703847885074,
                    45.562031454052345
                ]
            }
        },
        {
            "type": "Feature",
            "properties": {
                "name": "TAMOIL",
                "id": "24604",
                "brand": "Tamoil",
                "amenity": "fuel",
                "operator": "LA TRATTORIA DI POLI PALMIRA & C. S.N.C."
            },
            "geometry": {
                "type": "Point",
                "coordinates": [
                    10.318372249603273,
                    45.46153182458166
                ]
            }
        },
        {
            "type": "Feature",
            "properties": {
                "name": "VEDARI FABRIZIO E C. SNC",
                "id": "11068",
                "brand": "Api-Ip",
                "amenity": "fuel",
                "operator": "VEDARI FABRIZIO E C. SNC"
            },
            "geometry": {
                "type": "Point",
                "coordinates": [
                    10.276427865028381,
                    45.50907964902512
                ]
            }
        },
        {
            "type": "Feature",
            "properties": {
                "name": "Q8 F.lli Venturini",
                "id": "11245",
                "brand": "Q8",
                "amenity": "fuel",
                "operator": "Q8 DEI FRATELLI VENTURINI DI VENTURINI MARCO"
            },
            "geometry": {
                "type": "Point",
                "coordinates": [
                    10.212703918385385,
                    45.54951954662496
                ]
            }
        },
        {
            "type": "Feature",
            "properties": {
                "name": "eni",
                "id": "23813",
                "brand": "Agip Eni",
                "amenity": "fuel",
                "operator": "P. & B. S.R.L."
            },
            "geometry": {
                "type": "Point",
                "coordinates": [
                    10.203112363815308,
                    45.5175778013362
                ]
            }
        },
        {
            "type": "Feature",
            "properties": {
                "name": "Area di servizio Brescia",
                "id": "20446",
                "brand": "Tamoil",
                "amenity": "fuel",
                "operator": "PETROL-FIN S.R.L."
            },
            "geometry": {
                "type": "Point",
                "coordinates": [
                    10.267296277279456,
                    45.52326469272898
                ]
            }
        },
        {
            "type": "Feature",
            "properties": {
                "name": "DEBORA DI FRASSINE GIANCARLO E C. SNC",
                "id": "21067",
                "brand": "Total Erg",
                "amenity": "fuel",
                "operator": "DEBORA DI FRASSINE GIANCARLO & C. S.N.C."
            },
            "geometry": {
                "type": "Point",
                "coordinates": [
                    10.216091359524512,
                    45.58313912696071
                ]
            }
        },
        {
            "type": "Feature",
            "properties": {
                "name": "MAZZANO NORD",
                "id": "7950",
                "brand": "Esso",
                "amenity": "fuel",
                "operator": "I.C.L.A.R. - S.P.A."
            },
            "geometry": {
                "type": "Point",
                "coordinates": [
                    10.3542360663414,
                    45.512640029999396
                ]
            }
        },
        {
            "type": "Feature",
            "properties": {
                "name": "Stazione Q8 Marangon Luca & C. Snc",
                "id": "10026",
                "brand": "Q8",
                "amenity": "fuel",
                "operator": "MARANGON LUCA & C. S.N.C."
            },
            "geometry": {
                "type": "Point",
                "coordinates": [
                    10.200062021613121,
                    45.548888691500835
                ]
            }
        },
        {
            "type": "Feature",
            "properties": {
                "name": "REZZATO-VIA TREPONTI 75  LOC.DUE PORTE",
                "id": "11532",
                "brand": "Q8",
                "amenity": "fuel",
                "operator": "SERVIZI & GESTIONI ITALIA S.R.L."
            },
            "geometry": {
                "type": "Point",
                "coordinates": [
                    10.34330344047544,
                    45.50332031208247
                ]
            }
        },
        {
            "type": "Feature",
            "properties": {
                "name": "BUIZZA PIETRO",
                "id": "13438",
                "brand": "Q8",
                "amenity": "fuel",
                "operator": "BUIZZA PIETRO"
            },
            "geometry": {
                "type": "Point",
                "coordinates": [
                    10.19887827976231,
                    45.52307242408841
                ]
            }
        },
        {
            "type": "Feature",
            "properties": {
                "name": "PV 51700",
                "id": "30228",
                "brand": "Agip Eni",
                "amenity": "fuel",
                "operator": "GESTIONI INNOVATIVE ITALIA S.R.L."
            },
            "geometry": {
                "type": "Point",
                "coordinates": [
                    10.311995829360965,
                    45.51186942441938
                ]
            }
        },
        {
            "type": "Feature",
            "properties": {
                "name": "CASTENEDOLO -SS236 GOITESE KM55 325",
                "id": "7258",
                "brand": "Q8",
                "amenity": "fuel",
                "operator": "SERVIZI & GESTIONI ITALIA S.R.L."
            },
            "geometry": {
                "type": "Point",
                "coordinates": [
                    10.276809186508219,
                    45.48963168364823
                ]
            }
        },
        {
            "type": "Feature",
            "properties": {
                "name": "spe.fer",
                "id": "10412",
                "brand": "Api-Ip",
                "amenity": "fuel",
                "operator": "SPE-FER DI SPEZIA DAVIDE E C. S.N.C."
            },
            "geometry": {
                "type": "Point",
                "coordinates": [
                    10.230739116668701,
                    45.567630956018185
                ]
            }
        },
        {
            "type": "Feature",
            "properties": {
                "name": "Tononi e Rossi snc",
                "id": "11364",
                "brand": "Esso",
                "amenity": "fuel",
                "operator": "TONONI & ROSSI S.N.C. DI TONONI GIUSEPPE & C."
            },
            "geometry": {
                "type": "Point",
                "coordinates": [
                    10.229428953867226,
                    45.56545723890214
                ]
            }
        },
        {
            "type": "Feature",
            "properties": {
                "name": "PILENGHI ANGELO JUNIOR Q8",
                "id": "10648",
                "brand": "Q8",
                "amenity": "fuel",
                "operator": "PILENGHI ANGELO JUNIOR"
            },
            "geometry": {
                "type": "Point",
                "coordinates": [
                    10.247369245886489,
                    45.53127007774243
                ]
            }
        },
        {
            "type": "Feature",
            "properties": {
                "name": "DREAM SAS DI DE ROSSI CHIARA & C.",
                "id": "21346",
                "brand": "Esso",
                "amenity": "fuel",
                "operator": "DREAM S.A.S. DI DE ROSSI CHIARA & C."
            },
            "geometry": {
                "type": "Point",
                "coordinates": [
                    10.2918304502964,
                    45.499473842682725
                ]
            }
        },
        {
            "type": "Feature",
            "properties": {
                "name": "BRESCIA",
                "id": "5787",
                "brand": "Total Erg",
                "amenity": "fuel",
                "operator": "TotalErg SpA"
            },
            "geometry": {
                "type": "Point",
                "coordinates": [
                    10.199764542327898,
                    45.53103348686333
                ]
            }
        },
        {
            "type": "Feature",
            "properties": {
                "name": "distributore esso",
                "id": "26469",
                "brand": "Esso",
                "amenity": "fuel",
                "operator": "SINGH  LAKHVINDER"
            },
            "geometry": {
                "type": "Point",
                "coordinates": [
                    10.351803302764893,
                    45.50233757802413
                ]
            }
        },
        {
            "type": "Feature",
            "properties": {
                "name": "Stazione di servizio - Soretti Silvano",
                "id": "15934",
                "brand": "Tamoil",
                "amenity": "fuel",
                "operator": "SORETTI SILVANO"
            },
            "geometry": {
                "type": "Point",
                "coordinates": [
                    10.19927680492401,
                    45.52991018794498
                ]
            }
        },
        {
            "type": "Feature",
            "properties": {
                "name": "REZZATO",
                "id": "5934",
                "brand": "Total Erg",
                "amenity": "fuel",
                "operator": "GESTIONI EUROPA S.p.A."
            },
            "geometry": {
                "type": "Point",
                "coordinates": [
                    10.331198449073781,
                    45.49908784029105
                ]
            }
        },
        {
            "type": "Feature",
            "properties": {
                "name": "Impianto colori Retitalia Brescia San Polo",
                "id": "26753",
                "brand": "Retitalia",
                "amenity": "fuel",
                "operator": "BRIXIA FINANZIARIA S.R.L."
            },
            "geometry": {
                "type": "Point",
                "coordinates": [
                    10.259537905476463,
                    45.50339463983695
                ]
            }
        },
        {
            "type": "Feature",
            "properties": {
                "name": "Chiarelli F. & C. snc",
                "id": "4126",
                "brand": "Agip Eni",
                "amenity": "fuel",
                "operator": "CHIARELLI FRANCESCO E C. S.N.C."
            },
            "geometry": {
                "type": "Point",
                "coordinates": [
                    10.230981049182105,
                    45.51268342676229
                ]
            }
        },
        {
            "type": "Feature",
            "properties": {
                "name": "Impianto carburanti colori Agip",
                "id": "19919",
                "brand": "Agip Eni",
                "amenity": "fuel",
                "operator": "BRIXIA FINANZIARIA S.R.L."
            },
            "geometry": {
                "type": "Point",
                "coordinates": [
                    10.322444282000788,
                    45.50931088701962
                ]
            }
        },
        {
            "type": "Feature",
            "properties": {
                "name": "Eni",
                "id": "12342",
                "brand": "Agip Eni",
                "amenity": "fuel",
                "operator": "DAINESE STEFANO"
            },
            "geometry": {
                "type": "Point",
                "coordinates": [
                    10.228826988638275,
                    45.53171774502784
                ]
            }
        },
        {
            "type": "Feature",
            "properties": {
                "name": "BRESCIA - DALMAZIA 80",
                "id": "22884",
                "brand": "Api-Ip",
                "amenity": "fuel",
                "operator": "IP SERVICES S.R.L."
            },
            "geometry": {
                "type": "Point",
                "coordinates": [
                    10.19899874106977,
                    45.52913633828032
                ]
            }
        },
        {
            "type": "Feature",
            "properties": {
                "name": "Autoparco Brescia est",
                "id": "22794",
                "brand": "Agip Eni",
                "amenity": "fuel",
                "operator": "SERENISSIMA TRADING SOCIETA' PER AZIONI (OPPURE - IN FORMA ABBREV IATA \"SERENISSIMA TRADING S.P.A.\")"
            },
            "geometry": {
                "type": "Point",
                "coordinates": [
                    10.322709381580353,
                    45.486383930564934
                ]
            }
        },
        {
            "type": "Feature",
            "properties": {
                "name": "SAN ZENO NAVIGLIO-SS. 45 BIS  KM.42+210",
                "id": "11537",
                "brand": "Q8",
                "amenity": "fuel",
                "operator": "SERVIZI & GESTIONI ITALIA S.R.L."
            },
            "geometry": {
                "type": "Point",
                "coordinates": [
                    10.215726792812347,
                    45.486567461195094
                ]
            }
        },
        {
            "type": "Feature",
            "properties": {
                "name": "Sia Fuel Brescia",
                "id": "30943",
                "brand": "Sia fuel",
                "amenity": "fuel",
                "operator": "S.I.A. ENGINEERING CONSTRUCTION S.R.L."
            },
            "geometry": {
                "type": "Point",
                "coordinates": [
                    10.250853874868767,
                    45.51495246243552
                ]
            }
        },
        {
            "type": "Feature",
            "properties": {
                "name": "pietroboni felice e c snc",
                "id": "11207",
                "brand": "Agip Eni",
                "amenity": "fuel",
                "operator": "PIETROBONI FELICE E C. S.N.C."
            },
            "geometry": {
                "type": "Point",
                "coordinates": [
                    10.209791468786648,
                    45.560683654916204
                ]
            }
        },
        {
            "type": "Feature",
            "properties": {
                "name": "distributore carburanti dell'orefice giovanni",
                "id": "11069",
                "brand": "Q8",
                "amenity": "fuel",
                "operator": "DISTRIBUTORE CARBURANTI DELL'OREFICE GIOVANNI."
            },
            "geometry": {
                "type": "Point",
                "coordinates": [
                    10.22796544113919,
                    45.55376167956776
                ]
            }
        },
        {
            "type": "Feature",
            "properties": {
                "name": "BRESCIA",
                "id": "5454",
                "brand": "Agip Eni",
                "amenity": "fuel",
                "operator": "enirete oil&nonoil S.p.A."
            },
            "geometry": {
                "type": "Point",
                "coordinates": [
                    10.216546034393332,
                    45.57218640966992
                ]
            }
        },
        {
            "type": "Feature",
            "properties": {
                "name": "Stazione di serv.  TOTALERG",
                "id": "17185",
                "brand": "Total Erg",
                "amenity": "fuel",
                "operator": "CHECCHI E GIRELLI DI GIRELLI ROSEANNA E C. S.N.C."
            },
            "geometry": {
                "type": "Point",
                "coordinates": [
                    10.237379741139193,
                    45.49351490952449
                ]
            }
        },
        {
            "type": "Feature",
            "properties": {
                "name": "Stazione di rifornimento ESSO",
                "id": "10011",
                "brand": "Esso",
                "amenity": "fuel",
                "operator": "FUMIA MICHEL"
            },
            "geometry": {
                "type": "Point",
                "coordinates": [
                    10.24940896745909,
                    45.517128124602564
                ]
            }
        },
        {
            "type": "Feature",
            "properties": {
                "name": "S. GIACOMO OVEST",
                "id": "3648",
                "brand": "Esso",
                "amenity": "fuel",
                "operator": "MN DI BELLINI MORRIS & C. S.N.C."
            },
            "geometry": {
                "type": "Point",
                "coordinates": [
                    10.303244590759277,
                    45.487305338496896
                ]
            }
        },
        {
            "type": "Feature",
            "properties": {
                "name": "F.LLI MARCHESE SNC DI FRANCESCO E STEFANO MARCHESE",
                "id": "23963",
                "brand": "Esso",
                "amenity": "fuel",
                "operator": "F.LLI MARCHESE SNC DI FRANCESCO E STEFANO MARCHESE"
            },
            "geometry": {
                "type": "Point",
                "coordinates": [
                    10.201670431213415,
                    45.54412479365685
                ]
            }
        },
        {
            "type": "Feature",
            "properties": {
                "name": "Brescia",
                "id": "10148",
                "brand": "Total Erg",
                "amenity": "fuel",
                "operator": "GESTIONI EUROPA - SOCIETA' PER AZIONI"
            },
            "geometry": {
                "type": "Point",
                "coordinates": [
                    10.228484719991684,
                    45.5603321378261
                ]
            }
        },
        {
            "type": "Feature",
            "properties": {
                "name": "DISTRIBUTORE ESSO",
                "id": "21407",
                "brand": "Esso",
                "amenity": "fuel",
                "operator": "SINGH  LAKHVINDER"
            },
            "geometry": {
                "type": "Point",
                "coordinates": [
                    10.28132289648056,
                    45.4852315853349
                ]
            }
        },
        {
            "type": "Feature",
            "properties": {
                "name": "Stazione di Servizio Auchan",
                "id": "4319",
                "brand": "Auchan",
                "amenity": "fuel",
                "operator": "AUCHAN S.P.A."
            },
            "geometry": {
                "type": "Point",
                "coordinates": [
                    10.339813828468323,
                    45.50439528667913
                ]
            }
        },
        {
            "type": "Feature",
            "properties": {
                "name": "PV 1671",
                "id": "27641",
                "brand": "Agip Eni",
                "amenity": "fuel",
                "operator": "GESTIONI INNOVATIVE ITALIA S.R.L."
            },
            "geometry": {
                "type": "Point",
                "coordinates": [
                    10.25379344047542,
                    45.529299743706574
                ]
            }
        },
        {
            "type": "Feature",
            "properties": {
                "name": "damiolini maria angela",
                "id": "11428",
                "brand": "Total Erg",
                "amenity": "fuel",
                "operator": "DAMIOLINI MARIA ANGELA"
            },
            "geometry": {
                "type": "Point",
                "coordinates": [
                    10.229694473016366,
                    45.546072198537004
                ]
            }
        },
        {
            "type": "Feature",
            "properties": {
                "name": "8STAZIONE DI SERVIZIO Q8",
                "id": "14872",
                "brand": "Q8",
                "amenity": "fuel",
                "operator": "BUIZZA ANGELO"
            },
            "geometry": {
                "type": "Point",
                "coordinates": [
                    10.20175851881504,
                    45.54744891618733
                ]
            }
        },
        {
            "type": "Feature",
            "properties": {
                "name": "BERTOLETTI SRL",
                "id": "26743",
                "amenity": "fuel",
                "operator": "BERTOLETTI GIOVANNI S.R.L."
            },
            "geometry": {
                "type": "Point",
                "coordinates": [
                    10.239725195261597,
                    45.48164914834705
                ]
            }
        },
        {
            "type": "Feature",
            "properties": {
                "name": "MARCHINA GIUSEPPE E C. SAS",
                "id": "21804",
                "brand": "Agip Eni",
                "amenity": "fuel",
                "operator": "MARCHINA GIUSEPPE E C. S.A.S."
            },
            "geometry": {
                "type": "Point",
                "coordinates": [
                    10.21184032418978,
                    45.521168388253905
                ]
            }
        },
        {
            "type": "Feature",
            "properties": {
                "name": "steal srl",
                "id": "22672",
                "amenity": "fuel",
                "operator": "STEAL S.R.L."
            },
            "geometry": {
                "type": "Point",
                "coordinates": [
                    10.296961097869827,
                    45.47971144409442
                ]
            }
        },
        {
            "type": "Feature",
            "properties": {
                "name": "S. GIACOMO EST",
                "id": "3530",
                "brand": "Agip Eni",
                "amenity": "fuel",
                "operator": "CRESCIMANNA ANGELO"
            },
            "geometry": {
                "type": "Point",
                "coordinates": [
                    10.308812856674194,
                    45.48515448567606
                ]
            }
        },
        {
            "type": "Feature",
            "properties": {
                "name": "Q8  LEDDA ALESSANDRO",
                "id": "24632",
                "brand": "Q8",
                "amenity": "fuel",
                "operator": "LEDDA ALESSANDRO"
            },
            "geometry": {
                "type": "Point",
                "coordinates": [
                    10.273749004229785,
                    45.52039358278412
                ]
            }
        },
        {
            "type": "Feature",
            "properties": {
                "name": "ENI CAFE'",
                "id": "13073",
                "brand": "Agip Eni",
                "amenity": "fuel",
                "operator": "LOIUDICE FABIO SNC DI LOIUDICE FABIO E CASALOTTI NICOLA"
            },
            "geometry": {
                "type": "Point",
                "coordinates": [
                    10.227285772562025,
                    45.55475616932154
                ]
            }
        },
        {
            "type": "Feature",
            "properties": {
                "name": "BRESCIA G.VENDER 96",
                "id": "22096",
                "brand": "Q8",
                "amenity": "fuel",
                "operator": "SERVIZI & GESTIONI ITALIA S.R.L."
            },
            "geometry": {
                "type": "Point",
                "coordinates": [
                    10.204567781614742,
                    45.56104353032975
                ]
            }
        },
        {
            "type": "Feature",
            "properties": {
                "name": "CASTENEDOLO BRETELLA SS 236 - SS 11 VARIANTE",
                "id": "6471",
                "brand": "Q8",
                "amenity": "fuel",
                "operator": "SERVIZI & GESTIONI ITALIA srl"
            },
            "geometry": {
                "type": "Point",
                "coordinates": [
                    10.319048166275024,
                    45.46126995128304
                ]
            }
        },
        {
            "type": "Feature",
            "properties": {
                "name": "Stazione di rifornimento ESSO",
                "id": "10010",
                "brand": "Esso",
                "amenity": "fuel",
                "operator": "FUMIA MICHEL"
            },
            "geometry": {
                "type": "Point",
                "coordinates": [
                    10.330750644207,
                    45.50738415039266
                ]
            }
        },
        {
            "type": "Feature",
            "properties": {
                "name": "Pit Stop",
                "id": "22143",
                "amenity": "fuel",
                "operator": "PIT-STOP S.R.L."
            },
            "geometry": {
                "type": "Point",
                "coordinates": [
                    10.245258044566299,
                    45.521914987960514
                ]
            }
        },
        {
            "type": "Feature",
            "properties": {
                "name": "distributore Esso di Bini Umberto",
                "id": "11184",
                "brand": "Esso",
                "amenity": "fuel",
                "operator": "BINI UMBERTO"
            },
            "geometry": {
                "type": "Point",
                "coordinates": [
                    10.230927570569634,
                    45.573817049635316
                ]
            }
        },
        {
            "type": "Feature",
            "properties": {
                "name": "STAZIONE ESSO GRECHI ANDREA",
                "id": "15925",
                "brand": "Esso",
                "amenity": "fuel",
                "operator": "GRECHI ANDREA"
            },
            "geometry": {
                "type": "Point",
                "coordinates": [
                    10.302682667970656,
                    45.46837546642071
                ]
            }
        },
        {
            "type": "Feature",
            "properties": {
                "name": "stazione di servizio ESSO",
                "id": "24310",
                "brand": "Esso",
                "amenity": "fuel",
                "operator": "MC AUTOLAVAGGIO DI MONTAGNINI MICHELE E COFFETTI ERIK SNC"
            },
            "geometry": {
                "type": "Point",
                "coordinates": [
                    10.22178590297699,
                    45.50183150473676
                ]
            }
        },
        {
            "type": "Feature",
            "properties": {
                "name": "Haadi Snc",
                "id": "29083",
                "brand": "Tamoil",
                "amenity": "fuel",
                "operator": "HAADI SNC DI AKHTAR IRFAN & C."
            },
            "geometry": {
                "type": "Point",
                "coordinates": [
                    10.253822207450867,
                    45.50851799727704
                ]
            }
        },
        {
            "type": "Feature",
            "properties": {
                "name": "DISTRIBUTORE IP DI CORINI S.N.C. DI CORINI NICOLA, CLAUDIO E RAINERI MAURO",
                "id": "17041",
                "brand": "Api-Ip",
                "amenity": "fuel",
                "operator": "CORINI S.N.C. DI CORINI NICOLA, CLAUDIO E RAINERI MAURO"
            },
            "geometry": {
                "type": "Point",
                "coordinates": [
                    10.200886130332947,
                    45.51882570797936
                ]
            }
        },
        {
            "type": "Feature",
            "properties": {
                "name": "Brescia Abruzzi",
                "id": "20098",
                "amenity": "fuel",
                "operator": "GESTIONI EUROPA - SOCIETA' PER AZIONI"
            },
            "geometry": {
                "type": "Point",
                "coordinates": [
                    10.230162017196676,
                    45.52331457414306
                ]
            }
        },
        {
            "type": "Feature",
            "properties": {
                "name": "Zanetti fabrizio",
                "id": "13679",
                "brand": "Total Erg",
                "amenity": "fuel",
                "operator": "ZANETTI FABRIZIO"
            },
            "geometry": {
                "type": "Point",
                "coordinates": [
                    10.371078997850418,
                    45.56410485215263
                ]
            }
        },
        {
            "type": "Feature",
            "properties": {
                "name": "dist. s. pio di fragale armando",
                "id": "18481",
                "brand": "Tamoil",
                "amenity": "fuel",
                "operator": "DIST. S. PIO DI FRAGALE ARMANDO"
            },
            "geometry": {
                "type": "Point",
                "coordinates": [
                    10.365434288978577,
                    45.48979268854196
                ]
            }
        },
        {
            "type": "Feature",
            "properties": {
                "name": "Impianto colori Eni",
                "id": "23582",
                "brand": "Agip Eni",
                "amenity": "fuel",
                "operator": "ITAL GAS - S.R.L."
            },
            "geometry": {
                "type": "Point",
                "coordinates": [
                    10.23804977249142,
                    45.53079926256452
                ]
            }
        }
    ]
}