{
    "type": "FeatureCollection",
    "features": [
        {
            "type": "Feature",
            "properties": {
                "name": "ROGAS DI SMUSSI ROBERTO DISTRIBUTORE DI CARBURANTI TAMOIL",
                "id": "7362",
                "brand": "Tamoil",
                "amenity": "fuel",
                "operator": "ROBGAS DI SMUSSI ROBERTO DISTRIBUTORE DI CARBURANTI TAMOIL"
            },
            "geometry": {
                "type": "Point",
                "coordinates": [
                    10.265441536903381,
                    45.29272774573331
                ]
            }
        },
        {
            "type": "Feature",
            "properties": {
                "name": "STAZIONE ENI DI CAPELLI ETTORE",
                "id": "7682",
                "brand": "Agip Eni",
                "amenity": "fuel",
                "operator": "CAPELLI ETTORE"
            },
            "geometry": {
                "type": "Point",
                "coordinates": [
                    10.369768738746643,
                    45.31806231062025
                ]
            }
        },
        {
            "type": "Feature",
            "properties": {
                "name": "PRALBOINO - SP 7 KM30 048 N113",
                "id": "7257",
                "brand": "Q8",
                "amenity": "fuel",
                "operator": "SERVIZI & GESTIONI ITALIA S.R.L."
            },
            "geometry": {
                "type": "Point",
                "coordinates": [
                    10.216206999999939,
                    45.27708380138408
                ]
            }
        },
        {
            "type": "Feature",
            "properties": {
                "name": "ENI",
                "id": "12454",
                "brand": "Agip Eni",
                "amenity": "fuel",
                "operator": "DELLA BONA GABRIELE"
            },
            "geometry": {
                "type": "Point",
                "coordinates": [
                    10.357741713523863,
                    45.22264092653644
                ]
            }
        },
        {
            "type": "Feature",
            "properties": {
                "name": "Q8 N. 1931",
                "id": "27105",
                "brand": "Q8",
                "amenity": "fuel",
                "operator": "CAVAGNA FABIO E C. SNC"
            },
            "geometry": {
                "type": "Point",
                "coordinates": [
                    10.323484770708433,
                    45.30563430142915
                ]
            }
        },
        {
            "type": "Feature",
            "properties": {
                "name": "STAZ. SERV. SALAMI SNC",
                "id": "26678",
                "brand": "Tamoil",
                "amenity": "fuel",
                "operator": "SALAMI GIULIO E CLAUDIO S.N.C."
            },
            "geometry": {
                "type": "Point",
                "coordinates": [
                    10.290758907794954,
                    45.257808905252645
                ]
            }
        },
        {
            "type": "Feature",
            "properties": {
                "name": "stazione agip",
                "id": "19249",
                "brand": "Agip Eni",
                "amenity": "fuel",
                "operator": "V.M. DI VENTURINI MANUEL"
            },
            "geometry": {
                "type": "Point",
                "coordinates": [
                    10.21062346990584,
                    45.30942199187013
                ]
            }
        },
        {
            "type": "Feature",
            "properties": {
                "name": "DISTRIBUTORE TAMOIL ZORZI DANIELE GOMMISTA 4 RUOTE",
                "id": "10519",
                "brand": "Tamoil",
                "amenity": "fuel",
                "operator": "DISTRIBUTORE TAMOIL-GOMMISTA 4 RUOTE ZORZI DANIELE"
            },
            "geometry": {
                "type": "Point",
                "coordinates": [
                    10.246077999472618,
                    45.219089263384895
                ]
            }
        },
        {
            "type": "Feature",
            "properties": {
                "name": "Staz. Serv. Esso FEDRO di Morbini C.",
                "id": "5731",
                "brand": "Esso",
                "amenity": "fuel",
                "operator": "FEDRO DI MORBINI CESARE"
            },
            "geometry": {
                "type": "Point",
                "coordinates": [
                    10.265942439436914,
                    45.29206997081923
                ]
            }
        },
        {
            "type": "Feature",
            "properties": {
                "name": "BOZZONI ANGIOLINO GAMBARA",
                "id": "13495",
                "brand": "Esso",
                "amenity": "fuel",
                "operator": "BOZZONI ANGIOLINO"
            },
            "geometry": {
                "type": "Point",
                "coordinates": [
                    10.288183316588402,
                    45.261862792064136
                ]
            }
        },
        {
            "type": "Feature",
            "properties": {
                "name": "PRALBOINO",
                "id": "27400",
                "brand": "Api-Ip",
                "amenity": "fuel",
                "operator": "STAZIONE DI SERVIZIO DI FUSARI FABIO E C. SNC"
            },
            "geometry": {
                "type": "Point",
                "coordinates": [
                    10.211549878131336,
                    45.26819606495782
                ]
            }
        },
        {
            "type": "Feature",
            "properties": {
                "name": "stazione di servizio cavagna antonella",
                "id": "18985",
                "brand": "Api-Ip",
                "amenity": "fuel",
                "operator": "CAVAGNA ANTONELLA"
            },
            "geometry": {
                "type": "Point",
                "coordinates": [
                    10.330741065263283,
                    45.31557964741248
                ]
            }
        },
        {
            "type": "Feature",
            "properties": {
                "name": "PICCINELLI SERGIO",
                "id": "23924",
                "brand": "Total Erg",
                "amenity": "fuel",
                "operator": "PICCINELLI SERGIO"
            },
            "geometry": {
                "type": "Point",
                "coordinates": [
                    10.365778282284737,
                    45.27885643850769
                ]
            }
        }
    ]
}