{
    "type": "FeatureCollection",
    "features": [
        {
            "type": "Feature",
            "properties": {
                "name": "Ip Gruppo Api Pardini Alessandro",
                "id": "26509",
                "brand": "Api-Ip",
                "amenity": "fuel",
                "operator": "PARDINI ALESSANDRO"
            },
            "geometry": {
                "type": "Point",
                "coordinates": [
                    10.236314088106155,
                    43.90551027035015
                ]
            }
        },
        {
            "type": "Feature",
            "properties": {
                "name": "S.I.M. srl",
                "id": "19267",
                "amenity": "fuel",
                "operator": "S.I.M. - SRL"
            },
            "geometry": {
                "type": "Point",
                "coordinates": [
                    10.291568264365196,
                    43.879687864340646
                ]
            }
        },
        {
            "type": "Feature",
            "properties": {
                "name": "TORRE DEL LAGO",
                "id": "30365",
                "brand": "Tamoil",
                "amenity": "fuel",
                "operator": "SIRTAM S.P.A."
            },
            "geometry": {
                "type": "Point",
                "coordinates": [
                    10.27383551001549,
                    43.835943420554784
                ]
            }
        },
        {
            "type": "Feature",
            "properties": {
                "name": "CAMAIORE LU-PIAZZA ROMBONI",
                "id": "11635",
                "brand": "Q8",
                "amenity": "fuel",
                "operator": "SERVIZI & GESTIONI ITALIA S.R.L."
            },
            "geometry": {
                "type": "Point",
                "coordinates": [
                    10.307895927140635,
                    43.93621924304203
                ]
            }
        },
        {
            "type": "Feature",
            "properties": {
                "name": "PIETRASANTA-VIA AURELIA KM.366+700",
                "id": "11632",
                "brand": "Q8",
                "amenity": "fuel",
                "operator": "SERVIZI & GESTIONI ITALIA S.R.L."
            },
            "geometry": {
                "type": "Point",
                "coordinates": [
                    10.228225886821745,
                    43.95001634939587
                ]
            }
        },
        {
            "type": "Feature",
            "properties": {
                "name": "ENI ZAMARCHI SPERANZA IVAN",
                "id": "4734",
                "brand": "Agip Eni",
                "amenity": "fuel",
                "operator": "ZAMARCHI SPERANZA IVAN"
            },
            "geometry": {
                "type": "Point",
                "coordinates": [
                    10.275682210922241,
                    43.85281241451526
                ]
            }
        },
        {
            "type": "Feature",
            "properties": {
                "name": "IP Giannelli Simone",
                "id": "26618",
                "brand": "Api-Ip",
                "amenity": "fuel",
                "operator": "GIANNELLI SIMONE"
            },
            "geometry": {
                "type": "Point",
                "coordinates": [
                    10.222388413811586,
                    43.898724138840635
                ]
            }
        },
        {
            "type": "Feature",
            "properties": {
                "name": "Lovi Alberto",
                "id": "9680",
                "brand": "Total Erg",
                "amenity": "fuel",
                "operator": "LOVI ALBERTO"
            },
            "geometry": {
                "type": "Point",
                "coordinates": [
                    10.36116421222687,
                    43.85416072992545
                ]
            }
        },
        {
            "type": "Feature",
            "properties": {
                "name": "TAMOIL",
                "id": "17024",
                "brand": "Tamoil",
                "amenity": "fuel",
                "operator": "MATTEUCCI PETROLI SRL"
            },
            "geometry": {
                "type": "Point",
                "coordinates": [
                    10.25362241058963,
                    43.886295549398845
                ]
            }
        },
        {
            "type": "Feature",
            "properties": {
                "name": "IP PIAZZA D'AZEGLIO",
                "id": "31108",
                "brand": "Api-Ip",
                "amenity": "fuel",
                "operator": "FRATELLI CHECCHI - S.N.C."
            },
            "geometry": {
                "type": "Point",
                "coordinates": [
                    10.243903398513794,
                    43.8668339075199
                ]
            }
        },
        {
            "type": "Feature",
            "properties": {
                "name": "totalerg",
                "id": "30386",
                "brand": "Total Erg",
                "amenity": "fuel",
                "operator": "AMC DI MORELLI ENRICO & C. SNC"
            },
            "geometry": {
                "type": "Point",
                "coordinates": [
                    10.311013609170915,
                    43.892632794792746
                ]
            }
        },
        {
            "type": "Feature",
            "properties": {
                "name": "TAMOIL MASSAROSA",
                "id": "5755",
                "brand": "Tamoil",
                "amenity": "fuel",
                "operator": "BRE.MI. S.N.C. DI BRESCIANI PIERPAOLO  &  MICHELOTTI ALESSANDRO"
            },
            "geometry": {
                "type": "Point",
                "coordinates": [
                    10.33147713922574,
                    43.87382155831313
                ]
            }
        },
        {
            "type": "Feature",
            "properties": {
                "name": "TotalErg di Binelli Dario",
                "id": "26677",
                "brand": "Total Erg",
                "amenity": "fuel",
                "operator": "BINELLI DARIO"
            },
            "geometry": {
                "type": "Point",
                "coordinates": [
                    10.251231416677683,
                    43.864642393518835
                ]
            }
        },
        {
            "type": "Feature",
            "properties": {
                "name": "Pitstop di Puccetti e Borghesi snc",
                "id": "8143",
                "brand": "Agip Eni",
                "amenity": "fuel",
                "operator": "PITSTOP DI PUCCETTI FILIPPO E BORGHESI STEFANO S.N.C."
            },
            "geometry": {
                "type": "Point",
                "coordinates": [
                    10.244251168717255,
                    43.88758791706014
                ]
            }
        },
        {
            "type": "Feature",
            "properties": {
                "name": "stazione di servizio totalerg lido di camaiore",
                "id": "28295",
                "brand": "Total Erg",
                "amenity": "fuel",
                "operator": "FRATELLI CHECCHI - S.N.C."
            },
            "geometry": {
                "type": "Point",
                "coordinates": [
                    10.226327673728859,
                    43.90772643270539
                ]
            }
        },
        {
            "type": "Feature",
            "properties": {
                "name": "AGIP LANDI MAURO DI MANFREDI A. & C SNC",
                "id": "13016",
                "brand": "Agip Eni",
                "amenity": "fuel",
                "operator": "LANDI MAURO DI MANFREDI ALESSANDRA & C. S.N.C."
            },
            "geometry": {
                "type": "Point",
                "coordinates": [
                    10.20119994878769,
                    43.95201456058158
                ]
            }
        },
        {
            "type": "Feature",
            "properties": {
                "name": "VIAREGGIO AURELIA SUD",
                "id": "25157",
                "brand": "Q8",
                "amenity": "fuel",
                "operator": "SERVIZI & GESTIONI ITALIA S.R.L."
            },
            "geometry": {
                "type": "Point",
                "coordinates": [
                    10.267421188360572,
                    43.86393785475312
                ]
            }
        },
        {
            "type": "Feature",
            "properties": {
                "name": "IP DI DEL GRANDE FABRIZIO",
                "id": "21800",
                "brand": "Api-Ip",
                "amenity": "fuel",
                "operator": "DEL GRANDE FABRIZIO"
            },
            "geometry": {
                "type": "Point",
                "coordinates": [
                    10.252033699742471,
                    43.874937340962155
                ]
            }
        },
        {
            "type": "Feature",
            "properties": {
                "name": "MP GROUP SRL",
                "id": "12666",
                "brand": "Q8",
                "amenity": "fuel",
                "operator": "MP GROUP S.R.L."
            },
            "geometry": {
                "type": "Point",
                "coordinates": [
                    10.255281329154968,
                    43.91699172742726
                ]
            }
        },
        {
            "type": "Feature",
            "properties": {
                "name": "TOTAL ERG",
                "id": "27523",
                "brand": "Total Erg",
                "amenity": "fuel",
                "operator": "MORICONI MAURO"
            },
            "geometry": {
                "type": "Point",
                "coordinates": [
                    10.29613807797432,
                    43.88265622203766
                ]
            }
        },
        {
            "type": "Feature",
            "properties": {
                "name": "Distributore metano",
                "id": "18453",
                "amenity": "fuel",
                "operator": "METANO ITALIA - S.R.L."
            },
            "geometry": {
                "type": "Point",
                "coordinates": [
                    10.222109109163283,
                    43.9341201840395
                ]
            }
        },
        {
            "type": "Feature",
            "properties": {
                "name": "STAZIONE SERVIZIO ENI",
                "id": "27529",
                "brand": "Agip Eni",
                "amenity": "fuel",
                "operator": "A.G. DI GIGLI MARIA MADDALENA & ANGELI G. E S. S.N.C. ABBREVIATA IN A.G. DI ANGELI & GIGLI S.N.C."
            },
            "geometry": {
                "type": "Point",
                "coordinates": [
                    10.351183712482452,
                    43.85736263927551
                ]
            }
        },
        {
            "type": "Feature",
            "properties": {
                "name": "TOTALERG",
                "id": "28296",
                "brand": "Total Erg",
                "amenity": "fuel",
                "operator": "F. LLI DI NARDO S.N.C. DI NUNZIO & SALVATORE"
            },
            "geometry": {
                "type": "Point",
                "coordinates": [
                    10.255952870255326,
                    43.87836019532781
                ]
            }
        },
        {
            "type": "Feature",
            "properties": {
                "name": "ORLANDI ANDREA",
                "id": "19566",
                "brand": "Agip Eni",
                "amenity": "fuel",
                "operator": "ORLANDI ANDREA"
            },
            "geometry": {
                "type": "Point",
                "coordinates": [
                    10.230567455291748,
                    43.88859210727064
                ]
            }
        },
        {
            "type": "Feature",
            "properties": {
                "name": "stazione di servizio ip",
                "id": "26750",
                "brand": "Api-Ip",
                "amenity": "fuel",
                "operator": "STAZIONE DI SERVIZIO API DI VITALI LUCA  &  C. S.N.C."
            },
            "geometry": {
                "type": "Point",
                "coordinates": [
                    10.231273144418083,
                    43.901022859880094
                ]
            }
        },
        {
            "type": "Feature",
            "properties": {
                "name": "VERSILIA OVEST",
                "id": "22167",
                "brand": "Agip Eni",
                "amenity": "fuel",
                "operator": "TI.CAR. S.N.C. DI MARIO SUPPADRI E YURI TONAZZINI"
            },
            "geometry": {
                "type": "Point",
                "coordinates": [
                    10.224430561065674,
                    43.92844653304682
                ]
            }
        },
        {
            "type": "Feature",
            "properties": {
                "name": "TOTALERG Gonnella Brunello",
                "id": "30536",
                "brand": "Total Erg",
                "amenity": "fuel",
                "operator": "GONNELLA BRUNELLO DI GONNELLA E C. SOCIETA' IN ACCOMANDITA SEMPLICE"
            },
            "geometry": {
                "type": "Point",
                "coordinates": [
                    10.271825194358824,
                    43.85879962273083
                ]
            }
        },
        {
            "type": "Feature",
            "properties": {
                "name": "Totalerg",
                "id": "4833",
                "brand": "Total Erg",
                "amenity": "fuel",
                "operator": "BURRONI FABRIZIO"
            },
            "geometry": {
                "type": "Point",
                "coordinates": [
                    10.219076871871948,
                    43.925106838455235
                ]
            }
        },
        {
            "type": "Feature",
            "properties": {
                "name": "Stazione di Servizio Q8",
                "id": "9974",
                "brand": "Q8",
                "amenity": "fuel",
                "operator": "VIETINA GUALTIERO"
            },
            "geometry": {
                "type": "Point",
                "coordinates": [
                    10.231458062020467,
                    43.88900476398208
                ]
            }
        },
        {
            "type": "Feature",
            "properties": {
                "name": "stazione di servizio esso",
                "id": "17142",
                "brand": "Esso",
                "amenity": "fuel",
                "operator": "EFFE-BI DI LEONI PATRIZIO E C.S.N.C"
            },
            "geometry": {
                "type": "Point",
                "coordinates": [
                    10.23282041586913,
                    43.88550601105465
                ]
            }
        },
        {
            "type": "Feature",
            "properties": {
                "name": "TotalErg di Binelli Dario",
                "id": "26642",
                "brand": "Total Erg",
                "amenity": "fuel",
                "operator": "BINELLI DARIO"
            },
            "geometry": {
                "type": "Point",
                "coordinates": [
                    10.253772959360845,
                    43.93544912036996
                ]
            }
        },
        {
            "type": "Feature",
            "properties": {
                "name": "VERSILIA EST",
                "id": "22171",
                "brand": "Agip Eni",
                "amenity": "fuel",
                "operator": "PIETRASANTA CARBURANTI - SOCIETA' IN NOME COLLETTIVO DI FABRIZIO DI VINCENZO E LUCA MARIA FILIPPETTO"
            },
            "geometry": {
                "type": "Point",
                "coordinates": [
                    10.223223567008974,
                    43.92811890822932
                ]
            }
        },
        {
            "type": "Feature",
            "properties": {
                "name": "VIAREGGIO LARGO RISORGIMENTO",
                "id": "6567",
                "brand": "Q8",
                "amenity": "fuel",
                "operator": "SERVIZI & GESTIONI ITALIA srl"
            },
            "geometry": {
                "type": "Point",
                "coordinates": [
                    10.259650183467103,
                    43.869264486079196
                ]
            }
        },
        {
            "type": "Feature",
            "properties": {
                "name": "PIETRASANTA",
                "id": "24672",
                "brand": "Tamoil",
                "amenity": "fuel",
                "operator": "SIRTAM S.R.L."
            },
            "geometry": {
                "type": "Point",
                "coordinates": [
                    10.218178331851957,
                    43.93114705145262
                ]
            }
        },
        {
            "type": "Feature",
            "properties": {
                "name": "totalergstiava",
                "id": "4455",
                "brand": "Total Erg",
                "amenity": "fuel",
                "operator": "STAZIONE DI RIFORNIMENTO AGOSTINI DI GIULIANA AGOSTINI & C. S.A.S"
            },
            "geometry": {
                "type": "Point",
                "coordinates": [
                    10.311008244752886,
                    43.89263028200664
                ]
            }
        },
        {
            "type": "Feature",
            "properties": {
                "name": "Innocenti Moreno & c snc",
                "id": "27209",
                "brand": "Total Erg",
                "amenity": "fuel",
                "operator": "INNOCENTI MORENO & C. S.N.C."
            },
            "geometry": {
                "type": "Point",
                "coordinates": [
                    10.211723654370076,
                    43.91160341394626
                ]
            }
        },
        {
            "type": "Feature",
            "properties": {
                "name": "Stazione di servizio Esso",
                "id": "31814",
                "brand": "Esso",
                "amenity": "fuel",
                "operator": "EFFE-BI DI LEONI PATRIZIO E C.S.N.C"
            },
            "geometry": {
                "type": "Point",
                "coordinates": [
                    10.258989483118057,
                    43.86818577328214
                ]
            }
        },
        {
            "type": "Feature",
            "properties": {
                "name": "TOTAL ERG",
                "id": "29387",
                "brand": "Total Erg",
                "amenity": "fuel",
                "operator": "LUISOTTI F. & RAFFAELLI L. S.N.C."
            },
            "geometry": {
                "type": "Point",
                "coordinates": [
                    10.300306230783464,
                    43.93899891327947
                ]
            }
        },
        {
            "type": "Feature",
            "properties": {
                "name": "VIAREGGIO GNOLAINI",
                "id": "28518",
                "brand": "Tamoil",
                "amenity": "fuel",
                "operator": "SIRTAM S.R.L."
            },
            "geometry": {
                "type": "Point",
                "coordinates": [
                    10.28861850500107,
                    43.84528558137838
                ]
            }
        },
        {
            "type": "Feature",
            "properties": {
                "name": "bini stefano e c snc",
                "id": "7948",
                "brand": "Agip Eni",
                "amenity": "fuel",
                "operator": "BINI STEFANO E C. S.N.C."
            },
            "geometry": {
                "type": "Point",
                "coordinates": [
                    10.259664058685303,
                    43.86805892234358
                ]
            }
        },
        {
            "type": "Feature",
            "properties": {
                "name": "DISTRIBUTORE TOTALERG DI CAPITANINI VIRNA",
                "id": "22598",
                "brand": "Total Erg",
                "amenity": "fuel",
                "operator": "CAPITANINI VIRNA"
            },
            "geometry": {
                "type": "Point",
                "coordinates": [
                    10.326354503631594,
                    43.92377848118988
                ]
            }
        },
        {
            "type": "Feature",
            "properties": {
                "name": "ip lazzini giacomo",
                "id": "20339",
                "brand": "Api-Ip",
                "amenity": "fuel",
                "operator": "LAZZINI GIACOMO"
            },
            "geometry": {
                "type": "Point",
                "coordinates": [
                    10.226274579763412,
                    43.94353927360314
                ]
            }
        },
        {
            "type": "Feature",
            "properties": {
                "name": "f.lli maremmani snc",
                "id": "15633",
                "brand": "Total Erg",
                "amenity": "fuel",
                "operator": "F.LLI MAREMMANI S.N.C. DI MAREMMANI VALENTINO E C."
            },
            "geometry": {
                "type": "Point",
                "coordinates": [
                    10.237360644180287,
                    43.952356972516846
                ]
            }
        },
        {
            "type": "Feature",
            "properties": {
                "name": "IP",
                "id": "8029",
                "brand": "Api-Ip",
                "amenity": "fuel",
                "operator": "D. & V. CARBURANTI SNC DI D'AMBRA ANDREA E VITIELLO LUIGI"
            },
            "geometry": {
                "type": "Point",
                "coordinates": [
                    10.288354307413101,
                    43.87697341012755
                ]
            }
        },
        {
            "type": "Feature",
            "properties": {
                "name": "tamoil",
                "id": "8343",
                "brand": "Tamoil",
                "amenity": "fuel",
                "operator": "CARMASSI & LOTTI S.N.C."
            },
            "geometry": {
                "type": "Point",
                "coordinates": [
                    10.248756173610674,
                    43.88544325187441
                ]
            }
        },
        {
            "type": "Feature",
            "properties": {
                "name": "VIAREGGIO LU-LOC.VARIGNANO SS. 1 AURELIA",
                "id": "11633",
                "brand": "Q8",
                "amenity": "fuel",
                "operator": "SERVIZI & GESTIONI ITALIA S.R.L."
            },
            "geometry": {
                "type": "Point",
                "coordinates": [
                    10.260564373016335,
                    43.867190331333845
                ]
            }
        },
        {
            "type": "Feature",
            "properties": {
                "name": "Esso Marchetti & C.- S.N.C.",
                "id": "19032",
                "brand": "Esso",
                "amenity": "fuel",
                "operator": "MARCHETTI & C. - S.N.C."
            },
            "geometry": {
                "type": "Point",
                "coordinates": [
                    10.262022167662506,
                    43.8593262174603
                ]
            }
        }
    ]
}