{
    "type": "FeatureCollection",
    "features": [
        {
            "type": "Feature",
            "properties": {
                "name": "distributore IP Filippini Giovanni",
                "id": "6119",
                "brand": "Api-Ip",
                "amenity": "fuel",
                "operator": "FILIPPINI GIOVANNI"
            },
            "geometry": {
                "type": "Point",
                "coordinates": [
                    10.332793272061167,
                    45.40349334985097
                ]
            }
        },
        {
            "type": "Feature",
            "properties": {
                "name": "GHEDI OVEST",
                "id": "29835",
                "brand": "Tamoil",
                "amenity": "fuel",
                "operator": "SALVETTI RETE S.R.L."
            },
            "geometry": {
                "type": "Point",
                "coordinates": [
                    10.209557712078093,
                    45.4462749254493
                ]
            }
        },
        {
            "type": "Feature",
            "properties": {
                "name": "LENO S.P. 668 KM 22+393 DIREZ. ORZINUOVI",
                "id": "6461",
                "brand": "Q8",
                "amenity": "fuel",
                "operator": "SERVIZI & GESTIONI ITALIA srl"
            },
            "geometry": {
                "type": "Point",
                "coordinates": [
                    10.236652046442032,
                    45.383284718058704
                ]
            }
        },
        {
            "type": "Feature",
            "properties": {
                "name": "Sia Fuel Poncarale",
                "id": "28971",
                "brand": "Sia fuel",
                "amenity": "fuel",
                "operator": "S.I.A. ENGINEERING CONSTRUCTION S.R.L."
            },
            "geometry": {
                "type": "Point",
                "coordinates": [
                    10.198606938281275,
                    45.454131949594036
                ]
            }
        },
        {
            "type": "Feature",
            "properties": {
                "name": "ENI",
                "id": "7414",
                "brand": "Agip Eni",
                "amenity": "fuel",
                "operator": "RAVANI VITTORIO"
            },
            "geometry": {
                "type": "Point",
                "coordinates": [
                    10.338875055313109,
                    45.40443878476454
                ]
            }
        },
        {
            "type": "Feature",
            "properties": {
                "name": "Stazione di servizio Q8",
                "id": "20656",
                "brand": "Q8",
                "amenity": "fuel",
                "operator": "BOGLIOLI RACHELE E SILVANA S.N.C."
            },
            "geometry": {
                "type": "Point",
                "coordinates": [
                    10.220686197280882,
                    45.36127711409165
                ]
            }
        },
        {
            "type": "Feature",
            "properties": {
                "name": "Impianto Retitalia Ghedi",
                "id": "25104",
                "brand": "Retitalia",
                "amenity": "fuel",
                "operator": "BRIXIA FINANZIARIA S.R.L."
            },
            "geometry": {
                "type": "Point",
                "coordinates": [
                    10.26096323557192,
                    45.41943573329694
                ]
            }
        },
        {
            "type": "Feature",
            "properties": {
                "name": "GHEDI EST",
                "id": "28078",
                "brand": "Tamoil",
                "amenity": "fuel",
                "operator": "SCABA S.N.C.- STAZIONI CARBURANTI AUTOSTRADALI BAGNOLO DI CANALI ETTORE E C."
            },
            "geometry": {
                "type": "Point",
                "coordinates": [
                    10.211386978626251,
                    45.44660084851196
                ]
            }
        },
        {
            "type": "Feature",
            "properties": {
                "name": "Migliorati Mauro",
                "id": "7388",
                "brand": "Tamoil",
                "amenity": "fuel",
                "operator": "MIGLIORATI MAURO"
            },
            "geometry": {
                "type": "Point",
                "coordinates": [
                    10.232065217266154,
                    45.44101446540287
                ]
            }
        },
        {
            "type": "Feature",
            "properties": {
                "name": "PONCARALE - S.S. 45 BIS",
                "id": "29808",
                "brand": "Api-Ip",
                "amenity": "fuel",
                "operator": "IP SERVICES S.R.L."
            },
            "geometry": {
                "type": "Point",
                "coordinates": [
                    10.20010000000002,
                    45.45300752621481
                ]
            }
        },
        {
            "type": "Feature",
            "properties": {
                "name": "TOTALERG CALVISANO ANGELI",
                "id": "21899",
                "brand": "Total Erg",
                "amenity": "fuel",
                "operator": "STAZIONE DI SERVIZIO ANGELI DI ANGELI CRISTIAN"
            },
            "geometry": {
                "type": "Point",
                "coordinates": [
                    10.338881760835648,
                    45.38739877022518
                ]
            }
        },
        {
            "type": "Feature",
            "properties": {
                "name": "IP ELCAMALES S.N.C.",
                "id": "12034",
                "brand": "Api-Ip",
                "amenity": "fuel",
                "operator": "ELCAMALES S.N.C. DI MAESTRI SERGIO & C."
            },
            "geometry": {
                "type": "Point",
                "coordinates": [
                    10.253382325172424,
                    45.404068928331576
                ]
            }
        },
        {
            "type": "Feature",
            "properties": {
                "name": "GHEDI - GARIBALDI",
                "id": "31281",
                "brand": "Api-Ip",
                "amenity": "fuel",
                "operator": "IP SERVICES S.R.L."
            },
            "geometry": {
                "type": "Point",
                "coordinates": [
                    10.271875860118827,
                    45.40031600814334
                ]
            }
        },
        {
            "type": "Feature",
            "properties": {
                "name": "Montichiari",
                "id": "10118",
                "brand": "Total Erg",
                "amenity": "fuel",
                "operator": "GESTIONI EUROPA - SOCIETA' PER AZIONI"
            },
            "geometry": {
                "type": "Point",
                "coordinates": [
                    10.362202227115631,
                    45.43029184869991
                ]
            }
        },
        {
            "type": "Feature",
            "properties": {
                "name": "esso",
                "id": "12127",
                "brand": "Esso",
                "amenity": "fuel",
                "operator": "FOSTINI FRANCESCO ED ANGELO S.N.C."
            },
            "geometry": {
                "type": "Point",
                "coordinates": [
                    10.217460006082092,
                    45.36905067482269
                ]
            }
        },
        {
            "type": "Feature",
            "properties": {
                "name": "area servizio KEROPETROL",
                "id": "17472",
                "amenity": "fuel",
                "operator": "DAGANI GIAMBATTISTA"
            },
            "geometry": {
                "type": "Point",
                "coordinates": [
                    10.207785160713229,
                    45.36519316229279
                ]
            }
        },
        {
            "type": "Feature",
            "properties": {
                "name": "CRESCINI MAURO",
                "id": "12184",
                "brand": "Api-Ip",
                "amenity": "fuel",
                "operator": "CRESCINI MAURO"
            },
            "geometry": {
                "type": "Point",
                "coordinates": [
                    10.20447224378586,
                    45.364218539314315
                ]
            }
        },
        {
            "type": "Feature",
            "properties": {
                "name": "Area Servizio AGIP 01784 di Linetti",
                "id": "17173",
                "brand": "Agip Eni",
                "amenity": "fuel",
                "operator": "LINETTI SNC DI LINETTI LUIGI E C."
            },
            "geometry": {
                "type": "Point",
                "coordinates": [
                    10.33843383193016,
                    45.3609631369259
                ]
            }
        },
        {
            "type": "Feature",
            "properties": {
                "name": "DISTRIBUTORE ESSO di Roscia Roberto",
                "id": "29698",
                "brand": "Esso",
                "amenity": "fuel",
                "operator": "ROSCIA ROBERTO"
            },
            "geometry": {
                "type": "Point",
                "coordinates": [
                    10.265355706214905,
                    45.41651089511466
                ]
            }
        },
        {
            "type": "Feature",
            "properties": {
                "name": "Perotti & C. S.n.C. Staz.Serv.ENI 1772",
                "id": "4679",
                "brand": "Agip Eni",
                "amenity": "fuel",
                "operator": "STAZIONE DI SERVIZIO PEROTTI & C. S.N.C."
            },
            "geometry": {
                "type": "Point",
                "coordinates": [
                    10.21264909212482,
                    45.37913887408958
                ]
            }
        }
    ]
}