{
    "type": "FeatureCollection",
    "features": [
        {
            "type": "Feature",
            "properties": {
                "name": "Decanini e Moriconi Snc",
                "id": "14950",
                "brand": "Agip Eni",
                "amenity": "fuel",
                "operator": "DECANINI STEFANO & MORICONI FRANCESCO S.N.C. DISTRIBUTORE DI CARBURANTI"
            },
            "geometry": {
                "type": "Point",
                "coordinates": [
                    10.44491820037365,
                    43.907088803676245
                ]
            }
        },
        {
            "type": "Feature",
            "properties": {
                "name": "RUBERTI ALBERIGO & C. S.N.C. DI RUBERTI GIOVANNI E PRATESI EMANUELA",
                "id": "10635",
                "amenity": "fuel",
                "operator": "RUBERTI ALBERIGO & C. S.N.C. DI RUBERTI GIOVANNI E PRATESI EMANUE LA"
            },
            "geometry": {
                "type": "Point",
                "coordinates": [
                    10.488097071647646,
                    43.861558417852315
                ]
            }
        },
        {
            "type": "Feature",
            "properties": {
                "name": "Q8",
                "id": "14968",
                "brand": "Q8",
                "amenity": "fuel",
                "operator": "FERRARI FILIPPO S.A.S.DI FERRARI F. & C."
            },
            "geometry": {
                "type": "Point",
                "coordinates": [
                    10.494566559791565,
                    43.83573717629719
                ]
            }
        },
        {
            "type": "Feature",
            "properties": {
                "name": "totalerg",
                "id": "30342",
                "brand": "Total Erg",
                "amenity": "fuel",
                "operator": "BERNARDI MARCO"
            },
            "geometry": {
                "type": "Point",
                "coordinates": [
                    10.494753573016396,
                    43.83454024598086
                ]
            }
        },
        {
            "type": "Feature",
            "properties": {
                "name": "LUCCA-VIALE EUROPA INGR. AUT. FI/MARE",
                "id": "11636",
                "brand": "Q8",
                "amenity": "fuel",
                "operator": "SERVIZI & GESTIONI ITALIA S.R.L."
            },
            "geometry": {
                "type": "Point",
                "coordinates": [
                    10.494334461307517,
                    43.83455417419581
                ]
            }
        },
        {
            "type": "Feature",
            "properties": {
                "name": "GIANNI ISABELLA",
                "id": "16178",
                "brand": "Esso",
                "amenity": "fuel",
                "operator": "GIANNI ISABELLA"
            },
            "geometry": {
                "type": "Point",
                "coordinates": [
                    10.533836781978605,
                    43.839035646314564
                ]
            }
        },
        {
            "type": "Feature",
            "properties": {
                "name": "API IP Gestione Cobel srl (S.Donato)",
                "id": "31551",
                "brand": "Api-Ip",
                "amenity": "fuel",
                "operator": "COBEL - COMMERCIO BENZINA LUBRIFICANTI - S.R.L. O COBEL - S.R.L."
            },
            "geometry": {
                "type": "Point",
                "coordinates": [
                    10.495001077651978,
                    43.84475708906859
                ]
            }
        },
        {
            "type": "Feature",
            "properties": {
                "name": "Stazione di Servizio Carburanti Netti Nicola S. Alessio",
                "id": "28233",
                "brand": "Api-Ip",
                "amenity": "fuel",
                "operator": "NETTI SANTO NICOLA"
            },
            "geometry": {
                "type": "Point",
                "coordinates": [
                    10.498432186508124,
                    43.85964254604997
                ]
            }
        },
        {
            "type": "Feature",
            "properties": {
                "name": "MONTE DI QUIESA NORD",
                "id": "3823",
                "brand": "Total Erg",
                "amenity": "fuel",
                "operator": "FRATELLI CHECCHI - S.N.C."
            },
            "geometry": {
                "type": "Point",
                "coordinates": [
                    10.40779709815979,
                    43.85385919419026
                ]
            }
        },
        {
            "type": "Feature",
            "properties": {
                "name": "esso",
                "id": "28278",
                "brand": "Esso",
                "amenity": "fuel",
                "operator": "NC CARBURANTI DI NOTO GAETANO, DAVIDE E C. S.N.C."
            },
            "geometry": {
                "type": "Point",
                "coordinates": [
                    10.494797071758285,
                    43.8406844628869
                ]
            }
        },
        {
            "type": "Feature",
            "properties": {
                "name": "Stazione di Servizio Q8",
                "id": "9896",
                "brand": "Q8",
                "amenity": "fuel",
                "operator": "FRANCESCHI FABIO"
            },
            "geometry": {
                "type": "Point",
                "coordinates": [
                    10.500498667363445,
                    43.84995975979746
                ]
            }
        },
        {
            "type": "Feature",
            "properties": {
                "name": "LUCCA V.LE C. CASTRACANI  1028",
                "id": "6568",
                "brand": "Q8",
                "amenity": "fuel",
                "operator": "SERVIZI & GESTIONI ITALIA srl"
            },
            "geometry": {
                "type": "Point",
                "coordinates": [
                    10.525777414441107,
                    43.849339457722685
                ]
            }
        },
        {
            "type": "Feature",
            "properties": {
                "name": "Ciervo Giovanni T",
                "id": "28084",
                "brand": "Api-Ip",
                "amenity": "fuel",
                "operator": "CIERVO GIOVANNI"
            },
            "geometry": {
                "type": "Point",
                "coordinates": [
                    10.493258982896805,
                    43.84274095975155
                ]
            }
        },
        {
            "type": "Feature",
            "properties": {
                "name": "GAS AUTO",
                "id": "4848",
                "amenity": "fuel",
                "operator": "CECCHINI FLAVIANO"
            },
            "geometry": {
                "type": "Point",
                "coordinates": [
                    10.529526472091675,
                    43.87921554061768
                ]
            }
        },
        {
            "type": "Feature",
            "properties": {
                "name": "QUATTRO PETROLI CORTOPASSI ANTONIO",
                "id": "11995",
                "amenity": "fuel",
                "operator": "CORTOPASSI ANTONIO"
            },
            "geometry": {
                "type": "Point",
                "coordinates": [
                    10.395289957523346,
                    43.89887189436956
                ]
            }
        },
        {
            "type": "Feature",
            "properties": {
                "name": "STAZIONE DI SERVIZIO BEYFIN DI BONTURI STEFANO",
                "id": "24544",
                "amenity": "fuel",
                "operator": "STAZIONE DI SERVIZIO BEYFIN DI BONTURI STEFANO"
            },
            "geometry": {
                "type": "Point",
                "coordinates": [
                    10.510766347129902,
                    43.85580112617178
                ]
            }
        },
        {
            "type": "Feature",
            "properties": {
                "name": "MINGHI MARCO",
                "id": "8149",
                "brand": "Api-Ip",
                "amenity": "fuel",
                "operator": "MINGHI MARCO"
            },
            "geometry": {
                "type": "Point",
                "coordinates": [
                    10.515915587058087,
                    43.84721572505045
                ]
            }
        },
        {
            "type": "Feature",
            "properties": {
                "name": "CONAD",
                "id": "23541",
                "brand": "CONAD",
                "amenity": "fuel",
                "operator": "SUPERMERCATO MARGHERITA  S.R.L."
            },
            "geometry": {
                "type": "Point",
                "coordinates": [
                    10.518848598003387,
                    43.84193619135033
                ]
            }
        },
        {
            "type": "Feature",
            "properties": {
                "name": "Stazione di Servizio Carburanti Netti Nicola Via Marti",
                "id": "28234",
                "brand": "Api-Ip",
                "amenity": "fuel",
                "operator": "NETTI SANTO NICOLA"
            },
            "geometry": {
                "type": "Point",
                "coordinates": [
                    10.512692275377729,
                    43.84974133963022
                ]
            }
        },
        {
            "type": "Feature",
            "properties": {
                "name": "LUCCA",
                "id": "28392",
                "brand": "Total Erg",
                "amenity": "fuel",
                "operator": "GESTIONI EUROPA - SOCIETA' PER AZIONI"
            },
            "geometry": {
                "type": "Point",
                "coordinates": [
                    10.488473922014236,
                    43.84206707793552
                ]
            }
        },
        {
            "type": "Feature",
            "properties": {
                "name": "IP MONTE SAN QUIRICO",
                "id": "7687",
                "brand": "Api-Ip",
                "amenity": "fuel",
                "operator": "FRATELLI CHECCHI - S.N.C."
            },
            "geometry": {
                "type": "Point",
                "coordinates": [
                    10.509294569492338,
                    43.86399220156659
                ]
            }
        },
        {
            "type": "Feature",
            "properties": {
                "name": "papeschi giuseppe",
                "id": "23744",
                "brand": "Esso",
                "amenity": "fuel",
                "operator": "PAPESCHI GIUSEPPE"
            },
            "geometry": {
                "type": "Point",
                "coordinates": [
                    10.512668788433075,
                    43.857319487910274
                ]
            }
        },
        {
            "type": "Feature",
            "properties": {
                "name": "COBEL",
                "id": "22498",
                "brand": "Api-Ip",
                "amenity": "fuel",
                "operator": "COBEL - COMMERCIO BENZINA LUBRIFICANTI - S.R.L. O COBEL - S.R.L."
            },
            "geometry": {
                "type": "Point",
                "coordinates": [
                    10.515666775521368,
                    43.84796178760281
                ]
            }
        },
        {
            "type": "Feature",
            "properties": {
                "name": "STAZIONE IP",
                "id": "14542",
                "brand": "Api-Ip",
                "amenity": "fuel",
                "operator": "PANCACCINI MARCO"
            },
            "geometry": {
                "type": "Point",
                "coordinates": [
                    10.466385946032688,
                    43.84848630838174
                ]
            }
        },
        {
            "type": "Feature",
            "properties": {
                "name": "LLM DI MARINAI PIERO & C. SNC",
                "id": "12453",
                "brand": "Esso",
                "amenity": "fuel",
                "operator": "L.L.M.  DI MARINAI PIERO & C. S.N.C."
            },
            "geometry": {
                "type": "Point",
                "coordinates": [
                    10.460946941069778,
                    43.85007296672267
                ]
            }
        },
        {
            "type": "Feature",
            "properties": {
                "name": "4QUATTROPETROLI DI CERBINO GIUSEPPE S. MARIA A COLLE",
                "id": "25949",
                "amenity": "fuel",
                "operator": "CERBINO GIUSEPPE"
            },
            "geometry": {
                "type": "Point",
                "coordinates": [
                    10.445221960544588,
                    43.84784595642543
                ]
            }
        },
        {
            "type": "Feature",
            "properties": {
                "name": "Marcucci Angelo Gestore Tamoil",
                "id": "13985",
                "brand": "Tamoil",
                "amenity": "fuel",
                "operator": "MARCUCCI ANGELO"
            },
            "geometry": {
                "type": "Point",
                "coordinates": [
                    10.502315226072595,
                    43.95544695590891
                ]
            }
        },
        {
            "type": "Feature",
            "properties": {
                "name": "TotalErg",
                "id": "28089",
                "brand": "Total Erg",
                "amenity": "fuel",
                "operator": "ZAMBON GAMMAOIL DI ZAMBON STEFANO & C. - S.A.S."
            },
            "geometry": {
                "type": "Point",
                "coordinates": [
                    10.524240466838592,
                    43.85915544556829
                ]
            }
        },
        {
            "type": "Feature",
            "properties": {
                "name": "Distributore metano",
                "id": "18452",
                "amenity": "fuel",
                "operator": "METANO ITALIA - S.R.L."
            },
            "geometry": {
                "type": "Point",
                "coordinates": [
                    10.46639531850815,
                    43.8484634012013
                ]
            }
        },
        {
            "type": "Feature",
            "properties": {
                "name": "5112 LUCCA",
                "id": "26112",
                "brand": "Agip Eni",
                "amenity": "fuel",
                "operator": "ENI RETE OIL&NONOIL S.P.A."
            },
            "geometry": {
                "type": "Point",
                "coordinates": [
                    10.533571243286135,
                    43.851437569485114
                ]
            }
        },
        {
            "type": "Feature",
            "properties": {
                "name": "STAZIONE ENI",
                "id": "28795",
                "brand": "Agip Eni",
                "amenity": "fuel",
                "operator": "CARBURANTE LUCCHESE DI LAZZARESCHI  GIUSEPPE E PALMERINI STEFANO S.N.C."
            },
            "geometry": {
                "type": "Point",
                "coordinates": [
                    10.513742345368996,
                    43.857834698027716
                ]
            }
        },
        {
            "type": "Feature",
            "properties": {
                "name": "LUCCA - CATALANI 76",
                "id": "31410",
                "brand": "Api-Ip",
                "amenity": "fuel",
                "operator": "IP SERVICES S.R.L."
            },
            "geometry": {
                "type": "Point",
                "coordinates": [
                    10.49325930859834,
                    43.84274742864612
                ]
            }
        },
        {
            "type": "Feature",
            "properties": {
                "name": "pardini glauco & c s.a.s",
                "id": "22081",
                "brand": "Api-Ip",
                "amenity": "fuel",
                "operator": "PARDINI GLAUCO & C. S.A.S."
            },
            "geometry": {
                "type": "Point",
                "coordinates": [
                    10.518015101552011,
                    43.83524149037488
                ]
            }
        },
        {
            "type": "Feature",
            "properties": {
                "name": "1272",
                "id": "29897",
                "brand": "Tamoil",
                "amenity": "fuel",
                "operator": "T.D.M. S.R.L."
            },
            "geometry": {
                "type": "Point",
                "coordinates": [
                    10.539505630731583,
                    43.852350917982236
                ]
            }
        },
        {
            "type": "Feature",
            "properties": {
                "name": "totalerg",
                "id": "11085",
                "brand": "Total Erg",
                "amenity": "fuel",
                "operator": "ANGELI MAURIZIO & C. S.A.S."
            },
            "geometry": {
                "type": "Point",
                "coordinates": [
                    10.529520450262453,
                    43.84479133925741
                ]
            }
        },
        {
            "type": "Feature",
            "properties": {
                "name": "DI BLASI JACOPO",
                "id": "28528",
                "brand": "Total Erg",
                "amenity": "fuel",
                "operator": "DI BLASI JACOPO"
            },
            "geometry": {
                "type": "Point",
                "coordinates": [
                    10.534242965081829,
                    43.90413191239309
                ]
            }
        },
        {
            "type": "Feature",
            "properties": {
                "name": "STAZIONE DI RIFORNIMENTO ENI",
                "id": "18343",
                "brand": "Agip Eni",
                "amenity": "fuel",
                "operator": "FRATELLI CHECCHI - S.N.C."
            },
            "geometry": {
                "type": "Point",
                "coordinates": [
                    10.482919313353023,
                    43.83991239225587
                ]
            }
        },
        {
            "type": "Feature",
            "properties": {
                "name": "LUCCA - ACQUACALDA",
                "id": "30955",
                "brand": "Api-Ip",
                "amenity": "fuel",
                "operator": "IP SERVICES S.R.L."
            },
            "geometry": {
                "type": "Point",
                "coordinates": [
                    10.519594635581939,
                    43.85632707720695
                ]
            }
        },
        {
            "type": "Feature",
            "properties": {
                "name": "Q8",
                "id": "28594",
                "brand": "Q8",
                "amenity": "fuel",
                "operator": "COLOMBINI LELIO"
            },
            "geometry": {
                "type": "Point",
                "coordinates": [
                    10.484934863229341,
                    43.88105680440843
                ]
            }
        },
        {
            "type": "Feature",
            "properties": {
                "name": "ENI FISICARO PAOLO & C. - S.A.S.",
                "id": "10277",
                "brand": "Agip Eni",
                "amenity": "fuel",
                "operator": "FISICARO PAOLO & C. S.N.C."
            },
            "geometry": {
                "type": "Point",
                "coordinates": [
                    10.487006753683092,
                    43.84414869799637
                ]
            }
        },
        {
            "type": "Feature",
            "properties": {
                "name": "ANDREONI IVO",
                "id": "29510",
                "brand": "Api-Ip",
                "amenity": "fuel",
                "operator": "ANDREONI IVO"
            },
            "geometry": {
                "type": "Point",
                "coordinates": [
                    10.535212755203247,
                    43.888401122680335
                ]
            }
        },
        {
            "type": "Feature",
            "properties": {
                "name": "Ciervo Giovanni",
                "id": "28082",
                "brand": "Api-Ip",
                "amenity": "fuel",
                "operator": "CIERVO GIOVANNI"
            },
            "geometry": {
                "type": "Point",
                "coordinates": [
                    10.494898964418098,
                    43.84475336892236
                ]
            }
        },
        {
            "type": "Feature",
            "properties": {
                "name": "AVP",
                "id": "16800",
                "amenity": "fuel",
                "operator": "VANNUCCHI ANDREA"
            },
            "geometry": {
                "type": "Point",
                "coordinates": [
                    10.440171323803725,
                    43.85652045473607
                ]
            }
        }
    ]
}