{
    "type": "FeatureCollection",
    "features": [
        {
            "type": "Feature",
            "properties": {
                "name": "IMPIANTO 12939",
                "id": "31285",
                "brand": "Agip Eni",
                "amenity": "fuel",
                "operator": "PETRETTO DAVIDE"
            },
            "geometry": {
                "type": "Point",
                "coordinates": [
                    10.375296771526337,
                    44.93543946320017
                ]
            }
        },
        {
            "type": "Feature",
            "properties": {
                "name": "COIL",
                "id": "31674",
                "amenity": "fuel",
                "operator": "VECAR S.R.L."
            },
            "geometry": {
                "type": "Point",
                "coordinates": [
                    10.4675408307279,
                    44.90831502658828
                ]
            }
        },
        {
            "type": "Feature",
            "properties": {
                "name": "TAMOIL",
                "id": "9446",
                "brand": "Tamoil",
                "amenity": "fuel",
                "operator": "L.R. - S.N.C. DI LANDINI CRISTIANO & C."
            },
            "geometry": {
                "type": "Point",
                "coordinates": [
                    10.513309836387634,
                    44.902301380376855
                ]
            }
        },
        {
            "type": "Feature",
            "properties": {
                "name": "VIADANA VIA PISACANE",
                "id": "6519",
                "brand": "Q8",
                "amenity": "fuel",
                "operator": "SERVIZI & GESTIONI ITALIA srl"
            },
            "geometry": {
                "type": "Point",
                "coordinates": [
                    10.535624087696874,
                    44.933252877241245
                ]
            }
        },
        {
            "type": "Feature",
            "properties": {
                "name": "BOSCHI",
                "id": "30145",
                "brand": "Esso",
                "amenity": "fuel",
                "operator": "BOSCHI PIETRO & C. - SOCIETA' A RESPONSABILITA' LIMITATA"
            },
            "geometry": {
                "type": "Point",
                "coordinates": [
                    10.543873608112333,
                    44.87368153834316
                ]
            }
        },
        {
            "type": "Feature",
            "properties": {
                "name": "ENI 52410",
                "id": "31980",
                "brand": "Agip Eni",
                "amenity": "fuel",
                "operator": "IEVA ERMANNO"
            },
            "geometry": {
                "type": "Point",
                "coordinates": [
                    10.441951006650925,
                    44.84276590482783
                ]
            }
        },
        {
            "type": "Feature",
            "properties": {
                "name": "TOP FUEL SNC",
                "id": "21801",
                "brand": "Esso",
                "amenity": "fuel",
                "operator": "TOP FUEL S.N.C. DI AGNETTI GRAZIANO & C."
            },
            "geometry": {
                "type": "Point",
                "coordinates": [
                    10.449949353933334,
                    44.84374970054849
                ]
            }
        },
        {
            "type": "Feature",
            "properties": {
                "name": "Eni Station",
                "id": "32091",
                "brand": "Agip Eni",
                "amenity": "fuel",
                "operator": "BONIN STATION SNC DI BONIN ALFONSO & C."
            },
            "geometry": {
                "type": "Point",
                "coordinates": [
                    10.529630071009365,
                    44.92424760710969
                ]
            }
        },
        {
            "type": "Feature",
            "properties": {
                "name": "BRESCELLO VARIANTE DELLA S.S.62 DELLA CISA",
                "id": "6526",
                "brand": "Q8",
                "amenity": "fuel",
                "operator": "SERVIZI & GESTIONI ITALIA srl"
            },
            "geometry": {
                "type": "Point",
                "coordinates": [
                    10.52589476108551,
                    44.89095707987546
                ]
            }
        },
        {
            "type": "Feature",
            "properties": {
                "name": "SCAFFARDI CLAUDIA  Q8",
                "id": "30340",
                "brand": "Q8",
                "amenity": "fuel",
                "operator": "SCAFFARDI CLAUDIA"
            },
            "geometry": {
                "type": "Point",
                "coordinates": [
                    10.451076498147584,
                    44.84377901772675
                ]
            }
        },
        {
            "type": "Feature",
            "properties": {
                "name": "Stefano Gozzi",
                "id": "13050",
                "brand": "Agip Eni",
                "amenity": "fuel",
                "operator": "GOZZI STEFANO"
            },
            "geometry": {
                "type": "Point",
                "coordinates": [
                    10.521973075818778,
                    44.930878884407214
                ]
            }
        },
        {
            "type": "Feature",
            "properties": {
                "name": "Stazione di Servizio ESSO di Iemmi geom. Ernesto",
                "id": "9065",
                "brand": "Esso",
                "amenity": "fuel",
                "operator": "IEMMI ERNESTO"
            },
            "geometry": {
                "type": "Point",
                "coordinates": [
                    10.543906321426448,
                    44.87369649389168
                ]
            }
        },
        {
            "type": "Feature",
            "properties": {
                "name": "Stazione di Sevizio con Autolavaggio snc",
                "id": "6358",
                "brand": "Esso",
                "amenity": "fuel",
                "operator": "STAZIONE DI SERVIZIO CON AUTOLAVAGGIO DI BACCARINI FABIO E CISCAT O GIANLUCA SNC"
            },
            "geometry": {
                "type": "Point",
                "coordinates": [
                    10.466803014278414,
                    44.85001836498975
                ]
            }
        },
        {
            "type": "Feature",
            "properties": {
                "name": "VERA di VERALDI FABRIZIO & C SNC",
                "id": "18267",
                "brand": "Q8",
                "amenity": "fuel",
                "operator": "VERA DI VERALDI FABRIZIO & C. S.N.C."
            },
            "geometry": {
                "type": "Point",
                "coordinates": [
                    10.533937499376862,
                    44.9391936449518
                ]
            }
        },
        {
            "type": "Feature",
            "properties": {
                "name": "BOSCHI PIETRO & C. SRL",
                "id": "29443",
                "brand": "Esso",
                "amenity": "fuel",
                "operator": "BOSCHI PIETRO & C. - SOCIETA' A RESPONSABILITA' LIMITATA"
            },
            "geometry": {
                "type": "Point",
                "coordinates": [
                    10.46679899096489,
                    44.85000087066925
                ]
            }
        },
        {
            "type": "Feature",
            "properties": {
                "name": "Stazione di servizio agip Grazzi Mirko",
                "id": "7655",
                "brand": "Agip Eni",
                "amenity": "fuel",
                "operator": "GRAZZI MIRKO"
            },
            "geometry": {
                "type": "Point",
                "coordinates": [
                    10.47619342803955,
                    44.96090717378337
                ]
            }
        },
        {
            "type": "Feature",
            "properties": {
                "name": "STAZIONE SERVIZIO TAMOIL - BORRCARR",
                "id": "18162",
                "brand": "Tamoil",
                "amenity": "fuel",
                "operator": "STAZIONE DI SERVIZIO TAMOIL - BORRCARR - DI BORRELLI VITO E CARROZZO MARIO S.N.C."
            },
            "geometry": {
                "type": "Point",
                "coordinates": [
                    10.504734814167023,
                    44.92905173293207
                ]
            }
        },
        {
            "type": "Feature",
            "properties": {
                "name": "Stazione di Servizio EGO di Savazzi Roberto",
                "id": "12100",
                "brand": "Ego",
                "amenity": "fuel",
                "operator": "STAZIONE DI SERVIZIO DI SAVAZZI ROBERTO"
            },
            "geometry": {
                "type": "Point",
                "coordinates": [
                    10.53707648710247,
                    44.855034295797985
                ]
            }
        },
        {
            "type": "Feature",
            "properties": {
                "name": "PV 53493",
                "id": "30218",
                "brand": "Agip Eni",
                "amenity": "fuel",
                "operator": "GESTIONI INNOVATIVE ITALIA S.R.L."
            },
            "geometry": {
                "type": "Point",
                "coordinates": [
                    10.508747398853302,
                    44.89757666541605
                ]
            }
        },
        {
            "type": "Feature",
            "properties": {
                "name": "TERIO FLORIANA",
                "id": "18613",
                "brand": "Esso",
                "amenity": "fuel",
                "operator": "TERIO FLORIANA"
            },
            "geometry": {
                "type": "Point",
                "coordinates": [
                    10.544430166482925,
                    44.941797625271946
                ]
            }
        }
    ]
}