{
    "type": "FeatureCollection",
    "features": [
        {
            "type": "Feature",
            "properties": {
                "name": "LONATO-VIA C.BATTISTI C/O IPER 'LA ROCCA'",
                "id": "11541",
                "brand": "Q8",
                "amenity": "fuel",
                "operator": "SERVIZI & GESTIONI ITALIA S.R.L."
            },
            "geometry": {
                "type": "Point",
                "coordinates": [
                    10.49017306480414,
                    45.46033619369617
                ]
            }
        },
        {
            "type": "Feature",
            "properties": {
                "name": "eni",
                "id": "28272",
                "brand": "Agip Eni",
                "amenity": "fuel",
                "operator": "2P DI PISCITELLI MAICHOL & C. SNC"
            },
            "geometry": {
                "type": "Point",
                "coordinates": [
                    10.450049936771391,
                    45.583105789894674
                ]
            }
        },
        {
            "type": "Feature",
            "properties": {
                "name": "ESSO",
                "id": "26476",
                "brand": "Esso",
                "amenity": "fuel",
                "operator": "ALBOMAR DI FLORIOLI A. E LUSENTI A. S.N.C."
            },
            "geometry": {
                "type": "Point",
                "coordinates": [
                    10.448188483715057,
                    45.496033520627854
                ]
            }
        },
        {
            "type": "Feature",
            "properties": {
                "name": "ESSO-Framor",
                "id": "30566",
                "brand": "Esso",
                "amenity": "fuel",
                "operator": "FRAMOR S.N.C. DI MOR ALBERTO, MAURO, DAMIANO"
            },
            "geometry": {
                "type": "Point",
                "coordinates": [
                    10.46071495833587,
                    45.52121459213707
                ]
            }
        },
        {
            "type": "Feature",
            "properties": {
                "name": "Eni Caf√© di Massardi Sergio e Marco e C. Snc",
                "id": "8636",
                "brand": "Agip Eni",
                "amenity": "fuel",
                "operator": "ENI CAFE' DI MASSARDI SERGIO E MARCO & C. SNC"
            },
            "geometry": {
                "type": "Point",
                "coordinates": [
                    10.398903009864398,
                    45.550258912954135
                ]
            }
        },
        {
            "type": "Feature",
            "properties": {
                "name": "STAZIONE DI SERVIZIO RETITALIA",
                "id": "20592",
                "brand": "Retitalia",
                "amenity": "fuel",
                "operator": "CARROZZERIA M.B. DI MASSOLINI ENRICO E C. S.N.C."
            },
            "geometry": {
                "type": "Point",
                "coordinates": [
                    10.437287986278534,
                    45.57833297261414
                ]
            }
        },
        {
            "type": "Feature",
            "properties": {
                "name": "Secret Fly srl",
                "id": "21651",
                "brand": "Agip Eni",
                "amenity": "fuel",
                "operator": "SECRET FLY SRL"
            },
            "geometry": {
                "type": "Point",
                "coordinates": [
                    10.38757860660553,
                    45.484158198119424
                ]
            }
        },
        {
            "type": "Feature",
            "properties": {
                "name": "NUVOLENTO S.P. 116 - V. TRENTO 44",
                "id": "9117",
                "brand": "Q8",
                "amenity": "fuel",
                "operator": "SERVIZI & GESTIONI ITALIA S.R.L."
            },
            "geometry": {
                "type": "Point",
                "coordinates": [
                    10.383841769975335,
                    45.53944078616598
                ]
            }
        },
        {
            "type": "Feature",
            "properties": {
                "name": "AGIP-ENI",
                "id": "23388",
                "brand": "Agip Eni",
                "amenity": "fuel",
                "operator": "NOVELLI GIUSEPPE DARIS"
            },
            "geometry": {
                "type": "Point",
                "coordinates": [
                    10.532498359680176,
                    45.563025833258244
                ]
            }
        },
        {
            "type": "Feature",
            "properties": {
                "name": "portesi vincenzo",
                "id": "11073",
                "brand": "Shell",
                "amenity": "fuel",
                "operator": "PORTESI VINCENZO"
            },
            "geometry": {
                "type": "Point",
                "coordinates": [
                    10.419873000802681,
                    45.55951601919502
                ]
            }
        },
        {
            "type": "Feature",
            "properties": {
                "name": "ADS VIADOTTO SNC di Scalvini Claudio & c",
                "id": "26710",
                "brand": "Agip Eni",
                "amenity": "fuel",
                "operator": "AREA DI SERVIZIO VIADOTTO S.N.C. DI SCALVINI CLAUDIO & C."
            },
            "geometry": {
                "type": "Point",
                "coordinates": [
                    10.527898371219637,
                    45.46822573539192
                ]
            }
        },
        {
            "type": "Feature",
            "properties": {
                "name": "Total Erg",
                "id": "27446",
                "brand": "Total Erg",
                "amenity": "fuel",
                "operator": "MIB DI MILA A. E C. S.A.S."
            },
            "geometry": {
                "type": "Point",
                "coordinates": [
                    10.466438749598638,
                    45.46510143845795
                ]
            }
        },
        {
            "type": "Feature",
            "properties": {
                "name": "Distributore IP di Leali Teresita Silvana",
                "id": "14124",
                "brand": "Api-Ip",
                "amenity": "fuel",
                "operator": "LEALI TERESITA SILVANA"
            },
            "geometry": {
                "type": "Point",
                "coordinates": [
                    10.529093965888023,
                    45.52690203852582
                ]
            }
        },
        {
            "type": "Feature",
            "properties": {
                "name": "AGIP ENI",
                "id": "10593",
                "brand": "Agip Eni",
                "amenity": "fuel",
                "operator": "GOTTELLI LUCA"
            },
            "geometry": {
                "type": "Point",
                "coordinates": [
                    10.532467514276503,
                    45.562619458253614
                ]
            }
        },
        {
            "type": "Feature",
            "properties": {
                "name": "GOSETTI - TAMOIL",
                "id": "15431",
                "brand": "Tamoil",
                "amenity": "fuel",
                "operator": "GOSETTI F.LLI DI GOSETTI CLAUDIO E GABRIELE & C. S.N.C."
            },
            "geometry": {
                "type": "Point",
                "coordinates": [
                    10.421676814839087,
                    45.55069343610308
                ]
            }
        },
        {
            "type": "Feature",
            "properties": {
                "name": "Sia Fuel Bedizzole",
                "id": "28972",
                "brand": "Sia fuel",
                "amenity": "fuel",
                "operator": "S.I.A. ENGINEERING CONSTRUCTION S.R.L."
            },
            "geometry": {
                "type": "Point",
                "coordinates": [
                    10.435564347221316,
                    45.50800471990399
                ]
            }
        },
        {
            "type": "Feature",
            "properties": {
                "name": "stazione di servizio ivisconti snc",
                "id": "28143",
                "brand": "Api-Ip",
                "amenity": "fuel",
                "operator": "I VISCONTI DI VISCONTI TIZIANO & C. S.N.C."
            },
            "geometry": {
                "type": "Point",
                "coordinates": [
                    10.540807843208313,
                    45.46714149015343
                ]
            }
        },
        {
            "type": "Feature",
            "properties": {
                "name": "CAPPONI PIERANGELO",
                "id": "11401",
                "brand": "Agip Eni",
                "amenity": "fuel",
                "operator": "CAPPONI PIERANGELO"
            },
            "geometry": {
                "type": "Point",
                "coordinates": [
                    10.387047529220581,
                    45.48120345703071
                ]
            }
        },
        {
            "type": "Feature",
            "properties": {
                "name": "totalerg",
                "id": "18398",
                "brand": "Total Erg",
                "amenity": "fuel",
                "operator": "DUE EMME DI MILITI & MAFFIETTI S.N.C."
            },
            "geometry": {
                "type": "Point",
                "coordinates": [
                    10.388412103056908,
                    45.52785773389494
                ]
            }
        },
        {
            "type": "Feature",
            "properties": {
                "name": "MAZZANO SUD",
                "id": "7961",
                "brand": "Esso",
                "amenity": "fuel",
                "operator": "FERREMI BATTISTA - SOCIETA' PER AZIONI"
            },
            "geometry": {
                "type": "Point",
                "coordinates": [
                    10.38238525390625,
                    45.535955699663575
                ]
            }
        },
        {
            "type": "Feature",
            "properties": {
                "name": "BEDIZZOLE VIA BRESCIA 3",
                "id": "25446",
                "brand": "Q8",
                "amenity": "fuel",
                "operator": "SERVIZI & GESTIONI ITALIA S.R.L."
            },
            "geometry": {
                "type": "Point",
                "coordinates": [
                    10.396779924631119,
                    45.50980087837993
                ]
            }
        },
        {
            "type": "Feature",
            "properties": {
                "name": "Q8",
                "id": "8249",
                "brand": "Q8",
                "amenity": "fuel",
                "operator": "MAGRI MORENO"
            },
            "geometry": {
                "type": "Point",
                "coordinates": [
                    10.536695346236229,
                    45.46814071203509
                ]
            }
        },
        {
            "type": "Feature",
            "properties": {
                "name": "54380 Lonato BS",
                "id": "26859",
                "brand": "Agip Eni",
                "amenity": "fuel",
                "operator": "ENI RETE OIL&NONOIL S.P.A."
            },
            "geometry": {
                "type": "Point",
                "coordinates": [
                    10.449253857004805,
                    45.47301812277475
                ]
            }
        },
        {
            "type": "Feature",
            "properties": {
                "name": "CALCINATO - PONTE SAN MARCO",
                "id": "31332",
                "brand": "Api-Ip",
                "amenity": "fuel",
                "operator": "IP SERVICES S.R.L."
            },
            "geometry": {
                "type": "Point",
                "coordinates": [
                    10.405202682209051,
                    45.4754338545043
                ]
            }
        },
        {
            "type": "Feature",
            "properties": {
                "name": "agip di franzoni fabio",
                "id": "25179",
                "brand": "Agip Eni",
                "amenity": "fuel",
                "operator": "DISTRIBUTORE AGIP DI FRANZONI FABIO"
            },
            "geometry": {
                "type": "Point",
                "coordinates": [
                    10.384199023246765,
                    45.509298819526116
                ]
            }
        },
        {
            "type": "Feature",
            "properties": {
                "name": "TOTALERG",
                "id": "12161",
                "brand": "Total Erg",
                "amenity": "fuel",
                "operator": "AVANZI EMANUELA E C. S.N.C."
            },
            "geometry": {
                "type": "Point",
                "coordinates": [
                    10.533642321825027,
                    45.54983706345689
                ]
            }
        },
        {
            "type": "Feature",
            "properties": {
                "name": "OIL INVEST 2000/1",
                "id": "15079",
                "brand": "Api-Ip",
                "amenity": "fuel",
                "operator": "OIL INVEST 2000 SRL"
            },
            "geometry": {
                "type": "Point",
                "coordinates": [
                    10.53690657019615,
                    45.52872829320772
                ]
            }
        },
        {
            "type": "Feature",
            "properties": {
                "name": "TAMOIL IEVA EMANUELE",
                "id": "22121",
                "brand": "Tamoil",
                "amenity": "fuel",
                "operator": "IEVA EMANUELE"
            },
            "geometry": {
                "type": "Point",
                "coordinates": [
                    10.471197813749313,
                    45.463659499856234
                ]
            }
        },
        {
            "type": "Feature",
            "properties": {
                "name": "IES",
                "id": "18202",
                "brand": "Ies",
                "amenity": "fuel",
                "operator": "IL SOGNO SNC DI VEZZOLA E RUSSO"
            },
            "geometry": {
                "type": "Point",
                "coordinates": [
                    10.444882182687707,
                    45.5777424040603
                ]
            }
        },
        {
            "type": "Feature",
            "properties": {
                "name": "PASQUATO FAUSTINO",
                "id": "8064",
                "brand": "Agip Eni",
                "amenity": "fuel",
                "operator": "PASQUATO FAUSTINO"
            },
            "geometry": {
                "type": "Point",
                "coordinates": [
                    10.40475681424141,
                    45.5116923463052
                ]
            }
        },
        {
            "type": "Feature",
            "properties": {
                "name": "GAS AUTO",
                "id": "5563",
                "amenity": "fuel",
                "operator": "RUBETTI LUCIO"
            },
            "geometry": {
                "type": "Point",
                "coordinates": [
                    10.528284609317778,
                    45.468823904779256
                ]
            }
        },
        {
            "type": "Feature",
            "properties": {
                "name": "ferraricarburanti",
                "id": "31802",
                "amenity": "fuel",
                "operator": "FERRARI GIANCARLO"
            },
            "geometry": {
                "type": "Point",
                "coordinates": [
                    10.405889408459416,
                    45.55320682773566
                ]
            }
        },
        {
            "type": "Feature",
            "properties": {
                "name": "Secret Fly Srl",
                "id": "21652",
                "brand": "Agip Eni",
                "amenity": "fuel",
                "operator": "SECRET FLY SRL"
            },
            "geometry": {
                "type": "Point",
                "coordinates": [
                    10.388045310974123,
                    45.484681730780665
                ]
            }
        },
        {
            "type": "Feature",
            "properties": {
                "name": "COSTANTIN",
                "id": "15516",
                "brand": "Costantin",
                "amenity": "fuel",
                "operator": "PAGHERA BRUNO DI BESCHI PATRIZIA E C. S.A.S."
            },
            "geometry": {
                "type": "Point",
                "coordinates": [
                    10.412175804376602,
                    45.47526717852628
                ]
            }
        }
    ]
}