{
    "type": "FeatureCollection",
    "features": [
        {
            "type": "Feature",
            "properties": {
                "name": "Nuti Snc di Nuti Daniele & C.",
                "id": "15288",
                "brand": "Api-Ip",
                "amenity": "fuel",
                "operator": "NUTI S.N.C. DI NUTI DANIELE & C."
            },
            "geometry": {
                "type": "Point",
                "coordinates": [
                    10.443917819049034,
                    43.714682486743776
                ]
            }
        },
        {
            "type": "Feature",
            "properties": {
                "name": "MORETTI ANTONINO",
                "id": "13610",
                "brand": "Api-Ip",
                "amenity": "fuel",
                "operator": "MORETTI ANTONINO"
            },
            "geometry": {
                "type": "Point",
                "coordinates": [
                    10.4036525511475,
                    43.79161539114077
                ]
            }
        },
        {
            "type": "Feature",
            "properties": {
                "name": "IMPIANTO TOTAL ERG",
                "id": "8273",
                "brand": "Total Erg",
                "amenity": "fuel",
                "operator": "LEARDO ANNAMARIA"
            },
            "geometry": {
                "type": "Point",
                "coordinates": [
                    10.497270226478577,
                    43.72297013729031
                ]
            }
        },
        {
            "type": "Feature",
            "properties": {
                "name": "Self area 2s di Cipolli Simone ENI",
                "id": "10267",
                "brand": "Agip Eni",
                "amenity": "fuel",
                "operator": "CIPOLLI SIMONE"
            },
            "geometry": {
                "type": "Point",
                "coordinates": [
                    10.391636788845062,
                    43.72191989980633
                ]
            }
        },
        {
            "type": "Feature",
            "properties": {
                "name": "Pv 55364",
                "id": "31617",
                "brand": "Agip Eni",
                "amenity": "fuel",
                "operator": "GESTIONI INNOVATIVE ITALIA S.R.L."
            },
            "geometry": {
                "type": "Point",
                "coordinates": [
                    10.388646125793457,
                    43.71093995787651
                ]
            }
        },
        {
            "type": "Feature",
            "properties": {
                "name": "CHECCHI ERINO & FIORELLA SNC",
                "id": "12468",
                "brand": "Esso",
                "amenity": "fuel",
                "operator": "CHECCHI ERINO & FIORELLA - S.N.C."
            },
            "geometry": {
                "type": "Point",
                "coordinates": [
                    10.495958335810883,
                    43.82694569786182
                ]
            }
        },
        {
            "type": "Feature",
            "properties": {
                "name": "Stazione Servizio Q8",
                "id": "23657",
                "brand": "Q8",
                "amenity": "fuel",
                "operator": "FRAYD S.N.C. DI ARNONE DANIELE E ARNONE YLENIA"
            },
            "geometry": {
                "type": "Point",
                "coordinates": [
                    10.432403683662415,
                    43.716223329506384
                ]
            }
        },
        {
            "type": "Feature",
            "properties": {
                "name": "PISA CONTE FAZIO",
                "id": "6558",
                "brand": "Q8",
                "amenity": "fuel",
                "operator": "SERVIZI & GESTIONI ITALIA srl"
            },
            "geometry": {
                "type": "Point",
                "coordinates": [
                    10.389796803704826,
                    43.71126452719102
                ]
            }
        },
        {
            "type": "Feature",
            "properties": {
                "name": "Donati & Giari",
                "id": "12004",
                "brand": "Agip Eni",
                "amenity": "fuel",
                "operator": "DONATI ANDREA & GIARI STEFANO - S.N.C."
            },
            "geometry": {
                "type": "Point",
                "coordinates": [
                    10.513803362846375,
                    43.72338883156677
                ]
            }
        },
        {
            "type": "Feature",
            "properties": {
                "name": "STAZIONE DI SERVIZIO SANTERINI DAVIDE",
                "id": "10643",
                "brand": "Total Erg",
                "amenity": "fuel",
                "operator": "SANTERINI  DAVIDE"
            },
            "geometry": {
                "type": "Point",
                "coordinates": [
                    10.42409995948981,
                    43.72197515470419
                ]
            }
        },
        {
            "type": "Feature",
            "properties": {
                "name": "__ Bernardi",
                "id": "5354",
                "brand": "Tamoil",
                "amenity": "fuel",
                "operator": "BERNARDI S.N.C. DI MASSIMO BERNARDI E C."
            },
            "geometry": {
                "type": "Point",
                "coordinates": [
                    10.421546906225329,
                    43.750660206424385
                ]
            }
        },
        {
            "type": "Feature",
            "properties": {
                "name": "torre pendente s.n.c.",
                "id": "10513",
                "brand": "Tamoil",
                "amenity": "fuel",
                "operator": "TORRE PENDENTE - STAZIONE DI SERVIZIO TAMOIL DI MONI GRAZIANO E B ENNATI ALESSANDRO S.N.C."
            },
            "geometry": {
                "type": "Point",
                "coordinates": [
                    10.388860702514648,
                    43.728812983212975
                ]
            }
        },
        {
            "type": "Feature",
            "properties": {
                "name": "PISA DI CISANELLO 13",
                "id": "6559",
                "brand": "Q8",
                "amenity": "fuel",
                "operator": "SERVIZI & GESTIONI ITALIA srl"
            },
            "geometry": {
                "type": "Point",
                "coordinates": [
                    10.424951795106493,
                    43.7103005711638
                ]
            }
        },
        {
            "type": "Feature",
            "properties": {
                "name": "ASCIANO",
                "id": "31645",
                "brand": "Economy",
                "amenity": "fuel",
                "operator": "SIRTAM S.P.A."
            },
            "geometry": {
                "type": "Point",
                "coordinates": [
                    10.461574047803879,
                    43.74846734671908
                ]
            }
        },
        {
            "type": "Feature",
            "properties": {
                "name": "IMPIANTO IP",
                "id": "24462",
                "brand": "Api-Ip",
                "amenity": "fuel",
                "operator": "ALESSANDRINI ANTHONY"
            },
            "geometry": {
                "type": "Point",
                "coordinates": [
                    10.3741554915905,
                    43.71261660443271
                ]
            }
        },
        {
            "type": "Feature",
            "properties": {
                "name": "IMP. ENI 5260 GPL di Simone Cipolli",
                "id": "31689",
                "brand": "Agip Eni",
                "amenity": "fuel",
                "operator": "CIPOLLI SIMONE"
            },
            "geometry": {
                "type": "Point",
                "coordinates": [
                    10.38263127207756,
                    43.736747129855736
                ]
            }
        },
        {
            "type": "Feature",
            "properties": {
                "name": "PISA VIA LUIGI BIANCHI",
                "id": "10588",
                "brand": "Q8",
                "amenity": "fuel",
                "operator": "SERVIZI & GESTIONI ITALIA S.R.L."
            },
            "geometry": {
                "type": "Point",
                "coordinates": [
                    10.402547693254066,
                    43.72441031212779
                ]
            }
        },
        {
            "type": "Feature",
            "properties": {
                "name": "PONTETETTO",
                "id": "29521",
                "brand": "Total Erg",
                "amenity": "fuel",
                "operator": "FULDIN S.A.S. DI ANGELO FULCO"
            },
            "geometry": {
                "type": "Point",
                "coordinates": [
                    10.494364053010942,
                    43.82445881960086
                ]
            }
        },
        {
            "type": "Feature",
            "properties": {
                "name": "Impianto Eni Marraccini Andrea",
                "id": "8069",
                "brand": "Agip Eni",
                "amenity": "fuel",
                "operator": "MARRACCINI ANDREA"
            },
            "geometry": {
                "type": "Point",
                "coordinates": [
                    10.464752167536062,
                    43.782358220779564
                ]
            }
        },
        {
            "type": "Feature",
            "properties": {
                "name": "Nicola Angelini Carburanti Srl",
                "id": "4345",
                "brand": "Agip Eni",
                "amenity": "fuel",
                "operator": "NICOLA ANGELINI CARBURANTI S.R.L."
            },
            "geometry": {
                "type": "Point",
                "coordinates": [
                    10.491629540920258,
                    43.820046972061604
                ]
            }
        },
        {
            "type": "Feature",
            "properties": {
                "name": "IL QUADRIFOGLIO S.N.C.",
                "id": "15186",
                "brand": "Win",
                "amenity": "fuel",
                "operator": "GESTIONE IMPIANTI IL QUADRIFOGLIO DI CINACCHI SIMONE E C. S.N.C."
            },
            "geometry": {
                "type": "Point",
                "coordinates": [
                    10.38726344704628,
                    43.751901997520555
                ]
            }
        },
        {
            "type": "Feature",
            "properties": {
                "name": "API-IP DI SIRAGUSA MARCO",
                "id": "21432",
                "brand": "Api-Ip",
                "amenity": "fuel",
                "operator": "SIRAGUSA MARCO"
            },
            "geometry": {
                "type": "Point",
                "coordinates": [
                    10.405614482803342,
                    43.70991869008691
                ]
            }
        },
        {
            "type": "Feature",
            "properties": {
                "name": "CIARDELLI MAURO IMPIANTO eni",
                "id": "4277",
                "brand": "Agip Eni",
                "amenity": "fuel",
                "operator": "CIARDELLI MAURO"
            },
            "geometry": {
                "type": "Point",
                "coordinates": [
                    10.393431186676027,
                    43.780538565198626
                ]
            }
        },
        {
            "type": "Feature",
            "properties": {
                "name": "Leonangeli Fabrizio",
                "id": "10353",
                "brand": "Agip Eni",
                "amenity": "fuel",
                "operator": "LEONANGELI FABRIZIO"
            },
            "geometry": {
                "type": "Point",
                "coordinates": [
                    10.38262590765953,
                    43.7161463493145
                ]
            }
        },
        {
            "type": "Feature",
            "properties": {
                "name": "Pisa VIA MANGHI, LOC. CISANELLO",
                "id": "23938",
                "brand": "Total Erg",
                "amenity": "fuel",
                "operator": "TOTALERG S.P.A."
            },
            "geometry": {
                "type": "Point",
                "coordinates": [
                    10.442038178443907,
                    43.710857752859106
                ]
            }
        },
        {
            "type": "Feature",
            "properties": {
                "name": "LUCCA S.S. 12 KM 6+570 S.LOREN.A VAC",
                "id": "6570",
                "brand": "Q8",
                "amenity": "fuel",
                "operator": "SERVIZI & GESTIONI ITALIA srl"
            },
            "geometry": {
                "type": "Point",
                "coordinates": [
                    10.478395698147551,
                    43.79371699439313
                ]
            }
        },
        {
            "type": "Feature",
            "properties": {
                "name": "4QUATTROPETROLI DI CERBINO GIUSEPPE SAN CONCORDIO",
                "id": "15759",
                "amenity": "fuel",
                "operator": "CERBINO GIUSEPPE"
            },
            "geometry": {
                "type": "Point",
                "coordinates": [
                    10.49799076808813,
                    43.832120142391254
                ]
            }
        },
        {
            "type": "Feature",
            "properties": {
                "name": "SAN GIULIANO TERME-VIA BARSOTTI 8",
                "id": "11765",
                "brand": "Q8",
                "amenity": "fuel",
                "operator": "SERVIZI & GESTIONI ITALIA S.R.L."
            },
            "geometry": {
                "type": "Point",
                "coordinates": [
                    10.44309848346711,
                    43.76064188443029
                ]
            }
        },
        {
            "type": "Feature",
            "properties": {
                "name": "SAN GIULIANO TERME",
                "id": "5960",
                "brand": "Total Erg",
                "amenity": "fuel",
                "operator": "GESTIONI EUROPA S.p.A."
            },
            "geometry": {
                "type": "Point",
                "coordinates": [
                    10.408438457672105,
                    43.777866126742495
                ]
            }
        },
        {
            "type": "Feature",
            "properties": {
                "name": "PISA - VITTORIO VENETO 14",
                "id": "29279",
                "brand": "Api-Ip",
                "amenity": "fuel",
                "operator": "IP SERVICES S.R.L."
            },
            "geometry": {
                "type": "Point",
                "coordinates": [
                    10.410440233135205,
                    43.72113101545497
                ]
            }
        },
        {
            "type": "Feature",
            "properties": {
                "name": "GHELARDI LUCA",
                "id": "13633",
                "brand": "Shell",
                "amenity": "fuel",
                "operator": "I.P. DI GHELARDI LUCA"
            },
            "geometry": {
                "type": "Point",
                "coordinates": [
                    10.37970258319774,
                    43.78323700443235
                ]
            }
        },
        {
            "type": "Feature",
            "properties": {
                "name": "La vera oasi del carburante",
                "id": "31002",
                "amenity": "fuel",
                "operator": "LA VERA OASI DEL CALBURANTE DI BERNARDINI NICOLAO"
            },
            "geometry": {
                "type": "Point",
                "coordinates": [
                    10.40309195619875,
                    43.722966928883885
                ]
            }
        },
        {
            "type": "Feature",
            "properties": {
                "name": "LUCCA PONTETETTO",
                "id": "24850",
                "brand": "Tamoil",
                "amenity": "fuel",
                "operator": "STAR SERVICE S.R.L."
            },
            "geometry": {
                "type": "Point",
                "coordinates": [
                    10.493364930152895,
                    43.817539765298235
                ]
            }
        },
        {
            "type": "Feature",
            "properties": {
                "name": "bandinelli roberta esso",
                "id": "12217",
                "brand": "Esso",
                "amenity": "fuel",
                "operator": "BANDINELLI ROBERTA"
            },
            "geometry": {
                "type": "Point",
                "coordinates": [
                    10.382214188575745,
                    43.716417967049615
                ]
            }
        },
        {
            "type": "Feature",
            "properties": {
                "name": "SAN GIULIANO TERME-LOC. LA FONTINA-GHEZZANO",
                "id": "11770",
                "brand": "Q8",
                "amenity": "fuel",
                "operator": "SERVIZI & GESTIONI ITALIA S.R.L."
            },
            "geometry": {
                "type": "Point",
                "coordinates": [
                    10.419548542327904,
                    43.72841500000002
                ]
            }
        }
    ]
}