{
    "type": "FeatureCollection",
    "features": [
        {
            "type": "Feature",
            "properties": {
                "name": "ROSIGNANO M.MO- CAMPOLECCIANO",
                "id": "31083",
                "brand": "Api-Ip",
                "amenity": "fuel",
                "operator": "IP SERVICES S.R.L."
            },
            "geometry": {
                "type": "Point",
                "coordinates": [
                    10.383216093254077,
                    43.44384352501053
                ]
            }
        },
        {
            "type": "Feature",
            "properties": {
                "name": "Eni Spa",
                "id": "29077",
                "brand": "Agip Eni",
                "amenity": "fuel",
                "operator": "CLS FUEL S.N.C. DI CLAUSI LUCA E CLAUSI STEFANO"
            },
            "geometry": {
                "type": "Point",
                "coordinates": [
                    10.43161152513119,
                    43.396071735685915
                ]
            }
        },
        {
            "type": "Feature",
            "properties": {
                "name": "stazione rifornimento esso",
                "id": "6326",
                "brand": "Esso",
                "amenity": "fuel",
                "operator": "ZAGAGLIA LUCIANO"
            },
            "geometry": {
                "type": "Point",
                "coordinates": [
                    10.446882247924805,
                    43.39765381015866
                ]
            }
        },
        {
            "type": "Feature",
            "properties": {
                "name": "totalerg rosignano marittimo",
                "id": "14818",
                "brand": "Total Erg",
                "amenity": "fuel",
                "operator": "RAGLIANTI LUCA"
            },
            "geometry": {
                "type": "Point",
                "coordinates": [
                    10.470736473798754,
                    43.40398896498023
                ]
            }
        },
        {
            "type": "Feature",
            "properties": {
                "name": "stazione di servizio esso",
                "id": "27992",
                "brand": "Esso",
                "amenity": "fuel",
                "operator": "BARTOLOZZI LUCA"
            },
            "geometry": {
                "type": "Point",
                "coordinates": [
                    10.430076119049092,
                    43.39761055497902
                ]
            }
        },
        {
            "type": "Feature",
            "properties": {
                "name": "Cecina",
                "id": "10108",
                "brand": "Total Erg",
                "amenity": "fuel",
                "operator": "GESTIONI EUROPA - SOCIETA' PER AZIONI"
            },
            "geometry": {
                "type": "Point",
                "coordinates": [
                    10.503674000501633,
                    43.32869349978992
                ]
            }
        },
        {
            "type": "Feature",
            "properties": {
                "name": "tamoil 1261",
                "id": "6335",
                "brand": "Tamoil",
                "amenity": "fuel",
                "operator": "BIESSE S.N.C. DI SCALIA ROBERTO & C."
            },
            "geometry": {
                "type": "Point",
                "coordinates": [
                    10.447822373016377,
                    43.39527102046786
                ]
            }
        },
        {
            "type": "Feature",
            "properties": {
                "name": "le spianate  castiglioncello",
                "id": "8597",
                "brand": "Agip Eni",
                "amenity": "fuel",
                "operator": "FONTINOVO SERGIO"
            },
            "geometry": {
                "type": "Point",
                "coordinates": [
                    10.416697338223457,
                    43.42324097822024
                ]
            }
        },
        {
            "type": "Feature",
            "properties": {
                "name": "eni bertelli ivano",
                "id": "20353",
                "brand": "Agip Eni",
                "amenity": "fuel",
                "operator": "BERTELLI IVANO"
            },
            "geometry": {
                "type": "Point",
                "coordinates": [
                    10.483875274658203,
                    43.415628893418486
                ]
            }
        },
        {
            "type": "Feature",
            "properties": {
                "name": "_stazione servizio Q8 vergili michele",
                "id": "6318",
                "brand": "Q8",
                "amenity": "fuel",
                "operator": "VERGILI MICHELE"
            },
            "geometry": {
                "type": "Point",
                "coordinates": [
                    10.452740192413328,
                    43.363253751237316
                ]
            }
        },
        {
            "type": "Feature",
            "properties": {
                "name": "Distributore di Rosignano",
                "id": "10220",
                "brand": "Api-Ip",
                "amenity": "fuel",
                "operator": "TIRRENOMET S.N.C. DI TAVOLIERI ARNALDO & C."
            },
            "geometry": {
                "type": "Point",
                "coordinates": [
                    10.469348967189946,
                    43.38605401182636
                ]
            }
        },
        {
            "type": "Feature",
            "properties": {
                "name": "ROSIGNANO M.MO - ROSIGNANO SOLVAY",
                "id": "31087",
                "brand": "Api-Ip",
                "amenity": "fuel",
                "operator": "IP SERVICES S.R.L."
            },
            "geometry": {
                "type": "Point",
                "coordinates": [
                    10.435729504299161,
                    43.396848723181854
                ]
            }
        },
        {
            "type": "Feature",
            "properties": {
                "name": "FINE EST",
                "id": "3842",
                "brand": "Api-Ip",
                "amenity": "fuel",
                "operator": "ADS FINE NORD DI MIGNEMI VITTORIO & C. S.A.S."
            },
            "geometry": {
                "type": "Point",
                "coordinates": [
                    10.490012168884277,
                    43.42540681214629
                ]
            }
        },
        {
            "type": "Feature",
            "properties": {
                "name": "Q8",
                "id": "29141",
                "brand": "Q8",
                "amenity": "fuel",
                "operator": "OMICCIOLI ANDREA"
            },
            "geometry": {
                "type": "Point",
                "coordinates": [
                    10.46173095703125,
                    43.34920739743287
                ]
            }
        },
        {
            "type": "Feature",
            "properties": {
                "name": "MANGIFESTA REMO PASQUALE E C. S.N.C.",
                "id": "15580",
                "brand": "Total Erg",
                "amenity": "fuel",
                "operator": "MANGIFESTA REMO PASQUALE E C. S.N.C."
            },
            "geometry": {
                "type": "Point",
                "coordinates": [
                    10.496195331215858,
                    43.397226804536544
                ]
            }
        }
    ]
}