{
    "type": "FeatureCollection",
    "features": [
        {
            "type": "Feature",
            "properties": {
                "name": "ENI CAFFE'",
                "id": "5059",
                "brand": "Agip Eni",
                "amenity": "fuel",
                "operator": "CHIARINI MARIO E ORSINI SNC"
            },
            "geometry": {
                "type": "Point",
                "coordinates": [
                    10.442789196968079,
                    45.3900291652076
                ]
            }
        },
        {
            "type": "Feature",
            "properties": {
                "name": "MONTE ALTO NORD",
                "id": "3636",
                "brand": "Total Erg",
                "amenity": "fuel",
                "operator": "GARDA PETROLI DI BELLINI CRISTIAN E ARIANNA S.A.S."
            },
            "geometry": {
                "type": "Point",
                "coordinates": [
                    10.528947114944458,
                    45.4487001091291
                ]
            }
        },
        {
            "type": "Feature",
            "properties": {
                "name": "Agip Coffee break",
                "id": "16563",
                "brand": "Agip Eni",
                "amenity": "fuel",
                "operator": "AGIP COFEE BREAK DI ZAMBELLI CLAUDIO"
            },
            "geometry": {
                "type": "Point",
                "coordinates": [
                    10.543178915977478,
                    45.45010459042365
                ]
            }
        },
        {
            "type": "Feature",
            "properties": {
                "name": "TAMOIL",
                "id": "8456",
                "brand": "Tamoil",
                "amenity": "fuel",
                "operator": "CHERUBINI DI CHERUBINI DAVID & C. S.N.C."
            },
            "geometry": {
                "type": "Point",
                "coordinates": [
                    10.498769270114167,
                    45.38236537273041
                ]
            }
        },
        {
            "type": "Feature",
            "properties": {
                "name": "CASTIGLIONE DELLE STIVIERE-SS. 236 KM. 35+950",
                "id": "11718",
                "brand": "Q8",
                "amenity": "fuel",
                "operator": "SERVIZI & GESTIONI ITALIA S.R.L."
            },
            "geometry": {
                "type": "Point",
                "coordinates": [
                    10.475993119049008,
                    45.39505821304236
                ]
            }
        },
        {
            "type": "Feature",
            "properties": {
                "name": "Nicoli Maurizio",
                "id": "30712",
                "brand": "Agip Eni",
                "amenity": "fuel",
                "operator": "NICOLI MAURIZIO"
            },
            "geometry": {
                "type": "Point",
                "coordinates": [
                    10.420662313699722,
                    45.37240220122679
                ]
            }
        },
        {
            "type": "Feature",
            "properties": {
                "name": "51704",
                "id": "18825",
                "brand": "Agip Eni",
                "amenity": "fuel",
                "operator": "SHVEDA LYUBOV"
            },
            "geometry": {
                "type": "Point",
                "coordinates": [
                    10.521458387374878,
                    45.45266508217766
                ]
            }
        },
        {
            "type": "Feature",
            "properties": {
                "name": "COSTANTIN",
                "id": "30070",
                "brand": "Costantin",
                "amenity": "fuel",
                "operator": "COSTANTIN DISTRIBUZIONE E SERVIZI SRL"
            },
            "geometry": {
                "type": "Point",
                "coordinates": [
                    10.413658965698232,
                    45.4261996144662
                ]
            }
        },
        {
            "type": "Feature",
            "properties": {
                "name": "MONTE ALTO SUD",
                "id": "3635",
                "brand": "Total Erg",
                "amenity": "fuel",
                "operator": "GARDA PETROLI DI BELLINI CRISTIAN E ARIANNA S.A.S."
            },
            "geometry": {
                "type": "Point",
                "coordinates": [
                    10.529204607009888,
                    45.44775172572738
                ]
            }
        },
        {
            "type": "Feature",
            "properties": {
                "name": "MONTICHIARI",
                "id": "6906",
                "brand": "Ies",
                "amenity": "fuel",
                "operator": "IES ITALIANA ENERGIA E SERVIZI S.P.A."
            },
            "geometry": {
                "type": "Point",
                "coordinates": [
                    10.373687446117401,
                    45.41564029527245
                ]
            }
        },
        {
            "type": "Feature",
            "properties": {
                "name": "MONTICHIARI-S.S. 236 - VIA BRESCIA 67",
                "id": "11535",
                "brand": "Q8",
                "amenity": "fuel",
                "operator": "SERVIZI & GESTIONI ITALIA S.R.L."
            },
            "geometry": {
                "type": "Point",
                "coordinates": [
                    10.383901298046112,
                    45.4181308079414
                ]
            }
        },
        {
            "type": "Feature",
            "properties": {
                "name": "BAR IL DIAMANTE DI SCUTTERI FRANCO",
                "id": "31073",
                "brand": "Agip Eni",
                "amenity": "fuel",
                "operator": "BAR IL DIAMANTE DI SCUTTERI FRANCO"
            },
            "geometry": {
                "type": "Point",
                "coordinates": [
                    10.471370816230776,
                    45.44978546159723
                ]
            }
        },
        {
            "type": "Feature",
            "properties": {
                "name": "autobarone snc",
                "id": "23161",
                "brand": "Total Erg",
                "amenity": "fuel",
                "operator": "AUTO - BARONE DI BARONE MARCO E C. S.N.C."
            },
            "geometry": {
                "type": "Point",
                "coordinates": [
                    10.416322499513628,
                    45.4589055116919
                ]
            }
        },
        {
            "type": "Feature",
            "properties": {
                "name": "benaco 2000",
                "id": "16512",
                "brand": "Ies",
                "amenity": "fuel",
                "operator": "BENACO 2000 S.A.S. DI MAZZATA NADIA & C."
            },
            "geometry": {
                "type": "Point",
                "coordinates": [
                    10.518104285001755,
                    45.441643679245345
                ]
            }
        },
        {
            "type": "Feature",
            "properties": {
                "name": "Montichiari via Brescia",
                "id": "31611",
                "brand": "Total Erg",
                "amenity": "fuel",
                "operator": "GESTIONI EUROPA - SOCIETA' PER AZIONI"
            },
            "geometry": {
                "type": "Point",
                "coordinates": [
                    10.387527644634247,
                    45.41705275402109
                ]
            }
        },
        {
            "type": "Feature",
            "properties": {
                "name": "BIGNOTTI ETTORE",
                "id": "17966",
                "brand": "Api-Ip",
                "amenity": "fuel",
                "operator": "BIGNOTTI ETTORE"
            },
            "geometry": {
                "type": "Point",
                "coordinates": [
                    10.482409330024668,
                    45.388047209538215
                ]
            }
        },
        {
            "type": "Feature",
            "properties": {
                "name": "DESENZANO DEL GARDA",
                "id": "5786",
                "brand": "Total Erg",
                "amenity": "fuel",
                "operator": "TotalErg SpA"
            },
            "geometry": {
                "type": "Point",
                "coordinates": [
                    10.518955504299129,
                    45.44183122890326
                ]
            }
        },
        {
            "type": "Feature",
            "properties": {
                "name": "CASTIGLIONE DELLE STIVIERE S.S. 567 VARIANTE KM 3+300",
                "id": "6517",
                "brand": "Q8",
                "amenity": "fuel",
                "operator": "SERVIZI & GESTIONI ITALIA srl"
            },
            "geometry": {
                "type": "Point",
                "coordinates": [
                    10.468007326126099,
                    45.40724389000174
                ]
            }
        },
        {
            "type": "Feature",
            "properties": {
                "name": "Nicoli Maurizio",
                "id": "19916",
                "brand": "Agip Eni",
                "amenity": "fuel",
                "operator": "NICOLI MAURIZIO"
            },
            "geometry": {
                "type": "Point",
                "coordinates": [
                    10.420662313699722,
                    45.37240220122679
                ]
            }
        },
        {
            "type": "Feature",
            "properties": {
                "name": "Stazione di servizio a marchio Q8",
                "id": "10208",
                "brand": "Q8",
                "amenity": "fuel",
                "operator": "PASINI MARCO"
            },
            "geometry": {
                "type": "Point",
                "coordinates": [
                    10.385170449073824,
                    45.41796102527327
                ]
            }
        },
        {
            "type": "Feature",
            "properties": {
                "name": "2052 Castiglione MN",
                "id": "26863",
                "brand": "Agip Eni",
                "amenity": "fuel",
                "operator": "ENI RETE OIL&NONOIL S.P.A."
            },
            "geometry": {
                "type": "Point",
                "coordinates": [
                    10.501036584246322,
                    45.380630082772356
                ]
            }
        },
        {
            "type": "Feature",
            "properties": {
                "name": "BELLINI AGNESE",
                "id": "23189",
                "brand": "Agip Eni",
                "amenity": "fuel",
                "operator": "BELLINI AGNESE"
            },
            "geometry": {
                "type": "Point",
                "coordinates": [
                    10.426885038614275,
                    45.40509751494574
                ]
            }
        },
        {
            "type": "Feature",
            "properties": {
                "name": "LONATO",
                "id": "15100",
                "amenity": "fuel",
                "operator": "IPER MONTEBELLO S.P.A."
            },
            "geometry": {
                "type": "Point",
                "coordinates": [
                    10.515288636088371,
                    45.42785382650182
                ]
            }
        },
        {
            "type": "Feature",
            "properties": {
                "name": "gama snc indipendente",
                "id": "22755",
                "amenity": "fuel",
                "operator": "GA.MA. S.N.C. DI GATTI CORRADO & C."
            },
            "geometry": {
                "type": "Point",
                "coordinates": [
                    10.428421944379807,
                    45.43507234047515
                ]
            }
        },
        {
            "type": "Feature",
            "properties": {
                "name": "_PITSTOP",
                "id": "4103",
                "amenity": "fuel",
                "operator": "PIT-STOP S.R.L."
            },
            "geometry": {
                "type": "Point",
                "coordinates": [
                    10.379780421192892,
                    45.4027734557529
                ]
            }
        },
        {
            "type": "Feature",
            "properties": {
                "name": "BORTOLOTTI MASSIMO",
                "id": "27239",
                "brand": "Esso",
                "amenity": "fuel",
                "operator": "BORTOLOTTI MASSIMO."
            },
            "geometry": {
                "type": "Point",
                "coordinates": [
                    10.494598746299744,
                    45.387058188807465
                ]
            }
        },
        {
            "type": "Feature",
            "properties": {
                "name": "agip",
                "id": "11059",
                "brand": "Agip Eni",
                "amenity": "fuel",
                "operator": "ORSINI & PAGHERA S.N.C. DI ORSINI GIUSEPPE & C."
            },
            "geometry": {
                "type": "Point",
                "coordinates": [
                    10.439467281103134,
                    45.366347057323146
                ]
            }
        },
        {
            "type": "Feature",
            "properties": {
                "name": "Sia Fuel Montichiari",
                "id": "29851",
                "brand": "Sia fuel",
                "amenity": "fuel",
                "operator": "S.I.A. ENGINEERING CONSTRUCTION S.R.L."
            },
            "geometry": {
                "type": "Point",
                "coordinates": [
                    10.463215510156262,
                    45.404935706245595
                ]
            }
        },
        {
            "type": "Feature",
            "properties": {
                "name": "6tu",
                "id": "19257",
                "amenity": "fuel",
                "operator": "SALZANI GIACOMO"
            },
            "geometry": {
                "type": "Point",
                "coordinates": [
                    10.429882407188416,
                    45.394360649045105
                ]
            }
        },
        {
            "type": "Feature",
            "properties": {
                "name": "barbye",
                "id": "18837",
                "brand": "Agip Eni",
                "amenity": "fuel",
                "operator": "BAR BYE DI CASTELLI MARILENA E C. S.N.C."
            },
            "geometry": {
                "type": "Point",
                "coordinates": [
                    10.471377521753311,
                    45.449785837894964
                ]
            }
        },
        {
            "type": "Feature",
            "properties": {
                "name": "DESENZANO DEL GARDA-VIA MANTOVA 7",
                "id": "11528",
                "brand": "Q8",
                "amenity": "fuel",
                "operator": "SERVIZI & GESTIONI ITALIA S.R.L."
            },
            "geometry": {
                "type": "Point",
                "coordinates": [
                    10.522928746032676,
                    45.456069896785536
                ]
            }
        },
        {
            "type": "Feature",
            "properties": {
                "name": "TOTALERG",
                "id": "11260",
                "brand": "Total Erg",
                "amenity": "fuel",
                "operator": "PISTONI LUCIA"
            },
            "geometry": {
                "type": "Point",
                "coordinates": [
                    10.484464898147621,
                    45.39427421328156
                ]
            }
        },
        {
            "type": "Feature",
            "properties": {
                "name": "TRAININI-TANFOGLIO E C. SNC",
                "id": "5057",
                "brand": "Agip Eni",
                "amenity": "fuel",
                "operator": "TRAININI - TANFOGLIO & C. S.N.C."
            },
            "geometry": {
                "type": "Point",
                "coordinates": [
                    10.373008847236633,
                    45.41576832548843
                ]
            }
        },
        {
            "type": "Feature",
            "properties": {
                "name": "Stazione di Servizio TOP FUEL",
                "id": "15536",
                "brand": "Agip Eni",
                "amenity": "fuel",
                "operator": "TOP FUEL DI NERVI NICOLA E C. S.N.C."
            },
            "geometry": {
                "type": "Point",
                "coordinates": [
                    10.501910448074343,
                    45.39923646731321
                ]
            }
        }
    ]
}