{
    "type": "FeatureCollection",
    "features": [
        {
            "type": "Feature",
            "properties": {
                "name": "A E G SNC",
                "id": "28149",
                "brand": "Esso",
                "amenity": "fuel",
                "operator": "A E G SNC DI AVIGO LUCA E GASPARINI LORETTA"
            },
            "geometry": {
                "type": "Point",
                "coordinates": [
                    10.551165585844387,
                    45.46499980594016
                ]
            }
        },
        {
            "type": "Feature",
            "properties": {
                "name": "ANTONINI CLAUDIO",
                "id": "30402",
                "brand": "Ies",
                "amenity": "fuel",
                "operator": "ANTONINI CLAUDIO"
            },
            "geometry": {
                "type": "Point",
                "coordinates": [
                    10.609264522790909,
                    45.488267723564334
                ]
            }
        },
        {
            "type": "Feature",
            "properties": {
                "name": "UGOLINI LAZISE",
                "id": "6266",
                "amenity": "fuel",
                "operator": "UGOLINI PETROLI S.R.L."
            },
            "geometry": {
                "type": "Point",
                "coordinates": [
                    10.716962793640164,
                    45.46061088205984
                ]
            }
        },
        {
            "type": "Feature",
            "properties": {
                "name": "totalerg",
                "id": "16741",
                "brand": "Total Erg",
                "amenity": "fuel",
                "operator": "VENTURI FILIPPO"
            },
            "geometry": {
                "type": "Point",
                "coordinates": [
                    10.712000908598384,
                    45.57720274228204
                ]
            }
        },
        {
            "type": "Feature",
            "properties": {
                "name": "agip impianto 01735",
                "id": "7978",
                "brand": "Agip Eni",
                "amenity": "fuel",
                "operator": "MARCOLINI BRUNO"
            },
            "geometry": {
                "type": "Point",
                "coordinates": [
                    10.62607929110527,
                    45.460770281704335
                ]
            }
        },
        {
            "type": "Feature",
            "properties": {
                "name": "DISTRIBUTORE RETITALIA",
                "id": "10640",
                "brand": "Api-Ip",
                "amenity": "fuel",
                "operator": "AUTORIPARAZIONI MATTIOTTI NICOLA"
            },
            "geometry": {
                "type": "Point",
                "coordinates": [
                    10.557961910963058,
                    45.54770888619097
                ]
            }
        },
        {
            "type": "Feature",
            "properties": {
                "name": "Esso",
                "id": "28256",
                "brand": "Esso",
                "amenity": "fuel",
                "operator": "GOTTARDI LUCA"
            },
            "geometry": {
                "type": "Point",
                "coordinates": [
                    10.709904259077803,
                    45.57446236092943
                ]
            }
        },
        {
            "type": "Feature",
            "properties": {
                "name": "SIRMIONE  - COLOMBARE D VIA BRESCIA N. 26",
                "id": "22097",
                "brand": "Q8",
                "amenity": "fuel",
                "operator": "SERVIZI & GESTIONI ITALIA S.R.L."
            },
            "geometry": {
                "type": "Point",
                "coordinates": [
                    10.605273219573974,
                    45.46513712459592
                ]
            }
        },
        {
            "type": "Feature",
            "properties": {
                "name": "DISTRIBUTORE IP DI BERTAZZI MAURILIO",
                "id": "19727",
                "brand": "Api-Ip",
                "amenity": "fuel",
                "operator": "DISTRIBUTORE IP DI BERTAZZI MAURILIO"
            },
            "geometry": {
                "type": "Point",
                "coordinates": [
                    10.549772456288338,
                    45.55787307057211
                ]
            }
        },
        {
            "type": "Feature",
            "properties": {
                "name": "Esso",
                "id": "26565",
                "brand": "Esso",
                "amenity": "fuel",
                "operator": "OCCHI CLAUS"
            },
            "geometry": {
                "type": "Point",
                "coordinates": [
                    10.59644490480423,
                    45.46350938006568
                ]
            }
        },
        {
            "type": "Feature",
            "properties": {
                "name": "TAROCCO CRISTIANO",
                "id": "26592",
                "brand": "Total Erg",
                "amenity": "fuel",
                "operator": "TAROCCO CRISTIANO"
            },
            "geometry": {
                "type": "Point",
                "coordinates": [
                    10.613116174936296,
                    45.464759990042154
                ]
            }
        },
        {
            "type": "Feature",
            "properties": {
                "name": "TOTAL ERG",
                "id": "28209",
                "brand": "Total Erg",
                "amenity": "fuel",
                "operator": "DISTRIBUZIONE CARBURANTI E SERVIZI DI SOLDA' MAURIZIO E C. S.N.C"
            },
            "geometry": {
                "type": "Point",
                "coordinates": [
                    10.557988651589994,
                    45.46177336219514
                ]
            }
        },
        {
            "type": "Feature",
            "properties": {
                "name": "UGOLINI BARDOLINO",
                "id": "6268",
                "amenity": "fuel",
                "operator": "UGOLINI PETROLI S.R.L."
            },
            "geometry": {
                "type": "Point",
                "coordinates": [
                    10.714818835258484,
                    45.561998247777424
                ]
            }
        }
    ]
}