{
    "type": "FeatureCollection",
    "features": [
        {
            "type": "Feature",
            "properties": {
                "name": "ENI ALTOPASCIO",
                "id": "7708",
                "brand": "Agip Eni",
                "amenity": "fuel",
                "operator": "FRATELLI CHECCHI - S.N.C."
            },
            "geometry": {
                "type": "Point",
                "coordinates": [
                    10.691741108894348,
                    43.80912761183143
                ]
            }
        },
        {
            "type": "Feature",
            "properties": {
                "name": "Stazione di servizio Esso \"PETROLSERVICE\"",
                "id": "9921",
                "brand": "Esso",
                "amenity": "fuel",
                "operator": "PETROL SERVICE DI SICILIANO OMAR & C. S.A.S."
            },
            "geometry": {
                "type": "Point",
                "coordinates": [
                    10.677492125794972,
                    43.81632772766909
                ]
            }
        },
        {
            "type": "Feature",
            "properties": {
                "name": "q8",
                "id": "10777",
                "brand": "Q8",
                "amenity": "fuel",
                "operator": "GUERRAZZI ROMEO"
            },
            "geometry": {
                "type": "Point",
                "coordinates": [
                    10.658626139881108,
                    43.70773213038106
                ]
            }
        },
        {
            "type": "Feature",
            "properties": {
                "name": "ALTOPASCIO",
                "id": "14936",
                "brand": "Tamoil",
                "amenity": "fuel",
                "operator": "OIL SERVICE S.R.L."
            },
            "geometry": {
                "type": "Point",
                "coordinates": [
                    10.645076036453249,
                    43.82833822036752
                ]
            }
        },
        {
            "type": "Feature",
            "properties": {
                "name": "CHIESINA UZZANESE",
                "id": "14658",
                "brand": "Api-Ip",
                "amenity": "fuel",
                "operator": "G.S.SERVICE S.R.L."
            },
            "geometry": {
                "type": "Point",
                "coordinates": [
                    10.719995498657227,
                    43.83386237073085
                ]
            }
        },
        {
            "type": "Feature",
            "properties": {
                "name": "Vannini & Del Grande snc",
                "id": "5033",
                "amenity": "fuel",
                "operator": "TORREGAS - S.R.L."
            },
            "geometry": {
                "type": "Point",
                "coordinates": [
                    10.694777369499207,
                    43.814290838001725
                ]
            }
        },
        {
            "type": "Feature",
            "properties": {
                "name": "FUCECCHIO ROMANA LUCCHESE 330-GALLENO",
                "id": "6583",
                "brand": "Q8",
                "amenity": "fuel",
                "operator": "SERVIZI & GESTIONI ITALIA srl"
            },
            "geometry": {
                "type": "Point",
                "coordinates": [
                    10.716819763183596,
                    43.776800274869736
                ]
            }
        },
        {
            "type": "Feature",
            "properties": {
                "name": "ALTOPASCIO VIA EUROPA IMP. Q8",
                "id": "6569",
                "brand": "Q8",
                "amenity": "fuel",
                "operator": "SERVIZI & GESTIONI ITALIA srl"
            },
            "geometry": {
                "type": "Point",
                "coordinates": [
                    10.674583155819732,
                    43.816039575300415
                ]
            }
        },
        {
            "type": "Feature",
            "properties": {
                "name": "VICOPISANO-VIA SARZANESE 28 - LOC. RISAIE",
                "id": "11766",
                "brand": "Q8",
                "amenity": "fuel",
                "operator": "SERVIZI & GESTIONI ITALIA S.R.L."
            },
            "geometry": {
                "type": "Point",
                "coordinates": [
                    10.617494881153108,
                    43.719927344272186
                ]
            }
        },
        {
            "type": "Feature",
            "properties": {
                "name": "CONAD ALTOPASCIO",
                "id": "30803",
                "brand": "CONAD",
                "amenity": "fuel",
                "operator": "LADIS S.R.L."
            },
            "geometry": {
                "type": "Point",
                "coordinates": [
                    10.68719656242672,
                    43.81900318263215
                ]
            }
        },
        {
            "type": "Feature",
            "properties": {
                "name": "Altopascio Oils",
                "id": "31174",
                "amenity": "fuel",
                "operator": "SANTACROCESE OILS S.R.L."
            },
            "geometry": {
                "type": "Point",
                "coordinates": [
                    10.68233996629715,
                    43.80918819667656
                ]
            }
        },
        {
            "type": "Feature",
            "properties": {
                "name": "API IP Gestione Cobel Srl (Spianate)",
                "id": "29425",
                "brand": "Api-Ip",
                "amenity": "fuel",
                "operator": "COBEL - COMMERCIO BENZINA LUBRIFICANTI - S.R.L. O COBEL - S.R.L."
            },
            "geometry": {
                "type": "Point",
                "coordinates": [
                    10.712145343422888,
                    43.81012192958554
                ]
            }
        },
        {
            "type": "Feature",
            "properties": {
                "name": "BIENTINA - MANETTI 8/10",
                "id": "31318",
                "brand": "Api-Ip",
                "amenity": "fuel",
                "operator": "IP SERVICES S.R.L."
            },
            "geometry": {
                "type": "Point",
                "coordinates": [
                    10.633849038028757,
                    43.74615737159374
                ]
            }
        },
        {
            "type": "Feature",
            "properties": {
                "name": "Stazione di servizio Battaglia Ilio",
                "id": "31938",
                "amenity": "fuel",
                "operator": "BATTAGLIA ILIO"
            },
            "geometry": {
                "type": "Point",
                "coordinates": [
                    10.619147171228066,
                    43.753845713551534
                ]
            }
        }
    ]
}