{
    "type": "FeatureCollection",
    "features": [
        {
            "type": "Feature",
            "properties": {
                "name": "P.M. Italcarburanti S.r.l.",
                "id": "18251",
                "amenity": "fuel",
                "operator": "P.M. ITALCARBURANTI S.R.L."
            },
            "geometry": {
                "type": "Point",
                "coordinates": [
                    10.895053558051586,
                    44.70261106586423
                ]
            }
        },
        {
            "type": "Feature",
            "properties": {
                "name": "TOTALERG DI F.LLI IBATICI",
                "id": "13590",
                "brand": "Total Erg",
                "amenity": "fuel",
                "operator": "F.LLI IBATICI DI IVANO E C. S.N.C."
            },
            "geometry": {
                "type": "Point",
                "coordinates": [
                    10.778301358222961,
                    44.60207035947007
                ]
            }
        },
        {
            "type": "Feature",
            "properties": {
                "name": "AGIP",
                "id": "9784",
                "brand": "Agip Eni",
                "amenity": "fuel",
                "operator": "LICCARDI LUIGI"
            },
            "geometry": {
                "type": "Point",
                "coordinates": [
                    10.84607273340225,
                    44.691208917235606
                ]
            }
        },
        {
            "type": "Feature",
            "properties": {
                "name": "PV 54385",
                "id": "25872",
                "brand": "Agip Eni",
                "amenity": "fuel",
                "operator": "GESTIONI INNOVATIVE ITALIA S.R.L."
            },
            "geometry": {
                "type": "Point",
                "coordinates": [
                    10.76583445072174,
                    44.591310682366085
                ]
            }
        },
        {
            "type": "Feature",
            "properties": {
                "name": "OIL DISCOUNT",
                "id": "10432",
                "amenity": "fuel",
                "operator": "ANGEL E PEC SNC DI ANGIOLINI FLORIANO E PICCININI SERGIO"
            },
            "geometry": {
                "type": "Point",
                "coordinates": [
                    10.875220969319344,
                    44.61339054533401
                ]
            }
        },
        {
            "type": "Feature",
            "properties": {
                "name": "CAMPOGALLIANO OVEST",
                "id": "3887",
                "brand": "Agip Eni",
                "amenity": "fuel",
                "operator": "VE.CA. PETROLI DI VENTURELLI CARLO & C. SOCIETA' IN ACCOMANDITA SEMPLICE"
            },
            "geometry": {
                "type": "Point",
                "coordinates": [
                    10.847896340846546,
                    44.70278984467375
                ]
            }
        },
        {
            "type": "Feature",
            "properties": {
                "name": "STAZIONE ESSO DEI FRATELLI BURANI",
                "id": "13663",
                "brand": "Esso",
                "amenity": "fuel",
                "operator": "BURANI F.LLI DI BURANI PAOLO & C. - S.A.S."
            },
            "geometry": {
                "type": "Point",
                "coordinates": [
                    10.775601044297218,
                    44.65416306900382
                ]
            }
        },
        {
            "type": "Feature",
            "properties": {
                "name": "PV 16408",
                "id": "25910",
                "brand": "Agip Eni",
                "amenity": "fuel",
                "operator": "GESTIONI INNOVATIVE ITALIA S.R.L."
            },
            "geometry": {
                "type": "Point",
                "coordinates": [
                    10.756478905677795,
                    44.6568432048034
                ]
            }
        },
        {
            "type": "Feature",
            "properties": {
                "name": "CONAD SUPERMERCATO",
                "id": "28789",
                "brand": "CONAD",
                "amenity": "fuel",
                "operator": "MODENA PIU' SRL"
            },
            "geometry": {
                "type": "Point",
                "coordinates": [
                    10.8674183662514,
                    44.604923524946756
                ]
            }
        },
        {
            "type": "Feature",
            "properties": {
                "name": "CAMPOGALLIANO EST",
                "id": "3894",
                "brand": "Agip Eni",
                "amenity": "fuel",
                "operator": "BALASSO CLAUDIO E C. S.N.C."
            },
            "geometry": {
                "type": "Point",
                "coordinates": [
                    10.849074125289915,
                    44.70421995079143
                ]
            }
        },
        {
            "type": "Feature",
            "properties": {
                "name": "Rubiera (RE)",
                "id": "24568",
                "brand": "Total Erg",
                "amenity": "fuel",
                "operator": "GESTIONI EUROPA - SOCIETA' PER AZIONI"
            },
            "geometry": {
                "type": "Point",
                "coordinates": [
                    10.787616670131683,
                    44.652382666851175
                ]
            }
        },
        {
            "type": "Feature",
            "properties": {
                "name": "PETACCHI EMANUEL",
                "id": "14482",
                "brand": "Euroself",
                "amenity": "fuel",
                "operator": "PETACCHI EMANUEL"
            },
            "geometry": {
                "type": "Point",
                "coordinates": [
                    10.743514448404312,
                    44.659062661221256
                ]
            }
        },
        {
            "type": "Feature",
            "properties": {
                "name": "Campioli & Mattioli",
                "id": "11985",
                "amenity": "fuel",
                "operator": "CAMPIOLI & MATTIOLI  S.A.S DI CAMPIOLI FRANCO E C."
            },
            "geometry": {
                "type": "Point",
                "coordinates": [
                    10.765401226042172,
                    44.601517720622674
                ]
            }
        },
        {
            "type": "Feature",
            "properties": {
                "name": "API",
                "id": "23051",
                "brand": "Api-Ip",
                "amenity": "fuel",
                "operator": "BORTOLINI FRANCA"
            },
            "geometry": {
                "type": "Point",
                "coordinates": [
                    10.895203091204166,
                    44.65865685787747
                ]
            }
        },
        {
            "type": "Feature",
            "properties": {
                "name": "SECCHIA EST",
                "id": "3612",
                "brand": "Q8",
                "amenity": "fuel",
                "operator": "LUPPI CARBURANTI SNC"
            },
            "geometry": {
                "type": "Point",
                "coordinates": [
                    10.856468809509122,
                    44.66303576136936
                ]
            }
        },
        {
            "type": "Feature",
            "properties": {
                "name": "MODENA - TANGENZIALE BARCHETTA SUD",
                "id": "7278",
                "brand": "Q8",
                "amenity": "fuel",
                "operator": "SERVIZI & GESTIONI ITALIA S.R.L."
            },
            "geometry": {
                "type": "Point",
                "coordinates": [
                    10.889363698425313,
                    44.66384595354037
                ]
            }
        },
        {
            "type": "Feature",
            "properties": {
                "name": "SHELL",
                "id": "12680",
                "brand": "Shell",
                "amenity": "fuel",
                "operator": "VP OIL S.R.L."
            },
            "geometry": {
                "type": "Point",
                "coordinates": [
                    10.857815275949067,
                    44.68830093719668
                ]
            }
        },
        {
            "type": "Feature",
            "properties": {
                "name": "Europam",
                "id": "30805",
                "amenity": "fuel",
                "operator": "BASILE FRANCESCO"
            },
            "geometry": {
                "type": "Point",
                "coordinates": [
                    10.898232743516472,
                    44.66777758514823
                ]
            }
        },
        {
            "type": "Feature",
            "properties": {
                "name": "IPERGAS",
                "id": "28079",
                "amenity": "fuel",
                "operator": "IPERGAS S.R.L."
            },
            "geometry": {
                "type": "Point",
                "coordinates": [
                    10.774905681610107,
                    44.59508107431676
                ]
            }
        },
        {
            "type": "Feature",
            "properties": {
                "name": "MODENA MO/SASSUOLO 1601 LOC BAGGIOVAR",
                "id": "6532",
                "brand": "Q8",
                "amenity": "fuel",
                "operator": "SERVIZI & GESTIONI ITALIA srl"
            },
            "geometry": {
                "type": "Point",
                "coordinates": [
                    10.853898582803367,
                    44.60631945732274
                ]
            }
        },
        {
            "type": "Feature",
            "properties": {
                "name": "16459",
                "id": "14640",
                "brand": "Euroself",
                "amenity": "fuel",
                "operator": "PF DI PAGANELLI E FERRARIO - SOCIETA' IN NOME COLLETTIVO"
            },
            "geometry": {
                "type": "Point",
                "coordinates": [
                    10.743487626314163,
                    44.65904606278215
                ]
            }
        },
        {
            "type": "Feature",
            "properties": {
                "name": "IES",
                "id": "8524",
                "brand": "Ies",
                "amenity": "fuel",
                "operator": "AREA SERVIZI ENERGIA FUTURA S.R.L. ABBREVIABILE IN: A.S.E.F. S.R.L."
            },
            "geometry": {
                "type": "Point",
                "coordinates": [
                    10.887437691262788,
                    44.64684804648975
                ]
            }
        },
        {
            "type": "Feature",
            "properties": {
                "name": "Coop Estense Modena",
                "id": "17247",
                "amenity": "fuel",
                "operator": "COOP ESTENSE SOCIETA' COOPERATIVA, ABBREVIABILE NELLA SIGLA COOP ESTENSE ."
            },
            "geometry": {
                "type": "Point",
                "coordinates": [
                    10.85144622041321,
                    44.650356108535696
                ]
            }
        },
        {
            "type": "Feature",
            "properties": {
                "name": "SELF AREA ENI 06359",
                "id": "12983",
                "brand": "Agip Eni",
                "amenity": "fuel",
                "operator": "GESTORE POMPA AGIP RACO BRUNO"
            },
            "geometry": {
                "type": "Point",
                "coordinates": [
                    10.894027948379517,
                    44.68071950645648
                ]
            }
        },
        {
            "type": "Feature",
            "properties": {
                "name": "stazione di servizio esso di colicchio giuseppe",
                "id": "22955",
                "brand": "Esso",
                "amenity": "fuel",
                "operator": "COLICCHIO GIUSEPPE"
            },
            "geometry": {
                "type": "Point",
                "coordinates": [
                    10.894117201991321,
                    44.658576345604146
                ]
            }
        },
        {
            "type": "Feature",
            "properties": {
                "name": "Eni Carlo e Ilaria",
                "id": "23625",
                "brand": "Agip Eni",
                "amenity": "fuel",
                "operator": "B & B DI BUFFAGNI CARLO E C. S.N.C."
            },
            "geometry": {
                "type": "Point",
                "coordinates": [
                    10.853449425025019,
                    44.606720559548435
                ]
            }
        },
        {
            "type": "Feature",
            "properties": {
                "name": "16448 RUBIERA",
                "id": "5460",
                "brand": "Agip Eni",
                "amenity": "fuel",
                "operator": "enirete oil&nonoil S.p.A."
            },
            "geometry": {
                "type": "Point",
                "coordinates": [
                    10.783486404104451,
                    44.6420575089567
                ]
            }
        },
        {
            "type": "Feature",
            "properties": {
                "name": "SECCHIA OVEST",
                "id": "3553",
                "brand": "Esso",
                "amenity": "fuel",
                "operator": "Nuova Sidap SRL"
            },
            "geometry": {
                "type": "Point",
                "coordinates": [
                    10.8555,
                    44.66210000000001
                ]
            }
        },
        {
            "type": "Feature",
            "properties": {
                "name": "ENI Di Lillo Giuseppe",
                "id": "10967",
                "brand": "Agip Eni",
                "amenity": "fuel",
                "operator": "DI LILLO GIUSEPPE"
            },
            "geometry": {
                "type": "Point",
                "coordinates": [
                    10.88869035243988,
                    44.66445001756756
                ]
            }
        },
        {
            "type": "Feature",
            "properties": {
                "name": "Eni Magreta",
                "id": "14716",
                "brand": "Agip Eni",
                "amenity": "fuel",
                "operator": "B & B DI BUFFAGNI CARLO E C. S.N.C."
            },
            "geometry": {
                "type": "Point",
                "coordinates": [
                    10.80863805968852,
                    44.598008913995265
                ]
            }
        },
        {
            "type": "Feature",
            "properties": {
                "name": "Staz.Servizio ESSO",
                "id": "16719",
                "brand": "Esso",
                "amenity": "fuel",
                "operator": "I.E.S. PELLONI GIAN LUCA"
            },
            "geometry": {
                "type": "Point",
                "coordinates": [
                    10.880812704563139,
                    44.680949508177356
                ]
            }
        },
        {
            "type": "Feature",
            "properties": {
                "name": "LV",
                "id": "14567",
                "amenity": "fuel",
                "operator": "PIFFERI & APICELLA S.N.C. DI PIFFERI LUCA & C."
            },
            "geometry": {
                "type": "Point",
                "coordinates": [
                    10.881670485705627,
                    44.65682421667658
                ]
            }
        }
    ]
}