{
    "type": "FeatureCollection",
    "features": [
        {
            "type": "Feature",
            "properties": {
                "name": "f.lli carli andrea e claudio",
                "id": "6209",
                "brand": "Api-Ip",
                "amenity": "fuel",
                "operator": "F.LLI CARLI ANDREA E CLAUDIO S.N.C."
            },
            "geometry": {
                "type": "Point",
                "coordinates": [
                    10.769160801049793,
                    42.91488702341872
                ]
            }
        },
        {
            "type": "Feature",
            "properties": {
                "name": "FOLLONICA - SP 152 KM 46 VIA AURELIA NORD",
                "id": "31855",
                "brand": "Q8",
                "amenity": "fuel",
                "operator": "SERVIZI & GESTIONI ITALIA S.R.L."
            },
            "geometry": {
                "type": "Point",
                "coordinates": [
                    10.730392076075077,
                    42.93742614428065
                ]
            }
        },
        {
            "type": "Feature",
            "properties": {
                "name": "Q8",
                "id": "9017",
                "brand": "Q8",
                "amenity": "fuel",
                "operator": "D'AGOSTINO RINA"
            },
            "geometry": {
                "type": "Point",
                "coordinates": [
                    10.784947872161865,
                    42.93731529669603
                ]
            }
        },
        {
            "type": "Feature",
            "properties": {
                "name": "PV ENERPETROLI",
                "id": "11131",
                "brand": "Enerpetroli",
                "amenity": "fuel",
                "operator": "ENERPETROLI S.R.L."
            },
            "geometry": {
                "type": "Point",
                "coordinates": [
                    10.753251694527764,
                    42.92796166424805
                ]
            }
        },
        {
            "type": "Feature",
            "properties": {
                "name": "Distributore di Follonica",
                "id": "10222",
                "amenity": "fuel",
                "operator": "TIRRENO GAS DI TAVOLIERI ARNALDO E C. S.N.C."
            },
            "geometry": {
                "type": "Point",
                "coordinates": [
                    10.781149574471556,
                    42.93945991506522
                ]
            }
        },
        {
            "type": "Feature",
            "properties": {
                "name": "esso",
                "id": "25242",
                "brand": "Esso",
                "amenity": "fuel",
                "operator": "MARCONI E BARGAGLI S.N.C."
            },
            "geometry": {
                "type": "Point",
                "coordinates": [
                    10.887863612233787,
                    42.93840893267775
                ]
            }
        },
        {
            "type": "Feature",
            "properties": {
                "name": "ENI",
                "id": "13142",
                "brand": "Agip Eni",
                "amenity": "fuel",
                "operator": "CERBONI & FERRETTI S.N.C."
            },
            "geometry": {
                "type": "Point",
                "coordinates": [
                    10.775254368782043,
                    42.93537675719787
                ]
            }
        },
        {
            "type": "Feature",
            "properties": {
                "name": "cardini e lazzerini snc",
                "id": "21576",
                "brand": "Agip Eni",
                "amenity": "fuel",
                "operator": "CARDINI E LAZZERINI SNC DI CARDINI EDO E LAZZERINI MANOLA"
            },
            "geometry": {
                "type": "Point",
                "coordinates": [
                    10.778027772903442,
                    42.936195224194975
                ]
            }
        },
        {
            "type": "Feature",
            "properties": {
                "name": "ESSO DI IMPARATO SALVATORE",
                "id": "15613",
                "brand": "Esso",
                "amenity": "fuel",
                "operator": "IMPARATO SALVATORE S.A.S."
            },
            "geometry": {
                "type": "Point",
                "coordinates": [
                    10.806766301393509,
                    42.940209639380505
                ]
            }
        },
        {
            "type": "Feature",
            "properties": {
                "name": "DISTRIBUTORE ESSO DI SCOZIO GIUSEPPE",
                "id": "16317",
                "brand": "Esso",
                "amenity": "fuel",
                "operator": "DISTRIBUTORE ESSO DI SCOZIO GIUSEPPE"
            },
            "geometry": {
                "type": "Point",
                "coordinates": [
                    10.756133973336546,
                    42.92594062610336
                ]
            }
        },
        {
            "type": "Feature",
            "properties": {
                "name": "Q8",
                "id": "28597",
                "brand": "Q8",
                "amenity": "fuel",
                "operator": "BUTELLI GIORGIO"
            },
            "geometry": {
                "type": "Point",
                "coordinates": [
                    10.784830439736766,
                    42.89822119593287
                ]
            }
        },
        {
            "type": "Feature",
            "properties": {
                "name": "PV ENERPETROLI",
                "id": "11130",
                "brand": "Enerpetroli",
                "amenity": "fuel",
                "operator": "ENERPETROLI S.R.L."
            },
            "geometry": {
                "type": "Point",
                "coordinates": [
                    10.753037631511688,
                    42.925962033726556
                ]
            }
        }
    ]
}