{
    "type": "FeatureCollection",
    "features": [
        {
            "type": "Feature",
            "properties": {
                "name": "PAVULLO NEL FRIGNANO LARGO GHIBELLINI,3",
                "id": "24919",
                "brand": "Q8",
                "amenity": "fuel",
                "operator": "SERVIZI & GESTIONI ITALIA S.R.L."
            },
            "geometry": {
                "type": "Point",
                "coordinates": [
                    10.832701921463014,
                    44.335634238749456
                ]
            }
        },
        {
            "type": "Feature",
            "properties": {
                "name": "ALLORI GILBERTO",
                "id": "11115",
                "brand": "Api-Ip",
                "amenity": "fuel",
                "operator": "ALLORI GILBERTO"
            },
            "geometry": {
                "type": "Point",
                "coordinates": [
                    10.767889155768215,
                    44.23000009462963
                ]
            }
        },
        {
            "type": "Feature",
            "properties": {
                "name": "BERTELLI-MONTECRETO",
                "id": "11373",
                "brand": "Bertelli Carburanti",
                "amenity": "fuel",
                "operator": "BERTELLI WALTER E ROLANDO  - CARBURANTI - S.P.A."
            },
            "geometry": {
                "type": "Point",
                "coordinates": [
                    10.72772830724716,
                    44.24722589505794
                ]
            }
        },
        {
            "type": "Feature",
            "properties": {
                "name": "NARDI DINO Q8",
                "id": "15571",
                "brand": "Q8",
                "amenity": "fuel",
                "operator": "NARDI DINO S.R.L."
            },
            "geometry": {
                "type": "Point",
                "coordinates": [
                    10.810530704833129,
                    44.220183795823715
                ]
            }
        },
        {
            "type": "Feature",
            "properties": {
                "name": "ESSO PAVULLO",
                "id": "24040",
                "brand": "Esso",
                "amenity": "fuel",
                "operator": "LARDI GIANLUCA & C. S.N.C."
            },
            "geometry": {
                "type": "Point",
                "coordinates": [
                    10.832503493184731,
                    44.33442673771295
                ]
            }
        },
        {
            "type": "Feature",
            "properties": {
                "name": "FRATELLI GORZANELLI SNC",
                "id": "9637",
                "brand": "Agip Eni",
                "amenity": "fuel",
                "operator": "FRATELLI GORZANELLI  SNC"
            },
            "geometry": {
                "type": "Point",
                "coordinates": [
                    10.835938677191734,
                    44.32982193962564
                ]
            }
        },
        {
            "type": "Feature",
            "properties": {
                "name": "DISTRIBUTORE IP",
                "id": "10375",
                "brand": "Api-Ip",
                "amenity": "fuel",
                "operator": "BAZZANI S.N.C. DI BAZZANI MAURIZIO & C."
            },
            "geometry": {
                "type": "Point",
                "coordinates": [
                    10.732681271163983,
                    44.30749249886214
                ]
            }
        },
        {
            "type": "Feature",
            "properties": {
                "name": "CONAD SUPERMERCATO",
                "id": "22302",
                "brand": "CONAD",
                "amenity": "fuel",
                "operator": "FRI.AL. SRL"
            },
            "geometry": {
                "type": "Point",
                "coordinates": [
                    10.838018059730528,
                    44.32361589024624
                ]
            }
        },
        {
            "type": "Feature",
            "properties": {
                "name": "capitani auto snc",
                "id": "10718",
                "brand": "Api-Ip",
                "amenity": "fuel",
                "operator": "CAPITANI AUTO SNC DI CAPITANI STEFANO E C."
            },
            "geometry": {
                "type": "Point",
                "coordinates": [
                    10.76900415122509,
                    44.23052400547663
                ]
            }
        },
        {
            "type": "Feature",
            "properties": {
                "name": "FRATELLI GORZANELLI SNC",
                "id": "9636",
                "brand": "Agip Eni",
                "amenity": "fuel",
                "operator": "FRATELLI GORZANELLI  SNC"
            },
            "geometry": {
                "type": "Point",
                "coordinates": [
                    10.835938677191734,
                    44.32982193962564
                ]
            }
        }
    ]
}