{
    "type": "FeatureCollection",
    "features": [
        {
            "type": "Feature",
            "properties": {
                "name": "SAN MINIATO - STRADA G.C. FI-PI-LI",
                "id": "31983",
                "brand": "Api-Ip",
                "amenity": "fuel",
                "operator": "IP SERVICES S.R.L."
            },
            "geometry": {
                "type": "Point",
                "coordinates": [
                    10.865397317791007,
                    43.70416218923162
                ]
            }
        },
        {
            "type": "Feature",
            "properties": {
                "name": "STAZIONE SERVIZIO ESSO DI SAURO VALORI",
                "id": "25538",
                "brand": "Esso",
                "amenity": "fuel",
                "operator": "STAZIONE SERVIZIO ESSO DI SAURO VALORI"
            },
            "geometry": {
                "type": "Point",
                "coordinates": [
                    10.765759390213018,
                    43.68775494182057
                ]
            }
        },
        {
            "type": "Feature",
            "properties": {
                "name": "eni di alessio schiavi",
                "id": "22558",
                "brand": "Agip Eni",
                "amenity": "fuel",
                "operator": "SCHIAVI ALESSIO"
            },
            "geometry": {
                "type": "Point",
                "coordinates": [
                    10.726477056741713,
                    43.69752509666056
                ]
            }
        },
        {
            "type": "Feature",
            "properties": {
                "name": "SAN MINIATO",
                "id": "24209",
                "brand": "Agip Eni",
                "amenity": "fuel",
                "operator": "TIBER OIL S.R.L."
            },
            "geometry": {
                "type": "Point",
                "coordinates": [
                    10.843633934855461,
                    43.696077056844004
                ]
            }
        },
        {
            "type": "Feature",
            "properties": {
                "name": "PISTOLESI & CIARDI DI PISTOLESI PAOLO E C. S.N.C.",
                "id": "4097",
                "brand": "Agip Eni",
                "amenity": "fuel",
                "operator": "PISTOLESI & CIARDI DI PISTOLESI PAOLO E C. S.N.C."
            },
            "geometry": {
                "type": "Point",
                "coordinates": [
                    10.752820372581482,
                    43.70088142037742
                ]
            }
        },
        {
            "type": "Feature",
            "properties": {
                "name": "SAN MINIATO",
                "id": "21742",
                "brand": "Total Erg",
                "amenity": "fuel",
                "operator": "GESTIONI EUROPA - SOCIETA' PER AZIONI"
            },
            "geometry": {
                "type": "Point",
                "coordinates": [
                    10.8484947681427,
                    43.69292080230581
                ]
            }
        },
        {
            "type": "Feature",
            "properties": {
                "name": "arzilli - 4 petroli",
                "id": "26312",
                "amenity": "fuel",
                "operator": "ARZILLI DI ARZILLI PIERO & C. S.A.S."
            },
            "geometry": {
                "type": "Point",
                "coordinates": [
                    10.833499830688424,
                    43.6433468886608
                ]
            }
        },
        {
            "type": "Feature",
            "properties": {
                "name": "SUVALGROUP SAS",
                "id": "4233",
                "brand": "Agip Eni",
                "amenity": "fuel",
                "operator": "SUVALGROUP S.A.S. DI VALERIANO VANNI & C."
            },
            "geometry": {
                "type": "Point",
                "coordinates": [
                    10.805627159906637,
                    43.68804719254371
                ]
            }
        },
        {
            "type": "Feature",
            "properties": {
                "name": "TotalErg",
                "id": "25534",
                "brand": "Total Erg",
                "amenity": "fuel",
                "operator": "SALINI PAOLO"
            },
            "geometry": {
                "type": "Point",
                "coordinates": [
                    10.74676092453683,
                    43.67404703993024
                ]
            }
        },
        {
            "type": "Feature",
            "properties": {
                "name": "FALCHI ALESSANDRO",
                "id": "25751",
                "amenity": "fuel",
                "operator": "FALCHI ALESSANDRO"
            },
            "geometry": {
                "type": "Point",
                "coordinates": [
                    10.773365497589111,
                    43.604997790343155
                ]
            }
        },
        {
            "type": "Feature",
            "properties": {
                "name": "suvalgroup sas",
                "id": "4232",
                "brand": "Agip Eni",
                "amenity": "fuel",
                "operator": "SUVALGROUP S.A.S. DI VALERIANO VANNI & C."
            },
            "geometry": {
                "type": "Point",
                "coordinates": [
                    10.797019277345271,
                    43.68689887824807
                ]
            }
        },
        {
            "type": "Feature",
            "properties": {
                "name": "SAN MINIATO-ST. GRANDE COM. FI/PI/LI KM.33+034",
                "id": "11769",
                "brand": "Q8",
                "amenity": "fuel",
                "operator": "SERVIZI & GESTIONI ITALIA S.R.L."
            },
            "geometry": {
                "type": "Point",
                "coordinates": [
                    10.851077735424042,
                    43.702831174279886
                ]
            }
        },
        {
            "type": "Feature",
            "properties": {
                "name": "tatolerg",
                "id": "25542",
                "brand": "Total Erg",
                "amenity": "fuel",
                "operator": "BONISTALLI VANDO & C. S.N.C."
            },
            "geometry": {
                "type": "Point",
                "coordinates": [
                    10.75954869389534,
                    43.689979469568364
                ]
            }
        },
        {
            "type": "Feature",
            "properties": {
                "name": "ip",
                "id": "14954",
                "brand": "Api-Ip",
                "amenity": "fuel",
                "operator": "MELAI MAURIZIO"
            },
            "geometry": {
                "type": "Point",
                "coordinates": [
                    10.836415853372955,
                    43.692112302980355
                ]
            }
        },
        {
            "type": "Feature",
            "properties": {
                "name": "Q8",
                "id": "28309",
                "brand": "Q8",
                "amenity": "fuel",
                "operator": "PIELLE S.N.C. DI PAOLO BERTINI & C."
            },
            "geometry": {
                "type": "Point",
                "coordinates": [
                    10.880730897188187,
                    43.69156050718827
                ]
            }
        },
        {
            "type": "Feature",
            "properties": {
                "name": "santacrocese oils",
                "id": "26461",
                "amenity": "fuel",
                "operator": "SANTACROCESE OILS S.R.L."
            },
            "geometry": {
                "type": "Point",
                "coordinates": [
                    10.766004770994186,
                    43.703774906110105
                ]
            }
        },
        {
            "type": "Feature",
            "properties": {
                "name": "Eni Lepori snc - San Donato - San Miniato",
                "id": "11158",
                "brand": "Agip Eni",
                "amenity": "fuel",
                "operator": "LEPORI S.N.C. DI LEPORI ROBERTO & C."
            },
            "geometry": {
                "type": "Point",
                "coordinates": [
                    10.78592821955681,
                    43.702546519923615
                ]
            }
        },
        {
            "type": "Feature",
            "properties": {
                "name": "metano toscana srl",
                "id": "13546",
                "amenity": "fuel",
                "operator": "METANO TOSCANA S.R.L."
            },
            "geometry": {
                "type": "Point",
                "coordinates": [
                    10.788169407409669,
                    43.699264189820056
                ]
            }
        },
        {
            "type": "Feature",
            "properties": {
                "name": "SANTA CROCE SULL'ARNO",
                "id": "23925",
                "amenity": "fuel",
                "operator": "CO. E CI. TRANS OIL SRL"
            },
            "geometry": {
                "type": "Point",
                "coordinates": [
                    10.76882779598236,
                    43.706324672200715
                ]
            }
        },
        {
            "type": "Feature",
            "properties": {
                "name": "FABBRI E ZUCCHELLI",
                "id": "7074",
                "brand": "Total Erg",
                "amenity": "fuel",
                "operator": "ZUCCHELLI E FABBRI S.N.C. DI FABBRI LUCA & C."
            },
            "geometry": {
                "type": "Point",
                "coordinates": [
                    10.739494646388266,
                    43.69901205071146
                ]
            }
        },
        {
            "type": "Feature",
            "properties": {
                "name": "San Miniato",
                "id": "6860",
                "brand": "Api-Ip",
                "amenity": "fuel",
                "operator": "AUTOGRILL S.P.A."
            },
            "geometry": {
                "type": "Point",
                "coordinates": [
                    10.865414142608644,
                    43.70415766878676
                ]
            }
        },
        {
            "type": "Feature",
            "properties": {
                "name": "metano toscana srl - via vald'elsa",
                "id": "22367",
                "amenity": "fuel",
                "operator": "METANO TOSCANA S.R.L."
            },
            "geometry": {
                "type": "Point",
                "coordinates": [
                    10.894709229469301,
                    43.70100164572717
                ]
            }
        }
    ]
}