{
    "type": "FeatureCollection",
    "features": [
        {
            "type": "Feature",
            "properties": {
                "name": "DB fuel - La Grande Mela",
                "id": "8175",
                "amenity": "fuel",
                "operator": "DALLA BERNARDINA F.LLI S.R.L."
            },
            "geometry": {
                "type": "Point",
                "coordinates": [
                    10.862396657466887,
                    45.44054123233952
                ]
            }
        },
        {
            "type": "Feature",
            "properties": {
                "name": "GIO' CARBURANTI",
                "id": "20668",
                "brand": "Q8",
                "amenity": "fuel",
                "operator": "GIO' CARBURANTI DI D'ONOFRIO GIOVANNI"
            },
            "geometry": {
                "type": "Point",
                "coordinates": [
                    10.897162109613419,
                    45.3860710938364
                ]
            }
        },
        {
            "type": "Feature",
            "properties": {
                "name": "METANAUTO CASTELNUOVO SRL",
                "id": "26986",
                "amenity": "fuel",
                "operator": "METANAUTO CASTELNUOVO S.R.L."
            },
            "geometry": {
                "type": "Point",
                "coordinates": [
                    10.781639972431549,
                    45.44279742508855
                ]
            }
        },
        {
            "type": "Feature",
            "properties": {
                "name": "Q8 Easy - Sommacampagna",
                "id": "8173",
                "brand": "Q8",
                "amenity": "fuel",
                "operator": "DALLA BERNARDINA F.LLI S.R.L."
            },
            "geometry": {
                "type": "Point",
                "coordinates": [
                    10.854109972715378,
                    45.409867241720754
                ]
            }
        },
        {
            "type": "Feature",
            "properties": {
                "name": "B-PETROL",
                "id": "28810",
                "amenity": "fuel",
                "operator": "B PETROL SRL"
            },
            "geometry": {
                "type": "Point",
                "coordinates": [
                    10.845630168914795,
                    45.373530850281405
                ]
            }
        },
        {
            "type": "Feature",
            "properties": {
                "name": "LORO F.LLI SPA",
                "id": "29405",
                "brand": "Loro",
                "amenity": "fuel",
                "operator": "LORO F.LLI-S.P.A."
            },
            "geometry": {
                "type": "Point",
                "coordinates": [
                    10.735327071792995,
                    45.36046759564946
                ]
            }
        },
        {
            "type": "Feature",
            "properties": {
                "name": "ls autoservizi di leso franco & c. snc",
                "id": "14218",
                "brand": "Tamoil",
                "amenity": "fuel",
                "operator": "LS AUTOSERVIZI DI LESO FRANCO E C. SNC"
            },
            "geometry": {
                "type": "Point",
                "coordinates": [
                    10.828651785850525,
                    45.3437409137753
                ]
            }
        },
        {
            "type": "Feature",
            "properties": {
                "name": "Stazione di Servizio Auchan",
                "id": "4325",
                "brand": "Auchan",
                "amenity": "fuel",
                "operator": "AUCHAN S.P.A."
            },
            "geometry": {
                "type": "Point",
                "coordinates": [
                    10.878750085830687,
                    45.44680708981489
                ]
            }
        },
        {
            "type": "Feature",
            "properties": {
                "name": "Area di Servizio Ies",
                "id": "27619",
                "brand": "Ies",
                "amenity": "fuel",
                "operator": "MAILLI FABRIZIO"
            },
            "geometry": {
                "type": "Point",
                "coordinates": [
                    10.864558517932892,
                    45.34863089986383
                ]
            }
        },
        {
            "type": "Feature",
            "properties": {
                "name": "STAZIONE DI SERVIZIO TAMOIL",
                "id": "18230",
                "brand": "Tamoil",
                "amenity": "fuel",
                "operator": "ELLEMME S.N.C. DI AMBROSI ALESSANDRO E FASOLI LUCA"
            },
            "geometry": {
                "type": "Point",
                "coordinates": [
                    10.84703028202057,
                    45.39636739832731
                ]
            }
        },
        {
            "type": "Feature",
            "properties": {
                "name": "c.g.r. sas di cordioli patrizio e c.",
                "id": "16394",
                "brand": "Shell",
                "amenity": "fuel",
                "operator": "C.G.R. S.A.S. DI CORDIOLI PATRIZIO & C."
            },
            "geometry": {
                "type": "Point",
                "coordinates": [
                    10.846367776393892,
                    45.36492654663742
                ]
            }
        },
        {
            "type": "Feature",
            "properties": {
                "name": "Stazione ESSO",
                "id": "29465",
                "brand": "Esso",
                "amenity": "fuel",
                "operator": "MASEL DI MARA GROSSETTI"
            },
            "geometry": {
                "type": "Point",
                "coordinates": [
                    10.735161293917827,
                    45.35707810529044
                ]
            }
        },
        {
            "type": "Feature",
            "properties": {
                "name": "ENI PASQUALI CARBURANTI",
                "id": "25756",
                "brand": "Agip Eni",
                "amenity": "fuel",
                "operator": "PASQUALI CARBURANTI S.A.S. DI PASQUALI ANDREA & C."
            },
            "geometry": {
                "type": "Point",
                "coordinates": [
                    10.752570927143099,
                    45.356875432565985
                ]
            }
        },
        {
            "type": "Feature",
            "properties": {
                "name": "Stazione Eni GSM sas unit√† locale 3",
                "id": "25832",
                "brand": "Agip Eni",
                "amenity": "fuel",
                "operator": "G.S.M. S.A.S. DI RINALDI MASSIMO E C."
            },
            "geometry": {
                "type": "Point",
                "coordinates": [
                    10.870175063610077,
                    45.36936547706787
                ]
            }
        },
        {
            "type": "Feature",
            "properties": {
                "name": "GIGI GOMME SAS",
                "id": "10395",
                "brand": "Q8",
                "amenity": "fuel",
                "operator": "GIGI GOMME DI CASTIONI ADELINO & C. S.A.S."
            },
            "geometry": {
                "type": "Point",
                "coordinates": [
                    10.892556855225394,
                    45.43349855512815
                ]
            }
        },
        {
            "type": "Feature",
            "properties": {
                "name": "BROGNARA GIANNI E C.",
                "id": "5089",
                "brand": "Total Erg",
                "amenity": "fuel",
                "operator": "BROGNARA GIANNI E C. S.N.C."
            },
            "geometry": {
                "type": "Point",
                "coordinates": [
                    10.85717040740974,
                    45.36141323031398
                ]
            }
        },
        {
            "type": "Feature",
            "properties": {
                "name": "BIANCA",
                "id": "31121",
                "amenity": "fuel",
                "operator": "OASI BLU S.N.C. DI GIRARDI ALBERTO E C."
            },
            "geometry": {
                "type": "Point",
                "coordinates": [
                    10.879537542672324,
                    45.409316549441776
                ]
            }
        },
        {
            "type": "Feature",
            "properties": {
                "name": "Metano Villafranca S.r.l.",
                "id": "5381",
                "amenity": "fuel",
                "operator": "METANO VILLAFRANCA S.R.L."
            },
            "geometry": {
                "type": "Point",
                "coordinates": [
                    10.834633782505989,
                    45.33886973585935
                ]
            }
        },
        {
            "type": "Feature",
            "properties": {
                "name": "Eni Sona",
                "id": "24858",
                "brand": "Agip Eni",
                "amenity": "fuel",
                "operator": "BERTASI ALFEO DI BERTASI ALFEO E FIGLI S.N.C."
            },
            "geometry": {
                "type": "Point",
                "coordinates": [
                    10.850564545660404,
                    45.4398463202775
                ]
            }
        },
        {
            "type": "Feature",
            "properties": {
                "name": "B&G PETROL S.A.S.",
                "id": "16803",
                "brand": "Agip Eni",
                "amenity": "fuel",
                "operator": "B&G PETROL S.A.S. DI BORGO LUIGINA E C."
            },
            "geometry": {
                "type": "Point",
                "coordinates": [
                    10.739013007237643,
                    45.43743262998258
                ]
            }
        },
        {
            "type": "Feature",
            "properties": {
                "name": "UGOLINI BUSSOLENGO",
                "id": "6259",
                "amenity": "fuel",
                "operator": "UGOLINI PETROLI S.R.L."
            },
            "geometry": {
                "type": "Point",
                "coordinates": [
                    10.874243974685669,
                    45.45825907380888
                ]
            }
        },
        {
            "type": "Feature",
            "properties": {
                "name": "SONA-VIA BOSCO 22 SS. 11",
                "id": "11955",
                "brand": "Q8",
                "amenity": "fuel",
                "operator": "SERVIZI & GESTIONI ITALIA S.R.L."
            },
            "geometry": {
                "type": "Point",
                "coordinates": [
                    10.819711277789906,
                    45.44337989647568
                ]
            }
        },
        {
            "type": "Feature",
            "properties": {
                "name": "ENI di Pasquetto Lucio",
                "id": "13253",
                "brand": "Agip Eni",
                "amenity": "fuel",
                "operator": "PASQUETTO LUCIO MARIA"
            },
            "geometry": {
                "type": "Point",
                "coordinates": [
                    10.86099587380886,
                    45.36409133449156
                ]
            }
        },
        {
            "type": "Feature",
            "properties": {
                "name": "WALD SRL",
                "id": "17984",
                "brand": "Esso",
                "amenity": "fuel",
                "operator": "WALD S.R.L."
            },
            "geometry": {
                "type": "Point",
                "coordinates": [
                    10.895788818597792,
                    45.44627643084883
                ]
            }
        },
        {
            "type": "Feature",
            "properties": {
                "name": "CARBURANTI ALBERTINI",
                "id": "12260",
                "brand": "San Marco Petroli",
                "amenity": "fuel",
                "operator": "CARBURANTI ALBERTINI DI ALBERTINI CAROLINA"
            },
            "geometry": {
                "type": "Point",
                "coordinates": [
                    10.79820816457675,
                    45.36151936875468
                ]
            }
        },
        {
            "type": "Feature",
            "properties": {
                "name": "Eni di Bernabeni Enrico",
                "id": "5993",
                "brand": "Agip Eni",
                "amenity": "fuel",
                "operator": "BERNABENI ENRICO"
            },
            "geometry": {
                "type": "Point",
                "coordinates": [
                    10.83679304841007,
                    45.341447184712415
                ]
            }
        },
        {
            "type": "Feature",
            "properties": {
                "name": "OASI BLU",
                "id": "6160",
                "brand": "Tamoil",
                "amenity": "fuel",
                "operator": "OASI BLU S.N.C. DI GIRARDI ALBERTO E C."
            },
            "geometry": {
                "type": "Point",
                "coordinates": [
                    10.87971211209492,
                    45.40942027520021
                ]
            }
        },
        {
            "type": "Feature",
            "properties": {
                "name": "MONTE BALDO EST",
                "id": "3540",
                "brand": "Agip Eni",
                "amenity": "fuel",
                "operator": "SAC SNC DI CORDIOLI ANDREA E C."
            },
            "geometry": {
                "type": "Point",
                "coordinates": [
                    10.871078968048097,
                    45.41365503625474
                ]
            }
        },
        {
            "type": "Feature",
            "properties": {
                "name": "NOALOIL PV9",
                "id": "29346",
                "brand": "Noaloil",
                "amenity": "fuel",
                "operator": "NOALOIL S.P.A."
            },
            "geometry": {
                "type": "Point",
                "coordinates": [
                    10.861063599586487,
                    45.44645745763767
                ]
            }
        },
        {
            "type": "Feature",
            "properties": {
                "name": "DISTRIBUTORE ENI DI BIASI ANDREA",
                "id": "26349",
                "brand": "Agip Eni",
                "amenity": "fuel",
                "operator": "BIASI ANDREA"
            },
            "geometry": {
                "type": "Point",
                "coordinates": [
                    10.756084620952606,
                    45.43797153270068
                ]
            }
        },
        {
            "type": "Feature",
            "properties": {
                "name": "LS AUTOSERVIZI DI LESO FRANCO & C SNC",
                "id": "22760",
                "amenity": "fuel",
                "operator": "LS AUTOSERVIZI DI LESO FRANCO E C. SNC"
            },
            "geometry": {
                "type": "Point",
                "coordinates": [
                    10.828415751457214,
                    45.34353731228573
                ]
            }
        },
        {
            "type": "Feature",
            "properties": {
                "name": "Metanauto Bassone srl",
                "id": "27008",
                "amenity": "fuel",
                "operator": "METANAUTO BASSONE SRL"
            },
            "geometry": {
                "type": "Point",
                "coordinates": [
                    10.896366834640503,
                    45.44792258631651
                ]
            }
        },
        {
            "type": "Feature",
            "properties": {
                "name": "Sia Fuel Sommacampagna",
                "id": "28973",
                "brand": "Sia fuel",
                "amenity": "fuel",
                "operator": "S.I.A. ENGINEERING CONSTRUCTION S.R.L."
            },
            "geometry": {
                "type": "Point",
                "coordinates": [
                    10.849412083625795,
                    45.40928812448615
                ]
            }
        },
        {
            "type": "Feature",
            "properties": {
                "name": "Metano Dossobuono di Villafranca V.se",
                "id": "15358",
                "amenity": "fuel",
                "operator": "D'O.CA. S.R.L."
            },
            "geometry": {
                "type": "Point",
                "coordinates": [
                    10.897458493709562,
                    45.38578438059193
                ]
            }
        }
    ]
}