{
    "type": "FeatureCollection",
    "features": [
        {
            "type": "Feature",
            "properties": {
                "name": "UNIONE GAS AUTO",
                "id": "5651",
                "amenity": "fuel",
                "operator": "SPECIAL SERVICE DI VINAZZANI MASSIMO"
            },
            "geometry": {
                "type": "Point",
                "coordinates": [
                    11.02143930429918,
                    44.50231082827527
                ]
            }
        },
        {
            "type": "Feature",
            "properties": {
                "name": "BERTELLI-PARADOSSO",
                "id": "11368",
                "brand": "Bertelli Carburanti",
                "amenity": "fuel",
                "operator": "BERTELLI WALTER E ROLANDO  - CARBURANTI - S.P.A."
            },
            "geometry": {
                "type": "Point",
                "coordinates": [
                    11.02359920489346,
                    44.53437491154394
                ]
            }
        },
        {
            "type": "Feature",
            "properties": {
                "name": "SAVIGNANO SUL PANARO S.S.569 KM. 17+424",
                "id": "6529",
                "brand": "Q8",
                "amenity": "fuel",
                "operator": "SERVIZI & GESTIONI ITALIA srl"
            },
            "geometry": {
                "type": "Point",
                "coordinates": [
                    11.010363399982452,
                    44.47019440856536
                ]
            }
        },
        {
            "type": "Feature",
            "properties": {
                "name": "BERTELLI-MODENESE",
                "id": "11366",
                "brand": "Ies",
                "amenity": "fuel",
                "operator": "BERTELLI WALTER E ROLANDO  - CARBURANTI - S.P.A."
            },
            "geometry": {
                "type": "Point",
                "coordinates": [
                    11.010457277297972,
                    44.544968760698126
                ]
            }
        },
        {
            "type": "Feature",
            "properties": {
                "name": "BERTELLI-MONTALE",
                "id": "9324",
                "amenity": "fuel",
                "operator": "BERTELLI WALTER E ROLANDO  - CARBURANTI - S.P.A."
            },
            "geometry": {
                "type": "Point",
                "coordinates": [
                    10.90727695403666,
                    44.57469048943408
                ]
            }
        },
        {
            "type": "Feature",
            "properties": {
                "name": "Metano Spilamberto",
                "id": "9177",
                "brand": "Metano Spilamberto",
                "amenity": "fuel",
                "operator": "METANO - AUTO S.N.C. DI MASELLI MARIA ROSA & C."
            },
            "geometry": {
                "type": "Point",
                "coordinates": [
                    11.011844340475477,
                    44.54020665322013
                ]
            }
        },
        {
            "type": "Feature",
            "properties": {
                "name": "TOTALERG",
                "id": "10591",
                "brand": "Total Erg",
                "amenity": "fuel",
                "operator": "BORGHI DEBORA & C. S.N.C."
            },
            "geometry": {
                "type": "Point",
                "coordinates": [
                    10.955171585083008,
                    44.54263712248906
                ]
            }
        },
        {
            "type": "Feature",
            "properties": {
                "name": "KEROPETROL",
                "id": "12515",
                "amenity": "fuel",
                "operator": "E.M. S.R.L."
            },
            "geometry": {
                "type": "Point",
                "coordinates": [
                    11.00374214418025,
                    44.485989726933454
                ]
            }
        },
        {
            "type": "Feature",
            "properties": {
                "name": "Pieffe di Piccinini Marcello & c snc",
                "id": "15568",
                "brand": "Agip Eni",
                "amenity": "fuel",
                "operator": "PIEFFE DI PICCININI MARCELLO E C. S.N.C."
            },
            "geometry": {
                "type": "Point",
                "coordinates": [
                    10.901795625686646,
                    44.55224771904437
                ]
            }
        },
        {
            "type": "Feature",
            "properties": {
                "name": "BERTELLI-VIGNOLESE",
                "id": "11370",
                "brand": "Ies",
                "amenity": "fuel",
                "operator": "BERTELLI WALTER E ROLANDO  - CARBURANTI - S.P.A."
            },
            "geometry": {
                "type": "Point",
                "coordinates": [
                    11.021906286478043,
                    44.51546857784615
                ]
            }
        },
        {
            "type": "Feature",
            "properties": {
                "name": "CASTELNUOVO RANGONE - DELLA PACE",
                "id": "30548",
                "brand": "Api-Ip",
                "amenity": "fuel",
                "operator": "IP SERVICES S.R.L."
            },
            "geometry": {
                "type": "Point",
                "coordinates": [
                    10.931264373016347,
                    44.542862073787745
                ]
            }
        },
        {
            "type": "Feature",
            "properties": {
                "name": "Esso",
                "id": "17811",
                "brand": "Esso",
                "amenity": "fuel",
                "operator": "ESSE VI SNC DI VENTURELLI ROBERTO & C."
            },
            "geometry": {
                "type": "Point",
                "coordinates": [
                    11.018497198820116,
                    44.49647625040083
                ]
            }
        },
        {
            "type": "Feature",
            "properties": {
                "name": "SAVIGNANO SUL PANARO",
                "id": "32013",
                "brand": "Tamoil",
                "amenity": "fuel",
                "operator": "ENERGY RETE S.R.L."
            },
            "geometry": {
                "type": "Point",
                "coordinates": [
                    11.015780121088028,
                    44.466533836818584
                ]
            }
        },
        {
            "type": "Feature",
            "properties": {
                "name": "8078",
                "id": "30061",
                "brand": "Tamoil",
                "amenity": "fuel",
                "operator": "T.D.M. S.R.L."
            },
            "geometry": {
                "type": "Point",
                "coordinates": [
                    11.034271270036697,
                    44.53318809016426
                ]
            }
        },
        {
            "type": "Feature",
            "properties": {
                "name": "Distributore Carburanti di Soli Patrizia",
                "id": "8835",
                "brand": "Total Erg",
                "amenity": "fuel",
                "operator": "SOLI PATRIZIA"
            },
            "geometry": {
                "type": "Point",
                "coordinates": [
                    10.956764817237852,
                    44.530150745520224
                ]
            }
        },
        {
            "type": "Feature",
            "properties": {
                "name": "SALSI LUCIANO",
                "id": "11090",
                "brand": "Tamoil",
                "amenity": "fuel",
                "operator": "SALSI LUCIANO"
            },
            "geometry": {
                "type": "Point",
                "coordinates": [
                    10.996854454278946,
                    44.475625505285876
                ]
            }
        },
        {
            "type": "Feature",
            "properties": {
                "name": "LP OIL",
                "id": "8954",
                "amenity": "fuel",
                "operator": "C.S. 2 S.N.C. DI CAVALLOTTI ANDREA E F.LLI SOLA"
            },
            "geometry": {
                "type": "Point",
                "coordinates": [
                    11.038323192451456,
                    44.5708454918478
                ]
            }
        },
        {
            "type": "Feature",
            "properties": {
                "name": "VIGNOLA-VIA CIRCONVALLAZIONE OVEST",
                "id": "11722",
                "brand": "Q8",
                "amenity": "fuel",
                "operator": "SERVIZI & GESTIONI ITALIA S.R.L."
            },
            "geometry": {
                "type": "Point",
                "coordinates": [
                    10.996297895908356,
                    44.48164341067405
                ]
            }
        },
        {
            "type": "Feature",
            "properties": {
                "name": "DISTRIBUTORE ESSO",
                "id": "31088",
                "brand": "Esso",
                "amenity": "fuel",
                "operator": "RICCI ARIANNA"
            },
            "geometry": {
                "type": "Point",
                "coordinates": [
                    10.946571081876755,
                    44.507078445426615
                ]
            }
        },
        {
            "type": "Feature",
            "properties": {
                "name": "TOTALERG CASTELNUOVO R.",
                "id": "13024",
                "brand": "Total Erg",
                "amenity": "fuel",
                "operator": "DINO SERVICES S.N.C. DI POLETTI FABIO & DE CARLI CRISTIAN"
            },
            "geometry": {
                "type": "Point",
                "coordinates": [
                    10.929124110450744,
                    44.549611166695485
                ]
            }
        },
        {
            "type": "Feature",
            "properties": {
                "name": "mossa annalisa",
                "id": "12344",
                "brand": "Agip Eni",
                "amenity": "fuel",
                "operator": "MOSSA ANNALISA"
            },
            "geometry": {
                "type": "Point",
                "coordinates": [
                    11.01820193928677,
                    44.49500762094636
                ]
            }
        },
        {
            "type": "Feature",
            "properties": {
                "name": "Estense - San Cesario",
                "id": "25746",
                "amenity": "fuel",
                "operator": "ESTENSE ENERGY S.R.L."
            },
            "geometry": {
                "type": "Point",
                "coordinates": [
                    11.041831098343437,
                    44.55834585876142
                ]
            }
        }
    ]
}