{
    "type": "FeatureCollection",
    "features": [
        {
            "type": "Feature",
            "properties": {
                "name": "SOLIERA VIA RAVARINO PER CARPI 141",
                "id": "6527",
                "brand": "Q8",
                "amenity": "fuel",
                "operator": "SERVIZI & GESTIONI ITALIA srl"
            },
            "geometry": {
                "type": "Point",
                "coordinates": [
                    10.911781610836783,
                    44.767523916998464
                ]
            }
        },
        {
            "type": "Feature",
            "properties": {
                "name": "vescovini roger",
                "id": "12403",
                "brand": "Total Erg",
                "amenity": "fuel",
                "operator": "VESCOVINI ROGER"
            },
            "geometry": {
                "type": "Point",
                "coordinates": [
                    10.99796264907377,
                    44.82371235136553
                ]
            }
        },
        {
            "type": "Feature",
            "properties": {
                "name": "eni di  budite andrea",
                "id": "25790",
                "brand": "Agip Eni",
                "amenity": "fuel",
                "operator": "BUDITE ANDREA"
            },
            "geometry": {
                "type": "Point",
                "coordinates": [
                    10.9910649061203,
                    44.72575110601459
                ]
            }
        },
        {
            "type": "Feature",
            "properties": {
                "name": "MARCOLINI",
                "id": "4437",
                "brand": "Agip Eni",
                "amenity": "fuel",
                "operator": "MARCOLINI CLAUDIO (SUBENTRATA A: STEFANINI ALMERICO)"
            },
            "geometry": {
                "type": "Point",
                "coordinates": [
                    10.943803042173386,
                    44.757466386995155
                ]
            }
        },
        {
            "type": "Feature",
            "properties": {
                "name": "STAZIONE di SERVIZIO ESSO gestione LUPPI FRANCA",
                "id": "12529",
                "brand": "Esso",
                "amenity": "fuel",
                "operator": "LUPPI FRANCA"
            },
            "geometry": {
                "type": "Point",
                "coordinates": [
                    11.036514937877655,
                    44.8268994270721
                ]
            }
        },
        {
            "type": "Feature",
            "properties": {
                "name": "stazione di servizio Totalerg maini maurizio",
                "id": "8364",
                "brand": "Total Erg",
                "amenity": "fuel",
                "operator": "MAINI MAURIZIO"
            },
            "geometry": {
                "type": "Point",
                "coordinates": [
                    11.041061282157898,
                    44.72481122438878
                ]
            }
        },
        {
            "type": "Feature",
            "properties": {
                "name": "San Prospero",
                "id": "29308",
                "brand": "Esso",
                "amenity": "fuel",
                "operator": "F.LLI GIBERTINI FU GINO S.P.A."
            },
            "geometry": {
                "type": "Point",
                "coordinates": [
                    11.02302138475352,
                    44.78926538728399
                ]
            }
        },
        {
            "type": "Feature",
            "properties": {
                "name": "CARPI-VIA ALDO MORO 60",
                "id": "11724",
                "brand": "Q8",
                "amenity": "fuel",
                "operator": "SERVIZI & GESTIONI ITALIA S.R.L."
            },
            "geometry": {
                "type": "Point",
                "coordinates": [
                    10.902678072452543,
                    44.769979524913616
                ]
            }
        },
        {
            "type": "Feature",
            "properties": {
                "name": "eni",
                "id": "23298",
                "brand": "Agip Eni",
                "amenity": "fuel",
                "operator": "SERVICE PETROLI S.A.S. DI GIANNI STANCO"
            },
            "geometry": {
                "type": "Point",
                "coordinates": [
                    10.991131961345673,
                    44.72574805676501
                ]
            }
        },
        {
            "type": "Feature",
            "properties": {
                "name": "Le Piccolo",
                "id": "14104",
                "brand": "Tamoil",
                "amenity": "fuel",
                "operator": "LE PICCOLO DI PICCOLO AUTILIA"
            },
            "geometry": {
                "type": "Point",
                "coordinates": [
                    10.924365718050012,
                    44.7372851654557
                ]
            }
        },
        {
            "type": "Feature",
            "properties": {
                "name": "ADS LE VELE SNC",
                "id": "15067",
                "brand": "Q8",
                "amenity": "fuel",
                "operator": "ADS LE VELE SNC DI COGLIANO FRANCESCO E GRELLA NICOLA"
            },
            "geometry": {
                "type": "Point",
                "coordinates": [
                    10.89918315410614,
                    44.72806758526927
                ]
            }
        },
        {
            "type": "Feature",
            "properties": {
                "name": "SAN PROSPERO SULLA SECCHIA",
                "id": "5834",
                "brand": "Total Erg",
                "amenity": "fuel",
                "operator": "TotalErg SpA"
            },
            "geometry": {
                "type": "Point",
                "coordinates": [
                    11.026164309192609,
                    44.798067483596924
                ]
            }
        },
        {
            "type": "Feature",
            "properties": {
                "name": "area di servizio lavaggio giada",
                "id": "20498",
                "brand": "Ies",
                "amenity": "fuel",
                "operator": "LAVAGGIO GIADA DI D'ADDIECO ERIKA"
            },
            "geometry": {
                "type": "Point",
                "coordinates": [
                    11.023235321044922,
                    44.83120652060331
                ]
            }
        },
        {
            "type": "Feature",
            "properties": {
                "name": "fiorini cristina",
                "id": "29991",
                "brand": "Agip Eni",
                "amenity": "fuel",
                "operator": "FIORINI CRISTINA"
            },
            "geometry": {
                "type": "Point",
                "coordinates": [
                    10.924040120901509,
                    44.73664917962752
                ]
            }
        },
        {
            "type": "Feature",
            "properties": {
                "name": "BONPORTO",
                "id": "5425",
                "brand": "Agip Eni",
                "amenity": "fuel",
                "operator": "enirete oil&nonoil S.p.A."
            },
            "geometry": {
                "type": "Point",
                "coordinates": [
                    11.038011505956774,
                    44.73689245437823
                ]
            }
        },
        {
            "type": "Feature",
            "properties": {
                "name": "f.lli martinelli snc",
                "id": "12277",
                "brand": "Q8",
                "amenity": "fuel",
                "operator": "F.LLI MARTINELLI S.N.C."
            },
            "geometry": {
                "type": "Point",
                "coordinates": [
                    10.942932665348053,
                    44.82144481540144
                ]
            }
        }
    ]
}