{
    "type": "FeatureCollection",
    "features": [
        {
            "type": "Feature",
            "properties": {
                "name": "VERONA-STRADA PER ARBIZZANO LOC.PARONA",
                "id": "11963",
                "brand": "Q8",
                "amenity": "fuel",
                "operator": "SERVIZI & GESTIONI ITALIA S.R.L."
            },
            "geometry": {
                "type": "Point",
                "coordinates": [
                    10.942595744705159,
                    45.484531410844255
                ]
            }
        },
        {
            "type": "Feature",
            "properties": {
                "name": "REPSOL",
                "id": "19976",
                "brand": "Repsol",
                "amenity": "fuel",
                "operator": "VIGILANTE GERARDO"
            },
            "geometry": {
                "type": "Point",
                "coordinates": [
                    10.911719799041748,
                    45.51763192806845
                ]
            }
        },
        {
            "type": "Feature",
            "properties": {
                "name": "106255 - S.M. Negrar",
                "id": "30311",
                "brand": "Esso",
                "amenity": "fuel",
                "operator": "RETITALIA  S.P.A."
            },
            "geometry": {
                "type": "Point",
                "coordinates": [
                    10.937376469373703,
                    45.50077460163953
                ]
            }
        },
        {
            "type": "Feature",
            "properties": {
                "name": "Verona",
                "id": "23482",
                "brand": "Total Erg",
                "amenity": "fuel",
                "operator": "GESTIONI EUROPA - SOCIETA' PER AZIONI"
            },
            "geometry": {
                "type": "Point",
                "coordinates": [
                    10.936135947704315,
                    45.480871904023765
                ]
            }
        },
        {
            "type": "Feature",
            "properties": {
                "name": "UGOLINI QUINTO",
                "id": "6262",
                "amenity": "fuel",
                "operator": "UGOLINI PETROLI S.R.L."
            },
            "geometry": {
                "type": "Point",
                "coordinates": [
                    11.019257605075838,
                    45.49541044622558
                ]
            }
        },
        {
            "type": "Feature",
            "properties": {
                "name": "DISTRIBUTORE CARBURANTI DI ZENTI ANDREA",
                "id": "18984",
                "amenity": "fuel",
                "operator": "ZENTI ANDREA"
            },
            "geometry": {
                "type": "Point",
                "coordinates": [
                    10.94082310795784,
                    45.49434853401919
                ]
            }
        },
        {
            "type": "Feature",
            "properties": {
                "name": "Prati Lorenzo",
                "id": "15164",
                "brand": "Total Erg",
                "amenity": "fuel",
                "operator": "PRATI LORENZO"
            },
            "geometry": {
                "type": "Point",
                "coordinates": [
                    11.04070320725441,
                    45.57218650933017
                ]
            }
        },
        {
            "type": "Feature",
            "properties": {
                "name": "_Metanauto Group srl",
                "id": "4860",
                "amenity": "fuel",
                "operator": "METANAUTO GROUP SRL"
            },
            "geometry": {
                "type": "Point",
                "coordinates": [
                    10.932772644238298,
                    45.48237287680532
                ]
            }
        },
        {
            "type": "Feature",
            "properties": {
                "name": "Agip Fantin Giovanna",
                "id": "27715",
                "brand": "Agip Eni",
                "amenity": "fuel",
                "operator": "FANTIN GIOVANNA"
            },
            "geometry": {
                "type": "Point",
                "coordinates": [
                    10.95090369021591,
                    45.575036279126834
                ]
            }
        },
        {
            "type": "Feature",
            "properties": {
                "name": "FRATELLI CANTERI SAS",
                "id": "7964",
                "brand": "Agip Eni",
                "amenity": "fuel",
                "operator": "FRATELLI CANTERI DI CANTERI PAOLO & C. S.A.S."
            },
            "geometry": {
                "type": "Point",
                "coordinates": [
                    11.019174456596376,
                    45.48802346210843
                ]
            }
        },
        {
            "type": "Feature",
            "properties": {
                "name": "f.lli piccoli s.r.l.",
                "id": "12760",
                "brand": "Agip Eni",
                "amenity": "fuel",
                "operator": "F.LLI PICCOLI S.R.L."
            },
            "geometry": {
                "type": "Point",
                "coordinates": [
                    11.002620942000476,
                    45.54545184596146
                ]
            }
        },
        {
            "type": "Feature",
            "properties": {
                "name": "DAL CORSO DANILO",
                "id": "11181",
                "brand": "Api-Ip",
                "amenity": "fuel",
                "operator": "DAL CORSO DANILO"
            },
            "geometry": {
                "type": "Point",
                "coordinates": [
                    10.992016380767836,
                    45.57289216228732
                ]
            }
        },
        {
            "type": "Feature",
            "properties": {
                "name": "RETITALIA",
                "id": "28237",
                "brand": "Retitalia",
                "amenity": "fuel",
                "operator": "DEGANI LUCIANO"
            },
            "geometry": {
                "type": "Point",
                "coordinates": [
                    10.910602658987045,
                    45.53349142165296
                ]
            }
        },
        {
            "type": "Feature",
            "properties": {
                "name": "F.LLI DEGANI",
                "id": "4074",
                "brand": "Agip Eni",
                "amenity": "fuel",
                "operator": "F.LLI DEGANI S.N.C. DI DEGANI FLAVIO E C."
            },
            "geometry": {
                "type": "Point",
                "coordinates": [
                    10.934008955955505,
                    45.510914564665114
                ]
            }
        },
        {
            "type": "Feature",
            "properties": {
                "name": "F.lli Frigotto snc",
                "id": "10485",
                "brand": "Agip Eni",
                "amenity": "fuel",
                "operator": "F.LLI FRIGOTTO SNC DI FRIGOTTO LORENZO E C."
            },
            "geometry": {
                "type": "Point",
                "coordinates": [
                    11.016529060188304,
                    45.51421804809134
                ]
            }
        },
        {
            "type": "Feature",
            "properties": {
                "name": "retitalia",
                "id": "29261",
                "brand": "Retitalia",
                "amenity": "fuel",
                "operator": "TUPPINI GIULIANO"
            },
            "geometry": {
                "type": "Point",
                "coordinates": [
                    11.016175160713146,
                    45.516417943527344
                ]
            }
        },
        {
            "type": "Feature",
            "properties": {
                "name": "Impianto Verona Petroli - Preare",
                "id": "12495",
                "amenity": "fuel",
                "operator": "BUSSINELLO S.R.L."
            },
            "geometry": {
                "type": "Point",
                "coordinates": [
                    10.958588711639436,
                    45.46660578535537
                ]
            }
        },
        {
            "type": "Feature",
            "properties": {
                "name": "Stazione di servizio Eni di Bruni Federico",
                "id": "13292",
                "brand": "Agip Eni",
                "amenity": "fuel",
                "operator": "BRUNI FEDERICO"
            },
            "geometry": {
                "type": "Point",
                "coordinates": [
                    10.95926582423772,
                    45.46689291546697
                ]
            }
        },
        {
            "type": "Feature",
            "properties": {
                "name": "GREZZANA TUBALDINI 8",
                "id": "6507",
                "brand": "Q8",
                "amenity": "fuel",
                "operator": "SERVIZI & GESTIONI ITALIA srl"
            },
            "geometry": {
                "type": "Point",
                "coordinates": [
                    11.00288674235344,
                    45.544775889150834
                ]
            }
        },
        {
            "type": "Feature",
            "properties": {
                "name": "POIANO-VIA COLONNELLO FINCATO 87",
                "id": "11960",
                "brand": "Q8",
                "amenity": "fuel",
                "operator": "SERVIZI & GESTIONI ITALIA S.R.L."
            },
            "geometry": {
                "type": "Point",
                "coordinates": [
                    11.018199473619461,
                    45.46690823550622
                ]
            }
        }
    ]
}