{
    "type": "FeatureCollection",
    "features": [
        {
            "type": "Feature",
            "properties": {
                "name": "Eni",
                "id": "4094",
                "brand": "Agip Eni",
                "amenity": "fuel",
                "operator": "F.LLI ZOMER S.A.S. DI ZOMER VITTORIO E C."
            },
            "geometry": {
                "type": "Point",
                "coordinates": [
                    11.006138920783997,
                    45.76325647141417
                ]
            }
        },
        {
            "type": "Feature",
            "properties": {
                "name": "pvb",
                "id": "18640",
                "amenity": "fuel",
                "operator": "G.S.M. DI GIULIANI SERENA E SPAGNOLLI MARTINA S.N.C."
            },
            "geometry": {
                "type": "Point",
                "coordinates": [
                    10.957318309192715,
                    45.81885234069673
                ]
            }
        },
        {
            "type": "Feature",
            "properties": {
                "name": "CAMPION MARCO E C. S.A.S.",
                "id": "5169",
                "brand": "Esso",
                "amenity": "fuel",
                "operator": "CAMPION MARCO E C. S.A.S."
            },
            "geometry": {
                "type": "Point",
                "coordinates": [
                    11.019185648122628,
                    45.80356589892416
                ]
            }
        },
        {
            "type": "Feature",
            "properties": {
                "name": "total erg",
                "id": "18263",
                "brand": "Total Erg",
                "amenity": "fuel",
                "operator": "PEROTTI MARIO & C. S.N.C."
            },
            "geometry": {
                "type": "Point",
                "coordinates": [
                    10.942164431877131,
                    45.73514561635401
                ]
            }
        },
        {
            "type": "Feature",
            "properties": {
                "name": "EMANUELLI GIORGIO",
                "id": "13344",
                "amenity": "fuel",
                "operator": "EMANUELLI GIORGIO"
            },
            "geometry": {
                "type": "Point",
                "coordinates": [
                    10.949904397130014,
                    45.72946704022261
                ]
            }
        },
        {
            "type": "Feature",
            "properties": {
                "name": "FERRARI ATTILIO",
                "id": "7317",
                "amenity": "fuel",
                "operator": "FERRARI ATTILIO"
            },
            "geometry": {
                "type": "Point",
                "coordinates": [
                    10.999530683788523,
                    45.757343196138855
                ]
            }
        }
    ]
}