{
    "type": "FeatureCollection",
    "features": [
        {
            "type": "Feature",
            "properties": {
                "name": "Stazione di Servizio ENI   4868",
                "id": "12615",
                "brand": "Agip Eni",
                "amenity": "fuel",
                "operator": "CERBAI CRISTIANO"
            },
            "geometry": {
                "type": "Point",
                "coordinates": [
                    11.068407336770633,
                    43.89403144627428
                ]
            }
        },
        {
            "type": "Feature",
            "properties": {
                "name": "NAM DINH",
                "id": "25118",
                "brand": "Total Erg",
                "amenity": "fuel",
                "operator": "MAGIGAS S.P.A."
            },
            "geometry": {
                "type": "Point",
                "coordinates": [
                    11.068080000000007,
                    43.88743300000002
                ]
            }
        },
        {
            "type": "Feature",
            "properties": {
                "name": "IP PUCCIANTI FABRIZIO",
                "id": "13364",
                "brand": "Api-Ip",
                "amenity": "fuel",
                "operator": "PUCCIANTI FABRIZIO"
            },
            "geometry": {
                "type": "Point",
                "coordinates": [
                    10.940770134329796,
                    43.95268035856574
                ]
            }
        },
        {
            "type": "Feature",
            "properties": {
                "name": "NOSOVA OLENA",
                "id": "17876",
                "brand": "Api-Ip",
                "amenity": "fuel",
                "operator": "NOSOVA OLENA"
            },
            "geometry": {
                "type": "Point",
                "coordinates": [
                    10.964970225820933,
                    43.86757681885076
                ]
            }
        },
        {
            "type": "Feature",
            "properties": {
                "name": "Esso",
                "id": "22263",
                "brand": "Esso",
                "amenity": "fuel",
                "operator": "SCARPELLI DARIO"
            },
            "geometry": {
                "type": "Point",
                "coordinates": [
                    11.050799041986465,
                    43.84694647182709
                ]
            }
        },
        {
            "type": "Feature",
            "properties": {
                "name": "Aci Pistoia servizi S.p.A.",
                "id": "20900",
                "brand": "Api-Ip",
                "amenity": "fuel",
                "operator": "ACI PISTOIA SERVIZI S.P.A."
            },
            "geometry": {
                "type": "Point",
                "coordinates": [
                    10.9802023963299,
                    43.85351440258145
                ]
            }
        },
        {
            "type": "Feature",
            "properties": {
                "name": "PISTOIA VIA E. FERMI 2/B",
                "id": "8327",
                "brand": "Q8",
                "amenity": "fuel",
                "operator": "SERVIZI & GESTIONI ITALIA S.R.L."
            },
            "geometry": {
                "type": "Point",
                "coordinates": [
                    10.92462111971281,
                    43.93216372321065
                ]
            }
        },
        {
            "type": "Feature",
            "properties": {
                "name": "Pampaoil",
                "id": "23292",
                "brand": "Agip Eni",
                "amenity": "fuel",
                "operator": "PAMPAOIL DI PAMPALONI FRANCESCO"
            },
            "geometry": {
                "type": "Point",
                "coordinates": [
                    11.007286381614676,
                    43.93488128182026
                ]
            }
        },
        {
            "type": "Feature",
            "properties": {
                "name": "TAMOIL",
                "id": "9458",
                "brand": "Tamoil",
                "amenity": "fuel",
                "operator": "CAR SERVICE 3000 S.R.L."
            },
            "geometry": {
                "type": "Point",
                "coordinates": [
                    10.962998270988464,
                    43.88923619227354
                ]
            }
        },
        {
            "type": "Feature",
            "properties": {
                "name": "Flli Galli snc",
                "id": "6814",
                "brand": "Esso",
                "amenity": "fuel",
                "operator": "F.LLI GALLI S.N.C. DI GALLI FRANCESCO E GALLI FILIPPO"
            },
            "geometry": {
                "type": "Point",
                "coordinates": [
                    11.04423701763153,
                    43.846832342707806
                ]
            }
        },
        {
            "type": "Feature",
            "properties": {
                "name": "IP PUCCIANTI FABRIZIO",
                "id": "13426",
                "brand": "Api-Ip",
                "amenity": "fuel",
                "operator": "PUCCIANTI FABRIZIO"
            },
            "geometry": {
                "type": "Point",
                "coordinates": [
                    10.927011072635649,
                    43.940305492590234
                ]
            }
        },
        {
            "type": "Feature",
            "properties": {
                "name": "STAZIONE DI SERVIZIO FUEL POINT",
                "id": "24892",
                "brand": "Esso",
                "amenity": "fuel",
                "operator": "FUEL POINT DI TINNIRELLO CRISTIANO"
            },
            "geometry": {
                "type": "Point",
                "coordinates": [
                    11.031090170145037,
                    43.90179110772101
                ]
            }
        },
        {
            "type": "Feature",
            "properties": {
                "name": "IP gruppo api",
                "id": "16737",
                "brand": "Api-Ip",
                "amenity": "fuel",
                "operator": "LINO TRAVERSARI & C. S.N.C."
            },
            "geometry": {
                "type": "Point",
                "coordinates": [
                    10.915352851152418,
                    43.92127932710736
                ]
            }
        },
        {
            "type": "Feature",
            "properties": {
                "name": "ENI PRATO",
                "id": "31884",
                "brand": "Agip Eni",
                "amenity": "fuel",
                "operator": "BRINI CARLO & BETTARINI ROBERTO S.N.C."
            },
            "geometry": {
                "type": "Point",
                "coordinates": [
                    11.043725084655762,
                    43.88294808058329
                ]
            }
        },
        {
            "type": "Feature",
            "properties": {
                "name": "UGGIOSI ANDREA",
                "id": "4962",
                "brand": "Total Erg",
                "amenity": "fuel",
                "operator": "UGGIOSI ANDREA"
            },
            "geometry": {
                "type": "Point",
                "coordinates": [
                    10.940432846546173,
                    43.909224882986145
                ]
            }
        },
        {
            "type": "Feature",
            "properties": {
                "name": "PISTOIA VIA CHIRICI",
                "id": "28640",
                "brand": "Tamoil",
                "amenity": "fuel",
                "operator": "G.S.SERVICE S.R.L."
            },
            "geometry": {
                "type": "Point",
                "coordinates": [
                    10.936755537986755,
                    43.93834397078147
                ]
            }
        },
        {
            "type": "Feature",
            "properties": {
                "name": "A & F snc",
                "id": "6287",
                "brand": "Agip Eni",
                "amenity": "fuel",
                "operator": "A. E F. S.N.C. DI UGGIOSI FRANCESCO E MEMOLI FRANCESCO"
            },
            "geometry": {
                "type": "Point",
                "coordinates": [
                    11.030903003704793,
                    43.90144867942749
                ]
            }
        },
        {
            "type": "Feature",
            "properties": {
                "name": "4PETROLI - Curra Alessandro",
                "id": "29393",
                "amenity": "fuel",
                "operator": "CURRA ALESSANDRO"
            },
            "geometry": {
                "type": "Point",
                "coordinates": [
                    11.009207101544234,
                    43.93062807123796
                ]
            }
        },
        {
            "type": "Feature",
            "properties": {
                "name": "PV 14731",
                "id": "25763",
                "brand": "Agip Eni",
                "amenity": "fuel",
                "operator": "GESTIONI INNOVATIVE ITALIA S.R.L."
            },
            "geometry": {
                "type": "Point",
                "coordinates": [
                    11.06865718960762,
                    43.85656928576932
                ]
            }
        },
        {
            "type": "Feature",
            "properties": {
                "name": "PISTOIA",
                "id": "5854",
                "brand": "Total Erg",
                "amenity": "fuel",
                "operator": "TotalErg SpA"
            },
            "geometry": {
                "type": "Point",
                "coordinates": [
                    10.918195093254099,
                    43.92364918281485
                ]
            }
        },
        {
            "type": "Feature",
            "properties": {
                "name": "ENI MONTEMURLO",
                "id": "4576",
                "brand": "Agip Eni",
                "amenity": "fuel",
                "operator": "JOLLY S.N.C. DI AVANZO MORENO E FALTONI DELIO"
            },
            "geometry": {
                "type": "Point",
                "coordinates": [
                    11.036531031131744,
                    43.91942846356981
                ]
            }
        },
        {
            "type": "Feature",
            "properties": {
                "name": "PISTOIA VIA FERMI",
                "id": "14639",
                "brand": "Tamoil",
                "amenity": "fuel",
                "operator": "G.S.SERVICE S.R.L."
            },
            "geometry": {
                "type": "Point",
                "coordinates": [
                    10.947200059890747,
                    43.93091138867068
                ]
            }
        },
        {
            "type": "Feature",
            "properties": {
                "name": "CA.GI.P. S.N.C.",
                "id": "4212",
                "brand": "Agip Eni",
                "amenity": "fuel",
                "operator": "CA.GI.P. S.N.C. DI CARLINI ROBERTO"
            },
            "geometry": {
                "type": "Point",
                "coordinates": [
                    10.899738371372223,
                    43.927832621321805
                ]
            }
        },
        {
            "type": "Feature",
            "properties": {
                "name": "totalerg",
                "id": "8365",
                "brand": "Total Erg",
                "amenity": "fuel",
                "operator": "BERTOCCI STEFANO"
            },
            "geometry": {
                "type": "Point",
                "coordinates": [
                    11.014428271163979,
                    43.845318607158426
                ]
            }
        },
        {
            "type": "Feature",
            "properties": {
                "name": "PRATO",
                "id": "5850",
                "brand": "Total Erg",
                "amenity": "fuel",
                "operator": "TotalErg SpA"
            },
            "geometry": {
                "type": "Point",
                "coordinates": [
                    11.044143457672135,
                    43.84757093436977
                ]
            }
        },
        {
            "type": "Feature",
            "properties": {
                "name": "RISI CLAUDIO e FIGLI s.n.c.",
                "id": "13430",
                "brand": "Esso",
                "amenity": "fuel",
                "operator": "RISI CLAUDIO E FIGLI S.N.C."
            },
            "geometry": {
                "type": "Point",
                "coordinates": [
                    11.071806897483837,
                    43.8805624672156
                ]
            }
        },
        {
            "type": "Feature",
            "properties": {
                "name": "TOTALERG-G.M.2 SNC",
                "id": "26281",
                "brand": "Total Erg",
                "amenity": "fuel",
                "operator": "G.M.2 S.N.C. DI MAZZEI GIOVANNI & C."
            },
            "geometry": {
                "type": "Point",
                "coordinates": [
                    10.937353670597076,
                    43.92226462763505
                ]
            }
        },
        {
            "type": "Feature",
            "properties": {
                "name": "Aci Pistoia servizi S.p.A.",
                "id": "20902",
                "brand": "Api-Ip",
                "amenity": "fuel",
                "operator": "ACI PISTOIA SERVIZI S.P.A."
            },
            "geometry": {
                "type": "Point",
                "coordinates": [
                    10.918730422854425,
                    43.92325650873716
                ]
            }
        },
        {
            "type": "Feature",
            "properties": {
                "name": "PV 5348",
                "id": "25764",
                "brand": "Agip Eni",
                "amenity": "fuel",
                "operator": "GESTIONI INNOVATIVE ITALIA S.R.L."
            },
            "geometry": {
                "type": "Point",
                "coordinates": [
                    10.907945930957794,
                    43.94318546670196
                ]
            }
        },
        {
            "type": "Feature",
            "properties": {
                "name": "PISTOIA-VIA BONELLINA",
                "id": "11785",
                "brand": "Q8",
                "amenity": "fuel",
                "operator": "SERVIZI & GESTIONI ITALIA S.R.L."
            },
            "geometry": {
                "type": "Point",
                "coordinates": [
                    10.918237143516535,
                    43.9164792410929
                ]
            }
        },
        {
            "type": "Feature",
            "properties": {
                "name": "CONAD signo s.r.l.",
                "id": "29189",
                "brand": "CONAD",
                "amenity": "fuel",
                "operator": "SIGNO S.R.L."
            },
            "geometry": {
                "type": "Point",
                "coordinates": [
                    11.071154990401967,
                    43.89782758915325
                ]
            }
        },
        {
            "type": "Feature",
            "properties": {
                "name": "B&B",
                "id": "31745",
                "brand": "Total Erg",
                "amenity": "fuel",
                "operator": "B.& B. DI BEATRICE BIANCALANI"
            },
            "geometry": {
                "type": "Point",
                "coordinates": [
                    10.950033379098498,
                    43.94138100243009
                ]
            }
        },
        {
            "type": "Feature",
            "properties": {
                "name": "TotaleErg",
                "id": "16031",
                "brand": "Total Erg",
                "amenity": "fuel",
                "operator": "SCARPELLI DARIO"
            },
            "geometry": {
                "type": "Point",
                "coordinates": [
                    11.060977107934605,
                    43.87346992758271
                ]
            }
        },
        {
            "type": "Feature",
            "properties": {
                "name": "PRATO CALICINO",
                "id": "14687",
                "brand": "Tamoil",
                "amenity": "fuel",
                "operator": "DRIVE SERVICE S.R.L."
            },
            "geometry": {
                "type": "Point",
                "coordinates": [
                    11.02958142757416,
                    43.89451387096329
                ]
            }
        },
        {
            "type": "Feature",
            "properties": {
                "name": "PISTOIA",
                "id": "5855",
                "brand": "Total Erg",
                "amenity": "fuel",
                "operator": "TotalErg SpA"
            },
            "geometry": {
                "type": "Point",
                "coordinates": [
                    10.900961271163967,
                    43.943172072106876
                ]
            }
        },
        {
            "type": "Feature",
            "properties": {
                "name": "benemerita energia srl",
                "id": "21189",
                "brand": "Total Erg",
                "amenity": "fuel",
                "operator": "BENEMERITA ENERGIA S.R.L"
            },
            "geometry": {
                "type": "Point",
                "coordinates": [
                    11.062467992305757,
                    43.875657125995325
                ]
            }
        },
        {
            "type": "Feature",
            "properties": {
                "name": "TAMOIL 2429",
                "id": "24390",
                "brand": "Tamoil",
                "amenity": "fuel",
                "operator": "B & F E C. S.N.C. DI BELLUCCI GIAMPAOLO E FEDERICO E FEDI RICCARDO"
            },
            "geometry": {
                "type": "Point",
                "coordinates": [
                    11.012430042028425,
                    43.917630481934445
                ]
            }
        },
        {
            "type": "Feature",
            "properties": {
                "name": "AGLIANA - LAVAGNINI",
                "id": "21843",
                "brand": "Api-Ip",
                "amenity": "fuel",
                "operator": "ALA CARBURANTI S.R.L."
            },
            "geometry": {
                "type": "Point",
                "coordinates": [
                    11.012354781166778,
                    43.90484959081523
                ]
            }
        },
        {
            "type": "Feature",
            "properties": {
                "name": "PRATO V. LEONARDO DA VINCI  7260",
                "id": "6580",
                "brand": "Q8",
                "amenity": "fuel",
                "operator": "SERVIZI & GESTIONI ITALIA srl"
            },
            "geometry": {
                "type": "Point",
                "coordinates": [
                    11.045444011688232,
                    43.88310047697616
                ]
            }
        },
        {
            "type": "Feature",
            "properties": {
                "name": "La Fenice sas di Rangoni Francesca e C.",
                "id": "24169",
                "brand": "Agip Eni",
                "amenity": "fuel",
                "operator": "LA FENICE S.A.S. DI RANGONI FRANCESCA & C."
            },
            "geometry": {
                "type": "Point",
                "coordinates": [
                    11.03964775800705,
                    43.92595259792057
                ]
            }
        },
        {
            "type": "Feature",
            "properties": {
                "name": "PISTOIA VIA TASSELLI",
                "id": "14647",
                "brand": "Tamoil",
                "amenity": "fuel",
                "operator": "G.S.SERVICE S.R.L."
            },
            "geometry": {
                "type": "Point",
                "coordinates": [
                    10.92263638973236,
                    43.94385213606134
                ]
            }
        },
        {
            "type": "Feature",
            "properties": {
                "name": "car service",
                "id": "21601",
                "brand": "Agip Eni",
                "amenity": "fuel",
                "operator": "CAR SERVICE DI CORNICELLO CARMELA E CAVACIOCCHI MARCELLO S.N.C."
            },
            "geometry": {
                "type": "Point",
                "coordinates": [
                    10.9206984937191,
                    43.92196015221221
                ]
            }
        },
        {
            "type": "Feature",
            "properties": {
                "name": "staz di servizio totalerg vip sas di vitellozzi federico",
                "id": "17605",
                "brand": "Total Erg",
                "amenity": "fuel",
                "operator": "VIP S.A.S. DI VITELLOZZI FEDERICO & C."
            },
            "geometry": {
                "type": "Point",
                "coordinates": [
                    11.068085879087448,
                    43.83930514194331
                ]
            }
        },
        {
            "type": "Feature",
            "properties": {
                "name": "PRATO BARDENA",
                "id": "14682",
                "brand": "Tamoil",
                "amenity": "fuel",
                "operator": "DRIVE SERVICE S.R.L."
            },
            "geometry": {
                "type": "Point",
                "coordinates": [
                    11.03051483631134,
                    43.894452019834816
                ]
            }
        },
        {
            "type": "Feature",
            "properties": {
                "name": "SERRAVALLE PISTOIESE",
                "id": "5856",
                "brand": "Total Erg",
                "amenity": "fuel",
                "operator": "TotalErg SpA"
            },
            "geometry": {
                "type": "Point",
                "coordinates": [
                    10.915278813491796,
                    43.87714326635862
                ]
            }
        },
        {
            "type": "Feature",
            "properties": {
                "name": "PISTOIA BOTTEGONE",
                "id": "31317",
                "brand": "Tamoil",
                "amenity": "fuel",
                "operator": "SIRTAM S.P.A."
            },
            "geometry": {
                "type": "Point",
                "coordinates": [
                    10.963030457496645,
                    43.88925294604402
                ]
            }
        },
        {
            "type": "Feature",
            "properties": {
                "name": "SEDE DI MONTEMURLO",
                "id": "14255",
                "brand": "Q8",
                "amenity": "fuel",
                "operator": "FRATELLI PIACQUADIO DI NICOLA PIACQUADIO E C. S.N.C."
            },
            "geometry": {
                "type": "Point",
                "coordinates": [
                    11.032061948566593,
                    43.90155099697849
                ]
            }
        },
        {
            "type": "Feature",
            "properties": {
                "name": "ADS ALA CARBURANTI FERRUCCIA",
                "id": "25159",
                "brand": "Esso",
                "amenity": "fuel",
                "operator": "ALA CARBURANTI S.R.L."
            },
            "geometry": {
                "type": "Point",
                "coordinates": [
                    11.003287732601166,
                    43.88703405743679
                ]
            }
        },
        {
            "type": "Feature",
            "properties": {
                "name": "PRATO S IPPOLITO",
                "id": "27290",
                "brand": "Tamoil",
                "amenity": "fuel",
                "operator": "SIRTAM S.R.L."
            },
            "geometry": {
                "type": "Point",
                "coordinates": [
                    11.028677523136139,
                    43.88629493786644
                ]
            }
        },
        {
            "type": "Feature",
            "properties": {
                "name": "SOMMARIVA",
                "id": "11440",
                "brand": "Esso",
                "amenity": "fuel",
                "operator": "SOMMARIVA II DI SOMMARIVA ANTONIO & C. S.A.S."
            },
            "geometry": {
                "type": "Point",
                "coordinates": [
                    10.920669037850985,
                    43.90296266666561
                ]
            }
        },
        {
            "type": "Feature",
            "properties": {
                "name": "esso alma gabriele",
                "id": "16862",
                "brand": "Esso",
                "amenity": "fuel",
                "operator": "ALMA GABRIELE"
            },
            "geometry": {
                "type": "Point",
                "coordinates": [
                    11.031233355819724,
                    43.91721884587341
                ]
            }
        },
        {
            "type": "Feature",
            "properties": {
                "name": "PISTOIA PALAZZETTO",
                "id": "26055",
                "brand": "Agip Eni",
                "amenity": "fuel",
                "operator": "G.S.SERVICE S.R.L."
            },
            "geometry": {
                "type": "Point",
                "coordinates": [
                    10.939298272132874,
                    43.93133944416669
                ]
            }
        },
        {
            "type": "Feature",
            "properties": {
                "name": "CAPECCHI MASSIMILIANO ENI",
                "id": "13786",
                "brand": "Agip Eni",
                "amenity": "fuel",
                "operator": "CAPECCHI MASSIMILIANO"
            },
            "geometry": {
                "type": "Point",
                "coordinates": [
                    10.91565191745758,
                    43.92164640187811
                ]
            }
        },
        {
            "type": "Feature",
            "properties": {
                "name": "saf snc",
                "id": "20752",
                "brand": "Aquila",
                "amenity": "fuel",
                "operator": "S.A.F. SNC DI ARESU ADRIANO & C."
            },
            "geometry": {
                "type": "Point",
                "coordinates": [
                    11.048748493194582,
                    43.86528205698194
                ]
            }
        },
        {
            "type": "Feature",
            "properties": {
                "name": "STAZIONE DI SERVIZIO ESSO di Tesi Graziao",
                "id": "11334",
                "brand": "Esso",
                "amenity": "fuel",
                "operator": "TESI GRAZIANO"
            },
            "geometry": {
                "type": "Point",
                "coordinates": [
                    10.904499292373657,
                    43.949057771239346
                ]
            }
        },
        {
            "type": "Feature",
            "properties": {
                "name": "PISTOIA - RACCORDO AUTOSTRADA",
                "id": "31059",
                "brand": "Api-Ip",
                "amenity": "fuel",
                "operator": "IP SERVICES S.R.L."
            },
            "geometry": {
                "type": "Point",
                "coordinates": [
                    10.91535900859833,
                    43.92128261220313
                ]
            }
        },
        {
            "type": "Feature",
            "properties": {
                "name": "MONTEMURLO",
                "id": "28581",
                "brand": "Tamoil",
                "amenity": "fuel",
                "operator": "G.S.SERVICE S.R.L."
            },
            "geometry": {
                "type": "Point",
                "coordinates": [
                    11.054569557309152,
                    43.90931929384197
                ]
            }
        },
        {
            "type": "Feature",
            "properties": {
                "name": "esso",
                "id": "18080",
                "brand": "Esso",
                "amenity": "fuel",
                "operator": "CHERICI SIMONE E GIANNOTTI ELENA & C. S.N.C."
            },
            "geometry": {
                "type": "Point",
                "coordinates": [
                    10.9495148062706,
                    43.91851421623791
                ]
            }
        },
        {
            "type": "Feature",
            "properties": {
                "name": "SOMMARIVA",
                "id": "11436",
                "brand": "Esso",
                "amenity": "fuel",
                "operator": "SOMMARIVA S.N.C. DI SOMMARIVA MARIO & C."
            },
            "geometry": {
                "type": "Point",
                "coordinates": [
                    10.986513619643347,
                    43.86065381768657
                ]
            }
        },
        {
            "type": "Feature",
            "properties": {
                "name": "PRATO VIA CAVA  245/C TOBBIANA",
                "id": "6592",
                "brand": "Q8",
                "amenity": "fuel",
                "operator": "SERVIZI & GESTIONI ITALIA srl"
            },
            "geometry": {
                "type": "Point",
                "coordinates": [
                    11.054153144359587,
                    43.8698570476835
                ]
            }
        },
        {
            "type": "Feature",
            "properties": {
                "name": "ENI GAUTHAMA INTERNATIONAL SAS",
                "id": "21984",
                "brand": "Agip Eni",
                "amenity": "fuel",
                "operator": "GAUTHAMA INTERNATIONAL S.A.S. DI THEWWAHANDI JAYALATH & C."
            },
            "geometry": {
                "type": "Point",
                "coordinates": [
                    11.053549647331238,
                    43.857490454953734
                ]
            }
        },
        {
            "type": "Feature",
            "properties": {
                "name": "barzagli patrik e c. snc",
                "id": "15184",
                "brand": "Api-Ip",
                "amenity": "fuel",
                "operator": "BARZAGLI  PATRIK E C. S.N.C."
            },
            "geometry": {
                "type": "Point",
                "coordinates": [
                    10.943744635581995,
                    43.86267030607757
                ]
            }
        },
        {
            "type": "Feature",
            "properties": {
                "name": "PISTOIA NESPOLO",
                "id": "28642",
                "brand": "Tamoil",
                "amenity": "fuel",
                "operator": "G.S.SERVICE S.R.L."
            },
            "geometry": {
                "type": "Point",
                "coordinates": [
                    10.944004207849503,
                    43.921658148860196
                ]
            }
        },
        {
            "type": "Feature",
            "properties": {
                "name": "4424",
                "id": "4201",
                "brand": "Q8",
                "amenity": "fuel",
                "operator": "STAZIONE DI SERVIZIO Q8 DI FORASASSI SIMONE"
            },
            "geometry": {
                "type": "Point",
                "coordinates": [
                    10.930468440055847,
                    43.923468217706436
                ]
            }
        }
    ]
}