{
    "type": "FeatureCollection",
    "features": [
        {
            "type": "Feature",
            "properties": {
                "name": "avio petroli snc",
                "id": "10491",
                "brand": "Agip Eni",
                "amenity": "fuel",
                "operator": "AVIO PETROLI DI LIBERA SERGIO & C. S.N.C."
            },
            "geometry": {
                "type": "Point",
                "coordinates": [
                    10.96520756864777,
                    45.444058936295924
                ]
            }
        },
        {
            "type": "Feature",
            "properties": {
                "name": "Eni di Bassona - Verona",
                "id": "10498",
                "brand": "Agip Eni",
                "amenity": "fuel",
                "operator": "MOLESINI GIORGIO"
            },
            "geometry": {
                "type": "Point",
                "coordinates": [
                    10.902262330055237,
                    45.45760472664022
                ]
            }
        },
        {
            "type": "Feature",
            "properties": {
                "name": "AGIP",
                "id": "13177",
                "brand": "Agip Eni",
                "amenity": "fuel",
                "operator": "TUPPINI GIULIANO"
            },
            "geometry": {
                "type": "Point",
                "coordinates": [
                    11.018387228250504,
                    45.45738911769661
                ]
            }
        },
        {
            "type": "Feature",
            "properties": {
                "name": "Stazione di Servizio Eni di Nicola Palermo",
                "id": "10674",
                "brand": "Agip Eni",
                "amenity": "fuel",
                "operator": "PALERMO NICOLA"
            },
            "geometry": {
                "type": "Point",
                "coordinates": [
                    10.97889304161072,
                    45.45748469314549
                ]
            }
        },
        {
            "type": "Feature",
            "properties": {
                "name": "Stazione di servizio Andreon Luigi.",
                "id": "10509",
                "brand": "Agip Eni",
                "amenity": "fuel",
                "operator": "ANDREON LUIGI"
            },
            "geometry": {
                "type": "Point",
                "coordinates": [
                    10.978301034918218,
                    45.44857113147884
                ]
            }
        },
        {
            "type": "Feature",
            "properties": {
                "name": "KEROPETROL VERONA",
                "id": "15927",
                "amenity": "fuel",
                "operator": "KEROPETROL S.P.A."
            },
            "geometry": {
                "type": "Point",
                "coordinates": [
                    11.020152792334557,
                    45.450447426054694
                ]
            }
        },
        {
            "type": "Feature",
            "properties": {
                "name": "carpane' fabio",
                "id": "6915",
                "brand": "Esso",
                "amenity": "fuel",
                "operator": "CARPANE' FABIO"
            },
            "geometry": {
                "type": "Point",
                "coordinates": [
                    11.03292589377895,
                    45.43637913083727
                ]
            }
        },
        {
            "type": "Feature",
            "properties": {
                "name": "106232 - Verona - Via Stanga",
                "id": "28328",
                "amenity": "fuel",
                "operator": "RETITALIA  S.P.A."
            },
            "geometry": {
                "type": "Point",
                "coordinates": [
                    10.941823152045458,
                    45.4464674331336
                ]
            }
        },
        {
            "type": "Feature",
            "properties": {
                "name": "VERONA-VIALE DEL LAVORO 40",
                "id": "11956",
                "brand": "Q8",
                "amenity": "fuel",
                "operator": "SERVIZI & GESTIONI ITALIA S.R.L."
            },
            "geometry": {
                "type": "Point",
                "coordinates": [
                    10.978519533729582,
                    45.41245104446051
                ]
            }
        },
        {
            "type": "Feature",
            "properties": {
                "name": "Q8 Mediana di Bernard Robu",
                "id": "5094",
                "brand": "Q8",
                "amenity": "fuel",
                "operator": "Q8 MEDIANA DI BERNARD ROBU"
            },
            "geometry": {
                "type": "Point",
                "coordinates": [
                    10.92261508465572,
                    45.43208041298485
                ]
            }
        },
        {
            "type": "Feature",
            "properties": {
                "name": "Eni F.lli Pietropolli",
                "id": "29166",
                "brand": "Agip Eni",
                "amenity": "fuel",
                "operator": "F.LLI PIETROPOLLI S.N.C. DI PIETROPOLLI DANIELE & C."
            },
            "geometry": {
                "type": "Point",
                "coordinates": [
                    10.95253822355653,
                    45.42030890168058
                ]
            }
        },
        {
            "type": "Feature",
            "properties": {
                "name": "LEDRI SNC DI LEDRI STEFANO, GIORGIO, MARCO E IDELMA",
                "id": "14208",
                "brand": "Agip Eni",
                "amenity": "fuel",
                "operator": "LEDRI S.N.C. DI LEDRI STEFANO, GIORGIO,  MARCO E IDELMA"
            },
            "geometry": {
                "type": "Point",
                "coordinates": [
                    10.979661312441975,
                    45.414916591777384
                ]
            }
        },
        {
            "type": "Feature",
            "properties": {
                "name": "Eni - Verona Ca di David",
                "id": "27828",
                "brand": "Agip Eni",
                "amenity": "fuel",
                "operator": "RIVERGAS S.R.L."
            },
            "geometry": {
                "type": "Point",
                "coordinates": [
                    10.990740358829498,
                    45.37184559372876
                ]
            }
        },
        {
            "type": "Feature",
            "properties": {
                "name": "AGIP DI VENTURINI MAURIZIO",
                "id": "12618",
                "brand": "Agip Eni",
                "amenity": "fuel",
                "operator": "VENTURINI MAURIZIO"
            },
            "geometry": {
                "type": "Point",
                "coordinates": [
                    10.99032461643219,
                    45.45071273658538
                ]
            }
        },
        {
            "type": "Feature",
            "properties": {
                "name": "VERONA VIA MAMELI 164",
                "id": "6510",
                "brand": "Q8",
                "amenity": "fuel",
                "operator": "SERVIZI & GESTIONI ITALIA srl"
            },
            "geometry": {
                "type": "Point",
                "coordinates": [
                    10.977612189583967,
                    45.45807327404569
                ]
            }
        },
        {
            "type": "Feature",
            "properties": {
                "name": "Stazione Eni GSM sas unità locale 2",
                "id": "10611",
                "brand": "Agip Eni",
                "amenity": "fuel",
                "operator": "G.S.M. S.A.S. DI RINALDI MASSIMO E C."
            },
            "geometry": {
                "type": "Point",
                "coordinates": [
                    10.988297768122834,
                    45.41314897845211
                ]
            }
        },
        {
            "type": "Feature",
            "properties": {
                "name": "VERONA",
                "id": "5921",
                "brand": "Total Erg",
                "amenity": "fuel",
                "operator": "TotalErg SpA"
            },
            "geometry": {
                "type": "Point",
                "coordinates": [
                    11.063657822090136,
                    45.40434471494445
                ]
            }
        },
        {
            "type": "Feature",
            "properties": {
                "name": "Repsol",
                "id": "18557",
                "brand": "Repsol",
                "amenity": "fuel",
                "operator": "GRANDI ANTONIO E C. S.N.C."
            },
            "geometry": {
                "type": "Point",
                "coordinates": [
                    10.968085741664138,
                    45.42921843624267
                ]
            }
        },
        {
            "type": "Feature",
            "properties": {
                "name": "IP",
                "id": "28240",
                "brand": "Api-Ip",
                "amenity": "fuel",
                "operator": "ART CAFFE' DI ENEA"
            },
            "geometry": {
                "type": "Point",
                "coordinates": [
                    11.04355920793455,
                    45.43941696784067
                ]
            }
        },
        {
            "type": "Feature",
            "properties": {
                "name": "Ego",
                "id": "7454",
                "brand": "Ego",
                "amenity": "fuel",
                "operator": "DANESE MASSIMO"
            },
            "geometry": {
                "type": "Point",
                "coordinates": [
                    10.972321629524231,
                    45.38477428105162
                ]
            }
        },
        {
            "type": "Feature",
            "properties": {
                "name": "ENI SPA",
                "id": "22385",
                "brand": "Agip Eni",
                "amenity": "fuel",
                "operator": "EMANUELLI CARBURANTI S.A.S. DI EMANUELLI ALEX"
            },
            "geometry": {
                "type": "Point",
                "coordinates": [
                    11.049117296934128,
                    45.369697874026045
                ]
            }
        },
        {
            "type": "Feature",
            "properties": {
                "name": "agsm bpp",
                "id": "10773",
                "amenity": "fuel",
                "operator": "FRIGERI ETTORE"
            },
            "geometry": {
                "type": "Point",
                "coordinates": [
                    11.012473982803385,
                    45.43553615781618
                ]
            }
        },
        {
            "type": "Feature",
            "properties": {
                "name": "VERONA-VIA MEDIANA 9",
                "id": "11961",
                "brand": "Q8",
                "amenity": "fuel",
                "operator": "SERVIZI & GESTIONI ITALIA S.R.L."
            },
            "geometry": {
                "type": "Point",
                "coordinates": [
                    10.919297039508821,
                    45.4309694767529
                ]
            }
        },
        {
            "type": "Feature",
            "properties": {
                "name": "TANGENZIALE EST 10, VERONA (VR)",
                "id": "4712",
                "brand": "Esso",
                "amenity": "fuel",
                "operator": "NUOVA SIDAP  S.R.L."
            },
            "geometry": {
                "type": "Point",
                "coordinates": [
                    11.051384097906976,
                    45.446270984330376
                ]
            }
        },
        {
            "type": "Feature",
            "properties": {
                "name": "Q8",
                "id": "19857",
                "brand": "Q8",
                "amenity": "fuel",
                "operator": "ALDROVANDI T.R.E. DI ALDROVANDI TEODORO & C. S.A.S."
            },
            "geometry": {
                "type": "Point",
                "coordinates": [
                    10.979554839811726,
                    45.422450609131246
                ]
            }
        },
        {
            "type": "Feature",
            "properties": {
                "name": "LA STELLA SNC DI CASTELLO FABIO E TRATTO SILVIA",
                "id": "4114",
                "brand": "Q8",
                "amenity": "fuel",
                "operator": "LA STELLA S.N.C. DI  CASTELLO FABIO E  TRATTO SILVIA"
            },
            "geometry": {
                "type": "Point",
                "coordinates": [
                    11.058856397867203,
                    45.4300678532697
                ]
            }
        },
        {
            "type": "Feature",
            "properties": {
                "name": "ENI",
                "id": "21277",
                "brand": "Agip Eni",
                "amenity": "fuel",
                "operator": "ZUPPINI DIEGO"
            },
            "geometry": {
                "type": "Point",
                "coordinates": [
                    11.056711971759798,
                    45.430504097739956
                ]
            }
        },
        {
            "type": "Feature",
            "properties": {
                "name": "AGIP 13854",
                "id": "12613",
                "brand": "Agip Eni",
                "amenity": "fuel",
                "operator": "GLAM S.R.L."
            },
            "geometry": {
                "type": "Point",
                "coordinates": [
                    11.052252424978631,
                    45.452304051322216
                ]
            }
        },
        {
            "type": "Feature",
            "properties": {
                "name": "VERONA - VENEZIA 22/A",
                "id": "30289",
                "brand": "Api-Ip",
                "amenity": "fuel",
                "operator": "IP SERVICES S.R.L."
            },
            "geometry": {
                "type": "Point",
                "coordinates": [
                    11.024721457672058,
                    45.43759341276323
                ]
            }
        },
        {
            "type": "Feature",
            "properties": {
                "name": "TAMOIL AL PARCO",
                "id": "26400",
                "brand": "Tamoil",
                "amenity": "fuel",
                "operator": "AL PARCO S.N.C. DI POZZANI ANDREA E C."
            },
            "geometry": {
                "type": "Point",
                "coordinates": [
                    11.070182025432585,
                    45.33993872360717
                ]
            }
        },
        {
            "type": "Feature",
            "properties": {
                "name": "Stazione Eni GSM sas",
                "id": "10612",
                "brand": "Agip Eni",
                "amenity": "fuel",
                "operator": "G.S.M. S.A.S. DI RINALDI MASSIMO E C."
            },
            "geometry": {
                "type": "Point",
                "coordinates": [
                    11.018090844154358,
                    45.44328959356106
                ]
            }
        },
        {
            "type": "Feature",
            "properties": {
                "name": "VERONA - CORSO MILANO 229",
                "id": "7270",
                "brand": "Q8",
                "amenity": "fuel",
                "operator": "SERVIZI & GESTIONI ITALIA S.R.L."
            },
            "geometry": {
                "type": "Point",
                "coordinates": [
                    10.950016398811387,
                    45.446372364513884
                ]
            }
        },
        {
            "type": "Feature",
            "properties": {
                "name": "A&B al faro",
                "id": "31805",
                "amenity": "fuel",
                "operator": "A & B SPA"
            },
            "geometry": {
                "type": "Point",
                "coordinates": [
                    11.026759475535073,
                    45.3962777650703
                ]
            }
        },
        {
            "type": "Feature",
            "properties": {
                "name": "Q8 P.V.2772",
                "id": "30755",
                "brand": "Q8",
                "amenity": "fuel",
                "operator": "DIENNE CONSULTING ENERGY SERVICE S.R.L."
            },
            "geometry": {
                "type": "Point",
                "coordinates": [
                    10.921439747299246,
                    45.44681342220579
                ]
            }
        },
        {
            "type": "Feature",
            "properties": {
                "name": "GB ECONOMY SRL",
                "id": "17804",
                "amenity": "fuel",
                "operator": "GB ECONOMY S.R.L."
            },
            "geometry": {
                "type": "Point",
                "coordinates": [
                    10.918031442050165,
                    45.43672917903723
                ]
            }
        },
        {
            "type": "Feature",
            "properties": {
                "name": "contò simone",
                "id": "27056",
                "brand": "Agip Eni",
                "amenity": "fuel",
                "operator": "B.G.M. CARBURANTI S.N.C. DI CONTO' BIAGIO E SIMONE"
            },
            "geometry": {
                "type": "Point",
                "coordinates": [
                    10.982184112071991,
                    45.42285284084033
                ]
            }
        },
        {
            "type": "Feature",
            "properties": {
                "name": "1956",
                "id": "22645",
                "brand": "Tamoil",
                "amenity": "fuel",
                "operator": "T.D.M. S.R.L."
            },
            "geometry": {
                "type": "Point",
                "coordinates": [
                    10.969633964452782,
                    45.44371642329902
                ]
            }
        },
        {
            "type": "Feature",
            "properties": {
                "name": "AGIP.PONTE CATENA",
                "id": "17244",
                "brand": "Agip Eni",
                "amenity": "fuel",
                "operator": "PONTE CATENA S.N.C. SELF AREA AGIP DI FINETTO PAOLO E ZANETTI GIOVANNA"
            },
            "geometry": {
                "type": "Point",
                "coordinates": [
                    10.984116720098882,
                    45.4491585770016
                ]
            }
        },
        {
            "type": "Feature",
            "properties": {
                "name": "STAZIONE IP",
                "id": "31879",
                "brand": "Api-Ip",
                "amenity": "fuel",
                "operator": "GHULAM GUJRAT DI ZAMAN TAHIR & C. S.A.S."
            },
            "geometry": {
                "type": "Point",
                "coordinates": [
                    10.995089560747147,
                    45.35397509243957
                ]
            }
        },
        {
            "type": "Feature",
            "properties": {
                "name": "M.C.S. di Mazzi Massimo",
                "id": "13072",
                "brand": "Agip Eni",
                "amenity": "fuel",
                "operator": "M.C.S. DI MAZZI MASSIMO"
            },
            "geometry": {
                "type": "Point",
                "coordinates": [
                    10.991746452778669,
                    45.41629530097482
                ]
            }
        },
        {
            "type": "Feature",
            "properties": {
                "name": "Al Risparmio di San Giovanni Lupatoto",
                "id": "10672",
                "amenity": "fuel",
                "operator": "NUOVA MILLENNIUM S.N.C. DI COMPRI MARCO E ZEBA GIUSEPPE"
            },
            "geometry": {
                "type": "Point",
                "coordinates": [
                    11.018039882183075,
                    45.39666243878625
                ]
            }
        },
        {
            "type": "Feature",
            "properties": {
                "name": "ESSO TRUCK SERVICE",
                "id": "21338",
                "brand": "Esso",
                "amenity": "fuel",
                "operator": "ESSO TRUCK SERVICE DI DONEDDU ANTONIO TOMMASO & C. S.A.S."
            },
            "geometry": {
                "type": "Point",
                "coordinates": [
                    10.97743458769685,
                    45.409346559426425
                ]
            }
        },
        {
            "type": "Feature",
            "properties": {
                "name": "LORO F.LLI SPA",
                "id": "29018",
                "brand": "Loro",
                "amenity": "fuel",
                "operator": "LORO F.LLI-S.P.A."
            },
            "geometry": {
                "type": "Point",
                "coordinates": [
                    10.931863188743591,
                    45.387571320670126
                ]
            }
        },
        {
            "type": "Feature",
            "properties": {
                "name": "EGO - SAN GIOVANNI LUPATOTO",
                "id": "10328",
                "amenity": "fuel",
                "operator": "DBF S.R.L."
            },
            "geometry": {
                "type": "Point",
                "coordinates": [
                    11.023809245368968,
                    45.38319664479969
                ]
            }
        },
        {
            "type": "Feature",
            "properties": {
                "name": "95133 - Verona Via Torbido",
                "id": "30310",
                "brand": "Retitalia",
                "amenity": "fuel",
                "operator": "RETITALIA  S.P.A."
            },
            "geometry": {
                "type": "Point",
                "coordinates": [
                    11.015277206897736,
                    45.43804643865292
                ]
            }
        },
        {
            "type": "Feature",
            "properties": {
                "name": "VERONA - SAN MASSIMO",
                "id": "30995",
                "brand": "Api-Ip",
                "amenity": "fuel",
                "operator": "IP SERVICES S.R.L."
            },
            "geometry": {
                "type": "Point",
                "coordinates": [
                    10.933862449073784,
                    45.450496236725435
                ]
            }
        },
        {
            "type": "Feature",
            "properties": {
                "name": "VERONA",
                "id": "30422",
                "amenity": "fuel",
                "operator": "PENTA PETROLI SRL"
            },
            "geometry": {
                "type": "Point",
                "coordinates": [
                    10.984464725785527,
                    45.4546008390263
                ]
            }
        },
        {
            "type": "Feature",
            "properties": {
                "name": "03871",
                "id": "16416",
                "brand": "Agip Eni",
                "amenity": "fuel",
                "operator": "GIANESINI CRISTIAN"
            },
            "geometry": {
                "type": "Point",
                "coordinates": [
                    11.044784790921083,
                    45.35465310678453
                ]
            }
        },
        {
            "type": "Feature",
            "properties": {
                "name": "ROSSI BRUNO E SAGGIORATO PAOLO S.N.C.",
                "id": "23932",
                "brand": "Shell",
                "amenity": "fuel",
                "operator": "ROSSI BRUNO E SAGGIORATO PAOLO S.N.C."
            },
            "geometry": {
                "type": "Point",
                "coordinates": [
                    10.992529392242432,
                    45.42531140980033
                ]
            }
        },
        {
            "type": "Feature",
            "properties": {
                "name": "Full Service Car",
                "id": "10641",
                "brand": "Esso",
                "amenity": "fuel",
                "operator": "FULL SERVICE CAR S.R.L."
            },
            "geometry": {
                "type": "Point",
                "coordinates": [
                    10.939097777009012,
                    45.40126630197228
                ]
            }
        },
        {
            "type": "Feature",
            "properties": {
                "name": "autometano sas verona",
                "id": "22565",
                "amenity": "fuel",
                "operator": "AUTO METANO S.A.S. DI CORRA' ENZO, DAL DEGAN DOMENICO E TAIOLI FELICE & C."
            },
            "geometry": {
                "type": "Point",
                "coordinates": [
                    10.993946269154549,
                    45.42365988826372
                ]
            }
        },
        {
            "type": "Feature",
            "properties": {
                "name": "1657",
                "id": "27134",
                "brand": "Tamoil",
                "amenity": "fuel",
                "operator": "T.D.M. S.R.L."
            },
            "geometry": {
                "type": "Point",
                "coordinates": [
                    10.998974740505219,
                    45.40979239272636
                ]
            }
        },
        {
            "type": "Feature",
            "properties": {
                "name": "Al Risparmio di Piazzale Porta Nuova",
                "id": "10831",
                "amenity": "fuel",
                "operator": "POGGIANI S.N.C. DI POGGIANI VALERIO E C."
            },
            "geometry": {
                "type": "Point",
                "coordinates": [
                    10.987097918987274,
                    45.43018305105436
                ]
            }
        },
        {
            "type": "Feature",
            "properties": {
                "name": "ENI",
                "id": "10126",
                "brand": "Agip Eni",
                "amenity": "fuel",
                "operator": "BERTOLI S.N.C. DI BERTOLI CARLINO E C."
            },
            "geometry": {
                "type": "Point",
                "coordinates": [
                    10.956999592590364,
                    45.359781688667645
                ]
            }
        },
        {
            "type": "Feature",
            "properties": {
                "name": "totalerg",
                "id": "14013",
                "brand": "Total Erg",
                "amenity": "fuel",
                "operator": "ZARDINI GABRIELE"
            },
            "geometry": {
                "type": "Point",
                "coordinates": [
                    10.965130727577957,
                    45.44436984477627
                ]
            }
        },
        {
            "type": "Feature",
            "properties": {
                "name": "M-Fuel - Via Bionde",
                "id": "8177",
                "amenity": "fuel",
                "operator": "DALLA BERNARDINA F.LLI S.R.L."
            },
            "geometry": {
                "type": "Point",
                "coordinates": [
                    10.940941125154495,
                    45.44875834753796
                ]
            }
        },
        {
            "type": "Feature",
            "properties": {
                "name": "A&B S.p.A. San Giovanni Lupatoto",
                "id": "27775",
                "amenity": "fuel",
                "operator": "A & B SPA"
            },
            "geometry": {
                "type": "Point",
                "coordinates": [
                    11.030825677632151,
                    45.393336967997996
                ]
            }
        },
        {
            "type": "Feature",
            "properties": {
                "name": "sponda",
                "id": "13125",
                "brand": "Agip Eni",
                "amenity": "fuel",
                "operator": "SPONDA GIANFRANCO"
            },
            "geometry": {
                "type": "Point",
                "coordinates": [
                    10.974754393100739,
                    45.40093522055572
                ]
            }
        },
        {
            "type": "Feature",
            "properties": {
                "name": "LORO F.LLI SPA",
                "id": "29017",
                "brand": "Loro",
                "amenity": "fuel",
                "operator": "LORO F.LLI-S.P.A."
            },
            "geometry": {
                "type": "Point",
                "coordinates": [
                    10.977627038955688,
                    45.43976698475249
                ]
            }
        },
        {
            "type": "Feature",
            "properties": {
                "name": "ENI",
                "id": "15460",
                "brand": "Agip Eni",
                "amenity": "fuel",
                "operator": "MASAIA GIAMBATTISTA"
            },
            "geometry": {
                "type": "Point",
                "coordinates": [
                    10.929585993289948,
                    45.41722314291725
                ]
            }
        },
        {
            "type": "Feature",
            "properties": {
                "name": "7089",
                "id": "23849",
                "brand": "Tamoil",
                "amenity": "fuel",
                "operator": "T.D.M. S.R.L."
            },
            "geometry": {
                "type": "Point",
                "coordinates": [
                    10.978300273418427,
                    45.430545583725504
                ]
            }
        },
        {
            "type": "Feature",
            "properties": {
                "name": "Zevio",
                "id": "4689",
                "brand": "Esso",
                "amenity": "fuel",
                "operator": "NUOVA SIDAP  S.R.L."
            },
            "geometry": {
                "type": "Point",
                "coordinates": [
                    11.060393303632736,
                    45.36466686328819
                ]
            }
        },
        {
            "type": "Feature",
            "properties": {
                "name": "Q8 - Catullo",
                "id": "8176",
                "brand": "Q8",
                "amenity": "fuel",
                "operator": "DALLA BERNARDINA F.LLI S.R.L."
            },
            "geometry": {
                "type": "Point",
                "coordinates": [
                    10.903942913244691,
                    45.40993783125583
                ]
            }
        },
        {
            "type": "Feature",
            "properties": {
                "name": "Verona C.so Milano",
                "id": "31385",
                "brand": "Total Erg",
                "amenity": "fuel",
                "operator": "GESTIONI EUROPA - SOCIETA' PER AZIONI"
            },
            "geometry": {
                "type": "Point",
                "coordinates": [
                    10.965128169905825,
                    45.444365062931475
                ]
            }
        },
        {
            "type": "Feature",
            "properties": {
                "name": "MONTE BALDO OVEST",
                "id": "3575",
                "brand": "Agip Eni",
                "amenity": "fuel",
                "operator": "CARBURANTI MONTE BALDO NORD S.N.C. DI GALANTE ALESSANDRO E C."
            },
            "geometry": {
                "type": "Point",
                "coordinates": [
                    10.90069055557251,
                    45.411725442080595
                ]
            }
        },
        {
            "type": "Feature",
            "properties": {
                "name": "UGOLINI PALAZZINA",
                "id": "6267",
                "amenity": "fuel",
                "operator": "UGOLINI PETROLI S.R.L."
            },
            "geometry": {
                "type": "Point",
                "coordinates": [
                    11.011448020237708,
                    45.40542758513641
                ]
            }
        },
        {
            "type": "Feature",
            "properties": {
                "name": "RETITALIA",
                "id": "29828",
                "brand": "Retitalia",
                "amenity": "fuel",
                "operator": "BIGHIGNOLI MASSIMILIANO"
            },
            "geometry": {
                "type": "Point",
                "coordinates": [
                    10.990292571094527,
                    45.42312305465007
                ]
            }
        },
        {
            "type": "Feature",
            "properties": {
                "name": "Grisi Carburanti",
                "id": "28945",
                "brand": "Esso",
                "amenity": "fuel",
                "operator": "GRISI CARBURANTI S.A.S. DI GRISI FRANCESCA & C."
            },
            "geometry": {
                "type": "Point",
                "coordinates": [
                    10.98922775952451,
                    45.40912540958027
                ]
            }
        },
        {
            "type": "Feature",
            "properties": {
                "name": "Al Risparmio di Via Torbido",
                "id": "15274",
                "amenity": "fuel",
                "operator": "GAUDIO ANDREA"
            },
            "geometry": {
                "type": "Point",
                "coordinates": [
                    11.007551749598633,
                    45.434175947241414
                ]
            }
        },
        {
            "type": "Feature",
            "properties": {
                "name": "ENI",
                "id": "25965",
                "brand": "Agip Eni",
                "amenity": "fuel",
                "operator": "M.G.S. DI MAZZI MASSIMO & C. S.N.C."
            },
            "geometry": {
                "type": "Point",
                "coordinates": [
                    10.993851721286774,
                    45.42834399942189
                ]
            }
        },
        {
            "type": "Feature",
            "properties": {
                "name": "Ferlini Carburanti",
                "id": "11017",
                "amenity": "fuel",
                "operator": "FERLINI CARBURANTI SRL"
            },
            "geometry": {
                "type": "Point",
                "coordinates": [
                    10.926602293640144,
                    45.35713936310211
                ]
            }
        },
        {
            "type": "Feature",
            "properties": {
                "name": "Al Risparmio di Corso Milano",
                "id": "10475",
                "amenity": "fuel",
                "operator": "DE BENI STEFANO & C. S.N.C."
            },
            "geometry": {
                "type": "Point",
                "coordinates": [
                    10.955779105424883,
                    45.44575912767978
                ]
            }
        },
        {
            "type": "Feature",
            "properties": {
                "name": "VERONA VIA L. PANCALDO 28",
                "id": "24918",
                "brand": "Q8",
                "amenity": "fuel",
                "operator": "SERVIZI & GESTIONI ITALIA S.R.L."
            },
            "geometry": {
                "type": "Point",
                "coordinates": [
                    10.971833874868707,
                    45.45004967262486
                ]
            }
        },
        {
            "type": "Feature",
            "properties": {
                "name": "totalerg",
                "id": "13933",
                "brand": "Total Erg",
                "amenity": "fuel",
                "operator": "GIROTTO LORENZO"
            },
            "geometry": {
                "type": "Point",
                "coordinates": [
                    10.976161882281303,
                    45.45867335178263
                ]
            }
        },
        {
            "type": "Feature",
            "properties": {
                "name": "SMP VERONA, VIA ALBERE 107/A",
                "id": "5261",
                "brand": "San Marco Petroli",
                "amenity": "fuel",
                "operator": "SAN MARCO PETROLI DISTRIBUZIONE S.R.L."
            },
            "geometry": {
                "type": "Point",
                "coordinates": [
                    10.958706736564636,
                    45.427372684921785
                ]
            }
        },
        {
            "type": "Feature",
            "properties": {
                "name": "eni",
                "id": "10864",
                "brand": "Agip Eni",
                "amenity": "fuel",
                "operator": "MASAIA MASSIMO"
            },
            "geometry": {
                "type": "Point",
                "coordinates": [
                    11.02553380978702,
                    45.440034864728325
                ]
            }
        },
        {
            "type": "Feature",
            "properties": {
                "name": "A&B S.p.A., Gardesane",
                "id": "10293",
                "amenity": "fuel",
                "operator": "A & B SPA"
            },
            "geometry": {
                "type": "Point",
                "coordinates": [
                    10.92665433883667,
                    45.45189476415898
                ]
            }
        },
        {
            "type": "Feature",
            "properties": {
                "name": "VERONA C. GALLIANO 19/D",
                "id": "6503",
                "brand": "Q8",
                "amenity": "fuel",
                "operator": "SERVIZI & GESTIONI ITALIA srl"
            },
            "geometry": {
                "type": "Point",
                "coordinates": [
                    10.975096862565579,
                    45.43902813030574
                ]
            }
        },
        {
            "type": "Feature",
            "properties": {
                "name": "TOTALERG",
                "id": "25489",
                "brand": "Total Erg",
                "amenity": "fuel",
                "operator": "BLUE SERVICE S.N.C. DI DAL LAGO ERICA"
            },
            "geometry": {
                "type": "Point",
                "coordinates": [
                    11.052144169807436,
                    45.44648267336664
                ]
            }
        },
        {
            "type": "Feature",
            "properties": {
                "name": "PVB FUELS SPA",
                "id": "9499",
                "amenity": "fuel",
                "operator": "GB FUEL SRL"
            },
            "geometry": {
                "type": "Point",
                "coordinates": [
                    10.991994038623034,
                    45.39635478489511
                ]
            }
        },
        {
            "type": "Feature",
            "properties": {
                "name": "Giorgio Sprea S.r.l.",
                "id": "7797",
                "amenity": "fuel",
                "operator": "GIORGIO SPREA S.R.L."
            },
            "geometry": {
                "type": "Point",
                "coordinates": [
                    11.000089164032033,
                    45.41241276187841
                ]
            }
        },
        {
            "type": "Feature",
            "properties": {
                "name": "BITUM CALOR",
                "id": "12856",
                "brand": "Repsol",
                "amenity": "fuel",
                "operator": "FURLANI LUIGI E FURLANI ANDREA S.N.C."
            },
            "geometry": {
                "type": "Point",
                "coordinates": [
                    11.010405325794977,
                    45.43395158373456
                ]
            }
        },
        {
            "type": "Feature",
            "properties": {
                "name": "ENI",
                "id": "25964",
                "brand": "Agip Eni",
                "amenity": "fuel",
                "operator": "M.G.S. DI MAZZI MASSIMO & C. S.N.C."
            },
            "geometry": {
                "type": "Point",
                "coordinates": [
                    10.99357008934021,
                    45.40676483254385
                ]
            }
        },
        {
            "type": "Feature",
            "properties": {
                "name": "agip 13810",
                "id": "24603",
                "brand": "Agip Eni",
                "amenity": "fuel",
                "operator": "MILD S.R.L."
            },
            "geometry": {
                "type": "Point",
                "coordinates": [
                    10.921266788885532,
                    45.40088993919141
                ]
            }
        },
        {
            "type": "Feature",
            "properties": {
                "name": "VERONA CORSO VENEZIA 16",
                "id": "6505",
                "brand": "Q8",
                "amenity": "fuel",
                "operator": "SERVIZI & GESTIONI ITALIA srl"
            },
            "geometry": {
                "type": "Point",
                "coordinates": [
                    11.017005667459102,
                    45.43900184289978
                ]
            }
        },
        {
            "type": "Feature",
            "properties": {
                "name": "stazione di servizio totalerg di Lunardi Giuliano",
                "id": "6147",
                "brand": "Total Erg",
                "amenity": "fuel",
                "operator": "LUNARDI GIULIANO"
            },
            "geometry": {
                "type": "Point",
                "coordinates": [
                    10.965359956026077,
                    45.42258928191473
                ]
            }
        },
        {
            "type": "Feature",
            "properties": {
                "name": "ENI",
                "id": "8493",
                "brand": "Agip Eni",
                "amenity": "fuel",
                "operator": "BALLAN GIUSEPPE DEI F.LLI DAL PIN ALESSANDRO E DAL PIN MIRKO S.N.C."
            },
            "geometry": {
                "type": "Point",
                "coordinates": [
                    11.028943061828613,
                    45.39486241371766
                ]
            }
        },
        {
            "type": "Feature",
            "properties": {
                "name": "Impianto Verona Petroli - Colombo",
                "id": "12487",
                "amenity": "fuel",
                "operator": "BUSSINELLO S.R.L."
            },
            "geometry": {
                "type": "Point",
                "coordinates": [
                    10.974824130535126,
                    45.4481415244282
                ]
            }
        },
        {
            "type": "Feature",
            "properties": {
                "name": "centro c.p.",
                "id": "12302",
                "brand": "Esso",
                "amenity": "fuel",
                "operator": "CENTRO C.P. DI PASINI GRAZIANO E C. S.N.C."
            },
            "geometry": {
                "type": "Point",
                "coordinates": [
                    10.962156057357786,
                    45.444850024990544
                ]
            }
        },
        {
            "type": "Feature",
            "properties": {
                "name": "A&B S.p.A. San Massimo",
                "id": "10295",
                "amenity": "fuel",
                "operator": "A & B SPA"
            },
            "geometry": {
                "type": "Point",
                "coordinates": [
                    10.947610437870026,
                    45.44108436606056
                ]
            }
        },
        {
            "type": "Feature",
            "properties": {
                "name": "VERONA",
                "id": "5919",
                "brand": "Total Erg",
                "amenity": "fuel",
                "operator": "TotalErg SpA"
            },
            "geometry": {
                "type": "Point",
                "coordinates": [
                    11.004393822090151,
                    45.39995694990668
                ]
            }
        },
        {
            "type": "Feature",
            "properties": {
                "name": "eni f.lli zanini",
                "id": "16647",
                "brand": "Agip Eni",
                "amenity": "fuel",
                "operator": "IMPIANTO DI DISTRIBUZIONE CARBURANTI AL FORTE DI ZANINI GABRIELE E FEDERICO S.N.C."
            },
            "geometry": {
                "type": "Point",
                "coordinates": [
                    10.99395364522934,
                    45.389455778221055
                ]
            }
        }
    ]
}