{
    "type": "FeatureCollection",
    "features": [
        {
            "type": "Feature",
            "properties": {
                "name": "tarter e accurti staz.esso",
                "id": "23645",
                "brand": "Esso",
                "amenity": "fuel",
                "operator": "TARTER LINO E ACCURTI GUIDO SNC"
            },
            "geometry": {
                "type": "Point",
                "coordinates": [
                    11.124683218580914,
                    46.074201463767345
                ]
            }
        },
        {
            "type": "Feature",
            "properties": {
                "name": "PAGANELLA OVEST",
                "id": "3591",
                "brand": "Agip Eni",
                "amenity": "fuel",
                "operator": "WECAR S.A.S. DI WEBBER GERVASIO & C."
            },
            "geometry": {
                "type": "Point",
                "coordinates": [
                    11.085789799690247,
                    46.14058886355074
                ]
            }
        },
        {
            "type": "Feature",
            "properties": {
                "name": "Q8",
                "id": "6824",
                "brand": "Q8",
                "amenity": "fuel",
                "operator": "DICOMI S.R.L."
            },
            "geometry": {
                "type": "Point",
                "coordinates": [
                    11.111742854118347,
                    46.09996612127374
                ]
            }
        },
        {
            "type": "Feature",
            "properties": {
                "name": "IP 43991",
                "id": "5364",
                "brand": "Api-Ip",
                "amenity": "fuel",
                "operator": "MOSER CARMELA & AGNESE S.N.C."
            },
            "geometry": {
                "type": "Point",
                "coordinates": [
                    11.114649772644045,
                    46.16770075030272
                ]
            }
        },
        {
            "type": "Feature",
            "properties": {
                "name": "Distributore Tamoil",
                "id": "19084",
                "brand": "Tamoil",
                "amenity": "fuel",
                "operator": "MOTTES RENZO & C. S.N.C."
            },
            "geometry": {
                "type": "Point",
                "coordinates": [
                    11.074379682540894,
                    46.18641548148827
                ]
            }
        },
        {
            "type": "Feature",
            "properties": {
                "name": "AGIP 13549",
                "id": "15810",
                "brand": "Agip Eni",
                "amenity": "fuel",
                "operator": "G. & M. DI FERRATO GRETA & C. S.A.S."
            },
            "geometry": {
                "type": "Point",
                "coordinates": [
                    11.097500324249266,
                    46.09590405974005
                ]
            }
        },
        {
            "type": "Feature",
            "properties": {
                "name": "TRENTO - LIVIO DRUSO",
                "id": "24259",
                "brand": "Api-Ip",
                "amenity": "fuel",
                "operator": "IP SERVICES S.R.L."
            },
            "geometry": {
                "type": "Point",
                "coordinates": [
                    11.113970495700869,
                    46.07711488496547
                ]
            }
        },
        {
            "type": "Feature",
            "properties": {
                "name": "PAGANELLA EST",
                "id": "3846",
                "brand": "Agip Eni",
                "amenity": "fuel",
                "operator": "ENI RETE OIL&NONOIL S.P.A."
            },
            "geometry": {
                "type": "Point",
                "coordinates": [
                    11.087361574172974,
                    46.141589459623205
                ]
            }
        },
        {
            "type": "Feature",
            "properties": {
                "name": "13513 newagip",
                "id": "19576",
                "brand": "Agip Eni",
                "amenity": "fuel",
                "operator": "N.E.W. AGIP DI NARDON WALTER & C. S.A.S."
            },
            "geometry": {
                "type": "Point",
                "coordinates": [
                    11.127033295631461,
                    46.187792376422685
                ]
            }
        },
        {
            "type": "Feature",
            "properties": {
                "name": "ESSO",
                "id": "23951",
                "brand": "Esso",
                "amenity": "fuel",
                "operator": "DRIGO MARIA"
            },
            "geometry": {
                "type": "Point",
                "coordinates": [
                    11.106912037295501,
                    46.11271141696043
                ]
            }
        },
        {
            "type": "Feature",
            "properties": {
                "name": "CASAGRANDA BRUNO E C.",
                "id": "9741",
                "brand": "Esso",
                "amenity": "fuel",
                "operator": "CASAGRANDA BRUNO E C. S.N.C."
            },
            "geometry": {
                "type": "Point",
                "coordinates": [
                    11.222516745328905,
                    46.150380690516826
                ]
            }
        },
        {
            "type": "Feature",
            "properties": {
                "name": "STAZIONE SERVIZIO Q8 LAVIS",
                "id": "27626",
                "brand": "Q8",
                "amenity": "fuel",
                "operator": "CALOVI FULVIO"
            },
            "geometry": {
                "type": "Point",
                "coordinates": [
                    11.103313688980847,
                    46.15526099464383
                ]
            }
        },
        {
            "type": "Feature",
            "properties": {
                "name": "car service s.n.c.",
                "id": "23740",
                "brand": "Agip Eni",
                "amenity": "fuel",
                "operator": "CAR SERVICE S.N.C. DI NALESSO MARCO & C."
            },
            "geometry": {
                "type": "Point",
                "coordinates": [
                    11.110893543327508,
                    46.08718740886765
                ]
            }
        },
        {
            "type": "Feature",
            "properties": {
                "name": "Gottardi Romano e f.lli Snc",
                "id": "26213",
                "amenity": "fuel",
                "operator": "GOTTARDI ROMANO E F.LLI SNC"
            },
            "geometry": {
                "type": "Point",
                "coordinates": [
                    11.223698117951812,
                    46.17660950740868
                ]
            }
        },
        {
            "type": "Feature",
            "properties": {
                "name": "SARTORI GIUSEPPE & C. SNC",
                "id": "14051",
                "amenity": "fuel",
                "operator": "SARTORI GIUSEPPE & C. S.N.C."
            },
            "geometry": {
                "type": "Point",
                "coordinates": [
                    11.107618180716942,
                    46.14090580264347
                ]
            }
        },
        {
            "type": "Feature",
            "properties": {
                "name": "odorizzi roberto area servizio q8",
                "id": "27164",
                "brand": "Q8",
                "amenity": "fuel",
                "operator": "ODORIZZI ROBERTO"
            },
            "geometry": {
                "type": "Point",
                "coordinates": [
                    11.10594391822815,
                    46.08720309923813
                ]
            }
        },
        {
            "type": "Feature",
            "properties": {
                "name": "Eni",
                "id": "10056",
                "brand": "Agip Eni",
                "amenity": "fuel",
                "operator": "PELLEGRINI E DALFOVO MAURO S.N.C."
            },
            "geometry": {
                "type": "Point",
                "coordinates": [
                    11.11009731888771,
                    46.13119845063249
                ]
            }
        },
        {
            "type": "Feature",
            "properties": {
                "name": "Agip",
                "id": "10765",
                "brand": "Agip Eni",
                "amenity": "fuel",
                "operator": "BANALI RENZO E C. S.N.C."
            },
            "geometry": {
                "type": "Point",
                "coordinates": [
                    11.207095552644887,
                    46.076017017313355
                ]
            }
        },
        {
            "type": "Feature",
            "properties": {
                "name": "DISTRIBUTORE ESSO",
                "id": "14990",
                "brand": "Esso",
                "amenity": "fuel",
                "operator": "LUMI S.R.L."
            },
            "geometry": {
                "type": "Point",
                "coordinates": [
                    11.099279665431823,
                    46.14637132734584
                ]
            }
        },
        {
            "type": "Feature",
            "properties": {
                "name": "DISTRIBUTORE IP RUABEN FRANCO",
                "id": "24096",
                "brand": "Api-Ip",
                "amenity": "fuel",
                "operator": "RUABEN FRANCO"
            },
            "geometry": {
                "type": "Point",
                "coordinates": [
                    11.123998281161448,
                    46.07513697907754
                ]
            }
        },
        {
            "type": "Feature",
            "properties": {
                "name": "Fronza Andrea & C. snc  ENI",
                "id": "23892",
                "brand": "Agip Eni",
                "amenity": "fuel",
                "operator": "FRONZA  ANDREA E C. S.N.C."
            },
            "geometry": {
                "type": "Point",
                "coordinates": [
                    11.184234917163849,
                    46.08801380338923
                ]
            }
        },
        {
            "type": "Feature",
            "properties": {
                "name": "TOTAL ERG",
                "id": "10396",
                "brand": "Total Erg",
                "amenity": "fuel",
                "operator": "NICOLUSSI PAOLAZ LANFRANCO"
            },
            "geometry": {
                "type": "Point",
                "coordinates": [
                    11.116353831213358,
                    46.09042948596079
                ]
            }
        },
        {
            "type": "Feature",
            "properties": {
                "name": "AVI LUCA & C SAS",
                "id": "7554",
                "brand": "Agip Eni",
                "amenity": "fuel",
                "operator": "AVI LUCA & C. S.A.S."
            },
            "geometry": {
                "type": "Point",
                "coordinates": [
                    11.237956881523132,
                    46.12869368471671
                ]
            }
        },
        {
            "type": "Feature",
            "properties": {
                "name": "lucchi service",
                "id": "8228",
                "brand": "Agip Eni",
                "amenity": "fuel",
                "operator": "LUCCHI SERVICE DI LUCCHI MAURIZIO"
            },
            "geometry": {
                "type": "Point",
                "coordinates": [
                    11.102160553164707,
                    46.13888741356814
                ]
            }
        },
        {
            "type": "Feature",
            "properties": {
                "name": "ENI 03524",
                "id": "16192",
                "brand": "Agip Eni",
                "amenity": "fuel",
                "operator": "OSS EMER CLAUDIO & C. S.A.S."
            },
            "geometry": {
                "type": "Point",
                "coordinates": [
                    11.122085452079773,
                    46.080805596495864
                ]
            }
        },
        {
            "type": "Feature",
            "properties": {
                "name": "Q8 TANGENZIALE OVEST 4",
                "id": "21975",
                "brand": "Q8",
                "amenity": "fuel",
                "operator": "SARTORI S.A.S. DI SARTORI ANDREA & C."
            },
            "geometry": {
                "type": "Point",
                "coordinates": [
                    11.105316281318663,
                    46.08699772387123
                ]
            }
        }
    ]
}