{
    "type": "FeatureCollection",
    "features": [
        {
            "type": "Feature",
            "properties": {
                "name": "PRATO VIALE LEONARDO DA VINCI",
                "id": "6581",
                "brand": "Q8",
                "amenity": "fuel",
                "operator": "SERVIZI & GESTIONI ITALIA srl"
            },
            "geometry": {
                "type": "Point",
                "coordinates": [
                    11.109956589688183,
                    43.85846888624947
                ]
            }
        },
        {
            "type": "Feature",
            "properties": {
                "name": "Tamoil",
                "id": "14395",
                "brand": "Tamoil",
                "amenity": "fuel",
                "operator": "SEGANTI PAOLO"
            },
            "geometry": {
                "type": "Point",
                "coordinates": [
                    11.215589940547943,
                    43.94021278801024
                ]
            }
        },
        {
            "type": "Feature",
            "properties": {
                "name": "STAZIONE SERVIZIO ENI - BERTINI GIORGIO & C. SNC",
                "id": "15669",
                "brand": "Agip Eni",
                "amenity": "fuel",
                "operator": "BERTINI GIORGIO & C. S.N.C. DI STEFANO BERTINI"
            },
            "geometry": {
                "type": "Point",
                "coordinates": [
                    11.096240356564522,
                    43.90148987941616
                ]
            }
        },
        {
            "type": "Feature",
            "properties": {
                "name": "PRATO V. LILIANA ROSSI ANG V.METAURO",
                "id": "6590",
                "brand": "Q8",
                "amenity": "fuel",
                "operator": "SERVIZI & GESTIONI ITALIA srl"
            },
            "geometry": {
                "type": "Point",
                "coordinates": [
                    11.087648596958958,
                    43.89565879082479
                ]
            }
        },
        {
            "type": "Feature",
            "properties": {
                "name": "OIL E GAS DI NUZZO GIOVANNI",
                "id": "8566",
                "brand": "Agip Eni",
                "amenity": "fuel",
                "operator": "OIL E GAS DI NUZZO GIOVANNI"
            },
            "geometry": {
                "type": "Point",
                "coordinates": [
                    11.12280985287862,
                    43.855899598398295
                ]
            }
        },
        {
            "type": "Feature",
            "properties": {
                "name": "agip",
                "id": "8458",
                "brand": "Agip Eni",
                "amenity": "fuel",
                "operator": "BALDUCCI E LANINI DI LANINI VITTORIO E C. - S.N.C."
            },
            "geometry": {
                "type": "Point",
                "coordinates": [
                    11.114332410450745,
                    43.86673869021342
                ]
            }
        },
        {
            "type": "Feature",
            "properties": {
                "name": "stazione di servizio agip 004817",
                "id": "19402",
                "brand": "Agip Eni",
                "amenity": "fuel",
                "operator": "MARANGHI  &  BACARELLI S.N.C. DI S. MARANGHI E S. BACARELLI"
            },
            "geometry": {
                "type": "Point",
                "coordinates": [
                    11.111278389549284,
                    43.86977065218122
                ]
            }
        },
        {
            "type": "Feature",
            "properties": {
                "name": "PRATO VIALE GALILEI, 202",
                "id": "21659",
                "brand": "Q8",
                "amenity": "fuel",
                "operator": "SERVIZI & GESTIONI ITALIA S.R.L."
            },
            "geometry": {
                "type": "Point",
                "coordinates": [
                    11.109457723942569,
                    43.90252354155764
                ]
            }
        },
        {
            "type": "Feature",
            "properties": {
                "name": "stazione di servizio santa lucia s.n.c.",
                "id": "13484",
                "brand": "Esso",
                "amenity": "fuel",
                "operator": "STAZIONE DI SERVIZIO SANTA LUCIA DI FANTINI CARLO & C. S.N.C."
            },
            "geometry": {
                "type": "Point",
                "coordinates": [
                    11.111397977523778,
                    43.90553476914808
                ]
            }
        },
        {
            "type": "Feature",
            "properties": {
                "name": "PRATO - MORO",
                "id": "21841",
                "brand": "Esso",
                "amenity": "fuel",
                "operator": "ALA CARBURANTI S.R.L."
            },
            "geometry": {
                "type": "Point",
                "coordinates": [
                    11.091984361410141,
                    43.846973166438566
                ]
            }
        },
        {
            "type": "Feature",
            "properties": {
                "name": "CAMPI BISENZIO \"VIA F.LLI CERVI \"I GIGLI\"",
                "id": "6578",
                "brand": "Q8",
                "amenity": "fuel",
                "operator": "SERVIZI & GESTIONI ITALIA srl"
            },
            "geometry": {
                "type": "Point",
                "coordinates": [
                    11.140778368053477,
                    43.84947807594298
                ]
            }
        },
        {
            "type": "Feature",
            "properties": {
                "name": "BISENZIO OVEST",
                "id": "3510",
                "brand": "Api-Ip",
                "amenity": "fuel",
                "operator": "blu service snc"
            },
            "geometry": {
                "type": "Point",
                "coordinates": [
                    11.162055568122925,
                    43.83969433000652
                ]
            }
        },
        {
            "type": "Feature",
            "properties": {
                "name": "fabio costantini",
                "id": "13780",
                "brand": "Esso",
                "amenity": "fuel",
                "operator": "COSTANTINI FABIO"
            },
            "geometry": {
                "type": "Point",
                "coordinates": [
                    11.111409860713138,
                    43.865724602686775
                ]
            }
        },
        {
            "type": "Feature",
            "properties": {
                "name": "Totalerg",
                "id": "29957",
                "brand": "Total Erg",
                "amenity": "fuel",
                "operator": "TOTALERG DI SAVA ION"
            },
            "geometry": {
                "type": "Point",
                "coordinates": [
                    11.190971932540835,
                    43.836221911640365
                ]
            }
        },
        {
            "type": "Feature",
            "properties": {
                "name": "TotalErg CGS",
                "id": "21507",
                "brand": "Total Erg",
                "amenity": "fuel",
                "operator": "C.G.S. S.N.C. DI AMMANNATI CLAUDIO, AMMANNATI GABRIELE E VANNUCCI STEFANO"
            },
            "geometry": {
                "type": "Point",
                "coordinates": [
                    11.120179797067296,
                    43.861037125181255
                ]
            }
        },
        {
            "type": "Feature",
            "properties": {
                "name": "PRATO",
                "id": "5848",
                "brand": "Total Erg",
                "amenity": "fuel",
                "operator": "TotalErg SpA"
            },
            "geometry": {
                "type": "Point",
                "coordinates": [
                    11.122809364418003,
                    43.870008800926136
                ]
            }
        },
        {
            "type": "Feature",
            "properties": {
                "name": "BEYFIN",
                "id": "6917",
                "amenity": "fuel",
                "operator": "PE-CO DI PESCIONI ALESSIO & C. S.N.C."
            },
            "geometry": {
                "type": "Point",
                "coordinates": [
                    11.084439396820015,
                    43.89912444012438
                ]
            }
        },
        {
            "type": "Feature",
            "properties": {
                "name": "CAMPI BISENZIO",
                "id": "20671",
                "brand": "Total Erg",
                "amenity": "fuel",
                "operator": "GESTIONI EUROPA - SOCIETA' PER AZIONI"
            },
            "geometry": {
                "type": "Point",
                "coordinates": [
                    11.156736910343168,
                    43.841431271017996
                ]
            }
        },
        {
            "type": "Feature",
            "properties": {
                "name": "PRATO-VIA PISTOIESE 269",
                "id": "11778",
                "brand": "Q8",
                "amenity": "fuel",
                "operator": "SERVIZI & GESTIONI ITALIA S.R.L."
            },
            "geometry": {
                "type": "Point",
                "coordinates": [
                    11.08128972351551,
                    43.887725132930804
                ]
            }
        },
        {
            "type": "Feature",
            "properties": {
                "name": "ENI DI MATTEUCCI RICCARDO",
                "id": "23267",
                "brand": "Agip Eni",
                "amenity": "fuel",
                "operator": "MATTEUCCI RICCARDO"
            },
            "geometry": {
                "type": "Point",
                "coordinates": [
                    11.1860592539673,
                    43.84203804956496
                ]
            }
        },
        {
            "type": "Feature",
            "properties": {
                "name": "FUSI GIACOMO & C",
                "id": "15686",
                "brand": "Agip Eni",
                "amenity": "fuel",
                "operator": "FUSI GIACOMO DI FUSI MARCO E C.S.N.C."
            },
            "geometry": {
                "type": "Point",
                "coordinates": [
                    11.102888882160185,
                    43.8420247937347
                ]
            }
        },
        {
            "type": "Feature",
            "properties": {
                "name": "Stazione di Servizio Q8 Raugei & Biancalani snc",
                "id": "9707",
                "brand": "Q8",
                "amenity": "fuel",
                "operator": "RAUGEI EDO & BIANCALANI ROBERTO S.N.C. DI RAUGEI MICHELE E MARTINI MASSIMO"
            },
            "geometry": {
                "type": "Point",
                "coordinates": [
                    11.191169355819738,
                    43.83924318318153
                ]
            }
        },
        {
            "type": "Feature",
            "properties": {
                "name": "PV 4887",
                "id": "30219",
                "brand": "Agip Eni",
                "amenity": "fuel",
                "operator": "GESTIONI INNOVATIVE ITALIA S.R.L."
            },
            "geometry": {
                "type": "Point",
                "coordinates": [
                    11.095138271094584,
                    43.88724491894492
                ]
            }
        },
        {
            "type": "Feature",
            "properties": {
                "name": "IMPIANTO ENI N.4737 DI MAGNOLFI MAURO",
                "id": "14173",
                "brand": "Agip Eni",
                "amenity": "fuel",
                "operator": "MAGNOLFI MAURO"
            },
            "geometry": {
                "type": "Point",
                "coordinates": [
                    11.109271198511125,
                    43.86225404340378
                ]
            }
        },
        {
            "type": "Feature",
            "properties": {
                "name": "esso",
                "id": "18857",
                "brand": "Esso",
                "amenity": "fuel",
                "operator": "STAZIONE DI SERVIZI S.R.L."
            },
            "geometry": {
                "type": "Point",
                "coordinates": [
                    11.17898063558198,
                    43.85440740065006
                ]
            }
        },
        {
            "type": "Feature",
            "properties": {
                "name": "VIA FABIO FILZI 196 - PRATO",
                "id": "29725",
                "brand": "Q8",
                "amenity": "fuel",
                "operator": "SERVIZI & GESTIONI ITALIA S.R.L."
            },
            "geometry": {
                "type": "Point",
                "coordinates": [
                    11.077874407409695,
                    43.89030188918672
                ]
            }
        },
        {
            "type": "Feature",
            "properties": {
                "name": "Fratelli Magni Prodotti Petroliferi",
                "id": "16497",
                "brand": "Agip Eni",
                "amenity": "fuel",
                "operator": "FRATELLI MAGNI S.R.L"
            },
            "geometry": {
                "type": "Point",
                "coordinates": [
                    11.088535907409664,
                    43.88022306793668
                ]
            }
        },
        {
            "type": "Feature",
            "properties": {
                "name": "CEM CARBURANTI",
                "id": "6960",
                "amenity": "fuel",
                "operator": "2M GAS  DI MINI MARCELLO E C. S.A.S."
            },
            "geometry": {
                "type": "Point",
                "coordinates": [
                    11.088635623455046,
                    43.90165531148317
                ]
            }
        },
        {
            "type": "Feature",
            "properties": {
                "name": "CALENZANO",
                "id": "5801",
                "brand": "Total Erg",
                "amenity": "fuel",
                "operator": "TotalErg SpA"
            },
            "geometry": {
                "type": "Point",
                "coordinates": [
                    11.156622550926159,
                    43.854310176894735
                ]
            }
        },
        {
            "type": "Feature",
            "properties": {
                "name": "SEDE DI PRATO",
                "id": "14244",
                "brand": "Q8",
                "amenity": "fuel",
                "operator": "FRATELLI PIACQUADIO DI NICOLA PIACQUADIO E C. S.N.C."
            },
            "geometry": {
                "type": "Point",
                "coordinates": [
                    11.139838993549347,
                    43.86006174142043
                ]
            }
        },
        {
            "type": "Feature",
            "properties": {
                "name": "ESSO Davide Nannoni",
                "id": "28969",
                "brand": "Esso",
                "amenity": "fuel",
                "operator": "NANNONI DAVIDE"
            },
            "geometry": {
                "type": "Point",
                "coordinates": [
                    11.187371758721952,
                    43.841305726158154
                ]
            }
        },
        {
            "type": "Feature",
            "properties": {
                "name": "IMPIANTO ENI 14727",
                "id": "14290",
                "brand": "Agip Eni",
                "amenity": "fuel",
                "operator": "LEPORE MICHELE"
            },
            "geometry": {
                "type": "Point",
                "coordinates": [
                    11.076874136924744,
                    43.894417228517334
                ]
            }
        },
        {
            "type": "Feature",
            "properties": {
                "name": "CALENZANO-VIA PUCCINI",
                "id": "11585",
                "brand": "Q8",
                "amenity": "fuel",
                "operator": "SERVIZI & GESTIONI ITALIA S.R.L."
            },
            "geometry": {
                "type": "Point",
                "coordinates": [
                    11.163649796295203,
                    43.86186075891062
                ]
            }
        },
        {
            "type": "Feature",
            "properties": {
                "name": "ENI GAUTHAMA INTERNATIONAL SAS",
                "id": "21989",
                "brand": "Agip Eni",
                "amenity": "fuel",
                "operator": "GAUTHAMA INTERNATIONAL S.A.S. DI THEWWAHANDI JAYALATH & C."
            },
            "geometry": {
                "type": "Point",
                "coordinates": [
                    11.086445982278406,
                    43.8750027652039
                ]
            }
        },
        {
            "type": "Feature",
            "properties": {
                "name": "eni  carburante  14728",
                "id": "17511",
                "brand": "Agip Eni",
                "amenity": "fuel",
                "operator": "GAROFALO ANTONINO"
            },
            "geometry": {
                "type": "Point",
                "coordinates": [
                    11.076667606830597,
                    43.89505815807658
                ]
            }
        },
        {
            "type": "Feature",
            "properties": {
                "name": "S.S. ESSO DI PETRI SNC",
                "id": "16583",
                "brand": "Esso",
                "amenity": "fuel",
                "operator": "PETRI S.N.C. DI PETRI ALESSIO, ANDREA E LEONARDO"
            },
            "geometry": {
                "type": "Point",
                "coordinates": [
                    11.155871947943071,
                    43.84141699991552
                ]
            }
        },
        {
            "type": "Feature",
            "properties": {
                "name": "SICURANZA SS AGIP",
                "id": "15838",
                "brand": "Agip Eni",
                "amenity": "fuel",
                "operator": "SICURANZA S.N.C. DI MARIO E ALESSANDRO SICURANZA"
            },
            "geometry": {
                "type": "Point",
                "coordinates": [
                    11.113205786399817,
                    43.905882616154834
                ]
            }
        },
        {
            "type": "Feature",
            "properties": {
                "name": "OILFIN",
                "id": "4995",
                "amenity": "fuel",
                "operator": "OILFIN S.R.L."
            },
            "geometry": {
                "type": "Point",
                "coordinates": [
                    11.175780603388148,
                    43.840595625331765
                ]
            }
        },
        {
            "type": "Feature",
            "properties": {
                "name": "Niagara Carburanti s.n.c.",
                "id": "12130",
                "brand": "Q8",
                "amenity": "fuel",
                "operator": "NIAGARA CARBURANTI DI CARDINI MARIO E LORENZO E FIASCHI ANTONIO S.N.C."
            },
            "geometry": {
                "type": "Point",
                "coordinates": [
                    11.115821435287444,
                    43.87465392892259
                ]
            }
        },
        {
            "type": "Feature",
            "properties": {
                "name": "BISENZIO EST",
                "id": "3859",
                "brand": "Agip Eni",
                "amenity": "fuel",
                "operator": "ENI RETE OIL&NONOIL S.P.A."
            },
            "geometry": {
                "type": "Point",
                "coordinates": [
                    11.160033345222473,
                    43.8355909087435
                ]
            }
        },
        {
            "type": "Feature",
            "properties": {
                "name": "PAOLETTI GABRIELE",
                "id": "24434",
                "brand": "Aquila",
                "amenity": "fuel",
                "operator": "STAZIONE DI SERVIZIO PAOLETTI GABRIELE"
            },
            "geometry": {
                "type": "Point",
                "coordinates": [
                    11.083724255819673,
                    43.86336521612006
                ]
            }
        },
        {
            "type": "Feature",
            "properties": {
                "name": "distributore brini s.a.s",
                "id": "12371",
                "brand": "Api-Ip",
                "amenity": "fuel",
                "operator": "DISTRIBUTORE BRINI DI BRINI ROBERTO E C. S.A.S."
            },
            "geometry": {
                "type": "Point",
                "coordinates": [
                    11.107710143516556,
                    43.87351427470977
                ]
            }
        }
    ]
}