{
    "type": "FeatureCollection",
    "features": [
        {
            "type": "Feature",
            "properties": {
                "name": "esso Flli. NELLI s.n.c.",
                "id": "30112",
                "brand": "Esso",
                "amenity": "fuel",
                "operator": "F.LLI NELLI S.N.C. DI NELLI MILKO E NELLI ALESSIO"
            },
            "geometry": {
                "type": "Point",
                "coordinates": [
                    11.237995773553848,
                    43.80134128258231
                ]
            }
        },
        {
            "type": "Feature",
            "properties": {
                "name": "LASTRA A SIGNA-SS. 67 KM. 69+689",
                "id": "11579",
                "brand": "Q8",
                "amenity": "fuel",
                "operator": "SERVIZI & GESTIONI ITALIA S.R.L."
            },
            "geometry": {
                "type": "Point",
                "coordinates": [
                    11.116764780426024,
                    43.769914777062134
                ]
            }
        },
        {
            "type": "Feature",
            "properties": {
                "name": "CONPAC DI CONIGLIARO MARIA",
                "id": "29621",
                "brand": "Esso",
                "amenity": "fuel",
                "operator": "CONPAC DI CONIGLIARO MARIA"
            },
            "geometry": {
                "type": "Point",
                "coordinates": [
                    11.191435832672141,
                    43.80043659431205
                ]
            }
        },
        {
            "type": "Feature",
            "properties": {
                "name": "impianto eni 04842  alderighi snc",
                "id": "18433",
                "brand": "Agip Eni",
                "amenity": "fuel",
                "operator": "ALDERIGHI MAURIZIO S.N.C."
            },
            "geometry": {
                "type": "Point",
                "coordinates": [
                    11.088401600718496,
                    43.77439798942229
                ]
            }
        },
        {
            "type": "Feature",
            "properties": {
                "name": "CAMPI BISENZIO",
                "id": "7607",
                "brand": "Tamoil",
                "amenity": "fuel",
                "operator": "G.S.SERVICE S.R.L."
            },
            "geometry": {
                "type": "Point",
                "coordinates": [
                    11.126102147607412,
                    43.82447576688377
                ]
            }
        },
        {
            "type": "Feature",
            "properties": {
                "name": "STAZIONE DI SERVIZIO MENONI E CAROTTI",
                "id": "17817",
                "brand": "Agip Eni",
                "amenity": "fuel",
                "operator": "STAZIONE DI SERVIZIO DI CAMILLO MENONI E RICCARDO CAROTTI S.A.S."
            },
            "geometry": {
                "type": "Point",
                "coordinates": [
                    11.238952947885082,
                    43.79911677847703
                ]
            }
        },
        {
            "type": "Feature",
            "properties": {
                "name": "Perini Snc di Simone Perini & C.",
                "id": "10813",
                "brand": "Agip Eni",
                "amenity": "fuel",
                "operator": "PERINI S.N.C. DI SIMONE PERINI E C."
            },
            "geometry": {
                "type": "Point",
                "coordinates": [
                    11.218919412372545,
                    43.791557707396244
                ]
            }
        },
        {
            "type": "Feature",
            "properties": {
                "name": "il pegaso s.n.c. di margarini massimo e david",
                "id": "14071",
                "brand": "Agip Eni",
                "amenity": "fuel",
                "operator": "IL PEGASO S.N.C. DI  MARGARINI MASSIMO E DAVID"
            },
            "geometry": {
                "type": "Point",
                "coordinates": [
                    11.208816466270491,
                    43.82955304864727
                ]
            }
        },
        {
            "type": "Feature",
            "properties": {
                "name": "GIGLIO S.N.C. DI CECCHINI GIANLUCA E CECCHINI ROSSANA",
                "id": "9060",
                "brand": "Esso",
                "amenity": "fuel",
                "operator": "GIGLIO S.N.C. DI CECCHINI GIANLUCA E CECCHINI ROSSANA"
            },
            "geometry": {
                "type": "Point",
                "coordinates": [
                    11.210137009620667,
                    43.77065144001496
                ]
            }
        },
        {
            "type": "Feature",
            "properties": {
                "name": "Beyfin -Scandicci",
                "id": "5291",
                "amenity": "fuel",
                "operator": "BEYFIN S.P.A."
            },
            "geometry": {
                "type": "Point",
                "coordinates": [
                    11.162133514881132,
                    43.76508851230084
                ]
            }
        },
        {
            "type": "Feature",
            "properties": {
                "name": "PAB SERVICE",
                "id": "15484",
                "brand": "Q8",
                "amenity": "fuel",
                "operator": "PAB SERVICE S.N.C. DI ACCIAI GIANLUCA, BRUNELLI VALERIANO, PARRINI EGISTO"
            },
            "geometry": {
                "type": "Point",
                "coordinates": [
                    11.231762909262104,
                    43.784321917292644
                ]
            }
        },
        {
            "type": "Feature",
            "properties": {
                "name": "FIRENZE VIA DI SCANDICCI 292-292/A",
                "id": "6584",
                "brand": "Q8",
                "amenity": "fuel",
                "operator": "SERVIZI & GESTIONI ITALIA srl"
            },
            "geometry": {
                "type": "Point",
                "coordinates": [
                    11.205131315869151,
                    43.760457411460905
                ]
            }
        },
        {
            "type": "Feature",
            "properties": {
                "name": "Castellani & C. snc",
                "id": "17064",
                "brand": "Agip Eni",
                "amenity": "fuel",
                "operator": "CASTELLANI PIERO & C. S.N.C."
            },
            "geometry": {
                "type": "Point",
                "coordinates": [
                    11.231975555419924,
                    43.77193982702084
                ]
            }
        },
        {
            "type": "Feature",
            "properties": {
                "name": "Tamoil Sansovino",
                "id": "14782",
                "brand": "Tamoil",
                "amenity": "fuel",
                "operator": "FATINI MARCO"
            },
            "geometry": {
                "type": "Point",
                "coordinates": [
                    11.227148249745367,
                    43.775034925754795
                ]
            }
        },
        {
            "type": "Feature",
            "properties": {
                "name": "Q8 f.lli iacoviello",
                "id": "9269",
                "brand": "Q8",
                "amenity": "fuel",
                "operator": "F.LLI IACOVIELLO S.N.C. DI ALESSANDRO E MARIO IACOVIELLO"
            },
            "geometry": {
                "type": "Point",
                "coordinates": [
                    11.221300363540651,
                    43.82086326001945
                ]
            }
        },
        {
            "type": "Feature",
            "properties": {
                "name": "PERETOLA NORD",
                "id": "3500",
                "brand": "Agip Eni",
                "amenity": "fuel",
                "operator": "sara srl"
            },
            "geometry": {
                "type": "Point",
                "coordinates": [
                    11.173160117721523,
                    43.819506410107586
                ]
            }
        },
        {
            "type": "Feature",
            "properties": {
                "name": "impianto agip n 4892 Sementa e Pini snc",
                "id": "14168",
                "brand": "Agip Eni",
                "amenity": "fuel",
                "operator": "IMPIANTO AGIP N. 4892 SEMENTA E PINI DI SEMENTA GIACOMO E PINI ALESSANDRO - S.N.C."
            },
            "geometry": {
                "type": "Point",
                "coordinates": [
                    11.223699365992731,
                    43.817199689649584
                ]
            }
        },
        {
            "type": "Feature",
            "properties": {
                "name": "FIRENZE NENNI SCANDICCI",
                "id": "30482",
                "brand": "Tamoil",
                "amenity": "fuel",
                "operator": "SIRTAM S.P.A."
            },
            "geometry": {
                "type": "Point",
                "coordinates": [
                    11.20248332619667,
                    43.7648224772669
                ]
            }
        },
        {
            "type": "Feature",
            "properties": {
                "name": "FIRENZE BACCIO DA MONTELUPO,170-172",
                "id": "22332",
                "brand": "Q8",
                "amenity": "fuel",
                "operator": "SERVIZI & GESTIONI ITALIA S.R.L."
            },
            "geometry": {
                "type": "Point",
                "coordinates": [
                    11.185667216777802,
                    43.76672722790927
                ]
            }
        },
        {
            "type": "Feature",
            "properties": {
                "name": "esso",
                "id": "16360",
                "brand": "Esso",
                "amenity": "fuel",
                "operator": "SCA.VI DI SCATARZI ROBERTO E C. S.A.S., IN SIGLA*SCA.VI S.A.S."
            },
            "geometry": {
                "type": "Point",
                "coordinates": [
                    11.235178112983704,
                    43.76922125063662
                ]
            }
        },
        {
            "type": "Feature",
            "properties": {
                "name": "Firenze - Viale Luder",
                "id": "5628",
                "amenity": "fuel",
                "operator": "BEYFIN S.P.A."
            },
            "geometry": {
                "type": "Point",
                "coordinates": [
                    11.203622435582021,
                    43.80126836603012
                ]
            }
        },
        {
            "type": "Feature",
            "properties": {
                "name": "Codecasa Stazione di Servizio Esso",
                "id": "14713",
                "brand": "Esso",
                "amenity": "fuel",
                "operator": "CODECASA GIOVANNI"
            },
            "geometry": {
                "type": "Point",
                "coordinates": [
                    11.234188377857208,
                    43.748813978898895
                ]
            }
        },
        {
            "type": "Feature",
            "properties": {
                "name": "BUOZZI",
                "id": "28337",
                "brand": "Api-Ip",
                "amenity": "fuel",
                "operator": "AUTOSERVICE S.A.S. DI PAMPALONI GIAMPAOLO & C."
            },
            "geometry": {
                "type": "Point",
                "coordinates": [
                    11.149392180461405,
                    43.81632099971913
                ]
            }
        },
        {
            "type": "Feature",
            "properties": {
                "name": "PATTINO SAS",
                "id": "29802",
                "brand": "Esso",
                "amenity": "fuel",
                "operator": "PATTINO S.A.S. DI CORRADETTI MASSIMO & C."
            },
            "geometry": {
                "type": "Point",
                "coordinates": [
                    11.156173499336205,
                    43.79408359128949
                ]
            }
        },
        {
            "type": "Feature",
            "properties": {
                "name": "DUE V SNC",
                "id": "16691",
                "brand": "Esso",
                "amenity": "fuel",
                "operator": "DUE V DI VITRANO CLAUDIO E VITRANO ALESSANDRO S.N.C."
            },
            "geometry": {
                "type": "Point",
                "coordinates": [
                    11.172869056463242,
                    43.80887559418886
                ]
            }
        },
        {
            "type": "Feature",
            "properties": {
                "name": "REGINALDO GIULIANI",
                "id": "28333",
                "brand": "Api-Ip",
                "amenity": "fuel",
                "operator": "AUTOSERVICE S.A.S. DI PAMPALONI GIAMPAOLO & C."
            },
            "geometry": {
                "type": "Point",
                "coordinates": [
                    11.236772297621087,
                    43.80273362717077
                ]
            }
        },
        {
            "type": "Feature",
            "properties": {
                "name": "Bambi Alfiero e Bambi Andrea Snc",
                "id": "24419",
                "brand": "Agip Eni",
                "amenity": "fuel",
                "operator": "BAMBI ALFIERO E BAMBI ANDREA - S.N.C."
            },
            "geometry": {
                "type": "Point",
                "coordinates": [
                    11.187066905487882,
                    43.757371959394106
                ]
            }
        },
        {
            "type": "Feature",
            "properties": {
                "name": "ovest bisenzio di fusi e c snc",
                "id": "8509",
                "brand": "Agip Eni",
                "amenity": "fuel",
                "operator": "OVEST BISENZIO DI FUSI E C. S.N.C."
            },
            "geometry": {
                "type": "Point",
                "coordinates": [
                    11.234063655138016,
                    43.74903292385472
                ]
            }
        },
        {
            "type": "Feature",
            "properties": {
                "name": "esso futura sas",
                "id": "29628",
                "brand": "Esso",
                "amenity": "fuel",
                "operator": "FUTURA S.A.S DI BRAZZINI MATTEO E C."
            },
            "geometry": {
                "type": "Point",
                "coordinates": [
                    11.2274868786335,
                    43.745128220680186
                ]
            }
        },
        {
            "type": "Feature",
            "properties": {
                "name": "AGIP ENI",
                "id": "22809",
                "brand": "Agip Eni",
                "amenity": "fuel",
                "operator": "SIGNORI MAURIZIO"
            },
            "geometry": {
                "type": "Point",
                "coordinates": [
                    11.196166858196989,
                    43.769019868676644
                ]
            }
        },
        {
            "type": "Feature",
            "properties": {
                "name": "TOTALERG Via Reginaldo Giuliani",
                "id": "17295",
                "brand": "Total Erg",
                "amenity": "fuel",
                "operator": "S.A.R. SNC DI SINGH AMRIK E SINGH RAVINDER BIR"
            },
            "geometry": {
                "type": "Point",
                "coordinates": [
                    11.238723337434408,
                    43.79992206557622
                ]
            }
        },
        {
            "type": "Feature",
            "properties": {
                "name": "4099",
                "id": "29232",
                "brand": "Tamoil",
                "amenity": "fuel",
                "operator": "T.D.M. S.R.L."
            },
            "geometry": {
                "type": "Point",
                "coordinates": [
                    11.221474707126616,
                    43.79771642383509
                ]
            }
        },
        {
            "type": "Feature",
            "properties": {
                "name": "REPSOL IPER POWER",
                "id": "20250",
                "brand": "Repsol",
                "amenity": "fuel",
                "operator": "IPER POWER S.R.L."
            },
            "geometry": {
                "type": "Point",
                "coordinates": [
                    11.206887675424241,
                    43.81983341557392
                ]
            }
        },
        {
            "type": "Feature",
            "properties": {
                "name": "ip",
                "id": "16515",
                "brand": "Api-Ip",
                "amenity": "fuel",
                "operator": "DUE C SAS DI CENCINI FRANCESCO"
            },
            "geometry": {
                "type": "Point",
                "coordinates": [
                    11.186450421810148,
                    43.7750247155836
                ]
            }
        },
        {
            "type": "Feature",
            "properties": {
                "name": "FIRENZE NENNI FIRENZE",
                "id": "30483",
                "brand": "Tamoil",
                "amenity": "fuel",
                "operator": "SIRTAM S.P.A."
            },
            "geometry": {
                "type": "Point",
                "coordinates": [
                    11.206131130456923,
                    43.76504436854756
                ]
            }
        },
        {
            "type": "Feature",
            "properties": {
                "name": "Firenze 2 snc - Beyfin",
                "id": "28020",
                "amenity": "fuel",
                "operator": "FIRENZE 2 S.N.C. DI IVANO GENIVI E C."
            },
            "geometry": {
                "type": "Point",
                "coordinates": [
                    11.21532917022705,
                    43.804451378663344
                ]
            }
        },
        {
            "type": "Feature",
            "properties": {
                "name": "FIRENZE VIALE GUIDONI",
                "id": "14932",
                "brand": "Tamoil",
                "amenity": "fuel",
                "operator": "OIL SERVICE S.R.L."
            },
            "geometry": {
                "type": "Point",
                "coordinates": [
                    11.209166049957275,
                    43.79899573852016
                ]
            }
        },
        {
            "type": "Feature",
            "properties": {
                "name": "Firenze - Senese",
                "id": "5283",
                "amenity": "fuel",
                "operator": "BEYFIN S.P.A."
            },
            "geometry": {
                "type": "Point",
                "coordinates": [
                    11.228161454200745,
                    43.74564960356203
                ]
            }
        },
        {
            "type": "Feature",
            "properties": {
                "name": "ENI - SBS di Simone Brunelli Sas",
                "id": "11284",
                "brand": "Agip Eni",
                "amenity": "fuel",
                "operator": "SBS DI SIMONE BRUNELLI & C. S.A.S."
            },
            "geometry": {
                "type": "Point",
                "coordinates": [
                    11.12386107444763,
                    43.81394013370569
                ]
            }
        },
        {
            "type": "Feature",
            "properties": {
                "name": "DISTRIBUTORE ERG",
                "id": "16788",
                "brand": "Total Erg",
                "amenity": "fuel",
                "operator": "F.LLI MENCHETTI SNC DI ALESSANDRO E NATALE MENCHETTI"
            },
            "geometry": {
                "type": "Point",
                "coordinates": [
                    11.224363446235657,
                    43.789010077749026
                ]
            }
        },
        {
            "type": "Feature",
            "properties": {
                "name": "vi va carb s.n.c",
                "id": "9862",
                "brand": "Tamoil",
                "amenity": "fuel",
                "operator": "VI-VA CARB. SNC DI VILLA CLAUDIO E VALENTINI RICCARDO"
            },
            "geometry": {
                "type": "Point",
                "coordinates": [
                    11.206183615977466,
                    43.76502962497196
                ]
            }
        },
        {
            "type": "Feature",
            "properties": {
                "name": "Q8 winx di Cosimina Marchese",
                "id": "12268",
                "brand": "Q8",
                "amenity": "fuel",
                "operator": "WINX DI COSIMINA MARCHESE"
            },
            "geometry": {
                "type": "Point",
                "coordinates": [
                    11.21379554271698,
                    43.772935731982784
                ]
            }
        },
        {
            "type": "Feature",
            "properties": {
                "name": "Le BAGNESE SNC",
                "id": "28027",
                "brand": "Agip Eni",
                "amenity": "fuel",
                "operator": "LE BAGNESE DI MACINAI MARCO, BERNARDI ROSSANA E VIGNOLI BARBARA S.N.C."
            },
            "geometry": {
                "type": "Point",
                "coordinates": [
                    11.199225783348083,
                    43.75703452179791
                ]
            }
        },
        {
            "type": "Feature",
            "properties": {
                "name": "Firenze Viale Etruria",
                "id": "30523",
                "brand": "Total Erg",
                "amenity": "fuel",
                "operator": "GESTIONI EUROPA - SOCIETA' PER AZIONI"
            },
            "geometry": {
                "type": "Point",
                "coordinates": [
                    11.210116893053055,
                    43.772661482090676
                ]
            }
        },
        {
            "type": "Feature",
            "properties": {
                "name": "Fibbi&Valacchi snc",
                "id": "15532",
                "brand": "Q8",
                "amenity": "fuel",
                "operator": "FIBBI E VALACCHI  S.N.C. DI FIBBI PAOLO & C."
            },
            "geometry": {
                "type": "Point",
                "coordinates": [
                    11.235971376299856,
                    43.75025822578593
                ]
            }
        },
        {
            "type": "Feature",
            "properties": {
                "name": "55923 Guidoni FI",
                "id": "26855",
                "brand": "Agip Eni",
                "amenity": "fuel",
                "operator": "ENI RETE OIL&NONOIL S.P.A."
            },
            "geometry": {
                "type": "Point",
                "coordinates": [
                    11.214415401154838,
                    43.79787772020989
                ]
            }
        },
        {
            "type": "Feature",
            "properties": {
                "name": "TOTALERG",
                "id": "29123",
                "brand": "Total Erg",
                "amenity": "fuel",
                "operator": "TRE ES. DI GIORGIONE STEFANO & C. S.N.C."
            },
            "geometry": {
                "type": "Point",
                "coordinates": [
                    11.199337813491864,
                    43.77293007919962
                ]
            }
        },
        {
            "type": "Feature",
            "properties": {
                "name": "2063",
                "id": "24667",
                "brand": "Tamoil",
                "amenity": "fuel",
                "operator": "T.D.M. S.R.L."
            },
            "geometry": {
                "type": "Point",
                "coordinates": [
                    11.227135728836062,
                    43.74463374754643
                ]
            }
        },
        {
            "type": "Feature",
            "properties": {
                "name": "stazione ip",
                "id": "18744",
                "brand": "Api-Ip",
                "amenity": "fuel",
                "operator": "STAZIONE DI SERVIZIO DI FALCIANI SIMONE"
            },
            "geometry": {
                "type": "Point",
                "coordinates": [
                    11.232438799930605,
                    43.77365449412382
                ]
            }
        },
        {
            "type": "Feature",
            "properties": {
                "name": "Q8",
                "id": "29075",
                "brand": "Q8",
                "amenity": "fuel",
                "operator": "L & N CARBURANTI S.A.S. DI CINZIA PEPE"
            },
            "geometry": {
                "type": "Point",
                "coordinates": [
                    11.179993269836359,
                    43.80540365839292
                ]
            }
        },
        {
            "type": "Feature",
            "properties": {
                "name": "IP",
                "id": "10215",
                "brand": "Api-Ip",
                "amenity": "fuel",
                "operator": "MORONI MASSIMO"
            },
            "geometry": {
                "type": "Point",
                "coordinates": [
                    11.200225522713936,
                    43.79546851618291
                ]
            }
        },
        {
            "type": "Feature",
            "properties": {
                "name": "PV 4843",
                "id": "26911",
                "brand": "Agip Eni",
                "amenity": "fuel",
                "operator": "GESTIONI INNOVATIVE ITALIA S.R.L."
            },
            "geometry": {
                "type": "Point",
                "coordinates": [
                    11.177605837583542,
                    43.76494943247331
                ]
            }
        },
        {
            "type": "Feature",
            "properties": {
                "name": "FIRENZE SIMONE MARTINI",
                "id": "30414",
                "brand": "Tamoil",
                "amenity": "fuel",
                "operator": "SIRTAM S.P.A."
            },
            "geometry": {
                "type": "Point",
                "coordinates": [
                    11.199470534920692,
                    43.7744321439898
                ]
            }
        },
        {
            "type": "Feature",
            "properties": {
                "name": "FIRENZE VIALE GUIDONI",
                "id": "6585",
                "brand": "Q8",
                "amenity": "fuel",
                "operator": "SERVIZI & GESTIONI ITALIA srl"
            },
            "geometry": {
                "type": "Point",
                "coordinates": [
                    11.213692458196988,
                    43.79795603917086
                ]
            }
        },
        {
            "type": "Feature",
            "properties": {
                "name": "CAMPI BISENZIO PRIMALDO PAOLIERI",
                "id": "6587",
                "brand": "Q8",
                "amenity": "fuel",
                "operator": "SERVIZI & GESTIONI ITALIA srl"
            },
            "geometry": {
                "type": "Point",
                "coordinates": [
                    11.146528781228653,
                    43.823689871807524
                ]
            }
        },
        {
            "type": "Feature",
            "properties": {
                "name": "DISTRIBUTORE ERG",
                "id": "16784",
                "brand": "Total Erg",
                "amenity": "fuel",
                "operator": "F.LLI MENCHETTI SNC DI ALESSANDRO E NATALE MENCHETTI"
            },
            "geometry": {
                "type": "Point",
                "coordinates": [
                    11.22289627790451,
                    43.79032052943719
                ]
            }
        },
        {
            "type": "Feature",
            "properties": {
                "name": "staz. di serv. esso m.f. snc di vitellozzi",
                "id": "19009",
                "brand": "Esso",
                "amenity": "fuel",
                "operator": "M.F. S.N.C. DI VITELLOZZI MATTEO & C."
            },
            "geometry": {
                "type": "Point",
                "coordinates": [
                    11.187198758125305,
                    43.79384977691213
                ]
            }
        },
        {
            "type": "Feature",
            "properties": {
                "name": "kuwait italia",
                "id": "9209",
                "brand": "Q8",
                "amenity": "fuel",
                "operator": "MURI L. & S. S.N.C."
            },
            "geometry": {
                "type": "Point",
                "coordinates": [
                    11.208905922753956,
                    43.770437506110305
                ]
            }
        },
        {
            "type": "Feature",
            "properties": {
                "name": "stazione di servizio esso di Zurlo & C snc",
                "id": "10661",
                "brand": "Esso",
                "amenity": "fuel",
                "operator": "STAZIONE DI SERVIZIO DI ZURLO ANGELO E C. S.N.C."
            },
            "geometry": {
                "type": "Point",
                "coordinates": [
                    11.15855813026428,
                    43.76736953009038
                ]
            }
        },
        {
            "type": "Feature",
            "properties": {
                "name": "ESSO LEONARDO RISTORI E C. SNC",
                "id": "6131",
                "brand": "Esso",
                "amenity": "fuel",
                "operator": "LEONARDO RISTORI E C. S.N.C."
            },
            "geometry": {
                "type": "Point",
                "coordinates": [
                    11.20067685842514,
                    43.76424691857724
                ]
            }
        },
        {
            "type": "Feature",
            "properties": {
                "name": "impianto eni 04839 alderighi snc",
                "id": "18434",
                "brand": "Agip Eni",
                "amenity": "fuel",
                "operator": "ALDERIGHI MAURIZIO S.N.C."
            },
            "geometry": {
                "type": "Point",
                "coordinates": [
                    11.110860407352446,
                    43.7695791833251
                ]
            }
        },
        {
            "type": "Feature",
            "properties": {
                "name": "FIRENZE NORD",
                "id": "28141",
                "brand": "Q8",
                "amenity": "fuel",
                "operator": "C.N. SAS DI F. NANNETTI E C."
            },
            "geometry": {
                "type": "Point",
                "coordinates": [
                    11.160446405410767,
                    43.832867480981555
                ]
            }
        },
        {
            "type": "Feature",
            "properties": {
                "name": "FIRENZE-VIA SESTESE N 86",
                "id": "11588",
                "brand": "Q8",
                "amenity": "fuel",
                "operator": "SERVIZI & GESTIONI ITALIA S.R.L."
            },
            "geometry": {
                "type": "Point",
                "coordinates": [
                    11.22675405158998,
                    43.81538257101056
                ]
            }
        },
        {
            "type": "Feature",
            "properties": {
                "name": "METANO SCANDICCI",
                "id": "13739",
                "amenity": "fuel",
                "operator": "METANO SCANDICCI S.R.L."
            },
            "geometry": {
                "type": "Point",
                "coordinates": [
                    11.151174889935305,
                    43.77251360679481
                ]
            }
        },
        {
            "type": "Feature",
            "properties": {
                "name": "FIRENZE-VIA MARAGLIANO 2",
                "id": "11587",
                "brand": "Q8",
                "amenity": "fuel",
                "operator": "SERVIZI & GESTIONI ITALIA S.R.L."
            },
            "geometry": {
                "type": "Point",
                "coordinates": [
                    11.239780058860788,
                    43.78435670519642
                ]
            }
        },
        {
            "type": "Feature",
            "properties": {
                "name": "FIESOLI PAOLO",
                "id": "17494",
                "amenity": "fuel",
                "operator": "FIESOLI PAOLO"
            },
            "geometry": {
                "type": "Point",
                "coordinates": [
                    11.228303612631294,
                    43.786150684225326
                ]
            }
        },
        {
            "type": "Feature",
            "properties": {
                "name": "Firenze - Campi Bisenzio",
                "id": "5284",
                "amenity": "fuel",
                "operator": "BEYFIN S.P.A."
            },
            "geometry": {
                "type": "Point",
                "coordinates": [
                    11.102226376533508,
                    43.80771866041542
                ]
            }
        },
        {
            "type": "Feature",
            "properties": {
                "name": "m&m di maionchi",
                "id": "7226",
                "brand": "Esso",
                "amenity": "fuel",
                "operator": "M  &  M DI MAIONCHI LAURA E MINCHIONI ALESSIO S.N.C."
            },
            "geometry": {
                "type": "Point",
                "coordinates": [
                    11.216402993254063,
                    43.71022681863142
                ]
            }
        },
        {
            "type": "Feature",
            "properties": {
                "name": "SOCIETA PEGASO DI PERI COSIMO & C. SNC",
                "id": "12405",
                "brand": "Esso",
                "amenity": "fuel",
                "operator": "PEGASO DI PERI COSIMO E C. S.N.C."
            },
            "geometry": {
                "type": "Point",
                "coordinates": [
                    11.214603463337653,
                    43.79292384471688
                ]
            }
        },
        {
            "type": "Feature",
            "properties": {
                "name": "Vezzosi Mauro e Filippo snc",
                "id": "6937",
                "brand": "Agip Eni",
                "amenity": "fuel",
                "operator": "VEZZOSI MAURO E FILIPPO S.N.C."
            },
            "geometry": {
                "type": "Point",
                "coordinates": [
                    11.10094964504242,
                    43.78710127439318
                ]
            }
        },
        {
            "type": "Feature",
            "properties": {
                "name": "Tamoil",
                "id": "27953",
                "brand": "Tamoil",
                "amenity": "fuel",
                "operator": "SINGH GURPREET"
            },
            "geometry": {
                "type": "Point",
                "coordinates": [
                    11.24490483452803,
                    43.73826343436253
                ]
            }
        },
        {
            "type": "Feature",
            "properties": {
                "name": "ELY FRA SNC",
                "id": "20740",
                "brand": "Aquila",
                "amenity": "fuel",
                "operator": "ELY.FRA SOCIETA' IN NOME COLLETTIVO DI LANGELLA ELISABETTA"
            },
            "geometry": {
                "type": "Point",
                "coordinates": [
                    11.188609600067139,
                    43.81903869198418
                ]
            }
        },
        {
            "type": "Feature",
            "properties": {
                "name": "SCANDICCI",
                "id": "5940",
                "brand": "Total Erg",
                "amenity": "fuel",
                "operator": "GESTIONI EUROPA S.p.A."
            },
            "geometry": {
                "type": "Point",
                "coordinates": [
                    11.155825139881129,
                    43.765768433187965
                ]
            }
        },
        {
            "type": "Feature",
            "properties": {
                "name": "FIRENZE TALENTI 112",
                "id": "6588",
                "brand": "Q8",
                "amenity": "fuel",
                "operator": "SERVIZI & GESTIONI ITALIA srl"
            },
            "geometry": {
                "type": "Point",
                "coordinates": [
                    11.215008881614722,
                    43.7736873200623
                ]
            }
        },
        {
            "type": "Feature",
            "properties": {
                "name": "ENI 04812",
                "id": "10344",
                "brand": "Agip Eni",
                "amenity": "fuel",
                "operator": "BAROCCHI LUCA E MATTEO & C. S.N.C."
            },
            "geometry": {
                "type": "Point",
                "coordinates": [
                    11.245269120237708,
                    43.78784839108384
                ]
            }
        },
        {
            "type": "Feature",
            "properties": {
                "name": "AREA DI SERVIZIO FIRENZE",
                "id": "27595",
                "brand": "Ies",
                "amenity": "fuel",
                "operator": "PETROL-FIN S.R.L."
            },
            "geometry": {
                "type": "Point",
                "coordinates": [
                    11.226771289843782,
                    43.74410829566967
                ]
            }
        },
        {
            "type": "Feature",
            "properties": {
                "name": "eni",
                "id": "14186",
                "brand": "Agip Eni",
                "amenity": "fuel",
                "operator": "F.LLI CAMPIGLI S.N.C. DI SIMONE CAMPIGLI E ALESSIO CAMPIGLI"
            },
            "geometry": {
                "type": "Point",
                "coordinates": [
                    11.194698214530947,
                    43.772267148861665
                ]
            }
        },
        {
            "type": "Feature",
            "properties": {
                "name": "Delfini Carburanti - Lastra a Signa",
                "id": "4882",
                "amenity": "fuel",
                "operator": "ERCOLI S.R.L."
            },
            "geometry": {
                "type": "Point",
                "coordinates": [
                    11.122662797570229,
                    43.77075157571519
                ]
            }
        },
        {
            "type": "Feature",
            "properties": {
                "name": "PV 4740",
                "id": "30222",
                "brand": "Agip Eni",
                "amenity": "fuel",
                "operator": "GESTIONI INNOVATIVE ITALIA S.R.L."
            },
            "geometry": {
                "type": "Point",
                "coordinates": [
                    11.224814057350159,
                    43.73848661757375
                ]
            }
        },
        {
            "type": "Feature",
            "properties": {
                "name": "FIRENZE-VIA PISANA  83/A",
                "id": "11589",
                "brand": "Q8",
                "amenity": "fuel",
                "operator": "SERVIZI & GESTIONI ITALIA S.R.L."
            },
            "geometry": {
                "type": "Point",
                "coordinates": [
                    11.228280466270462,
                    43.772192252750195
                ]
            }
        },
        {
            "type": "Feature",
            "properties": {
                "name": "Moscatelli & Nucci snc",
                "id": "15579",
                "brand": "Q8",
                "amenity": "fuel",
                "operator": "MOSCATELLI ANGELO, NUCCI GELSOMINO E C. S.N.C."
            },
            "geometry": {
                "type": "Point",
                "coordinates": [
                    11.20828092098236,
                    43.79929464756516
                ]
            }
        },
        {
            "type": "Feature",
            "properties": {
                "name": "Firenze",
                "id": "9352",
                "amenity": "fuel",
                "operator": "I.C.M. SOCIETA' IN NOME COLLETTIVO DI BRUNO, CRISTIANO E FABRIZIO MAGGI"
            },
            "geometry": {
                "type": "Point",
                "coordinates": [
                    11.228799819946289,
                    43.7461807639952
                ]
            }
        },
        {
            "type": "Feature",
            "properties": {
                "name": "ENI Impianto 58313",
                "id": "22927",
                "brand": "Agip Eni",
                "amenity": "fuel",
                "operator": "BRINI CARLO & BETTARINI ROBERTO S.N.C."
            },
            "geometry": {
                "type": "Point",
                "coordinates": [
                    11.119803026285807,
                    43.814116163532
                ]
            }
        },
        {
            "type": "Feature",
            "properties": {
                "name": "BEYFIN",
                "id": "14560",
                "amenity": "fuel",
                "operator": "PALAZZINI SERGIO"
            },
            "geometry": {
                "type": "Point",
                "coordinates": [
                    11.2226240336895,
                    43.820311715338356
                ]
            }
        },
        {
            "type": "Feature",
            "properties": {
                "name": "stazione di servizio di manno valerio",
                "id": "8604",
                "brand": "Agip Eni",
                "amenity": "fuel",
                "operator": "STAZIONE DI SERVIZIO DI MANNO VALERIO"
            },
            "geometry": {
                "type": "Point",
                "coordinates": [
                    11.192729473114014,
                    43.78053481984265
                ]
            }
        },
        {
            "type": "Feature",
            "properties": {
                "name": "ESSO 2744",
                "id": "26390",
                "brand": "Esso",
                "amenity": "fuel",
                "operator": "OIL & WASH COLLI ALTI S.N.C. DI BALLERINI STEFANO E GALLI SILVIO"
            },
            "geometry": {
                "type": "Point",
                "coordinates": [
                    11.106893420219421,
                    43.80033152505745
                ]
            }
        },
        {
            "type": "Feature",
            "properties": {
                "name": "PV 4875",
                "id": "24905",
                "brand": "Agip Eni",
                "amenity": "fuel",
                "operator": "GESTIONI INNOVATIVE ITALIA S.R.L."
            },
            "geometry": {
                "type": "Point",
                "coordinates": [
                    11.225570440292358,
                    43.74296572085396
                ]
            }
        },
        {
            "type": "Feature",
            "properties": {
                "name": "8088",
                "id": "29223",
                "brand": "Tamoil",
                "amenity": "fuel",
                "operator": "T.D.M. S.R.L."
            },
            "geometry": {
                "type": "Point",
                "coordinates": [
                    11.080061942338943,
                    43.811217647749274
                ]
            }
        },
        {
            "type": "Feature",
            "properties": {
                "name": "FIRENZE VIA DEI CATTANEI SNC",
                "id": "9118",
                "brand": "Q8",
                "amenity": "fuel",
                "operator": "SERVIZI & GESTIONI ITALIA S.R.L."
            },
            "geometry": {
                "type": "Point",
                "coordinates": [
                    11.158780753612518,
                    43.79650296459188
                ]
            }
        },
        {
            "type": "Feature",
            "properties": {
                "name": "STAZ. DI SERVIZIO ESSO DI CAPPELLI MIRCO",
                "id": "30573",
                "brand": "Esso",
                "amenity": "fuel",
                "operator": "CAPPELLI MIRCO DISTRIBUTORE ESSO"
            },
            "geometry": {
                "type": "Point",
                "coordinates": [
                    11.119483709335327,
                    43.769583057119384
                ]
            }
        },
        {
            "type": "Feature",
            "properties": {
                "name": "FIRENZE - MALAPARTE",
                "id": "21839",
                "brand": "Api-Ip",
                "amenity": "fuel",
                "operator": "ALA CARBURANTI S.R.L."
            },
            "geometry": {
                "type": "Point",
                "coordinates": [
                    11.158374398946762,
                    43.79686964660822
                ]
            }
        },
        {
            "type": "Feature",
            "properties": {
                "name": "DISTRIBUTORE TOTAL-ERG",
                "id": "18157",
                "brand": "Total Erg",
                "amenity": "fuel",
                "operator": "CHIACCHIERONI STEFANO"
            },
            "geometry": {
                "type": "Point",
                "coordinates": [
                    11.216896139950562,
                    43.773881833449934
                ]
            }
        },
        {
            "type": "Feature",
            "properties": {
                "name": "Lastra a Signa - S.G.C. FI-PI-LI LOC. PIANACCI",
                "id": "26637",
                "brand": "Q8",
                "amenity": "fuel",
                "operator": "SERVIZI & GESTIONI ITALIA S.R.L."
            },
            "geometry": {
                "type": "Point",
                "coordinates": [
                    11.106273829936981,
                    43.735667676319856
                ]
            }
        },
        {
            "type": "Feature",
            "properties": {
                "name": "Stazione di Servizio Q8 Elle.Esse di Salvucci Laura",
                "id": "9377",
                "brand": "Q8",
                "amenity": "fuel",
                "operator": "ELLE.ESSE DI SALVUCCI LAURA"
            },
            "geometry": {
                "type": "Point",
                "coordinates": [
                    11.220651268959045,
                    43.81980893434646
                ]
            }
        },
        {
            "type": "Feature",
            "properties": {
                "name": "PRONTERA GABRIELE STAZIONE DI SERVIZIO ESSO",
                "id": "30109",
                "brand": "Esso",
                "amenity": "fuel",
                "operator": "PRONTERA GABRIELE"
            },
            "geometry": {
                "type": "Point",
                "coordinates": [
                    11.249541282873224,
                    43.78767433911086
                ]
            }
        },
        {
            "type": "Feature",
            "properties": {
                "name": "MA.RI.NA. E C. S.N.C.",
                "id": "27984",
                "brand": "Esso",
                "amenity": "fuel",
                "operator": "MA.RI.NA E C. - S.N.C. DI BRUSCO SIMONE"
            },
            "geometry": {
                "type": "Point",
                "coordinates": [
                    11.181402504444122,
                    43.765253935499814
                ]
            }
        },
        {
            "type": "Feature",
            "properties": {
                "name": "FIRENZE VIA SENESE 207/A",
                "id": "6589",
                "brand": "Q8",
                "amenity": "fuel",
                "operator": "SERVIZI & GESTIONI ITALIA srl"
            },
            "geometry": {
                "type": "Point",
                "coordinates": [
                    11.232985282803385,
                    43.7481949447391
                ]
            }
        },
        {
            "type": "Feature",
            "properties": {
                "name": "FIRENZE",
                "id": "5527",
                "brand": "Total Erg",
                "amenity": "fuel",
                "operator": "GESTIONI EUROPA S.p.A."
            },
            "geometry": {
                "type": "Point",
                "coordinates": [
                    11.206875233135177,
                    43.76593231492432
                ]
            }
        },
        {
            "type": "Feature",
            "properties": {
                "name": "Chiaramonti Claudio Stazione IP",
                "id": "13673",
                "brand": "Api-Ip",
                "amenity": "fuel",
                "operator": "CHIARAMONTI CLAUDIO - DISTRIBUTORE CARBURANTI IP -"
            },
            "geometry": {
                "type": "Point",
                "coordinates": [
                    11.228521204956904,
                    43.78602690897479
                ]
            }
        },
        {
            "type": "Feature",
            "properties": {
                "name": "FIRENZE - VIA DELLA NAVE DI BROZZI - ANGOLO VIA SAN DONNINO",
                "id": "11591",
                "brand": "Q8",
                "amenity": "fuel",
                "operator": "SERVIZI & GESTIONI ITALIA S.R.L."
            },
            "geometry": {
                "type": "Point",
                "coordinates": [
                    11.164327561855316,
                    43.78976134495156
                ]
            }
        },
        {
            "type": "Feature",
            "properties": {
                "name": "TASSINI PAOLO",
                "id": "16959",
                "brand": "Esso",
                "amenity": "fuel",
                "operator": "TASSINI PAOLO"
            },
            "geometry": {
                "type": "Point",
                "coordinates": [
                    11.217576116323473,
                    43.77571650826183
                ]
            }
        },
        {
            "type": "Feature",
            "properties": {
                "name": "PV 4852",
                "id": "30220",
                "brand": "Agip Eni",
                "amenity": "fuel",
                "operator": "GESTIONI INNOVATIVE ITALIA S.R.L."
            },
            "geometry": {
                "type": "Point",
                "coordinates": [
                    11.21619611978531,
                    43.77135645374162
                ]
            }
        },
        {
            "type": "Feature",
            "properties": {
                "name": "PERETOLA SUD",
                "id": "3861",
                "brand": "Agip Eni",
                "amenity": "fuel",
                "operator": "ENI RETE OIL&NONOIL S.P.A."
            },
            "geometry": {
                "type": "Point",
                "coordinates": [
                    11.172902584075926,
                    43.81833036988591
                ]
            }
        },
        {
            "type": "Feature",
            "properties": {
                "name": "FIRENZE VIA CANOVA ANG.VIA FEDI",
                "id": "22369",
                "brand": "Q8",
                "amenity": "fuel",
                "operator": "SERVIZI & GESTIONI ITALIA S.R.L."
            },
            "geometry": {
                "type": "Point",
                "coordinates": [
                    11.205427733065791,
                    43.77729196505502
                ]
            }
        }
    ]
}