{
    "type": "FeatureCollection",
    "features": [
        {
            "type": "Feature",
            "properties": {
                "name": "ZOLA PREDOSA - PONTE RONCA",
                "id": "27277",
                "brand": "Api-Ip",
                "amenity": "fuel",
                "operator": "IP SERVICES S.R.L."
            },
            "geometry": {
                "type": "Point",
                "coordinates": [
                    11.185553236770604,
                    44.50908087211515
                ]
            }
        },
        {
            "type": "Feature",
            "properties": {
                "name": "STAZIONE DI SERVIZIO ESSO DI IEVA MASSIMILIANO & C:snc",
                "id": "9418",
                "brand": "Esso",
                "amenity": "fuel",
                "operator": "STAZIONE DI SERVIZIO IEVA S.N.C. DI IEVA MASSIMILIANO E C."
            },
            "geometry": {
                "type": "Point",
                "coordinates": [
                    11.139085200663656,
                    44.51081604232916
                ]
            }
        },
        {
            "type": "Feature",
            "properties": {
                "name": "METANAUTO CASTELFRANCO EMILIA",
                "id": "22361",
                "amenity": "fuel",
                "operator": "METANAUTO CASTELFRANCO EMILIA SOCIETA' A RESPONSABILITA' LIMITATA"
            },
            "geometry": {
                "type": "Point",
                "coordinates": [
                    11.08044147491455,
                    44.58556504390147
                ]
            }
        },
        {
            "type": "Feature",
            "properties": {
                "name": "salomone antonio15553",
                "id": "28868",
                "brand": "Agip Eni",
                "amenity": "fuel",
                "operator": "SALOMONE ANTONIO"
            },
            "geometry": {
                "type": "Point",
                "coordinates": [
                    11.233552233065778,
                    44.50559050811442
                ]
            }
        },
        {
            "type": "Feature",
            "properties": {
                "name": "IMPIANTO ENI 25515",
                "id": "7452",
                "brand": "Agip Eni",
                "amenity": "fuel",
                "operator": "VIGNOLI STEFANO & C. S.N.C."
            },
            "geometry": {
                "type": "Point",
                "coordinates": [
                    11.241686135690315,
                    44.528780658227
                ]
            }
        },
        {
            "type": "Feature",
            "properties": {
                "name": "totalerg",
                "id": "19828",
                "brand": "Total Erg",
                "amenity": "fuel",
                "operator": "LUCCARINI GIUSEPPE S.R.L."
            },
            "geometry": {
                "type": "Point",
                "coordinates": [
                    11.194024980068205,
                    44.50041540108625
                ]
            }
        },
        {
            "type": "Feature",
            "properties": {
                "name": "Cassanelli srl",
                "id": "11205",
                "brand": "Esso",
                "amenity": "fuel",
                "operator": "CASSANELLI S.R.L."
            },
            "geometry": {
                "type": "Point",
                "coordinates": [
                    11.099641823417643,
                    44.47103550606816
                ]
            }
        },
        {
            "type": "Feature",
            "properties": {
                "name": "BAZZANO VIA PROV. EST, 20/A-B",
                "id": "23584",
                "brand": "Q8",
                "amenity": "fuel",
                "operator": "SERVIZI & GESTIONI ITALIA S.R.L."
            },
            "geometry": {
                "type": "Point",
                "coordinates": [
                    11.09857052564621,
                    44.506097142816415
                ]
            }
        },
        {
            "type": "Feature",
            "properties": {
                "name": "Bologna - Sala Bolognese",
                "id": "17270",
                "amenity": "fuel",
                "operator": "BEYFIN S.P.A."
            },
            "geometry": {
                "type": "Point",
                "coordinates": [
                    11.226883381605148,
                    44.58779983413691
                ]
            }
        },
        {
            "type": "Feature",
            "properties": {
                "name": "Vulcangas Crespellano",
                "id": "10876",
                "brand": "Shell",
                "amenity": "fuel",
                "operator": "RAMINI GERMANO E C. S.A.S."
            },
            "geometry": {
                "type": "Point",
                "coordinates": [
                    11.17363281548023,
                    44.51077683230634
                ]
            }
        },
        {
            "type": "Feature",
            "properties": {
                "name": "ZOLA PREDOSA VIA RISORGIMENTO 141 LOC LAVIN",
                "id": "6543",
                "brand": "Q8",
                "amenity": "fuel",
                "operator": "SERVIZI & GESTIONI ITALIA srl"
            },
            "geometry": {
                "type": "Point",
                "coordinates": [
                    11.217593550682068,
                    44.49145349513008
                ]
            }
        },
        {
            "type": "Feature",
            "properties": {
                "name": "PB",
                "id": "19899",
                "amenity": "fuel",
                "operator": "CP OIL S.R.L."
            },
            "geometry": {
                "type": "Point",
                "coordinates": [
                    11.182299703359602,
                    44.53337789379644
                ]
            }
        },
        {
            "type": "Feature",
            "properties": {
                "name": "METANAUTO CASTELFRANCO EMILIA",
                "id": "4526",
                "brand": "Agip Eni",
                "amenity": "fuel",
                "operator": "METANAUTO CASTELFRANCO EMILIA SOCIETA' A RESPONSABILITA' LIMITATA"
            },
            "geometry": {
                "type": "Point",
                "coordinates": [
                    11.08039990067482,
                    44.585517095929454
                ]
            }
        },
        {
            "type": "Feature",
            "properties": {
                "name": "LA PIOPPA OVEST",
                "id": "3888",
                "brand": "Q8",
                "amenity": "fuel",
                "operator": "la pioppa carburanti srl"
            },
            "geometry": {
                "type": "Point",
                "coordinates": [
                    11.21589034795761,
                    44.51881281779717
                ]
            }
        },
        {
            "type": "Feature",
            "properties": {
                "name": "Metano Crespellano",
                "id": "4948",
                "amenity": "fuel",
                "operator": "METANO CRESPELLANO S.R.L."
            },
            "geometry": {
                "type": "Point",
                "coordinates": [
                    11.104193758013935,
                    44.50829416599022
                ]
            }
        },
        {
            "type": "Feature",
            "properties": {
                "name": "10450_ZOLA PREDOSA",
                "id": "8650",
                "brand": "Total Erg",
                "amenity": "fuel",
                "operator": "CORO S.R.L."
            },
            "geometry": {
                "type": "Point",
                "coordinates": [
                    11.201650500297546,
                    44.50441473465839
                ]
            }
        },
        {
            "type": "Feature",
            "properties": {
                "name": "Punto vendita Esso di Mezzanotte Anastasia",
                "id": "17186",
                "brand": "Esso",
                "amenity": "fuel",
                "operator": "MEZZANOTTE ANASTASIA"
            },
            "geometry": {
                "type": "Point",
                "coordinates": [
                    11.087512055426261,
                    44.503712520688886
                ]
            }
        },
        {
            "type": "Feature",
            "properties": {
                "name": "CASTELFRANCO EMILIA",
                "id": "5833",
                "brand": "Total Erg",
                "amenity": "fuel",
                "operator": "TotalErg SpA"
            },
            "geometry": {
                "type": "Point",
                "coordinates": [
                    11.0869755165329,
                    44.58277102813129
                ]
            }
        },
        {
            "type": "Feature",
            "properties": {
                "name": "lavino di mezzo",
                "id": "11005",
                "brand": "Agip Eni",
                "amenity": "fuel",
                "operator": "PETROL SERVICE S.N.C. DI MANCINI EUGENIO E TACU SILVIA"
            },
            "geometry": {
                "type": "Point",
                "coordinates": [
                    11.238970756530762,
                    44.53184139724653
                ]
            }
        },
        {
            "type": "Feature",
            "properties": {
                "name": "LA PIOPPA EST",
                "id": "3860",
                "brand": "Agip Eni",
                "amenity": "fuel",
                "operator": "ENI RETE OIL&NONOIL S.P.A."
            },
            "geometry": {
                "type": "Point",
                "coordinates": [
                    11.21326446533203,
                    44.51952042741056
                ]
            }
        },
        {
            "type": "Feature",
            "properties": {
                "name": "AUTOSERVIZI CARBURANTI",
                "id": "29772",
                "amenity": "fuel",
                "operator": "ORGOSOLI DAVIDE"
            },
            "geometry": {
                "type": "Point",
                "coordinates": [
                    11.205081696820116,
                    44.541525424872034
                ]
            }
        },
        {
            "type": "Feature",
            "properties": {
                "name": "SE.VA SNC",
                "id": "14313",
                "brand": "Esso",
                "amenity": "fuel",
                "operator": "SE.VA. DI BORTOLOTTI DANIELE & C. - S.N.C."
            },
            "geometry": {
                "type": "Point",
                "coordinates": [
                    11.24299205839634,
                    44.566008541064406
                ]
            }
        },
        {
            "type": "Feature",
            "properties": {
                "name": "Stazione di servizio TAMOIL di Ricci Daniele",
                "id": "10226",
                "brand": "Tamoil",
                "amenity": "fuel",
                "operator": "STAZIONE DI SERVIZIO TAMOIL DI RICCI DANIELE"
            },
            "geometry": {
                "type": "Point",
                "coordinates": [
                    11.083147595780929,
                    44.50802340034285
                ]
            }
        },
        {
            "type": "Feature",
            "properties": {
                "name": "STAZIONE ESSO",
                "id": "14330",
                "brand": "Esso",
                "amenity": "fuel",
                "operator": "FREE SERVICES S.N.C. DI BARONCINI ETTORE & C."
            },
            "geometry": {
                "type": "Point",
                "coordinates": [
                    11.23367730013888,
                    44.48623391265752
                ]
            }
        },
        {
            "type": "Feature",
            "properties": {
                "name": "UNIONE GAS AUTO",
                "id": "6127",
                "amenity": "fuel",
                "operator": "PAOLO E MAURO DI ANDERLINI PAOLO E C. S.N.C."
            },
            "geometry": {
                "type": "Point",
                "coordinates": [
                    11.133596152067186,
                    44.56656824675404
                ]
            }
        },
        {
            "type": "Feature",
            "properties": {
                "name": "ANZOLA DELL'EMILIA-LOC.PALAZZINA VIA EMILIA 245",
                "id": "11516",
                "brand": "Q8",
                "amenity": "fuel",
                "operator": "SERVIZI & GESTIONI ITALIA S.R.L."
            },
            "geometry": {
                "type": "Point",
                "coordinates": [
                    11.172055006027222,
                    44.55358184115785
                ]
            }
        }
    ]
}