{
    "type": "FeatureCollection",
    "features": [
        {
            "type": "Feature",
            "properties": {
                "name": "Impianto Verona Petroli - Nazionale",
                "id": "12489",
                "amenity": "fuel",
                "operator": "BUSSINELLO S.R.L."
            },
            "geometry": {
                "type": "Point",
                "coordinates": [
                    11.099234927577982,
                    45.42244389009331
                ]
            }
        },
        {
            "type": "Feature",
            "properties": {
                "name": "ZEVIO VIA MATTEOTTI  8",
                "id": "6508",
                "brand": "Q8",
                "amenity": "fuel",
                "operator": "SERVIZI & GESTIONI ITALIA srl"
            },
            "geometry": {
                "type": "Point",
                "coordinates": [
                    11.115968963229307,
                    45.370812008379595
                ]
            }
        },
        {
            "type": "Feature",
            "properties": {
                "name": "METANAUTO S.MARTINO S.R.L.",
                "id": "5154",
                "amenity": "fuel",
                "operator": "METANAUTO S. MARTINO SRL"
            },
            "geometry": {
                "type": "Point",
                "coordinates": [
                    11.103412915344279,
                    45.41803609957643
                ]
            }
        },
        {
            "type": "Feature",
            "properties": {
                "name": "Impianto Verona Petroli - Loc. Balon",
                "id": "30000",
                "amenity": "fuel",
                "operator": "BUSSINELLO S.R.L."
            },
            "geometry": {
                "type": "Point",
                "coordinates": [
                    11.108187586069107,
                    45.421335477605766
                ]
            }
        },
        {
            "type": "Feature",
            "properties": {
                "name": "SCALIGERA",
                "id": "22213",
                "brand": "Agip Eni",
                "amenity": "fuel",
                "operator": "MASIERO S.N.C. DI MASIERO MARIO E CARLO & C."
            },
            "geometry": {
                "type": "Point",
                "coordinates": [
                    11.231760978698729,
                    45.411691925932985
                ]
            }
        },
        {
            "type": "Feature",
            "properties": {
                "name": "IPER VERONA",
                "id": "15031",
                "amenity": "fuel",
                "operator": "IPER MONTEBELLO S.P.A."
            },
            "geometry": {
                "type": "Point",
                "coordinates": [
                    11.090970486402513,
                    45.41412085532311
                ]
            }
        },
        {
            "type": "Feature",
            "properties": {
                "name": "Stazione di Servizio Esso Bussinello SRL",
                "id": "12483",
                "brand": "Esso",
                "amenity": "fuel",
                "operator": "BUSSINELLO S.R.L."
            },
            "geometry": {
                "type": "Point",
                "coordinates": [
                    11.218931972980497,
                    45.409308084388655
                ]
            }
        },
        {
            "type": "Feature",
            "properties": {
                "name": "distributore carburanti bazzoni giuseppe",
                "id": "12651",
                "brand": "Esso",
                "amenity": "fuel",
                "operator": "BAZZONI GIUSEPPE"
            },
            "geometry": {
                "type": "Point",
                "coordinates": [
                    11.124354565745532,
                    45.37281475773131
                ]
            }
        },
        {
            "type": "Feature",
            "properties": {
                "name": "bellomi pietro",
                "id": "13379",
                "brand": "Esso",
                "amenity": "fuel",
                "operator": "BELLOMI PIETRO"
            },
            "geometry": {
                "type": "Point",
                "coordinates": [
                    11.247649043798447,
                    45.414807338458175
                ]
            }
        },
        {
            "type": "Feature",
            "properties": {
                "name": "SAN MARTINO BUON ALBERGO",
                "id": "31996",
                "brand": "Total Erg",
                "amenity": "fuel",
                "operator": "TOTALERG S.P.A."
            },
            "geometry": {
                "type": "Point",
                "coordinates": [
                    11.1135338,
                    45.416107
                ]
            }
        },
        {
            "type": "Feature",
            "properties": {
                "name": "Agip ferrarini manuele",
                "id": "10544",
                "brand": "Agip Eni",
                "amenity": "fuel",
                "operator": "FERRARINI MANUELE"
            },
            "geometry": {
                "type": "Point",
                "coordinates": [
                    11.247186362743378,
                    45.394663516549315
                ]
            }
        },
        {
            "type": "Feature",
            "properties": {
                "name": "SCALIGERA",
                "id": "3561",
                "brand": "Esso",
                "amenity": "fuel",
                "operator": "NUOVA SIDAP  S.R.L."
            },
            "geometry": {
                "type": "Point",
                "coordinates": [
                    11.234126687049866,
                    45.41054897495379
                ]
            }
        },
        {
            "type": "Feature",
            "properties": {
                "name": "SPRINT SRL",
                "id": "16946",
                "brand": "Esso",
                "amenity": "fuel",
                "operator": "SPRINT S.R.L."
            },
            "geometry": {
                "type": "Point",
                "coordinates": [
                    11.078739613294601,
                    45.425719905912985
                ]
            }
        },
        {
            "type": "Feature",
            "properties": {
                "name": "SELLIS' BREAK DI ANDRIAN SELENE &C. SNC",
                "id": "23140",
                "brand": "Q8",
                "amenity": "fuel",
                "operator": "SELLIS' BREAK DI ANDRIAN SELENE & C. S.N.C."
            },
            "geometry": {
                "type": "Point",
                "coordinates": [
                    11.126189231872559,
                    45.41365654240964
                ]
            }
        },
        {
            "type": "Feature",
            "properties": {
                "name": "Impianto Verona Petroli - Montanara",
                "id": "12482",
                "amenity": "fuel",
                "operator": "BUSSINELLO S.R.L."
            },
            "geometry": {
                "type": "Point",
                "coordinates": [
                    11.176432371139526,
                    45.42675223952725
                ]
            }
        },
        {
            "type": "Feature",
            "properties": {
                "name": "STAZIONE di SERVIZIO di SCARPI LUCA",
                "id": "18089",
                "amenity": "fuel",
                "operator": "SCARPI LUCA"
            },
            "geometry": {
                "type": "Point",
                "coordinates": [
                    11.131605215344281,
                    45.3697699786946
                ]
            }
        },
        {
            "type": "Feature",
            "properties": {
                "name": "San Martino Buon Albergo",
                "id": "26641",
                "brand": "Total Erg",
                "amenity": "fuel",
                "operator": "GESTIONI EUROPA - SOCIETA' PER AZIONI"
            },
            "geometry": {
                "type": "Point",
                "coordinates": [
                    11.085669100284576,
                    45.424350961649765
                ]
            }
        },
        {
            "type": "Feature",
            "properties": {
                "name": "VERONA, ZEVIO",
                "id": "22318",
                "brand": "Total Erg",
                "amenity": "fuel",
                "operator": "GHULAM DI GHULAM SARWAR & C. S.A.S."
            },
            "geometry": {
                "type": "Point",
                "coordinates": [
                    11.176654994487762,
                    45.355607353092054
                ]
            }
        },
        {
            "type": "Feature",
            "properties": {
                "name": "Venturi Aldo eredi snc",
                "id": "9797",
                "amenity": "fuel",
                "operator": "VENTURI ALDO EREDI S.N.C. DI VENTURI IGNAZIO & C."
            },
            "geometry": {
                "type": "Point",
                "coordinates": [
                    11.211681962013245,
                    45.38166964606457
                ]
            }
        },
        {
            "type": "Feature",
            "properties": {
                "name": "SAN MARTINO BUON ALBERGO-S.P. 38 PORCILIANA",
                "id": "11964",
                "brand": "Shell",
                "amenity": "fuel",
                "operator": "SERVIZI & GESTIONI ITALIA S.R.L."
            },
            "geometry": {
                "type": "Point",
                "coordinates": [
                    11.124860525131226,
                    45.41345272046259
                ]
            }
        },
        {
            "type": "Feature",
            "properties": {
                "name": "SAN BONIFACIO-SP 38 PORCILIANA-SOAVE",
                "id": "11965",
                "brand": "Q8",
                "amenity": "fuel",
                "operator": "SERVIZI & GESTIONI ITALIA S.R.L."
            },
            "geometry": {
                "type": "Point",
                "coordinates": [
                    11.247975101852376,
                    45.394595189575156
                ]
            }
        },
        {
            "type": "Feature",
            "properties": {
                "name": "PVB",
                "id": "10645",
                "amenity": "fuel",
                "operator": "BAGNARA S.N.C. DI PASINI SILVANA E C."
            },
            "geometry": {
                "type": "Point",
                "coordinates": [
                    11.0984605550766,
                    45.37142690964352
                ]
            }
        },
        {
            "type": "Feature",
            "properties": {
                "name": "esso",
                "id": "29656",
                "brand": "Esso",
                "amenity": "fuel",
                "operator": "M&M DI MENGHIN NICOLA & C. SNC"
            },
            "geometry": {
                "type": "Point",
                "coordinates": [
                    11.113094979104517,
                    45.42088653048035
                ]
            }
        },
        {
            "type": "Feature",
            "properties": {
                "name": "DB Fuel",
                "id": "8174",
                "amenity": "fuel",
                "operator": "DALLA BERNARDINA F.LLI S.R.L."
            },
            "geometry": {
                "type": "Point",
                "coordinates": [
                    11.076598312133797,
                    45.41930258858804
                ]
            }
        },
        {
            "type": "Feature",
            "properties": {
                "name": "stazione rifornimento agip",
                "id": "12477",
                "brand": "Agip Eni",
                "amenity": "fuel",
                "operator": "VALERIO CLAUDIO"
            },
            "geometry": {
                "type": "Point",
                "coordinates": [
                    11.233036369085312,
                    45.33838067191892
                ]
            }
        },
        {
            "type": "Feature",
            "properties": {
                "name": "TAMOIL di RENZO COSTANZI",
                "id": "22990",
                "brand": "Tamoil",
                "amenity": "fuel",
                "operator": "COSTANZI RENZO"
            },
            "geometry": {
                "type": "Point",
                "coordinates": [
                    11.131444694442735,
                    45.41945210110155
                ]
            }
        },
        {
            "type": "Feature",
            "properties": {
                "name": "Stazione di Servizio Tamoil di Polato Maurizio",
                "id": "31516",
                "brand": "Tamoil",
                "amenity": "fuel",
                "operator": "POLATO MAURIZIO"
            },
            "geometry": {
                "type": "Point",
                "coordinates": [
                    11.077799499034882,
                    45.372694634685985
                ]
            }
        },
        {
            "type": "Feature",
            "properties": {
                "name": "SAN BONIFACIO VR",
                "id": "5430",
                "brand": "Agip Eni",
                "amenity": "fuel",
                "operator": "enirete oil&nonoil S.p.A."
            },
            "geometry": {
                "type": "Point",
                "coordinates": [
                    11.245189271164007,
                    45.405865367356355
                ]
            }
        },
        {
            "type": "Feature",
            "properties": {
                "name": "DE TOGNI FRANCECO",
                "id": "21243",
                "brand": "Agip Eni",
                "amenity": "fuel",
                "operator": "DE TOGNI FRANCESCO"
            },
            "geometry": {
                "type": "Point",
                "coordinates": [
                    11.117907911539078,
                    45.420919419243646
                ]
            }
        }
    ]
}