{
    "type": "FeatureCollection",
    "features": [
        {
            "type": "Feature",
            "properties": {
                "name": "Distributore Carburati TOTALERG di Fuligni Fabio",
                "id": "22531",
                "brand": "Total Erg",
                "amenity": "fuel",
                "operator": "FULIGNI FABIO"
            },
            "geometry": {
                "type": "Point",
                "coordinates": [
                    11.172751846319898,
                    42.77638834312402
                ]
            }
        },
        {
            "type": "Feature",
            "properties": {
                "name": "GROSSETO - VARIANTE SS1",
                "id": "30299",
                "brand": "Api-Ip",
                "amenity": "fuel",
                "operator": "IP SERVICES S.R.L."
            },
            "geometry": {
                "type": "Point",
                "coordinates": [
                    11.093983906745962,
                    42.805611807031255
                ]
            }
        },
        {
            "type": "Feature",
            "properties": {
                "name": "capaccioli giorgio",
                "id": "5209",
                "brand": "Agip Eni",
                "amenity": "fuel",
                "operator": "CAPACCIOLI GIORGIO"
            },
            "geometry": {
                "type": "Point",
                "coordinates": [
                    11.118271350860594,
                    42.74350600554484
                ]
            }
        },
        {
            "type": "Feature",
            "properties": {
                "name": "GROSSETO",
                "id": "5805",
                "brand": "Total Erg",
                "amenity": "fuel",
                "operator": "TotalErg SpA"
            },
            "geometry": {
                "type": "Point",
                "coordinates": [
                    11.09352902331352,
                    42.77052913970774
                ]
            }
        },
        {
            "type": "Feature",
            "properties": {
                "name": "metano grosseto",
                "id": "30734",
                "amenity": "fuel",
                "operator": "METANO TOSCANA S.R.L."
            },
            "geometry": {
                "type": "Point",
                "coordinates": [
                    11.093093454837799,
                    42.78465433665559
                ]
            }
        },
        {
            "type": "Feature",
            "properties": {
                "name": "Conad",
                "id": "24630",
                "brand": "CONAD",
                "amenity": "fuel",
                "operator": "CLODIA COMMERCIALE SRL"
            },
            "geometry": {
                "type": "Point",
                "coordinates": [
                    11.115090250968933,
                    42.77558358909064
                ]
            }
        },
        {
            "type": "Feature",
            "properties": {
                "name": "GROSSETO - AURELIA NORD",
                "id": "25075",
                "brand": "Api-Ip",
                "amenity": "fuel",
                "operator": "IP SERVICES S.R.L."
            },
            "geometry": {
                "type": "Point",
                "coordinates": [
                    11.108724139881133,
                    42.76881969008629
                ]
            }
        },
        {
            "type": "Feature",
            "properties": {
                "name": "Q8",
                "id": "30095",
                "brand": "Q8",
                "amenity": "fuel",
                "operator": "LANDI GIORGIO"
            },
            "geometry": {
                "type": "Point",
                "coordinates": [
                    11.122493818402289,
                    42.759739864559464
                ]
            }
        },
        {
            "type": "Feature",
            "properties": {
                "name": "GROSSETO",
                "id": "24199",
                "brand": "Agip Eni",
                "amenity": "fuel",
                "operator": "TIBER OIL S.R.L."
            },
            "geometry": {
                "type": "Point",
                "coordinates": [
                    11.107818961143494,
                    42.76954244754547
                ]
            }
        },
        {
            "type": "Feature",
            "properties": {
                "name": "EMPORIO DA PIETRINO SNC",
                "id": "32028",
                "brand": "Total Erg",
                "amenity": "fuel",
                "operator": "EMPORIO DA PIETRINO S.N.C. DI GRANDINI LUISELLA E CHERUBINI FABRI ZIO"
            },
            "geometry": {
                "type": "Point",
                "coordinates": [
                    11.177132427692413,
                    42.77957656692439
                ]
            }
        },
        {
            "type": "Feature",
            "properties": {
                "name": "Q8",
                "id": "9294",
                "brand": "Q8",
                "amenity": "fuel",
                "operator": "LOZZI SILVIA"
            },
            "geometry": {
                "type": "Point",
                "coordinates": [
                    11.14086627960205,
                    42.707874465663835
                ]
            }
        },
        {
            "type": "Feature",
            "properties": {
                "name": "ENI",
                "id": "7044",
                "brand": "Agip Eni",
                "amenity": "fuel",
                "operator": "VICHI ANDREA"
            },
            "geometry": {
                "type": "Point",
                "coordinates": [
                    11.121443264096115,
                    42.76135714182616
                ]
            }
        },
        {
            "type": "Feature",
            "properties": {
                "name": "GROSSETO ROSELLANA, 135",
                "id": "21656",
                "brand": "Q8",
                "amenity": "fuel",
                "operator": "SERVIZI & GESTIONI ITALIA S.R.L."
            },
            "geometry": {
                "type": "Point",
                "coordinates": [
                    11.132650673389435,
                    42.795419547412514
                ]
            }
        },
        {
            "type": "Feature",
            "properties": {
                "name": "ECOGAS",
                "id": "22994",
                "amenity": "fuel",
                "operator": "ECO GAS DI PRESENTATI LUCA E C. S.A.S."
            },
            "geometry": {
                "type": "Point",
                "coordinates": [
                    11.09278917790982,
                    42.78474839403681
                ]
            }
        },
        {
            "type": "Feature",
            "properties": {
                "name": "Grosseto Aurelia",
                "id": "27933",
                "brand": "Total Erg",
                "amenity": "fuel",
                "operator": "GESTIONI EUROPA - SOCIETA' PER AZIONI"
            },
            "geometry": {
                "type": "Point",
                "coordinates": [
                    11.10515333712101,
                    42.77335014973591
                ]
            }
        },
        {
            "type": "Feature",
            "properties": {
                "name": "REPSOL",
                "id": "15767",
                "brand": "Repsol",
                "amenity": "fuel",
                "operator": "MF SNC DI ANGELI M. & SINIBALDI F."
            },
            "geometry": {
                "type": "Point",
                "coordinates": [
                    11.15630641579628,
                    42.76604208186301
                ]
            }
        },
        {
            "type": "Feature",
            "properties": {
                "name": "ENERPETROLI",
                "id": "12513",
                "amenity": "fuel",
                "operator": "DI FRANCO SALVATORE"
            },
            "geometry": {
                "type": "Point",
                "coordinates": [
                    11.104553192853928,
                    42.755324543538094
                ]
            }
        },
        {
            "type": "Feature",
            "properties": {
                "name": "GROSSETO DEI MILLE 107",
                "id": "6574",
                "brand": "Q8",
                "amenity": "fuel",
                "operator": "SERVIZI & GESTIONI ITALIA srl"
            },
            "geometry": {
                "type": "Point",
                "coordinates": [
                    11.11264944076538,
                    42.752922768288286
                ]
            }
        },
        {
            "type": "Feature",
            "properties": {
                "name": "Aquila Il Bucchero",
                "id": "22979",
                "brand": "Aquila",
                "amenity": "fuel",
                "operator": "IL BUCCHERO DI COSMO LUCIANO & C. S.N.C."
            },
            "geometry": {
                "type": "Point",
                "coordinates": [
                    11.13338828086853,
                    42.81016326457248
                ]
            }
        },
        {
            "type": "Feature",
            "properties": {
                "name": "Tamoil",
                "id": "9273",
                "brand": "Tamoil",
                "amenity": "fuel",
                "operator": "DILIGENTI & ROSSI S.N.C."
            },
            "geometry": {
                "type": "Point",
                "coordinates": [
                    11.120508892065459,
                    42.771224242774984
                ]
            }
        },
        {
            "type": "Feature",
            "properties": {
                "name": "q8 di Bacci Pierluigi e Roberto snc",
                "id": "14141",
                "brand": "Q8",
                "amenity": "fuel",
                "operator": "BACCI PIER LUIGI E ROBERTO S.N.C."
            },
            "geometry": {
                "type": "Point",
                "coordinates": [
                    11.09018661081791,
                    42.77175042682141
                ]
            }
        },
        {
            "type": "Feature",
            "properties": {
                "name": "eni rete 04931 Grosseto",
                "id": "30620",
                "brand": "Agip Eni",
                "amenity": "fuel",
                "operator": "ENI RETE OIL&NONOIL S.P.A."
            },
            "geometry": {
                "type": "Point",
                "coordinates": [
                    11.113668959663412,
                    42.772845610302355
                ]
            }
        },
        {
            "type": "Feature",
            "properties": {
                "name": "GROSSETO-VIA AURELIA NORD 120",
                "id": "11613",
                "brand": "Q8",
                "amenity": "fuel",
                "operator": "SERVIZI & GESTIONI ITALIA S.R.L."
            },
            "geometry": {
                "type": "Point",
                "coordinates": [
                    11.101794635581996,
                    42.77693034423373
                ]
            }
        },
        {
            "type": "Feature",
            "properties": {
                "name": "fanfani marco",
                "id": "13966",
                "brand": "Total Erg",
                "amenity": "fuel",
                "operator": "FANFANI MARCO"
            },
            "geometry": {
                "type": "Point",
                "coordinates": [
                    11.112678945064545,
                    42.751873599517296
                ]
            }
        },
        {
            "type": "Feature",
            "properties": {
                "name": "8091",
                "id": "8477",
                "brand": "Tamoil",
                "amenity": "fuel",
                "operator": "PIAZZI GIANNI"
            },
            "geometry": {
                "type": "Point",
                "coordinates": [
                    11.11619532108307,
                    42.74505741088775
                ]
            }
        },
        {
            "type": "Feature",
            "properties": {
                "name": "LUIGI FREDDIANI",
                "id": "14157",
                "amenity": "fuel",
                "operator": "FREDDIANI LUIGI"
            },
            "geometry": {
                "type": "Point",
                "coordinates": [
                    11.102463752031326,
                    42.76644377626883
                ]
            }
        },
        {
            "type": "Feature",
            "properties": {
                "name": "ENI DI PASQUI PAOLO",
                "id": "31126",
                "brand": "Agip Eni",
                "amenity": "fuel",
                "operator": "PASQUI PAOLO"
            },
            "geometry": {
                "type": "Point",
                "coordinates": [
                    11.09894871711731,
                    42.778787126629865
                ]
            }
        },
        {
            "type": "Feature",
            "properties": {
                "name": "GROSSETO VIA AURELIA NORD KM.184",
                "id": "6572",
                "brand": "Q8",
                "amenity": "fuel",
                "operator": "SERVIZI & GESTIONI ITALIA srl"
            },
            "geometry": {
                "type": "Point",
                "coordinates": [
                    11.100584864616394,
                    42.778203603749915
                ]
            }
        },
        {
            "type": "Feature",
            "properties": {
                "name": "CAPANNOLI ALBERTO & C SAS",
                "id": "20775",
                "brand": "Esso",
                "amenity": "fuel",
                "operator": "CAPANNOLI ALBERTO E C. S.A.S."
            },
            "geometry": {
                "type": "Point",
                "coordinates": [
                    11.13434851169586,
                    42.797866318674934
                ]
            }
        }
    ]
}