{
    "type": "FeatureCollection",
    "features": [
        {
            "type": "Feature",
            "properties": {
                "name": "distributore carburanti eni di zappetti orazio",
                "id": "7233",
                "brand": "Agip Eni",
                "amenity": "fuel",
                "operator": "ZAPPETTI ORAZIO EMILIO"
            },
            "geometry": {
                "type": "Point",
                "coordinates": [
                    11.147851422429085,
                    44.71449096239538
                ]
            }
        },
        {
            "type": "Feature",
            "properties": {
                "name": "San Giovanni in Persiceto",
                "id": "31480",
                "brand": "Total Erg",
                "amenity": "fuel",
                "operator": "GESTIONI EUROPA - SOCIETA' PER AZIONI"
            },
            "geometry": {
                "type": "Point",
                "coordinates": [
                    11.18301048874855,
                    44.63946009094012
                ]
            }
        },
        {
            "type": "Feature",
            "properties": {
                "name": "Kerotris - Crevalcore",
                "id": "14113",
                "amenity": "fuel",
                "operator": "B.B. OIL SRL"
            },
            "geometry": {
                "type": "Point",
                "coordinates": [
                    11.138190776109695,
                    44.706657388615476
                ]
            }
        },
        {
            "type": "Feature",
            "properties": {
                "name": "PV Vulcangas - Esso S.G. Persiceto",
                "id": "8097",
                "brand": "Esso",
                "amenity": "fuel",
                "operator": "C.M. S.N.C. DI MARZOCCHI DANIELE E C."
            },
            "geometry": {
                "type": "Point",
                "coordinates": [
                    11.228115512641923,
                    44.62385501925245
                ]
            }
        },
        {
            "type": "Feature",
            "properties": {
                "name": "SAN GIOVANNI IN PERSICE VIA BOLOGNA 116",
                "id": "22895",
                "brand": "Q8",
                "amenity": "fuel",
                "operator": "SERVIZI & GESTIONI ITALIA S.R.L."
            },
            "geometry": {
                "type": "Point",
                "coordinates": [
                    11.194620430469515,
                    44.62878216721735
                ]
            }
        },
        {
            "type": "Feature",
            "properties": {
                "name": "CALZOLARI ITALO",
                "id": "14137",
                "brand": "Api-Ip",
                "amenity": "fuel",
                "operator": "CALZOLARI ITALO E C. S.N.C."
            },
            "geometry": {
                "type": "Point",
                "coordinates": [
                    11.18333246686484,
                    44.641367483870155
                ]
            }
        },
        {
            "type": "Feature",
            "properties": {
                "name": "ALBANO MATTEO",
                "id": "14240",
                "amenity": "fuel",
                "operator": "ALBANO MATTEO"
            },
            "geometry": {
                "type": "Point",
                "coordinates": [
                    11.186766251921654,
                    44.64198460665781
                ]
            }
        },
        {
            "type": "Feature",
            "properties": {
                "name": "Brothers srl",
                "id": "28512",
                "brand": "Ies",
                "amenity": "fuel",
                "operator": "BROTHERS S.R.L."
            },
            "geometry": {
                "type": "Point",
                "coordinates": [
                    11.228188276290894,
                    44.624377123175606
                ]
            }
        },
        {
            "type": "Feature",
            "properties": {
                "name": "A.F. PETROLI",
                "id": "10573",
                "brand": "AF Petroli",
                "amenity": "fuel",
                "operator": "A.F. PETROLI S.P.A."
            },
            "geometry": {
                "type": "Point",
                "coordinates": [
                    11.202852129936218,
                    44.618930868931855
                ]
            }
        },
        {
            "type": "Feature",
            "properties": {
                "name": "Distributore ESSO",
                "id": "19387",
                "brand": "Esso",
                "amenity": "fuel",
                "operator": "SOL.BOS. DI SOLDATI CLAUDIA"
            },
            "geometry": {
                "type": "Point",
                "coordinates": [
                    11.135342834532139,
                    44.65646397613269
                ]
            }
        },
        {
            "type": "Feature",
            "properties": {
                "name": "Stazione di servizio Total erg di Vecchi Stefano",
                "id": "14539",
                "brand": "Total Erg",
                "amenity": "fuel",
                "operator": "STAZIONE DI SERVIZIO FINA DI VECCHI STEFANO"
            },
            "geometry": {
                "type": "Point",
                "coordinates": [
                    11.232214127647467,
                    44.710751135506754
                ]
            }
        },
        {
            "type": "Feature",
            "properties": {
                "name": "CENACCHI RUDI SNC",
                "id": "14193",
                "brand": "Agip Eni",
                "amenity": "fuel",
                "operator": "CENACCHI RUDI S.N.C. & C."
            },
            "geometry": {
                "type": "Point",
                "coordinates": [
                    11.154936288360659,
                    44.70284393581205
                ]
            }
        },
        {
            "type": "Feature",
            "properties": {
                "name": "Distributore Tamoil Capponcelli Davide",
                "id": "12931",
                "brand": "Tamoil",
                "amenity": "fuel",
                "operator": "CAPPONCELLI DAVIDE"
            },
            "geometry": {
                "type": "Point",
                "coordinates": [
                    11.227317899465561,
                    44.70473886304349
                ]
            }
        },
        {
            "type": "Feature",
            "properties": {
                "name": "IL QUADRIFOGLIO",
                "id": "26772",
                "amenity": "fuel",
                "operator": "IL QUADRIFOGLIO DI LA CROIX ADOLFO & C. SNC"
            },
            "geometry": {
                "type": "Point",
                "coordinates": [
                    11.178916096687317,
                    44.65720494778113
                ]
            }
        },
        {
            "type": "Feature",
            "properties": {
                "name": "DISTRIBUTORE METANO-GPL",
                "id": "13096",
                "amenity": "fuel",
                "operator": "RENO GAS ENERGY S.R.L."
            },
            "geometry": {
                "type": "Point",
                "coordinates": [
                    11.165028288960457,
                    44.64753784924497
                ]
            }
        },
        {
            "type": "Feature",
            "properties": {
                "name": "eni",
                "id": "6859",
                "brand": "Agip Eni",
                "amenity": "fuel",
                "operator": "GIOVANNINI ROBERTO"
            },
            "geometry": {
                "type": "Point",
                "coordinates": [
                    11.190653854245056,
                    44.63364846785731
                ]
            }
        },
        {
            "type": "Feature",
            "properties": {
                "name": "Repsol_San_Giovanni_in P. (BO002)",
                "id": "7066",
                "brand": "Repsol",
                "amenity": "fuel",
                "operator": "REPSOL ITALIA S.P.A."
            },
            "geometry": {
                "type": "Point",
                "coordinates": [
                    11.24321927116398,
                    44.71177649800702
                ]
            }
        }
    ]
}