{
    "type": "FeatureCollection",
    "features": [
        {
            "type": "Feature",
            "properties": {
                "name": "Renogas",
                "id": "13261",
                "amenity": "fuel",
                "operator": "STABILE CLAUDIO"
            },
            "geometry": {
                "type": "Point",
                "coordinates": [
                    11.297452088885505,
                    44.74487289118839
                ]
            }
        },
        {
            "type": "Feature",
            "properties": {
                "name": "Forghieri e Monari di Monari C.& C.",
                "id": "9993",
                "brand": "Agip Eni",
                "amenity": "fuel",
                "operator": "FORGHIERI & MONARI DI MONARI CLAUDIO & C. - S.N.C."
            },
            "geometry": {
                "type": "Point",
                "coordinates": [
                    11.290649915344263,
                    44.83399197203564
                ]
            }
        },
        {
            "type": "Feature",
            "properties": {
                "name": "STATALE",
                "id": "17192",
                "amenity": "fuel",
                "operator": "CARBURANTI VECCHIETTI S.R.L."
            },
            "geometry": {
                "type": "Point",
                "coordinates": [
                    11.302609921549447,
                    44.75182158079745
                ]
            }
        },
        {
            "type": "Feature",
            "properties": {
                "name": "PV 53242",
                "id": "25871",
                "brand": "Agip Eni",
                "amenity": "fuel",
                "operator": "GESTIONI INNOVATIVE ITALIA S.R.L."
            },
            "geometry": {
                "type": "Point",
                "coordinates": [
                    11.28060708736757,
                    44.721284008582536
                ]
            }
        },
        {
            "type": "Feature",
            "properties": {
                "name": "Retitalia Cento",
                "id": "31365",
                "brand": "Retitalia",
                "amenity": "fuel",
                "operator": "BRIXIA FINANZIARIA S.R.L."
            },
            "geometry": {
                "type": "Point",
                "coordinates": [
                    11.291842460632324,
                    44.73380845687448
                ]
            }
        },
        {
            "type": "Feature",
            "properties": {
                "name": "Stop & Go Rent snc",
                "id": "22976",
                "brand": "Api-Ip",
                "amenity": "fuel",
                "operator": "STOP & GO RENT DI NICOLA FRANCESCHINI & C. S.N.C."
            },
            "geometry": {
                "type": "Point",
                "coordinates": [
                    11.289683245138578,
                    44.762540384014635
                ]
            }
        },
        {
            "type": "Feature",
            "properties": {
                "name": "DISTRIBUTORE AGIP \"MORANDO\"",
                "id": "22537",
                "brand": "Agip Eni",
                "amenity": "fuel",
                "operator": "RENO GAS ENERGY S.R.L."
            },
            "geometry": {
                "type": "Point",
                "coordinates": [
                    11.25949501991272,
                    44.724166333419284
                ]
            }
        },
        {
            "type": "Feature",
            "properties": {
                "name": "Tamoil 3893",
                "id": "7160",
                "brand": "Tamoil",
                "amenity": "fuel",
                "operator": "GIROTTI CARBURANTI S.R.L."
            },
            "geometry": {
                "type": "Point",
                "coordinates": [
                    11.289701253967223,
                    44.74610907974373
                ]
            }
        },
        {
            "type": "Feature",
            "properties": {
                "name": "Battista Loredana  TotalErg",
                "id": "13476",
                "brand": "Total Erg",
                "amenity": "fuel",
                "operator": "BATTISTA LOREDANA"
            },
            "geometry": {
                "type": "Point",
                "coordinates": [
                    11.292411088943481,
                    44.8299868251707
                ]
            }
        },
        {
            "type": "Feature",
            "properties": {
                "name": "ip",
                "id": "17077",
                "brand": "Api-Ip",
                "amenity": "fuel",
                "operator": "MG AUTO DI GOVONI MASSIMILIANO"
            },
            "geometry": {
                "type": "Point",
                "coordinates": [
                    11.382470967459085,
                    44.79348177551977
                ]
            }
        },
        {
            "type": "Feature",
            "properties": {
                "name": "STAZIONE DI SERVIZIO ENI",
                "id": "12235",
                "brand": "Agip Eni",
                "amenity": "fuel",
                "operator": "PEPE ROMOLO"
            },
            "geometry": {
                "type": "Point",
                "coordinates": [
                    11.282577141386355,
                    44.730650517365035
                ]
            }
        },
        {
            "type": "Feature",
            "properties": {
                "name": "BERTELLI-CENTO",
                "id": "11377",
                "brand": "Ies",
                "amenity": "fuel",
                "operator": "BERTELLI WALTER E ROLANDO  - CARBURANTI - S.P.A."
            },
            "geometry": {
                "type": "Point",
                "coordinates": [
                    11.26549243927002,
                    44.73689435901548
                ]
            }
        },
        {
            "type": "Feature",
            "properties": {
                "name": "Tamoil 2831",
                "id": "7158",
                "brand": "Tamoil",
                "amenity": "fuel",
                "operator": "GIROTTI CARBURANTI S.R.L."
            },
            "geometry": {
                "type": "Point",
                "coordinates": [
                    11.285619735717773,
                    44.719261572724335
                ]
            }
        },
        {
            "type": "Feature",
            "properties": {
                "name": "ARCOBALENO SNC",
                "id": "19459",
                "brand": "Agip Eni",
                "amenity": "fuel",
                "operator": "ARCOBALENO S.N.C. DI MALAGUTI ALFREDO & C."
            },
            "geometry": {
                "type": "Point",
                "coordinates": [
                    11.299606592590294,
                    44.825836585813654
                ]
            }
        },
        {
            "type": "Feature",
            "properties": {
                "name": "NUOVA",
                "id": "17193",
                "amenity": "fuel",
                "operator": "CARBURANTI VECCHIETTI S.R.L."
            },
            "geometry": {
                "type": "Point",
                "coordinates": [
                    11.301129340863554,
                    44.752525592373324
                ]
            }
        },
        {
            "type": "Feature",
            "properties": {
                "name": "G.M. DI GALLERANI MARCO",
                "id": "28954",
                "brand": "Ies",
                "amenity": "fuel",
                "operator": "G.M. DI GALLERANI MARCO"
            },
            "geometry": {
                "type": "Point",
                "coordinates": [
                    11.290660176582378,
                    44.73128054855967
                ]
            }
        },
        {
            "type": "Feature",
            "properties": {
                "name": "SAURO CAR SERVICE",
                "id": "29892",
                "brand": "Total Erg",
                "amenity": "fuel",
                "operator": "SAURO CAR SERVICE S.A.S. DI STEFANO FERGNANI E CLAUDIA GUERNELLI E C."
            },
            "geometry": {
                "type": "Point",
                "coordinates": [
                    11.414843804893508,
                    44.80170329256772
                ]
            }
        },
        {
            "type": "Feature",
            "properties": {
                "name": "ENI",
                "id": "11119",
                "brand": "Agip Eni",
                "amenity": "fuel",
                "operator": "STATION SERVICE DI FERRARI MASSIMILIANO"
            },
            "geometry": {
                "type": "Point",
                "coordinates": [
                    11.258864700794222,
                    44.83817343129267
                ]
            }
        },
        {
            "type": "Feature",
            "properties": {
                "name": "NOALOIL",
                "id": "27152",
                "brand": "Noaloil",
                "amenity": "fuel",
                "operator": "ANTONIONI ALEX"
            },
            "geometry": {
                "type": "Point",
                "coordinates": [
                    11.339926421642305,
                    44.80550147881674
                ]
            }
        },
        {
            "type": "Feature",
            "properties": {
                "name": "Fuel Point",
                "id": "19995",
                "amenity": "fuel",
                "operator": "FUEL POINT DI TASSINARI DANIELA"
            },
            "geometry": {
                "type": "Point",
                "coordinates": [
                    11.29098226805354,
                    44.790393243082775
                ]
            }
        },
        {
            "type": "Feature",
            "properties": {
                "name": "DISTRIBUTORE METANO",
                "id": "13076",
                "amenity": "fuel",
                "operator": "RENO GAS ENERGY S.R.L."
            },
            "geometry": {
                "type": "Point",
                "coordinates": [
                    11.276949805283948,
                    44.83707288059732
                ]
            }
        }
    ]
}