{
    "type": "FeatureCollection",
    "features": [
        {
            "type": "Feature",
            "properties": {
                "name": "ENI PERNTER",
                "id": "26071",
                "brand": "Agip Eni",
                "amenity": "fuel",
                "operator": "PERNTER JOSEF"
            },
            "geometry": {
                "type": "Point",
                "coordinates": [
                    11.294556856155396,
                    46.345620249232084
                ]
            }
        },
        {
            "type": "Feature",
            "properties": {
                "name": "GREEN VALLEY",
                "id": "5038",
                "brand": "Esso",
                "amenity": "fuel",
                "operator": "GREEN VALLEY OHG/SNC D. MORANDELL ELMAR & CO."
            },
            "geometry": {
                "type": "Point",
                "coordinates": [
                    11.26571774482727,
                    46.34811403990799
                ]
            }
        },
        {
            "type": "Feature",
            "properties": {
                "name": "WIESER ANDREAS",
                "id": "12139",
                "brand": "Api-Ip",
                "amenity": "fuel",
                "operator": "WIESER ANDREAS"
            },
            "geometry": {
                "type": "Point",
                "coordinates": [
                    11.346937716007233,
                    46.36756759130442
                ]
            }
        },
        {
            "type": "Feature",
            "properties": {
                "name": "tankstelle FLORIAN KG",
                "id": "13445",
                "brand": "Agip Eni",
                "amenity": "fuel",
                "operator": "STAZIONE DI SERVIZIO FLORIAN SAS DI FLORIAN GERMAN & C. % TANKSTE LLE FLORIAN KG DES FLORIAN GERMAN & CO."
            },
            "geometry": {
                "type": "Point",
                "coordinates": [
                    11.252122750815374,
                    46.42510751993162
                ]
            }
        },
        {
            "type": "Feature",
            "properties": {
                "name": "tankstelle FLORIAN KG",
                "id": "13444",
                "brand": "Agip Eni",
                "amenity": "fuel",
                "operator": "STAZIONE DI SERVIZIO FLORIAN SAS DI FLORIAN GERMAN & C. % TANKSTE LLE FLORIAN KG DES FLORIAN GERMAN & CO."
            },
            "geometry": {
                "type": "Point",
                "coordinates": [
                    11.252122750815374,
                    46.42510751993162
                ]
            }
        },
        {
            "type": "Feature",
            "properties": {
                "name": "Esso di Ebner Johann",
                "id": "26478",
                "brand": "Esso",
                "amenity": "fuel",
                "operator": "EBNER JOHANN"
            },
            "geometry": {
                "type": "Point",
                "coordinates": [
                    11.376895308494568,
                    46.328799139680804
                ]
            }
        },
        {
            "type": "Feature",
            "properties": {
                "name": "wvzsnc di zucol pietro & c",
                "id": "27291",
                "brand": "Esso",
                "amenity": "fuel",
                "operator": "WVZ SNC DI ZUCOL PIETRO & CO."
            },
            "geometry": {
                "type": "Point",
                "coordinates": [
                    11.311030983924866,
                    46.35362815638797
                ]
            }
        },
        {
            "type": "Feature",
            "properties": {
                "name": "AGIP / ENI",
                "id": "7802",
                "brand": "Agip Eni",
                "amenity": "fuel",
                "operator": "ENER WASH DES TERZER ARMIN"
            },
            "geometry": {
                "type": "Point",
                "coordinates": [
                    11.315306425094604,
                    46.39200049692552
                ]
            }
        },
        {
            "type": "Feature",
            "properties": {
                "name": "LAIMBURG OVEST",
                "id": "22223",
                "brand": "Total Erg",
                "amenity": "fuel",
                "operator": "MASIERO S.N.C. DI MASIERO MARIO E CARLO & C."
            },
            "geometry": {
                "type": "Point",
                "coordinates": [
                    11.288379728794098,
                    46.36020682227703
                ]
            }
        },
        {
            "type": "Feature",
            "properties": {
                "name": "ENI EGNA",
                "id": "23834",
                "brand": "Agip Eni",
                "amenity": "fuel",
                "operator": "RAINALTER KLAUS"
            },
            "geometry": {
                "type": "Point",
                "coordinates": [
                    11.281118944774564,
                    46.32400377266285
                ]
            }
        },
        {
            "type": "Feature",
            "properties": {
                "name": "LAIMBURG EST",
                "id": "25536",
                "brand": "Tamoil",
                "amenity": "fuel",
                "operator": "SALVETTI S.R.L."
            },
            "geometry": {
                "type": "Point",
                "coordinates": [
                    11.294095516204836,
                    46.38667600937765
                ]
            }
        },
        {
            "type": "Feature",
            "properties": {
                "name": "_SMP LAIVES",
                "id": "5189",
                "brand": "San Marco Petroli",
                "amenity": "fuel",
                "operator": "SAN MARCO PETROLI DISTRIBUZIONE S.R.L."
            },
            "geometry": {
                "type": "Point",
                "coordinates": [
                    11.342284083366394,
                    46.42864285158048
                ]
            }
        },
        {
            "type": "Feature",
            "properties": {
                "name": "Q8 Eisenstecken",
                "id": "20260",
                "brand": "Q8",
                "amenity": "fuel",
                "operator": "EISENSTECKEN STEFAN"
            },
            "geometry": {
                "type": "Point",
                "coordinates": [
                    11.250479055044709,
                    46.418064561283664
                ]
            }
        },
        {
            "type": "Feature",
            "properties": {
                "name": "Q8 Eisenstecken Termeno",
                "id": "30062",
                "brand": "Q8",
                "amenity": "fuel",
                "operator": "EISENSTECKEN STEFAN"
            },
            "geometry": {
                "type": "Point",
                "coordinates": [
                    11.250060221426338,
                    46.34469039723466
                ]
            }
        }
    ]
}