{
    "type": "FeatureCollection",
    "features": [
        {
            "type": "Feature",
            "properties": {
                "name": "BOLOGNA VIA ALTURA",
                "id": "6544",
                "brand": "Q8",
                "amenity": "fuel",
                "operator": "SERVIZI & GESTIONI ITALIA srl"
            },
            "geometry": {
                "type": "Point",
                "coordinates": [
                    11.401895749737603,
                    44.46298211309698
                ]
            }
        },
        {
            "type": "Feature",
            "properties": {
                "name": "STAZIONE DI SERVIZIO ESSO",
                "id": "9851",
                "brand": "Esso",
                "amenity": "fuel",
                "operator": "XEKA ERVIN E C. S.N.C."
            },
            "geometry": {
                "type": "Point",
                "coordinates": [
                    11.258247792720795,
                    44.414964001617065
                ]
            }
        },
        {
            "type": "Feature",
            "properties": {
                "name": "san ruffillo",
                "id": "13616",
                "brand": "Agip Eni",
                "amenity": "fuel",
                "operator": "CONIGLIARO VINCENZO"
            },
            "geometry": {
                "type": "Point",
                "coordinates": [
                    11.361010596156119,
                    44.449981451067515
                ]
            }
        },
        {
            "type": "Feature",
            "properties": {
                "name": "Della Porta Massimo e c s.n.c",
                "id": "4127",
                "brand": "Q8",
                "amenity": "fuel",
                "operator": "DELLA PORTA MASSIMO & C. S.N.C."
            },
            "geometry": {
                "type": "Point",
                "coordinates": [
                    11.352492570877075,
                    44.440347280731025
                ]
            }
        },
        {
            "type": "Feature",
            "properties": {
                "name": "BERTELLI-MONTERENZIO",
                "id": "21485",
                "brand": "Bertelli Carburanti",
                "amenity": "fuel",
                "operator": "BERTELLI WALTER E ROLANDO  - CARBURANTI - S.P.A."
            },
            "geometry": {
                "type": "Point",
                "coordinates": [
                    11.414697733666344,
                    44.35428388262827
                ]
            }
        },
        {
            "type": "Feature",
            "properties": {
                "name": "monti carburanti",
                "id": "26544",
                "brand": "Agip Eni",
                "amenity": "fuel",
                "operator": "MONTI CARBURANTI DI MONTI ROBERTO"
            },
            "geometry": {
                "type": "Point",
                "coordinates": [
                    11.343759298324585,
                    44.396979985111805
                ]
            }
        },
        {
            "type": "Feature",
            "properties": {
                "name": "CANTAGALLO OVEST",
                "id": "3918",
                "brand": "Agip Eni",
                "amenity": "fuel",
                "operator": "cantagallo ovest s.r.l."
            },
            "geometry": {
                "type": "Point",
                "coordinates": [
                    11.280389678573556,
                    44.45521709013264
                ]
            }
        },
        {
            "type": "Feature",
            "properties": {
                "name": "TOTALERG",
                "id": "30787",
                "brand": "Total Erg",
                "amenity": "fuel",
                "operator": "AREA 41 S.A.S. DI SCAGLIARINI SERGIO & C."
            },
            "geometry": {
                "type": "Point",
                "coordinates": [
                    11.271017789840698,
                    44.45298060281552
                ]
            }
        },
        {
            "type": "Feature",
            "properties": {
                "name": "Stazione di Servizio Pianoro di Zannoni Srl",
                "id": "28052",
                "brand": "Api-Ip",
                "amenity": "fuel",
                "operator": "ZANNONI S.R.L."
            },
            "geometry": {
                "type": "Point",
                "coordinates": [
                    11.393240690231323,
                    44.39774618236958
                ]
            }
        },
        {
            "type": "Feature",
            "properties": {
                "name": "Bologna Via Toscana",
                "id": "24535",
                "brand": "Total Erg",
                "amenity": "fuel",
                "operator": "GESTIONI EUROPA - SOCIETA' PER AZIONI"
            },
            "geometry": {
                "type": "Point",
                "coordinates": [
                    11.368638128042223,
                    44.455903402219846
                ]
            }
        },
        {
            "type": "Feature",
            "properties": {
                "name": "EGO",
                "id": "20192",
                "amenity": "fuel",
                "operator": "POLI MARCO"
            },
            "geometry": {
                "type": "Point",
                "coordinates": [
                    11.34127825498581,
                    44.387122397387664
                ]
            }
        },
        {
            "type": "Feature",
            "properties": {
                "name": "CANTAGALLO EST",
                "id": "3857",
                "brand": "Agip Eni",
                "amenity": "fuel",
                "operator": "ENI RETE OIL&NONOIL S.P.A."
            },
            "geometry": {
                "type": "Point",
                "coordinates": [
                    11.280748844146727,
                    44.45668184626475
                ]
            }
        },
        {
            "type": "Feature",
            "properties": {
                "name": "PIANORO VIA NAZIONALE  169",
                "id": "6538",
                "brand": "Q8",
                "amenity": "fuel",
                "operator": "SERVIZI & GESTIONI ITALIA srl"
            },
            "geometry": {
                "type": "Point",
                "coordinates": [
                    11.341096298147589,
                    44.37102426537237
                ]
            }
        },
        {
            "type": "Feature",
            "properties": {
                "name": "STAZ.ESSO COLLI E SIMONI S.N.C",
                "id": "11086",
                "brand": "Esso",
                "amenity": "fuel",
                "operator": "COLLI & SIMONI DI COLLI SIMONETTA & C. S.N.C."
            },
            "geometry": {
                "type": "Point",
                "coordinates": [
                    11.36918606369295,
                    44.456064543273925
                ]
            }
        },
        {
            "type": "Feature",
            "properties": {
                "name": "Carbel di Nasci Fabio & C.",
                "id": "15664",
                "brand": "Tamoil",
                "amenity": "fuel",
                "operator": "CARBEL DI NASCI FABIO E C. S.A.S."
            },
            "geometry": {
                "type": "Point",
                "coordinates": [
                    11.263305713491832,
                    44.35976509336138
                ]
            }
        }
    ]
}