{
    "type": "FeatureCollection",
    "features": [
        {
            "type": "Feature",
            "properties": {
                "name": "Ferrian Nicola  IP",
                "id": "13984",
                "brand": "Api-Ip",
                "amenity": "fuel",
                "operator": "FERRIAN NICOLA"
            },
            "geometry": {
                "type": "Point",
                "coordinates": [
                    11.417433147290806,
                    45.499743740045616
                ]
            }
        },
        {
            "type": "Feature",
            "properties": {
                "name": "esso f.lli foscarini",
                "id": "13441",
                "brand": "Esso",
                "amenity": "fuel",
                "operator": "F.LLI FOSCARINI S.N.C. DI FOSCARINI DONATO E DANIELE"
            },
            "geometry": {
                "type": "Point",
                "coordinates": [
                    11.354565999999979,
                    45.51480327694598
                ]
            }
        },
        {
            "type": "Feature",
            "properties": {
                "name": "ZORDAN ANTONELLA",
                "id": "5669",
                "brand": "Total Erg",
                "amenity": "fuel",
                "operator": "ZORDAN ANTONELLA"
            },
            "geometry": {
                "type": "Point",
                "coordinates": [
                    11.384945958852768,
                    45.47068872292485
                ]
            }
        },
        {
            "type": "Feature",
            "properties": {
                "name": "F.LLI FRACASSO SNC",
                "id": "4342",
                "brand": "Esso",
                "amenity": "fuel",
                "operator": "F.LLI FRACASSO S.N.C. DI FRACASSO MARCO E ANDREA & C."
            },
            "geometry": {
                "type": "Point",
                "coordinates": [
                    11.33941606613166,
                    45.51488135925689
                ]
            }
        },
        {
            "type": "Feature",
            "properties": {
                "name": "am",
                "id": "21302",
                "brand": "Agip Eni",
                "amenity": "fuel",
                "operator": "A.M. S.N.C. DI BREDO ALEX E PERTEGATO MARCO"
            },
            "geometry": {
                "type": "Point",
                "coordinates": [
                    11.425123042991574,
                    45.48823748794876
                ]
            }
        },
        {
            "type": "Feature",
            "properties": {
                "name": "Rada snc di Repele Marco & C",
                "id": "17359",
                "amenity": "fuel",
                "operator": "RADA S.N.C. DI REPELE MARCO & C."
            },
            "geometry": {
                "type": "Point",
                "coordinates": [
                    11.297716498374939,
                    45.5358523558522
                ]
            }
        },
        {
            "type": "Feature",
            "properties": {
                "name": "NICOLETTI FRANCO",
                "id": "17519",
                "brand": "Esso",
                "amenity": "fuel",
                "operator": "NICOLETTI FRANCO"
            },
            "geometry": {
                "type": "Point",
                "coordinates": [
                    11.379177868366241,
                    45.554800869364975
                ]
            }
        },
        {
            "type": "Feature",
            "properties": {
                "name": "PARLATO LADISLAO & C. snc",
                "id": "9215",
                "brand": "Q8",
                "amenity": "fuel",
                "operator": "PARLATO LADISLAO & C. S.N.C. DI PARLATO LORENZO E FALCIPIERI ROBERTO"
            },
            "geometry": {
                "type": "Point",
                "coordinates": [
                    11.35948008731077,
                    45.51337941960391
                ]
            }
        },
        {
            "type": "Feature",
            "properties": {
                "name": "fda carburanti s.n.c.",
                "id": "24334",
                "brand": "Agip Eni",
                "amenity": "fuel",
                "operator": "FDA CARBURANTI S.N.C. DI FORNARO DANIELE E FORTUNA ANDREA"
            },
            "geometry": {
                "type": "Point",
                "coordinates": [
                    11.364256739616396,
                    45.524731087790535
                ]
            }
        },
        {
            "type": "Feature",
            "properties": {
                "name": "CASTELGOMBERTO",
                "id": "5913",
                "brand": "Total Erg",
                "amenity": "fuel",
                "operator": "TotalErg SpA"
            },
            "geometry": {
                "type": "Point",
                "coordinates": [
                    11.383603635581949,
                    45.56957510105649
                ]
            }
        },
        {
            "type": "Feature",
            "properties": {
                "name": "CUCAGAS",
                "id": "30384",
                "brand": "Cucagas",
                "amenity": "fuel",
                "operator": "CUCAGAS - SRL"
            },
            "geometry": {
                "type": "Point",
                "coordinates": [
                    11.39230631586918,
                    45.510145131248116
                ]
            }
        },
        {
            "type": "Feature",
            "properties": {
                "name": "BENZA MONTECCHIO MAGGIORE",
                "id": "30314",
                "brand": "Benza",
                "amenity": "fuel",
                "operator": "BORTOLAMEI SRL"
            },
            "geometry": {
                "type": "Point",
                "coordinates": [
                    11.396526450540136,
                    45.50967963707088
                ]
            }
        },
        {
            "type": "Feature",
            "properties": {
                "name": "MGM S.N.C. stazione di servizio AGIP",
                "id": "13598",
                "brand": "Agip Eni",
                "amenity": "fuel",
                "operator": "MGM S.N.C. DI PRESSI MARIA RITA & C."
            },
            "geometry": {
                "type": "Point",
                "coordinates": [
                    11.261901631951332,
                    45.479610931692584
                ]
            }
        },
        {
            "type": "Feature",
            "properties": {
                "name": "federico nicetto",
                "id": "21265",
                "brand": "Esso",
                "amenity": "fuel",
                "operator": "NICETTO FEDERICO"
            },
            "geometry": {
                "type": "Point",
                "coordinates": [
                    11.277587539846422,
                    45.548933321946315
                ]
            }
        },
        {
            "type": "Feature",
            "properties": {
                "name": "Biancofuel",
                "id": "15540",
                "amenity": "fuel",
                "operator": "BIANCO RUGGERO"
            },
            "geometry": {
                "type": "Point",
                "coordinates": [
                    11.383186268508895,
                    45.510258078773305
                ]
            }
        },
        {
            "type": "Feature",
            "properties": {
                "name": "Pieropan Elisa",
                "id": "15874",
                "brand": "Agip Eni",
                "amenity": "fuel",
                "operator": "PIEROPAN ELISA"
            },
            "geometry": {
                "type": "Point",
                "coordinates": [
                    11.267264038324356,
                    45.5632842285358
                ]
            }
        },
        {
            "type": "Feature",
            "properties": {
                "name": "BIASIN CARBURANTI",
                "id": "15901",
                "amenity": "fuel",
                "operator": "BIASIN  GIAIRO S.R.L. - SOCIETA' UNIPERSONALE"
            },
            "geometry": {
                "type": "Point",
                "coordinates": [
                    11.371443644180319,
                    45.48726639761078
                ]
            }
        },
        {
            "type": "Feature",
            "properties": {
                "name": "MONTEBELLO VICENTINO VIA SIGNOLO 2",
                "id": "6512",
                "brand": "Q8",
                "amenity": "fuel",
                "operator": "SERVIZI & GESTIONI ITALIA srl"
            },
            "geometry": {
                "type": "Point",
                "coordinates": [
                    11.408381760120392,
                    45.46990096983186
                ]
            }
        },
        {
            "type": "Feature",
            "properties": {
                "name": "ENI",
                "id": "25628",
                "brand": "Agip Eni",
                "amenity": "fuel",
                "operator": "CARBURANTI LIN & YING S.N.C. DI LIN JIAN E CO."
            },
            "geometry": {
                "type": "Point",
                "coordinates": [
                    11.38412232275391,
                    45.57102367075678
                ]
            }
        },
        {
            "type": "Feature",
            "properties": {
                "name": "F.LLI DAL ZOVO S.N.C.",
                "id": "13230",
                "brand": "Agip Eni",
                "amenity": "fuel",
                "operator": "F.LLI DAL ZOVO S.N.C. - DI DAL ZOVO FIORENZO E ANTONIO"
            },
            "geometry": {
                "type": "Point",
                "coordinates": [
                    11.337133626983587,
                    45.51319347735158
                ]
            }
        },
        {
            "type": "Feature",
            "properties": {
                "name": "LORO F.LLI SPA",
                "id": "24552",
                "brand": "Loro",
                "amenity": "fuel",
                "operator": "LORO F.LLI-S.P.A."
            },
            "geometry": {
                "type": "Point",
                "coordinates": [
                    11.290249253967318,
                    45.53981257311986
                ]
            }
        },
        {
            "type": "Feature",
            "properties": {
                "name": "Montebello Vicentino",
                "id": "30031",
                "brand": "Esso",
                "amenity": "fuel",
                "operator": "RETITALIA  S.P.A."
            },
            "geometry": {
                "type": "Point",
                "coordinates": [
                    11.407908350229263,
                    45.470014205332106
                ]
            }
        },
        {
            "type": "Feature",
            "properties": {
                "name": "F.lli Zorzin s.n.c.",
                "id": "6198",
                "brand": "Agip Eni",
                "amenity": "fuel",
                "operator": "F.LLI ZORZIN SNC DI ZORZIN MASSIMO E STEFANO"
            },
            "geometry": {
                "type": "Point",
                "coordinates": [
                    11.317324982803369,
                    45.52722191168658
                ]
            }
        }
    ]
}