{
    "type": "FeatureCollection",
    "features": [
        {
            "type": "Feature",
            "properties": {
                "name": "IMPIANTO ENI 25554",
                "id": "6999",
                "brand": "Agip Eni",
                "amenity": "fuel",
                "operator": "ONGARO ADRIANO"
            },
            "geometry": {
                "type": "Point",
                "coordinates": [
                    11.260726153850555,
                    44.492098296367246
                ]
            }
        },
        {
            "type": "Feature",
            "properties": {
                "name": "Eni",
                "id": "4255",
                "brand": "Agip Eni",
                "amenity": "fuel",
                "operator": "F.LLI CAMAGGI DI CAMAGGI MIRKO E C. - S.N.C."
            },
            "geometry": {
                "type": "Point",
                "coordinates": [
                    11.37058692401206,
                    44.467671186788564
                ]
            }
        },
        {
            "type": "Feature",
            "properties": {
                "name": "A13snc",
                "id": "15593",
                "brand": "Api-Ip",
                "amenity": "fuel",
                "operator": "A13 DI FEDERICO GIACOMETTI E MARCO CAPITANIO S.N.C."
            },
            "geometry": {
                "type": "Point",
                "coordinates": [
                    11.370580717921257,
                    44.466128985426614
                ]
            }
        },
        {
            "type": "Feature",
            "properties": {
                "name": "STAZIONE DI SERVIZIO ENI",
                "id": "27396",
                "brand": "Agip Eni",
                "amenity": "fuel",
                "operator": "LEO ENRICO"
            },
            "geometry": {
                "type": "Point",
                "coordinates": [
                    11.392521012164254,
                    44.47686472973873
                ]
            }
        },
        {
            "type": "Feature",
            "properties": {
                "name": "ESSO",
                "id": "14677",
                "brand": "Esso",
                "amenity": "fuel",
                "operator": "DE STEFANO RAFFAELE"
            },
            "geometry": {
                "type": "Point",
                "coordinates": [
                    11.35652798892022,
                    44.559815199956645
                ]
            }
        },
        {
            "type": "Feature",
            "properties": {
                "name": "STAZIONE SERVIZIO ENI",
                "id": "11006",
                "brand": "Agip Eni",
                "amenity": "fuel",
                "operator": "TOVOLI - ZANARDI DI TOVOLI LUCA E ZANARDI MIRIA S.N.C."
            },
            "geometry": {
                "type": "Point",
                "coordinates": [
                    11.305725574493408,
                    44.49337333620161
                ]
            }
        },
        {
            "type": "Feature",
            "properties": {
                "name": "ENI",
                "id": "7777",
                "brand": "Agip Eni",
                "amenity": "fuel",
                "operator": "S.M. DI LAMBERTINI SERGIO E PANCALDI MAURO S.N.C."
            },
            "geometry": {
                "type": "Point",
                "coordinates": [
                    11.270461059524566,
                    44.468487322288944
                ]
            }
        },
        {
            "type": "Feature",
            "properties": {
                "name": "servicecarplus",
                "id": "20437",
                "brand": "Esso",
                "amenity": "fuel",
                "operator": "SERVICE CAR PLUS S.A.S. DI LUCIO PICCOLO & C."
            },
            "geometry": {
                "type": "Point",
                "coordinates": [
                    11.35657824575901,
                    44.484206740777516
                ]
            }
        },
        {
            "type": "Feature",
            "properties": {
                "name": "FERRI MATTEO",
                "id": "20211",
                "brand": "Agip Eni",
                "amenity": "fuel",
                "operator": "FERRI MATTEO"
            },
            "geometry": {
                "type": "Point",
                "coordinates": [
                    11.36036619544029,
                    44.51680048272607
                ]
            }
        },
        {
            "type": "Feature",
            "properties": {
                "name": "BOLOGNA-VIA ZANARDI 18",
                "id": "11512",
                "brand": "Q8",
                "amenity": "fuel",
                "operator": "SERVIZI & GESTIONI ITALIA S.R.L."
            },
            "geometry": {
                "type": "Point",
                "coordinates": [
                    11.331492711639385,
                    44.50501530337976
                ]
            }
        },
        {
            "type": "Feature",
            "properties": {
                "name": "BO MASSARENTI",
                "id": "17653",
                "brand": "Api-Ip",
                "amenity": "fuel",
                "operator": "IP SERVICES S.R.L."
            },
            "geometry": {
                "type": "Point",
                "coordinates": [
                    11.37602950429914,
                    44.49334834078721
                ]
            }
        },
        {
            "type": "Feature",
            "properties": {
                "name": "BOLOGNA VIA E. MATTEI  51 LOC. ROVERI",
                "id": "6540",
                "brand": "Q8",
                "amenity": "fuel",
                "operator": "SERVIZI & GESTIONI ITALIA srl"
            },
            "geometry": {
                "type": "Point",
                "coordinates": [
                    11.415611654520035,
                    44.49724152636909
                ]
            }
        },
        {
            "type": "Feature",
            "properties": {
                "name": "BO BARCA",
                "id": "17654",
                "brand": "Api-Ip",
                "amenity": "fuel",
                "operator": "IP SERVICES S.R.L."
            },
            "geometry": {
                "type": "Point",
                "coordinates": [
                    11.298760000000017,
                    44.4935520029351
                ]
            }
        },
        {
            "type": "Feature",
            "properties": {
                "name": "Servisavena",
                "id": "12969",
                "brand": "Agip Eni",
                "amenity": "fuel",
                "operator": "SERVISAVENA S.R.L."
            },
            "geometry": {
                "type": "Point",
                "coordinates": [
                    11.418759226799013,
                    44.47003286128007
                ]
            }
        },
        {
            "type": "Feature",
            "properties": {
                "name": "CASTEL MAGGIORE VIA GALLIERA",
                "id": "23011",
                "brand": "Q8",
                "amenity": "fuel",
                "operator": "SERVIZI & GESTIONI ITALIA S.R.L."
            },
            "geometry": {
                "type": "Point",
                "coordinates": [
                    11.360313892364502,
                    44.56781566966926
                ]
            }
        },
        {
            "type": "Feature",
            "properties": {
                "name": "STAZIONE DI SERVIZIO IP",
                "id": "12712",
                "brand": "Api-Ip",
                "amenity": "fuel",
                "operator": "PIT STOP 2 DI FALZONE MARCO E C. S.N.C."
            },
            "geometry": {
                "type": "Point",
                "coordinates": [
                    11.330836928172289,
                    44.52507471288606
                ]
            }
        },
        {
            "type": "Feature",
            "properties": {
                "name": "PALVESI MAURO",
                "id": "4138",
                "amenity": "fuel",
                "operator": "PALVESI MAURO"
            },
            "geometry": {
                "type": "Point",
                "coordinates": [
                    11.269880533218386,
                    44.46880095297217
                ]
            }
        },
        {
            "type": "Feature",
            "properties": {
                "name": "ENI STATION",
                "id": "29995",
                "brand": "Agip Eni",
                "amenity": "fuel",
                "operator": "CENTOVENTI S.A.S. DI MEI GIANFRANCO"
            },
            "geometry": {
                "type": "Point",
                "coordinates": [
                    11.402940073294076,
                    44.520606974575955
                ]
            }
        },
        {
            "type": "Feature",
            "properties": {
                "name": "CAAB",
                "id": "5932",
                "brand": "Total Erg",
                "amenity": "fuel",
                "operator": "GESTIONI EUROPA S.p.A."
            },
            "geometry": {
                "type": "Point",
                "coordinates": [
                    11.39734463558193,
                    44.51604069951895
                ]
            }
        },
        {
            "type": "Feature",
            "properties": {
                "name": "BOLOGNA V.LE PIETRAMELLARA 4",
                "id": "24882",
                "brand": "Q8",
                "amenity": "fuel",
                "operator": "SERVIZI & GESTIONI ITALIA S.R.L."
            },
            "geometry": {
                "type": "Point",
                "coordinates": [
                    11.334042501223394,
                    44.503174694061315
                ]
            }
        },
        {
            "type": "Feature",
            "properties": {
                "name": "C.B.A. di Calori srl",
                "id": "8606",
                "amenity": "fuel",
                "operator": "C.B.A. DI CALORI - S.R.L. -"
            },
            "geometry": {
                "type": "Point",
                "coordinates": [
                    11.389014907884302,
                    44.55066773871591
                ]
            }
        },
        {
            "type": "Feature",
            "properties": {
                "name": "Battindarno",
                "id": "13551",
                "brand": "Shell",
                "amenity": "fuel",
                "operator": "SPRINT GAS CARBURANTI S.R.L."
            },
            "geometry": {
                "type": "Point",
                "coordinates": [
                    11.295352120237794,
                    44.49737226413982
                ]
            }
        },
        {
            "type": "Feature",
            "properties": {
                "name": "TOTALERG",
                "id": "10845",
                "brand": "Total Erg",
                "amenity": "fuel",
                "operator": "ORSONI S.N.C. DI NERI CARLO E ORSONI RICCARDO"
            },
            "geometry": {
                "type": "Point",
                "coordinates": [
                    11.299791187047958,
                    44.48973775358341
                ]
            }
        },
        {
            "type": "Feature",
            "properties": {
                "name": "stazione di servizio ENI",
                "id": "17250",
                "brand": "Agip Eni",
                "amenity": "fuel",
                "operator": "CAMPAZZI STEFANO E QUERCIAGROSSA BRUNO S.N.C."
            },
            "geometry": {
                "type": "Point",
                "coordinates": [
                    11.287079176130304,
                    44.493875410451174
                ]
            }
        },
        {
            "type": "Feature",
            "properties": {
                "name": "ENI SPA",
                "id": "7137",
                "brand": "Agip Eni",
                "amenity": "fuel",
                "operator": "BETTI PAOLO & C. S.A.S."
            },
            "geometry": {
                "type": "Point",
                "coordinates": [
                    11.389048397541046,
                    44.58423910540517
                ]
            }
        },
        {
            "type": "Feature",
            "properties": {
                "name": "STAZIONE SERVIZIO ESSO",
                "id": "30216",
                "brand": "Esso",
                "amenity": "fuel",
                "operator": "RIGNANESE DOMENICO"
            },
            "geometry": {
                "type": "Point",
                "coordinates": [
                    11.318492258197011,
                    44.50251875828776
                ]
            }
        },
        {
            "type": "Feature",
            "properties": {
                "name": "scognamiglio antonio",
                "id": "16680",
                "brand": "Q8",
                "amenity": "fuel",
                "operator": "SCOGNAMIGLIO ANTONIO"
            },
            "geometry": {
                "type": "Point",
                "coordinates": [
                    11.357025504112244,
                    44.49252937161278
                ]
            }
        },
        {
            "type": "Feature",
            "properties": {
                "name": "ESSO",
                "id": "16190",
                "brand": "Esso",
                "amenity": "fuel",
                "operator": "ORSINI ALESSANDRO"
            },
            "geometry": {
                "type": "Point",
                "coordinates": [
                    11.351955458521843,
                    44.53016011479873
                ]
            }
        },
        {
            "type": "Feature",
            "properties": {
                "name": "BOLOGNA-VIA M.LEPIDO 201/2",
                "id": "11515",
                "brand": "Q8",
                "amenity": "fuel",
                "operator": "SERVIZI & GESTIONI ITALIA S.R.L."
            },
            "geometry": {
                "type": "Point",
                "coordinates": [
                    11.262693526458749,
                    44.52200493913542
                ]
            }
        },
        {
            "type": "Feature",
            "properties": {
                "name": "BOLOGNA",
                "id": "5782",
                "brand": "Total Erg",
                "amenity": "fuel",
                "operator": "TotalErg SpA"
            },
            "geometry": {
                "type": "Point",
                "coordinates": [
                    11.399927093254062,
                    44.50507717415976
                ]
            }
        },
        {
            "type": "Feature",
            "properties": {
                "name": "BOLOGNA VIA CORTICELLA  189",
                "id": "6539",
                "brand": "Q8",
                "amenity": "fuel",
                "operator": "SERVIZI & GESTIONI ITALIA srl"
            },
            "geometry": {
                "type": "Point",
                "coordinates": [
                    11.354213212897548,
                    44.532786939225836
                ]
            }
        },
        {
            "type": "Feature",
            "properties": {
                "name": "BC BORGO PANIGALE",
                "id": "29146",
                "amenity": "fuel",
                "operator": "ENERGIA S.R.L."
            },
            "geometry": {
                "type": "Point",
                "coordinates": [
                    11.276816779167918,
                    44.517035888872144
                ]
            }
        },
        {
            "type": "Feature",
            "properties": {
                "name": "API -IP",
                "id": "29402",
                "brand": "Api-Ip",
                "amenity": "fuel",
                "operator": "ISA E BENZ DI CARECCI PAOLO & C. SAS"
            },
            "geometry": {
                "type": "Point",
                "coordinates": [
                    11.367905885180678,
                    44.5889201726313
                ]
            }
        },
        {
            "type": "Feature",
            "properties": {
                "name": "Bargellino",
                "id": "9554",
                "brand": "Q8",
                "amenity": "fuel",
                "operator": "VENTURI PAOLO"
            },
            "geometry": {
                "type": "Point",
                "coordinates": [
                    11.263165027647347,
                    44.5404959135764
                ]
            }
        },
        {
            "type": "Feature",
            "properties": {
                "name": "STAZIONE DI SERVIZIO ESSO",
                "id": "12761",
                "brand": "Esso",
                "amenity": "fuel",
                "operator": "G.S. S.A.S. DI GROSSI ANTONIO  & C."
            },
            "geometry": {
                "type": "Point",
                "coordinates": [
                    11.279992461204529,
                    44.50427164639191
                ]
            }
        },
        {
            "type": "Feature",
            "properties": {
                "name": "ITALMET s.r.l.",
                "id": "13554",
                "amenity": "fuel",
                "operator": "ITALMET S.R.L."
            },
            "geometry": {
                "type": "Point",
                "coordinates": [
                    11.40054481716197,
                    44.49466432620587
                ]
            }
        },
        {
            "type": "Feature",
            "properties": {
                "name": "totalerg",
                "id": "29815",
                "brand": "Total Erg",
                "amenity": "fuel",
                "operator": "BUDRIO SERVICE DI GJONZENELI KRENAR BARDHO"
            },
            "geometry": {
                "type": "Point",
                "coordinates": [
                    11.270632222294806,
                    44.47670588414926
                ]
            }
        },
        {
            "type": "Feature",
            "properties": {
                "name": "ENI 05535",
                "id": "24342",
                "brand": "Agip Eni",
                "amenity": "fuel",
                "operator": "CLUB AUTO S.N.C. DI GIORGIO E LUCA POSSENTI"
            },
            "geometry": {
                "type": "Point",
                "coordinates": [
                    11.349539458751678,
                    44.50331133928009
                ]
            }
        },
        {
            "type": "Feature",
            "properties": {
                "name": "IP",
                "id": "21201",
                "brand": "Api-Ip",
                "amenity": "fuel",
                "operator": "DI NAPOLI ROCCO"
            },
            "geometry": {
                "type": "Point",
                "coordinates": [
                    11.340955719351768,
                    44.50772020459732
                ]
            }
        },
        {
            "type": "Feature",
            "properties": {
                "name": "C.D.R. di CAPEZZERA DOMENICO",
                "id": "15289",
                "brand": "Esso",
                "amenity": "fuel",
                "operator": "C.D.R. DI CAPEZZERA DOMENICO"
            },
            "geometry": {
                "type": "Point",
                "coordinates": [
                    11.356167867779732,
                    44.540118420057475
                ]
            }
        },
        {
            "type": "Feature",
            "properties": {
                "name": "BOLOGNA - FERRARESE",
                "id": "26876",
                "brand": "Api-Ip",
                "amenity": "fuel",
                "operator": "IP SERVICES S.R.L."
            },
            "geometry": {
                "type": "Point",
                "coordinates": [
                    11.367124139881073,
                    44.531811472257296
                ]
            }
        },
        {
            "type": "Feature",
            "properties": {
                "name": "B.C.carburanti",
                "id": "9071",
                "brand": "Q8",
                "amenity": "fuel",
                "operator": "BIAVATI CRISTIAN"
            },
            "geometry": {
                "type": "Point",
                "coordinates": [
                    11.362508940544899,
                    44.480731298686116
                ]
            }
        },
        {
            "type": "Feature",
            "properties": {
                "name": "STAZIONE TOTALERG",
                "id": "16696",
                "brand": "Total Erg",
                "amenity": "fuel",
                "operator": "PENNY S.A.S. DI SALVATORE LA RIZZA E C."
            },
            "geometry": {
                "type": "Point",
                "coordinates": [
                    11.329546098147604,
                    44.50091971200271
                ]
            }
        },
        {
            "type": "Feature",
            "properties": {
                "name": "Longarola",
                "id": "22978",
                "brand": "Api-Ip",
                "amenity": "fuel",
                "operator": "B.M. S.N.C. DI BERNARDI LARA E MAINARDI MASSIMILIANO"
            },
            "geometry": {
                "type": "Point",
                "coordinates": [
                    11.306937084655829,
                    44.567509426082545
                ]
            }
        },
        {
            "type": "Feature",
            "properties": {
                "name": "IP F.LLI TUGNOLI SNC",
                "id": "21449",
                "brand": "Api-Ip",
                "amenity": "fuel",
                "operator": "F.LLI TUGNOLI DI TUGNOLI PAOLO E ROBERTO S.N.C."
            },
            "geometry": {
                "type": "Point",
                "coordinates": [
                    11.36196931097561,
                    44.57302932298226
                ]
            }
        },
        {
            "type": "Feature",
            "properties": {
                "name": "STAZIONE SERVIZIO ESSO",
                "id": "30215",
                "brand": "Esso",
                "amenity": "fuel",
                "operator": "RIGNANESE DOMENICO"
            },
            "geometry": {
                "type": "Point",
                "coordinates": [
                    11.318492258197011,
                    44.50251875828776
                ]
            }
        },
        {
            "type": "Feature",
            "properties": {
                "name": "TRALDI GIANFRANCO",
                "id": "15225",
                "brand": "Agip Eni",
                "amenity": "fuel",
                "operator": "TRALDI GIANFRANCO"
            },
            "geometry": {
                "type": "Point",
                "coordinates": [
                    11.269054412841797,
                    44.5329335453717
                ]
            }
        },
        {
            "type": "Feature",
            "properties": {
                "name": "SHAKESPEARE",
                "id": "5521",
                "brand": "Total Erg",
                "amenity": "fuel",
                "operator": "GESTIONI EUROPA S.p.A."
            },
            "geometry": {
                "type": "Point",
                "coordinates": [
                    11.35969009325413,
                    44.54035982352418
                ]
            }
        },
        {
            "type": "Feature",
            "properties": {
                "name": "ENI VIA COLOMBO,36",
                "id": "24472",
                "brand": "Agip Eni",
                "amenity": "fuel",
                "operator": "BASILE BIAGIO"
            },
            "geometry": {
                "type": "Point",
                "coordinates": [
                    11.34163648095091,
                    44.53590642010254
                ]
            }
        },
        {
            "type": "Feature",
            "properties": {
                "name": "BOLOGNA VIA TOSCANA 5",
                "id": "6542",
                "brand": "Q8",
                "amenity": "fuel",
                "operator": "SERVIZI & GESTIONI ITALIA srl"
            },
            "geometry": {
                "type": "Point",
                "coordinates": [
                    11.369919274275162,
                    44.47183417318767
                ]
            }
        },
        {
            "type": "Feature",
            "properties": {
                "name": "BOLOGNA",
                "id": "5779",
                "brand": "Total Erg",
                "amenity": "fuel",
                "operator": "TotalErg SpA"
            },
            "geometry": {
                "type": "Point",
                "coordinates": [
                    11.41057218650815,
                    44.51193982539008
                ]
            }
        },
        {
            "type": "Feature",
            "properties": {
                "name": "BOLOGNA VIA S. DONATO  188/2",
                "id": "6541",
                "brand": "Q8",
                "amenity": "fuel",
                "operator": "SERVIZI & GESTIONI ITALIA srl"
            },
            "geometry": {
                "type": "Point",
                "coordinates": [
                    11.39587903558197,
                    44.51794112559894
                ]
            }
        },
        {
            "type": "Feature",
            "properties": {
                "name": "BC",
                "id": "10691",
                "amenity": "fuel",
                "operator": "ENERGIA S.R.L."
            },
            "geometry": {
                "type": "Point",
                "coordinates": [
                    11.395117123487124,
                    44.49402070076258
                ]
            }
        },
        {
            "type": "Feature",
            "properties": {
                "name": "STAZIONE EGO",
                "id": "21558",
                "amenity": "fuel",
                "operator": "FUEL DI MIGNANI MARCO E C. S.A.S."
            },
            "geometry": {
                "type": "Point",
                "coordinates": [
                    11.324397258241786,
                    44.51742024883011
                ]
            }
        },
        {
            "type": "Feature",
            "properties": {
                "name": "NATALI GINO SRL",
                "id": "28145",
                "amenity": "fuel",
                "operator": "NATALI GINO S.R.L."
            },
            "geometry": {
                "type": "Point",
                "coordinates": [
                    11.392892003059387,
                    44.567827134829805
                ]
            }
        },
        {
            "type": "Feature",
            "properties": {
                "name": "ISOTTANO snc di Rimondi G. & C.",
                "id": "21264",
                "brand": "Agip Eni",
                "amenity": "fuel",
                "operator": "ISOTTANO S.N.C. DI RIMONDI GIUSEPPE & C."
            },
            "geometry": {
                "type": "Point",
                "coordinates": [
                    11.396805346012114,
                    44.47373761721445
                ]
            }
        },
        {
            "type": "Feature",
            "properties": {
                "name": "stazione ip",
                "id": "22540",
                "brand": "Api-Ip",
                "amenity": "fuel",
                "operator": "FERRARI MASSIMILIANO"
            },
            "geometry": {
                "type": "Point",
                "coordinates": [
                    11.257846131920815,
                    44.48863178431302
                ]
            }
        },
        {
            "type": "Feature",
            "properties": {
                "name": "Sprint Gas Stalingrado",
                "id": "10937",
                "brand": "Q8",
                "amenity": "fuel",
                "operator": "SPRINT*GAS - S.P.A."
            },
            "geometry": {
                "type": "Point",
                "coordinates": [
                    11.362191119743557,
                    44.51994024802741
                ]
            }
        },
        {
            "type": "Feature",
            "properties": {
                "name": "IP",
                "id": "11354",
                "brand": "Api-Ip",
                "amenity": "fuel",
                "operator": "PIZZOLO VINCENZO & C. S.N.C."
            },
            "geometry": {
                "type": "Point",
                "coordinates": [
                    11.371263055819668,
                    44.46976724951971
                ]
            }
        },
        {
            "type": "Feature",
            "properties": {
                "name": "CASTRIGNANO E VANNINI AUTO SNC",
                "id": "30190",
                "brand": "Esso",
                "amenity": "fuel",
                "operator": "CASTRIGNANO E VANNINI AUTO S.N.C. DI VANNINI ANDREA E CASTRIGNANO NICOLAS"
            },
            "geometry": {
                "type": "Point",
                "coordinates": [
                    11.386596858501434,
                    44.49300406733547
                ]
            }
        },
        {
            "type": "Feature",
            "properties": {
                "name": "BOLOGNA - CARRACCI",
                "id": "27662",
                "brand": "Api-Ip",
                "amenity": "fuel",
                "operator": "IP SERVICES S.R.L."
            },
            "geometry": {
                "type": "Point",
                "coordinates": [
                    11.340962449073801,
                    44.5077172155045
                ]
            }
        },
        {
            "type": "Feature",
            "properties": {
                "name": "GRANAROLO DELL'EMILIA-SP. 3 KM.18+20",
                "id": "11519",
                "brand": "Q8",
                "amenity": "fuel",
                "operator": "SERVIZI & GESTIONI ITALIA S.R.L."
            },
            "geometry": {
                "type": "Point",
                "coordinates": [
                    11.412221457672103,
                    44.58276179262825
                ]
            }
        },
        {
            "type": "Feature",
            "properties": {
                "name": "VIA DON LUIGI STURZO 41 - BOLOGNA",
                "id": "29723",
                "brand": "Q8",
                "amenity": "fuel",
                "operator": "SERVIZI & GESTIONI ITALIA S.R.L."
            },
            "geometry": {
                "type": "Point",
                "coordinates": [
                    11.29624091772155,
                    44.4884146653343
                ]
            }
        },
        {
            "type": "Feature",
            "properties": {
                "name": "gas auto",
                "id": "15162",
                "amenity": "fuel",
                "operator": "GAS AUTO BOLDRINI E FORTUNATI S.N.C. DI BOLDRINI LORENZO E C."
            },
            "geometry": {
                "type": "Point",
                "coordinates": [
                    11.350306087033118,
                    44.553043765884134
                ]
            }
        },
        {
            "type": "Feature",
            "properties": {
                "name": "STAZIONE ENI di Basile Biagio",
                "id": "14717",
                "brand": "Agip Eni",
                "amenity": "fuel",
                "operator": "BASILE BIAGIO"
            },
            "geometry": {
                "type": "Point",
                "coordinates": [
                    11.27181281960452,
                    44.51196812402774
                ]
            }
        },
        {
            "type": "Feature",
            "properties": {
                "name": "Servisavena - Bologna",
                "id": "29643",
                "brand": "Total Erg",
                "amenity": "fuel",
                "operator": "SERVISAVENA S.R.L."
            },
            "geometry": {
                "type": "Point",
                "coordinates": [
                    11.312837451696396,
                    44.504549405602525
                ]
            }
        },
        {
            "type": "Feature",
            "properties": {
                "name": "esso f.lli perri",
                "id": "32117",
                "brand": "Esso",
                "amenity": "fuel",
                "operator": "F.LLI PERRI DI PERRI FRANCO & C. S.A.S."
            },
            "geometry": {
                "type": "Point",
                "coordinates": [
                    11.348968148231506,
                    44.523391089649685
                ]
            }
        },
        {
            "type": "Feature",
            "properties": {
                "name": "EGO",
                "id": "8446",
                "brand": "Ego",
                "amenity": "fuel",
                "operator": "N DUE S.N.C. DI PAGGI ELENA & STAGNI STEFANO"
            },
            "geometry": {
                "type": "Point",
                "coordinates": [
                    11.389414519071579,
                    44.47807159220293
                ]
            }
        },
        {
            "type": "Feature",
            "properties": {
                "name": "BOLOGNA VIA MASSARENTI  197",
                "id": "6536",
                "brand": "Q8",
                "amenity": "fuel",
                "operator": "SERVIZI & GESTIONI ITALIA srl"
            },
            "geometry": {
                "type": "Point",
                "coordinates": [
                    11.384884962600381,
                    44.493160109580344
                ]
            }
        },
        {
            "type": "Feature",
            "properties": {
                "name": "BERTELLI-BOLOGNA",
                "id": "11374",
                "brand": "Ies",
                "amenity": "fuel",
                "operator": "BERTELLI WALTER E ROLANDO  - CARBURANTI - S.P.A."
            },
            "geometry": {
                "type": "Point",
                "coordinates": [
                    11.358873476721215,
                    44.5060298236983
                ]
            }
        },
        {
            "type": "Feature",
            "properties": {
                "name": "stazione di servizio q8",
                "id": "25692",
                "brand": "Q8",
                "amenity": "fuel",
                "operator": "GRECO ANTONIO"
            },
            "geometry": {
                "type": "Point",
                "coordinates": [
                    11.340172804893427,
                    44.486522242476504
                ]
            }
        },
        {
            "type": "Feature",
            "properties": {
                "name": "METANO CASTELMAGGIORE",
                "id": "27039",
                "amenity": "fuel",
                "operator": "ADALBERTO STAGNI SRL"
            },
            "geometry": {
                "type": "Point",
                "coordinates": [
                    11.360358254956056,
                    44.56878568843602
                ]
            }
        },
        {
            "type": "Feature",
            "properties": {
                "name": "MASSARENTI",
                "id": "5520",
                "brand": "Total Erg",
                "amenity": "fuel",
                "operator": "GESTIONI EUROPA S.p.A."
            },
            "geometry": {
                "type": "Point",
                "coordinates": [
                    11.387519999999995,
                    44.493045346740644
                ]
            }
        },
        {
            "type": "Feature",
            "properties": {
                "name": "CASALECCHIO SERVICE",
                "id": "21428",
                "brand": "Total Erg",
                "amenity": "fuel",
                "operator": "BUDRIO SERVICE DI GJONZENELI KRENAR BARDHO"
            },
            "geometry": {
                "type": "Point",
                "coordinates": [
                    11.26758724451065,
                    44.4795262581421
                ]
            }
        },
        {
            "type": "Feature",
            "properties": {
                "name": "SHELL",
                "id": "8863",
                "brand": "Shell",
                "amenity": "fuel",
                "operator": "BURTONE GIUSEPPE E C. S.N.C."
            },
            "geometry": {
                "type": "Point",
                "coordinates": [
                    11.396123257147222,
                    44.49418265311113
                ]
            }
        },
        {
            "type": "Feature",
            "properties": {
                "name": "Ferri Matteo",
                "id": "20210",
                "brand": "Agip Eni",
                "amenity": "fuel",
                "operator": "FERRI MATTEO"
            },
            "geometry": {
                "type": "Point",
                "coordinates": [
                    11.332847785250124,
                    44.49886654006299
                ]
            }
        },
        {
            "type": "Feature",
            "properties": {
                "name": "CASTELDEBOLE",
                "id": "5930",
                "brand": "Total Erg",
                "amenity": "fuel",
                "operator": "GESTIONI EUROPA S.p.A."
            },
            "geometry": {
                "type": "Point",
                "coordinates": [
                    11.262724822090151,
                    44.49225630672883
                ]
            }
        },
        {
            "type": "Feature",
            "properties": {
                "name": "BOLOGNA - LE ROVERI",
                "id": "31109",
                "brand": "Api-Ip",
                "amenity": "fuel",
                "operator": "IP SERVICES S.R.L."
            },
            "geometry": {
                "type": "Point",
                "coordinates": [
                    11.413045597553262,
                    44.496813392340904
                ]
            }
        },
        {
            "type": "Feature",
            "properties": {
                "name": "bipiemme",
                "id": "11304",
                "brand": "Agip Eni",
                "amenity": "fuel",
                "operator": "BIPIEMME - S.R.L."
            },
            "geometry": {
                "type": "Point",
                "coordinates": [
                    11.25524640083313,
                    44.52532097016065
                ]
            }
        },
        {
            "type": "Feature",
            "properties": {
                "name": "velco",
                "id": "23359",
                "brand": "Q8",
                "amenity": "fuel",
                "operator": "VEL - CO DI MAZZEO SALVATORE E MACCAFERRI DANIELA - SOCIETA' IN NOME COLLETTIVO"
            },
            "geometry": {
                "type": "Point",
                "coordinates": [
                    11.253325939178467,
                    44.52529285997072
                ]
            }
        },
        {
            "type": "Feature",
            "properties": {
                "name": "STAZIONE DI SERVIZIO IP DI VERONESI STEFANO",
                "id": "10897",
                "brand": "Api-Ip",
                "amenity": "fuel",
                "operator": "VERONESI STEFANO"
            },
            "geometry": {
                "type": "Point",
                "coordinates": [
                    11.284936075393716,
                    44.55388904757898
                ]
            }
        },
        {
            "type": "Feature",
            "properties": {
                "name": "CASTEL MAGGIORE",
                "id": "5781",
                "brand": "Total Erg",
                "amenity": "fuel",
                "operator": "TotalErg SpA"
            },
            "geometry": {
                "type": "Point",
                "coordinates": [
                    11.37192764418023,
                    44.553420532002384
                ]
            }
        },
        {
            "type": "Feature",
            "properties": {
                "name": "STAZIONE ENI CAFFE VIALI",
                "id": "30543",
                "brand": "Agip Eni",
                "amenity": "fuel",
                "operator": "PETROLI ASSISTANCE DI LEO ENRICO & C. S.A.S."
            },
            "geometry": {
                "type": "Point",
                "coordinates": [
                    11.33396383054969,
                    44.48830767003097
                ]
            }
        },
        {
            "type": "Feature",
            "properties": {
                "name": "PV 5531",
                "id": "27636",
                "brand": "Agip Eni",
                "amenity": "fuel",
                "operator": "GESTIONI INNOVATIVE ITALIA S.R.L."
            },
            "geometry": {
                "type": "Point",
                "coordinates": [
                    11.368180895770251,
                    44.485782492791365
                ]
            }
        },
        {
            "type": "Feature",
            "properties": {
                "name": "Esso di Boselli Marco & C. S.A.S",
                "id": "21952",
                "brand": "Esso",
                "amenity": "fuel",
                "operator": "BOSELLI MARCO & C. S.A.S."
            },
            "geometry": {
                "type": "Point",
                "coordinates": [
                    11.32905096997524,
                    44.510103279584754
                ]
            }
        },
        {
            "type": "Feature",
            "properties": {
                "name": "BOLOGNA-VIA DI CORTICELLA 180 2B",
                "id": "11518",
                "brand": "Shell",
                "amenity": "fuel",
                "operator": "SERVIZI & GESTIONI ITALIA S.R.L."
            },
            "geometry": {
                "type": "Point",
                "coordinates": [
                    11.349669737434398,
                    44.52636884000998
                ]
            }
        },
        {
            "type": "Feature",
            "properties": {
                "name": "DE.MI.snc di Millarte &c",
                "id": "30231",
                "brand": "Esso",
                "amenity": "fuel",
                "operator": "DE.MI. S.N.C. DI MILLARTE NICOLA & C."
            },
            "geometry": {
                "type": "Point",
                "coordinates": [
                    11.367811923942552,
                    44.503633136870285
                ]
            }
        },
        {
            "type": "Feature",
            "properties": {
                "name": "Bologna Togliatti",
                "id": "30473",
                "brand": "Total Erg",
                "amenity": "fuel",
                "operator": "GESTIONI EUROPA - SOCIETA' PER AZIONI"
            },
            "geometry": {
                "type": "Point",
                "coordinates": [
                    11.28016546368599,
                    44.50859321522097
                ]
            }
        },
        {
            "type": "Feature",
            "properties": {
                "name": "BELLINELLI NERIO srl",
                "id": "22109",
                "brand": "Q8",
                "amenity": "fuel",
                "operator": "BELLINELLI NERIO S.R.L."
            },
            "geometry": {
                "type": "Point",
                "coordinates": [
                    11.375957287766253,
                    44.48286626351424
                ]
            }
        },
        {
            "type": "Feature",
            "properties": {
                "name": "VIA SAN DONATO",
                "id": "5674",
                "brand": "Api-Ip",
                "amenity": "fuel",
                "operator": "BORDANDINI IGINO & C. - SOCIETA' A RESPONSABILITA' LIMITATA"
            },
            "geometry": {
                "type": "Point",
                "coordinates": [
                    11.37417227936794,
                    44.50621946537408
                ]
            }
        },
        {
            "type": "Feature",
            "properties": {
                "name": "STAZIONE DI SERVIZIO ENI",
                "id": "12800",
                "brand": "Agip Eni",
                "amenity": "fuel",
                "operator": "MONTI FRANCO"
            },
            "geometry": {
                "type": "Point",
                "coordinates": [
                    11.410947930163616,
                    44.50671635788647
                ]
            }
        },
        {
            "type": "Feature",
            "properties": {
                "name": "CASALECCHIO DI RENO-VIA PORRETTANA 371",
                "id": "11514",
                "brand": "Q8",
                "amenity": "fuel",
                "operator": "SERVIZI & GESTIONI ITALIA S.R.L."
            },
            "geometry": {
                "type": "Point",
                "coordinates": [
                    11.272326822090124,
                    44.47182679615975
                ]
            }
        },
        {
            "type": "Feature",
            "properties": {
                "name": "Stazione di Rifornimento IP",
                "id": "15678",
                "brand": "Api-Ip",
                "amenity": "fuel",
                "operator": "COLASANTO DANIELA"
            },
            "geometry": {
                "type": "Point",
                "coordinates": [
                    11.387693347885147,
                    44.487601636220944
                ]
            }
        },
        {
            "type": "Feature",
            "properties": {
                "name": "ESSO Straforini sas",
                "id": "13262",
                "brand": "Esso",
                "amenity": "fuel",
                "operator": "STRAFORINI S.A.S. DI STRAFORINI MASSIMO  E C."
            },
            "geometry": {
                "type": "Point",
                "coordinates": [
                    11.34900897357602,
                    44.5233772021562
                ]
            }
        },
        {
            "type": "Feature",
            "properties": {
                "name": "BOLOGNA-VIA E. LEPIDO 203/14",
                "id": "11522",
                "brand": "Q8",
                "amenity": "fuel",
                "operator": "SERVIZI & GESTIONI ITALIA S.R.L."
            },
            "geometry": {
                "type": "Point",
                "coordinates": [
                    11.257157084655773,
                    44.52397266744638
                ]
            }
        },
        {
            "type": "Feature",
            "properties": {
                "name": "BOLOGNA - INDUSTRI2",
                "id": "31092",
                "brand": "Api-Ip",
                "amenity": "fuel",
                "operator": "IP SERVICES S.R.L."
            },
            "geometry": {
                "type": "Point",
                "coordinates": [
                    11.419021457672102,
                    44.50675929884473
                ]
            }
        },
        {
            "type": "Feature",
            "properties": {
                "name": "BEYFIN",
                "id": "8612",
                "amenity": "fuel",
                "operator": "BERTARELLI MARIA CRISTINA"
            },
            "geometry": {
                "type": "Point",
                "coordinates": [
                    11.271665543317797,
                    44.52887517148829
                ]
            }
        },
        {
            "type": "Feature",
            "properties": {
                "name": "stazione q8 di sgarzi gabriele",
                "id": "12231",
                "brand": "Q8",
                "amenity": "fuel",
                "operator": "SGARZI GABRIELE"
            },
            "geometry": {
                "type": "Point",
                "coordinates": [
                    11.383985728025436,
                    44.475214018262164
                ]
            }
        },
        {
            "type": "Feature",
            "properties": {
                "name": "PENTAPETROLI",
                "id": "19743",
                "brand": "Esso",
                "amenity": "fuel",
                "operator": "PENTA PETROLI SAS DI CARSETTI SIMONE & C. - SOCIETA' IN ACCOMANDITA SEMPLICE"
            },
            "geometry": {
                "type": "Point",
                "coordinates": [
                    11.264185532927513,
                    44.51844849123809
                ]
            }
        },
        {
            "type": "Feature",
            "properties": {
                "name": "ENI 05518",
                "id": "24343",
                "brand": "Agip Eni",
                "amenity": "fuel",
                "operator": "CLUB AUTO S.N.C. DI GIORGIO E LUCA POSSENTI"
            },
            "geometry": {
                "type": "Point",
                "coordinates": [
                    11.356736644809303,
                    44.4993648390166
                ]
            }
        },
        {
            "type": "Feature",
            "properties": {
                "name": "BOLOGNA-VIA CADUTI DI CASTELDEBOLE 132",
                "id": "11517",
                "brand": "Q8",
                "amenity": "fuel",
                "operator": "SERVIZI & GESTIONI ITALIA S.R.L."
            },
            "geometry": {
                "type": "Point",
                "coordinates": [
                    11.276581982803348,
                    44.49110433114619
                ]
            }
        },
        {
            "type": "Feature",
            "properties": {
                "name": "ENI",
                "id": "10497",
                "brand": "Agip Eni",
                "amenity": "fuel",
                "operator": "AEMME S.N.C. DI APARO ANGELO E MINARELLI MARCO"
            },
            "geometry": {
                "type": "Point",
                "coordinates": [
                    11.388323160049367,
                    44.49308398698885
                ]
            }
        },
        {
            "type": "Feature",
            "properties": {
                "name": "BOLOGNA SAFFI 61",
                "id": "25234",
                "brand": "Q8",
                "amenity": "fuel",
                "operator": "SERVIZI & GESTIONI ITALIA S.R.L."
            },
            "geometry": {
                "type": "Point",
                "coordinates": [
                    11.32349970185237,
                    44.500719300972825
                ]
            }
        },
        {
            "type": "Feature",
            "properties": {
                "name": "API-IP",
                "id": "24026",
                "brand": "Api-Ip",
                "amenity": "fuel",
                "operator": "ORSONI S.N.C. DI NERI CARLO E ORSONI RICCARDO"
            },
            "geometry": {
                "type": "Point",
                "coordinates": [
                    11.299505045340537,
                    44.489287309744135
                ]
            }
        },
        {
            "type": "Feature",
            "properties": {
                "name": "San Lazzaro di Savena",
                "id": "20094",
                "brand": "Total Erg",
                "amenity": "fuel",
                "operator": "GESTIONI EUROPA - SOCIETA' PER AZIONI"
            },
            "geometry": {
                "type": "Point",
                "coordinates": [
                    11.402908712625502,
                    44.472590002516526
                ]
            }
        },
        {
            "type": "Feature",
            "properties": {
                "name": "STAZIONE DI SERVIZIO ENI",
                "id": "12291",
                "brand": "Agip Eni",
                "amenity": "fuel",
                "operator": "RICCIO FRANCESCO E C. S.A.S."
            },
            "geometry": {
                "type": "Point",
                "coordinates": [
                    11.302496194839476,
                    44.50786404944586
                ]
            }
        },
        {
            "type": "Feature",
            "properties": {
                "name": "IP - Servisavena",
                "id": "30963",
                "brand": "Api-Ip",
                "amenity": "fuel",
                "operator": "SERVISAVENA S.R.L."
            },
            "geometry": {
                "type": "Point",
                "coordinates": [
                    11.41485959201782,
                    44.47515607078295
                ]
            }
        },
        {
            "type": "Feature",
            "properties": {
                "name": "PB",
                "id": "18632",
                "amenity": "fuel",
                "operator": "F.A.P. SOCIETA' A RESPONSABILITA' LIMITATA"
            },
            "geometry": {
                "type": "Point",
                "coordinates": [
                    11.325831668717226,
                    44.57746593615867
                ]
            }
        },
        {
            "type": "Feature",
            "properties": {
                "name": "STAZIONE SERVIZIO ENI",
                "id": "11103",
                "brand": "Agip Eni",
                "amenity": "fuel",
                "operator": "MC SERVICE DI GIUSEPPE FAVA E C. S.N.C."
            },
            "geometry": {
                "type": "Point",
                "coordinates": [
                    11.29412367939949,
                    44.51884303481164
                ]
            }
        },
        {
            "type": "Feature",
            "properties": {
                "name": "Eni",
                "id": "7863",
                "brand": "Agip Eni",
                "amenity": "fuel",
                "operator": "BACCOLINI S.A.S. DI BACCOLINI ANTONELLA E C."
            },
            "geometry": {
                "type": "Point",
                "coordinates": [
                    11.27061277627945,
                    44.4788874420409
                ]
            }
        },
        {
            "type": "Feature",
            "properties": {
                "name": "G E P OIL DI MARTULANO G & C SNC",
                "id": "17870",
                "brand": "Q8",
                "amenity": "fuel",
                "operator": "G E P OIL DI MARTULANO GIUSEPPE & C. S.N.C."
            },
            "geometry": {
                "type": "Point",
                "coordinates": [
                    11.355782300233841,
                    44.542751632431
                ]
            }
        },
        {
            "type": "Feature",
            "properties": {
                "name": "BOLOGNA-VIA DUE MADONNE",
                "id": "11523",
                "brand": "Q8",
                "amenity": "fuel",
                "operator": "SERVIZI & GESTIONI ITALIA S.R.L."
            },
            "geometry": {
                "type": "Point",
                "coordinates": [
                    11.393890787696817,
                    44.48292247353951
                ]
            }
        },
        {
            "type": "Feature",
            "properties": {
                "name": "Bologna",
                "id": "12395",
                "brand": "Agip Eni",
                "amenity": "fuel",
                "operator": "BRONCHI COMBUSTIBILI S.R.L."
            },
            "geometry": {
                "type": "Point",
                "coordinates": [
                    11.362860111114516,
                    44.54597606782601
                ]
            }
        },
        {
            "type": "Feature",
            "properties": {
                "name": "BO CORTICELLA",
                "id": "17649",
                "brand": "Api-Ip",
                "amenity": "fuel",
                "operator": "IP SERVICES S.R.L."
            },
            "geometry": {
                "type": "Point",
                "coordinates": [
                    11.355973177909846,
                    44.536767498049436
                ]
            }
        },
        {
            "type": "Feature",
            "properties": {
                "name": "CASTENASO-LOC. VILLANOVA",
                "id": "11520",
                "brand": "Q8",
                "amenity": "fuel",
                "operator": "SERVIZI & GESTIONI ITALIA S.R.L."
            },
            "geometry": {
                "type": "Point",
                "coordinates": [
                    11.420264373016382,
                    44.49205790637325
                ]
            }
        },
        {
            "type": "Feature",
            "properties": {
                "name": "Enercoop",
                "id": "10262",
                "amenity": "fuel",
                "operator": "ENERCOOP ADRIATICA S.P.A."
            },
            "geometry": {
                "type": "Point",
                "coordinates": [
                    11.354952156543732,
                    44.56612071196292
                ]
            }
        },
        {
            "type": "Feature",
            "properties": {
                "name": "stazione esso",
                "id": "19686",
                "brand": "Esso",
                "amenity": "fuel",
                "operator": "CUTRUPI GIUSEPPE STAZIONE SERVIZIO ESSO"
            },
            "geometry": {
                "type": "Point",
                "coordinates": [
                    11.400041431188583,
                    44.494574496232
                ]
            }
        },
        {
            "type": "Feature",
            "properties": {
                "name": "SCANAVINI DAVIDE",
                "id": "4285",
                "brand": "Q8",
                "amenity": "fuel",
                "operator": "STAZIONE DI SERVIZIO SCANAVINI DAVIDE"
            },
            "geometry": {
                "type": "Point",
                "coordinates": [
                    11.387149393558502,
                    44.512893806920104
                ]
            }
        },
        {
            "type": "Feature",
            "properties": {
                "name": "SASSOMET",
                "id": "4010",
                "amenity": "fuel",
                "operator": "SASSOMET SOCIETA' A RESPONSABILITA' LIMITATA"
            },
            "geometry": {
                "type": "Point",
                "coordinates": [
                    11.25512570142746,
                    44.49174356082814
                ]
            }
        },
        {
            "type": "Feature",
            "properties": {
                "name": "ENI",
                "id": "12668",
                "brand": "Agip Eni",
                "amenity": "fuel",
                "operator": "SIRHINDI HALEEM"
            },
            "geometry": {
                "type": "Point",
                "coordinates": [
                    11.333760910173053,
                    44.508420779352626
                ]
            }
        }
    ]
}