{
    "type": "FeatureCollection",
    "features": [
        {
            "type": "Feature",
            "properties": {
                "name": "ENI VALDAGNO",
                "id": "7440",
                "brand": "Agip Eni",
                "amenity": "fuel",
                "operator": "BORGA LUIGI S.A.S. DI BORGA LUIGI & C."
            },
            "geometry": {
                "type": "Point",
                "coordinates": [
                    11.303893977589837,
                    45.64119011838926
                ]
            }
        },
        {
            "type": "Feature",
            "properties": {
                "name": "VIA MARTIRI DELLA LIBERTA' 17",
                "id": "23360",
                "brand": "Agip Eni",
                "amenity": "fuel",
                "operator": "SBALCHIERO NEREO & C. S.A.S."
            },
            "geometry": {
                "type": "Point",
                "coordinates": [
                    11.37703478336334,
                    45.68834913337202
                ]
            }
        },
        {
            "type": "Feature",
            "properties": {
                "name": "valdagnocarburanti",
                "id": "11122",
                "brand": "Esso",
                "amenity": "fuel",
                "operator": "VALDAGNO CARBURANTI DI ZARANTONELLO FAUSTO & C. S.N.C."
            },
            "geometry": {
                "type": "Point",
                "coordinates": [
                    11.306841373443604,
                    45.63542321402893
                ]
            }
        },
        {
            "type": "Feature",
            "properties": {
                "name": "Destro Donato",
                "id": "16702",
                "brand": "Esso",
                "amenity": "fuel",
                "operator": "DESTRO DONATO"
            },
            "geometry": {
                "type": "Point",
                "coordinates": [
                    11.387605369091034,
                    45.69422320543334
                ]
            }
        },
        {
            "type": "Feature",
            "properties": {
                "name": "VALDAGNO GASDOTTO",
                "id": "25163",
                "brand": "Q8",
                "amenity": "fuel",
                "operator": "SERVIZI & GESTIONI ITALIA S.R.L."
            },
            "geometry": {
                "type": "Point",
                "coordinates": [
                    11.306942397108173,
                    45.62756953493453
                ]
            }
        },
        {
            "type": "Feature",
            "properties": {
                "name": "Costantin Malo",
                "id": "4067",
                "brand": "Costantin",
                "amenity": "fuel",
                "operator": "ENERGAS ITALIA S.R.L."
            },
            "geometry": {
                "type": "Point",
                "coordinates": [
                    11.405417919158936,
                    45.671324479860054
                ]
            }
        },
        {
            "type": "Feature",
            "properties": {
                "name": "gpoil  sas",
                "id": "17404",
                "brand": "Agip Eni",
                "amenity": "fuel",
                "operator": "G.P. OIL DI PRETTO ROBERTO & C. S.A.S."
            },
            "geometry": {
                "type": "Point",
                "coordinates": [
                    11.354500866934245,
                    45.60329202776568
                ]
            }
        },
        {
            "type": "Feature",
            "properties": {
                "name": "COSTANTIN di ZOSO LIVIO & C SNC",
                "id": "10812",
                "brand": "Costantin",
                "amenity": "fuel",
                "operator": "ZOSO LIVIO & C. S.N.C."
            },
            "geometry": {
                "type": "Point",
                "coordinates": [
                    11.398913562297821,
                    45.584819279483796
                ]
            }
        },
        {
            "type": "Feature",
            "properties": {
                "name": "BENZA di SCHIO (VI)",
                "id": "4218",
                "brand": "Benza",
                "amenity": "fuel",
                "operator": "REGAL 2 S.R.L."
            },
            "geometry": {
                "type": "Point",
                "coordinates": [
                    11.388378641352801,
                    45.694357164591345
                ]
            }
        },
        {
            "type": "Feature",
            "properties": {
                "name": "F.lli Perin",
                "id": "12690",
                "brand": "Total Erg",
                "amenity": "fuel",
                "operator": "F.LLI PERIN S.A.S. DI PERIN DAVIDE & C."
            },
            "geometry": {
                "type": "Point",
                "coordinates": [
                    11.368800466270386,
                    45.58983381746906
                ]
            }
        },
        {
            "type": "Feature",
            "properties": {
                "name": "ENI di ZORZI RAFFAELLA",
                "id": "12600",
                "brand": "Agip Eni",
                "amenity": "fuel",
                "operator": "ZORZI RAFFAELLA"
            },
            "geometry": {
                "type": "Point",
                "coordinates": [
                    11.316844677246081,
                    45.623174902350954
                ]
            }
        },
        {
            "type": "Feature",
            "properties": {
                "name": "TOTALERG",
                "id": "26606",
                "brand": "Total Erg",
                "amenity": "fuel",
                "operator": "SAVIO STEFANO & MATTEO S.N.C."
            },
            "geometry": {
                "type": "Point",
                "coordinates": [
                    11.32714639683877,
                    45.61686630930356
                ]
            }
        },
        {
            "type": "Feature",
            "properties": {
                "name": "NOALOIL PV6",
                "id": "4489",
                "brand": "Noaloil",
                "amenity": "fuel",
                "operator": "NOALOIL S.P.A."
            },
            "geometry": {
                "type": "Point",
                "coordinates": [
                    11.40056848526001,
                    45.6811342271649
                ]
            }
        },
        {
            "type": "Feature",
            "properties": {
                "name": "martini federico",
                "id": "23954",
                "brand": "Agip Eni",
                "amenity": "fuel",
                "operator": "MARTINI FEDERICO"
            },
            "geometry": {
                "type": "Point",
                "coordinates": [
                    11.385445355819684,
                    45.64798050705363
                ]
            }
        },
        {
            "type": "Feature",
            "properties": {
                "name": "STECCA S.N.C. DI STECCA SERGIO & C.",
                "id": "9157",
                "brand": "Q8",
                "amenity": "fuel",
                "operator": "STECCA S.N.C. DI STECCA SERGIO & C."
            },
            "geometry": {
                "type": "Point",
                "coordinates": [
                    11.42135579695889,
                    45.650693002837635
                ]
            }
        },
        {
            "type": "Feature",
            "properties": {
                "name": "ditributore IP",
                "id": "15485",
                "brand": "Api-Ip",
                "amenity": "fuel",
                "operator": "G&G DI VISONA' GIOVANNI"
            },
            "geometry": {
                "type": "Point",
                "coordinates": [
                    11.398070678114891,
                    45.66419866621205
                ]
            }
        },
        {
            "type": "Feature",
            "properties": {
                "name": "TAMOIL",
                "id": "28911",
                "brand": "Tamoil",
                "amenity": "fuel",
                "operator": "RIGONI DOMENICO"
            },
            "geometry": {
                "type": "Point",
                "coordinates": [
                    11.256804242327917,
                    45.58454561014967
                ]
            }
        },
        {
            "type": "Feature",
            "properties": {
                "name": "SPREGGIARO MARCO & C SNC",
                "id": "13059",
                "brand": "Agip Eni",
                "amenity": "fuel",
                "operator": "SPREGGIARO DI SPREGGIARO MARCO & C. S.N.C."
            },
            "geometry": {
                "type": "Point",
                "coordinates": [
                    11.407165459531825,
                    45.66528807883262
                ]
            }
        },
        {
            "type": "Feature",
            "properties": {
                "name": "Vicenza - Schio",
                "id": "17638",
                "amenity": "fuel",
                "operator": "BEYFIN S.P.A."
            },
            "geometry": {
                "type": "Point",
                "coordinates": [
                    11.400764286518097,
                    45.70459837608611
                ]
            }
        }
    ]
}