{
    "type": "FeatureCollection",
    "features": [
        {
            "type": "Feature",
            "properties": {
                "name": "FIGLINE VALDARNO-VIA TOTI 4",
                "id": "11581",
                "brand": "Q8",
                "amenity": "fuel",
                "operator": "SERVIZI & GESTIONI ITALIA S.R.L."
            },
            "geometry": {
                "type": "Point",
                "coordinates": [
                    11.483554020524023,
                    43.62509541591032
                ]
            }
        },
        {
            "type": "Feature",
            "properties": {
                "name": "Mabe service Rignano",
                "id": "30204",
                "brand": "Agip Eni",
                "amenity": "fuel",
                "operator": "M.A.B.E SERVICE DI AGLIETTI MARCO E BARBIERI EMILIANO SNC"
            },
            "geometry": {
                "type": "Point",
                "coordinates": [
                    11.449559032917023,
                    43.703994015690434
                ]
            }
        },
        {
            "type": "Feature",
            "properties": {
                "name": "metano toscana srl(figline v.a)",
                "id": "13527",
                "amenity": "fuel",
                "operator": "METANO TOSCANA S.R.L."
            },
            "geometry": {
                "type": "Point",
                "coordinates": [
                    11.496106088161467,
                    43.59758367857838
                ]
            }
        },
        {
            "type": "Feature",
            "properties": {
                "name": "REGGELLO",
                "id": "29475",
                "brand": "Tamoil",
                "amenity": "fuel",
                "operator": "MARINO S.N.C. DI FERRINI SIMONE & C."
            },
            "geometry": {
                "type": "Point",
                "coordinates": [
                    11.526604145765305,
                    43.67264816242499
                ]
            }
        },
        {
            "type": "Feature",
            "properties": {
                "name": "eni",
                "id": "29524",
                "brand": "Agip Eni",
                "amenity": "fuel",
                "operator": "DA.CAR DI DAMBROSIO ROCCO E C. S.A.S."
            },
            "geometry": {
                "type": "Point",
                "coordinates": [
                    11.48222031045077,
                    43.61191483984574
                ]
            }
        },
        {
            "type": "Feature",
            "properties": {
                "name": "ARNO EST",
                "id": "3574",
                "brand": "Agip Eni",
                "amenity": "fuel",
                "operator": "NUOVA TOSCANA CARBURANTI DI MARCO BARSANTI  & C. S.A.S."
            },
            "geometry": {
                "type": "Point",
                "coordinates": [
                    11.52153342962265,
                    43.583474338613655
                ]
            }
        },
        {
            "type": "Feature",
            "properties": {
                "name": "reggello",
                "id": "13575",
                "amenity": "fuel",
                "operator": "C.C.S. DI CANONICI GIOVANNI & C. S.N.C."
            },
            "geometry": {
                "type": "Point",
                "coordinates": [
                    11.472883522510529,
                    43.632964472101555
                ]
            }
        },
        {
            "type": "Feature",
            "properties": {
                "name": "Taddeucci Auto snc",
                "id": "26004",
                "brand": "Api-Ip",
                "amenity": "fuel",
                "operator": "TADDEUCCI AUTO S.N.C. DI TADDEUCCI FRANCESCO E C."
            },
            "geometry": {
                "type": "Point",
                "coordinates": [
                    11.540344888452182,
                    43.63892421061087
                ]
            }
        },
        {
            "type": "Feature",
            "properties": {
                "name": "ESSO MASSETTI ANDREA",
                "id": "14595",
                "brand": "Esso",
                "amenity": "fuel",
                "operator": "MASSETTI ANDREA"
            },
            "geometry": {
                "type": "Point",
                "coordinates": [
                    11.477918110450673,
                    43.615959046378364
                ]
            }
        },
        {
            "type": "Feature",
            "properties": {
                "name": "FIGLINE VALDARNO FI-S.S. 69",
                "id": "11580",
                "brand": "Q8",
                "amenity": "fuel",
                "operator": "SERVIZI & GESTIONI ITALIA S.R.L."
            },
            "geometry": {
                "type": "Point",
                "coordinates": [
                    11.461803714233838,
                    43.62658497566303
                ]
            }
        },
        {
            "type": "Feature",
            "properties": {
                "name": "esso",
                "id": "14926",
                "brand": "Esso",
                "amenity": "fuel",
                "operator": "GAGLIARDI CLEMENTINA E RICCI GIANLUCA S.N.C."
            },
            "geometry": {
                "type": "Point",
                "coordinates": [
                    11.45085570793458,
                    43.654044207299336
                ]
            }
        },
        {
            "type": "Feature",
            "properties": {
                "name": "ARNO OVEST",
                "id": "3709",
                "brand": "Api-Ip",
                "amenity": "fuel",
                "operator": "Ecar - Etrusca Carburanti s.a.s."
            },
            "geometry": {
                "type": "Point",
                "coordinates": [
                    11.464442610740662,
                    43.65004057669875
                ]
            }
        },
        {
            "type": "Feature",
            "properties": {
                "name": "FIGLINE VAL D'ARNO",
                "id": "25863",
                "brand": "Api-Ip",
                "amenity": "fuel",
                "operator": "IP SERVICES S.R.L."
            },
            "geometry": {
                "type": "Point",
                "coordinates": [
                    11.46645364418032,
                    43.62470000000002
                ]
            }
        },
        {
            "type": "Feature",
            "properties": {
                "name": "AREA DI SERVIZIO eni BARTALUCCI STEFANO",
                "id": "24330",
                "brand": "Agip Eni",
                "amenity": "fuel",
                "operator": "BARTALUCCI STEFANO"
            },
            "geometry": {
                "type": "Point",
                "coordinates": [
                    11.531932353973389,
                    43.68024485236639
                ]
            }
        },
        {
            "type": "Feature",
            "properties": {
                "name": "M.A.B.E . Service  Figline  e  incisa  valdarno",
                "id": "31009",
                "brand": "Agip Eni",
                "amenity": "fuel",
                "operator": "M.A.B.E SERVICE DI AGLIETTI MARCO E BARBIERI EMILIANO SNC"
            },
            "geometry": {
                "type": "Point",
                "coordinates": [
                    11.458388864994049,
                    43.63227665998316
                ]
            }
        },
        {
            "type": "Feature",
            "properties": {
                "name": "ANGELILLO F. & C. S.N.C.",
                "id": "21575",
                "brand": "Agip Eni",
                "amenity": "fuel",
                "operator": "ANGELILLO F. & C. S.N.C."
            },
            "geometry": {
                "type": "Point",
                "coordinates": [
                    11.507076993584633,
                    43.623246430413005
                ]
            }
        },
        {
            "type": "Feature",
            "properties": {
                "name": "reggello",
                "id": "14866",
                "brand": "Api-Ip",
                "amenity": "fuel",
                "operator": "PETROL GROUP S.R.L."
            },
            "geometry": {
                "type": "Point",
                "coordinates": [
                    11.466326862573624,
                    43.642573605035345
                ]
            }
        }
    ]
}