{
    "type": "FeatureCollection",
    "features": [
        {
            "type": "Feature",
            "properties": {
                "name": "distributore Barbiero di Gianna Zordan",
                "id": "4261",
                "brand": "Agip Eni",
                "amenity": "fuel",
                "operator": "DISTRIBUTORE BARBIERO DI ZORDAN GIANNA"
            },
            "geometry": {
                "type": "Point",
                "coordinates": [
                    11.599690318107605,
                    44.84739794702743
                ]
            }
        },
        {
            "type": "Feature",
            "properties": {
                "name": "PO EST",
                "id": "3464",
                "brand": "Total Erg",
                "amenity": "fuel",
                "operator": "STAZ.SERV.PO EST ANDREOTTI CLAUDIO DI ANDREOTTI OMAR E C. SNC"
            },
            "geometry": {
                "type": "Point",
                "coordinates": [
                    11.570832944774565,
                    44.88011856623545
                ]
            }
        },
        {
            "type": "Feature",
            "properties": {
                "name": "total erg girotti gianfrancesco",
                "id": "15674",
                "brand": "Total Erg",
                "amenity": "fuel",
                "operator": "GIROTTI GIANFRANCESCO"
            },
            "geometry": {
                "type": "Point",
                "coordinates": [
                    11.50242313128274,
                    44.840756467437686
                ]
            }
        },
        {
            "type": "Feature",
            "properties": {
                "name": "ip di bolognesi massimo",
                "id": "7656",
                "brand": "Api-Ip",
                "amenity": "fuel",
                "operator": "BOLOGNESI MASSIMO"
            },
            "geometry": {
                "type": "Point",
                "coordinates": [
                    11.531637310981752,
                    44.84707618643626
                ]
            }
        },
        {
            "type": "Feature",
            "properties": {
                "name": "LAMPOIL",
                "id": "29169",
                "amenity": "fuel",
                "operator": "LAMPO S.N.C. DI AMADORI ROBERTO E VALENTINI SONIA"
            },
            "geometry": {
                "type": "Point",
                "coordinates": [
                    11.58456265926361,
                    44.84734165800467
                ]
            }
        },
        {
            "type": "Feature",
            "properties": {
                "name": "SMP STIENTA",
                "id": "25338",
                "brand": "San Marco Petroli",
                "amenity": "fuel",
                "operator": "SAN MARCO PETROLI DISTRIBUZIONE S.R.L."
            },
            "geometry": {
                "type": "Point",
                "coordinates": [
                    11.54096426256558,
                    44.94314323962323
                ]
            }
        },
        {
            "type": "Feature",
            "properties": {
                "name": "ESSO PREVIATI",
                "id": "19428",
                "brand": "Esso",
                "amenity": "fuel",
                "operator": "PREVIATI MASSIMO"
            },
            "geometry": {
                "type": "Point",
                "coordinates": [
                    11.583872444180313,
                    44.92504724203452
                ]
            }
        },
        {
            "type": "Feature",
            "properties": {
                "name": "Automobile Club Ferrara Impianto IP",
                "id": "28844",
                "brand": "Api-Ip",
                "amenity": "fuel",
                "operator": "AUTOMOBILE CLUB FERRARA"
            },
            "geometry": {
                "type": "Point",
                "coordinates": [
                    11.600887675393665,
                    44.84867061371766
                ]
            }
        },
        {
            "type": "Feature",
            "properties": {
                "name": "STAZIONE IP",
                "id": "20401",
                "brand": "Api-Ip",
                "amenity": "fuel",
                "operator": "GURATTI ALESSIA"
            },
            "geometry": {
                "type": "Point",
                "coordinates": [
                    11.476429271163964,
                    44.94879393386784
                ]
            }
        },
        {
            "type": "Feature",
            "properties": {
                "name": "_robgas pv4",
                "id": "4580",
                "amenity": "fuel",
                "operator": "ROBGAS COMMERCIALE S.R.L."
            },
            "geometry": {
                "type": "Point",
                "coordinates": [
                    11.434122920036314,
                    44.87686184378345
                ]
            }
        },
        {
            "type": "Feature",
            "properties": {
                "name": "FERRARA-VIA DIAMANTINA PRESSO CC DIAMANTE",
                "id": "11575",
                "brand": "Q8",
                "amenity": "fuel",
                "operator": "SERVIZI & GESTIONI ITALIA S.R.L."
            },
            "geometry": {
                "type": "Point",
                "coordinates": [
                    11.580257492065472,
                    44.858646398861715
                ]
            }
        },
        {
            "type": "Feature",
            "properties": {
                "name": "BERTELLI-FERRARA",
                "id": "11379",
                "brand": "Bertelli Carburanti",
                "amenity": "fuel",
                "operator": "BERTELLI WALTER E ROLANDO  - CARBURANTI - S.P.A."
            },
            "geometry": {
                "type": "Point",
                "coordinates": [
                    11.60056471824646,
                    44.84702255950596
                ]
            }
        },
        {
            "type": "Feature",
            "properties": {
                "name": "F. Ghirardelli & C. S.a.s.",
                "id": "4107",
                "brand": "Agip Eni",
                "amenity": "fuel",
                "operator": "GHIRARDELLI FAUSTO & C. S.A.S."
            },
            "geometry": {
                "type": "Point",
                "coordinates": [
                    11.600536199999967,
                    44.85414504317716
                ]
            }
        },
        {
            "type": "Feature",
            "properties": {
                "name": "METANO FERRARA",
                "id": "10853",
                "amenity": "fuel",
                "operator": "METANO PIACENZA DI ROBERTO ILLICA - MAGRINI & MAURO PARTEL S.N.C."
            },
            "geometry": {
                "type": "Point",
                "coordinates": [
                    11.596671193115297,
                    44.848642043219805
                ]
            }
        },
        {
            "type": "Feature",
            "properties": {
                "name": "1010Braghetta S.a.s.",
                "id": "30412",
                "brand": "Major",
                "amenity": "fuel",
                "operator": "BRAGHETTA S.A.S. DI BRAGHETTA LUIGI & C."
            },
            "geometry": {
                "type": "Point",
                "coordinates": [
                    11.548323012997459,
                    44.93954453608314
                ]
            }
        },
        {
            "type": "Feature",
            "properties": {
                "name": "ZOCCA PIERLUIGI E FIGLI SNC",
                "id": "24464",
                "brand": "Api-Ip",
                "amenity": "fuel",
                "operator": "ZOCCA PIERLUIGI E FIGLI SNC"
            },
            "geometry": {
                "type": "Point",
                "coordinates": [
                    11.531629264354704,
                    44.84708721617641
                ]
            }
        },
        {
            "type": "Feature",
            "properties": {
                "name": "Gas Auto",
                "id": "17371",
                "amenity": "fuel",
                "operator": "PENCARELLI CLAUDIO"
            },
            "geometry": {
                "type": "Point",
                "coordinates": [
                    11.581745212303192,
                    44.848066014312366
                ]
            }
        },
        {
            "type": "Feature",
            "properties": {
                "name": "NOALOIL",
                "id": "15692",
                "brand": "Noaloil",
                "amenity": "fuel",
                "operator": "BASSI DANIELA"
            },
            "geometry": {
                "type": "Point",
                "coordinates": [
                    11.436869502067568,
                    44.954241545326816
                ]
            }
        },
        {
            "type": "Feature",
            "properties": {
                "name": "CONAD SUPERMERCATI",
                "id": "31821",
                "brand": "CONAD",
                "amenity": "fuel",
                "operator": "ERIDANO CARBURANTI SRL"
            },
            "geometry": {
                "type": "Point",
                "coordinates": [
                    11.587251733165772,
                    44.852247596194786
                ]
            }
        },
        {
            "type": "Feature",
            "properties": {
                "name": "ILARIO MACCANTI",
                "id": "27465",
                "brand": "Esso",
                "amenity": "fuel",
                "operator": "ILARIO MACCANTI"
            },
            "geometry": {
                "type": "Point",
                "coordinates": [
                    11.584696784655762,
                    44.84146260394574
                ]
            }
        },
        {
            "type": "Feature",
            "properties": {
                "name": "Distributore di carburanti Zanotti Marzia",
                "id": "17357",
                "brand": "Q8",
                "amenity": "fuel",
                "operator": "ZANOTTI MARZIA"
            },
            "geometry": {
                "type": "Point",
                "coordinates": [
                    11.591560542583466,
                    44.84776002053044
                ]
            }
        },
        {
            "type": "Feature",
            "properties": {
                "name": "PO OVEST",
                "id": "3705",
                "brand": "San Marco Petroli",
                "amenity": "fuel",
                "operator": "SAN MARCO PETROLI DISTRIBUZIONE S.R.L."
            },
            "geometry": {
                "type": "Point",
                "coordinates": [
                    11.569200000000002,
                    44.8795
                ]
            }
        }
    ]
}