{
    "type": "FeatureCollection",
    "features": [
        {
            "type": "Feature",
            "properties": {
                "name": "staz. ip di fedele vittorio",
                "id": "28629",
                "brand": "Api-Ip",
                "amenity": "fuel",
                "operator": "FEDELE VITTORIO"
            },
            "geometry": {
                "type": "Point",
                "coordinates": [
                    11.578023433685303,
                    44.775281736408694
                ]
            }
        },
        {
            "type": "Feature",
            "properties": {
                "name": "San Vincenzo di Galliera",
                "id": "17188",
                "amenity": "fuel",
                "operator": "CARBURANTI VECCHIETTI S.R.L."
            },
            "geometry": {
                "type": "Point",
                "coordinates": [
                    11.440914943814278,
                    44.73812192920952
                ]
            }
        },
        {
            "type": "Feature",
            "properties": {
                "name": "AGRIPOINT SRL",
                "id": "13034",
                "amenity": "fuel",
                "operator": "AGRI POINT S.R.L."
            },
            "geometry": {
                "type": "Point",
                "coordinates": [
                    11.583065316081047,
                    44.775045445530516
                ]
            }
        },
        {
            "type": "Feature",
            "properties": {
                "name": "Metano Montalbano",
                "id": "4523",
                "amenity": "fuel",
                "operator": "METANO MONTALBANO DI GOLFIERI ALVARO & C. S.N.C."
            },
            "geometry": {
                "type": "Point",
                "coordinates": [
                    11.570200771093367,
                    44.74152099840195
                ]
            }
        },
        {
            "type": "Feature",
            "properties": {
                "name": "GE.DO. di PASSARO DOMENICO",
                "id": "30491",
                "brand": "Agip Eni",
                "amenity": "fuel",
                "operator": "GE.DO DI DOMENICO PASSARO"
            },
            "geometry": {
                "type": "Point",
                "coordinates": [
                    11.584843647221303,
                    44.80569086973901
                ]
            }
        },
        {
            "type": "Feature",
            "properties": {
                "name": "CHIESUOL DEL FOSSO",
                "id": "5793",
                "brand": "Total Erg",
                "amenity": "fuel",
                "operator": "TotalErg SpA"
            },
            "geometry": {
                "type": "Point",
                "coordinates": [
                    11.574163390213016,
                    44.80004154855754
                ]
            }
        },
        {
            "type": "Feature",
            "properties": {
                "name": "IP Girotti Gianfrancesco",
                "id": "15670",
                "brand": "Api-Ip",
                "amenity": "fuel",
                "operator": "GIROTTI GIANFRANCESCO"
            },
            "geometry": {
                "type": "Point",
                "coordinates": [
                    11.430939945507818,
                    44.809242743367115
                ]
            }
        },
        {
            "type": "Feature",
            "properties": {
                "name": "toselli massimo",
                "id": "15427",
                "brand": "Q8",
                "amenity": "fuel",
                "operator": "TOSELLI MASSIMO"
            },
            "geometry": {
                "type": "Point",
                "coordinates": [
                    11.572173535823824,
                    44.79083101591605
                ]
            }
        },
        {
            "type": "Feature",
            "properties": {
                "name": "IP",
                "id": "6357",
                "brand": "Api-Ip",
                "amenity": "fuel",
                "operator": "BIANCHI RODOLFO"
            },
            "geometry": {
                "type": "Point",
                "coordinates": [
                    11.59146398305893,
                    44.80963015704431
                ]
            }
        },
        {
            "type": "Feature",
            "properties": {
                "name": "melecchi federico",
                "id": "24347",
                "brand": "Tamoil",
                "amenity": "fuel",
                "operator": "MELECCHI FEDERICO"
            },
            "geometry": {
                "type": "Point",
                "coordinates": [
                    11.436868160963058,
                    44.739640208617715
                ]
            }
        },
        {
            "type": "Feature",
            "properties": {
                "name": "VETTORELLO MAURA IMP. IP",
                "id": "31306",
                "brand": "Api-Ip",
                "amenity": "fuel",
                "operator": "VETTORELLO MAURA"
            },
            "geometry": {
                "type": "Point",
                "coordinates": [
                    11.490070377940583,
                    44.76552244766922
                ]
            }
        },
        {
            "type": "Feature",
            "properties": {
                "name": "L.C SHOP.SERVICE ESSO",
                "id": "12606",
                "brand": "Esso",
                "amenity": "fuel",
                "operator": "L.C SHOP.SERVICE DI CILLANI LUCA"
            },
            "geometry": {
                "type": "Point",
                "coordinates": [
                    11.439969228185193,
                    44.735762184288056
                ]
            }
        },
        {
            "type": "Feature",
            "properties": {
                "name": "eni di baroni giovanni",
                "id": "10297",
                "brand": "Agip Eni",
                "amenity": "fuel",
                "operator": "BARONI GIOVANNI"
            },
            "geometry": {
                "type": "Point",
                "coordinates": [
                    11.542706787586212,
                    44.77891603873387
                ]
            }
        },
        {
            "type": "Feature",
            "properties": {
                "name": "repsol",
                "id": "21970",
                "brand": "Repsol",
                "amenity": "fuel",
                "operator": "FRAZZOLI MARIA & MEOTTI MARIA COSTANZA S.N.C."
            },
            "geometry": {
                "type": "Point",
                "coordinates": [
                    11.496968720237758,
                    44.83977747444265
                ]
            }
        }
    ]
}