{
    "type": "FeatureCollection",
    "features": [
        {
            "type": "Feature",
            "properties": {
                "name": "VI048",
                "id": "18016",
                "brand": "Total Erg",
                "amenity": "fuel",
                "operator": "CAMPANA SERGIO"
            },
            "geometry": {
                "type": "Point",
                "coordinates": [
                    11.50321982209016,
                    45.614487853702784
                ]
            }
        },
        {
            "type": "Feature",
            "properties": {
                "name": "BREGANZE-VIA VENEZIA 2/A",
                "id": "11952",
                "brand": "Q8",
                "amenity": "fuel",
                "operator": "SERVIZI & GESTIONI ITALIA S.R.L."
            },
            "geometry": {
                "type": "Point",
                "coordinates": [
                    11.563412245368909,
                    45.698512400849864
                ]
            }
        },
        {
            "type": "Feature",
            "properties": {
                "name": "Stazione di servizio Agip di Nardello Remo",
                "id": "17320",
                "brand": "Agip Eni",
                "amenity": "fuel",
                "operator": "STAZIONE DI SERVIZIO AGIP DI NARDELLO REMO"
            },
            "geometry": {
                "type": "Point",
                "coordinates": [
                    11.483338773250582,
                    45.69594304223188
                ]
            }
        },
        {
            "type": "Feature",
            "properties": {
                "name": "SARCEDO-SP. NUOVA GASPARONA",
                "id": "11950",
                "brand": "Q8",
                "amenity": "fuel",
                "operator": "SERVIZI & GESTIONI ITALIA S.R.L."
            },
            "geometry": {
                "type": "Point",
                "coordinates": [
                    11.5176883558197,
                    45.69345598812211
                ]
            }
        },
        {
            "type": "Feature",
            "properties": {
                "name": "Massimo Pietribiasi Eni Agip",
                "id": "19341",
                "brand": "Agip Eni",
                "amenity": "fuel",
                "operator": "PIETRIBIASI MASSIMO"
            },
            "geometry": {
                "type": "Point",
                "coordinates": [
                    11.44593670964241,
                    45.69530644648444
                ]
            }
        },
        {
            "type": "Feature",
            "properties": {
                "name": "THIENE VIA DELL'AUTOSTRADA",
                "id": "8770",
                "brand": "Q8",
                "amenity": "fuel",
                "operator": "SERVIZI & GESTIONI ITALIA S.R.L."
            },
            "geometry": {
                "type": "Point",
                "coordinates": [
                    11.463338664417961,
                    45.69442395420692
                ]
            }
        },
        {
            "type": "Feature",
            "properties": {
                "name": "LORO F.LLI SPA",
                "id": "24583",
                "amenity": "fuel",
                "operator": "ENERGY SYSTEM  SNC DI BIZZOTTO PAOLO & ROSSI ORESTE"
            },
            "geometry": {
                "type": "Point",
                "coordinates": [
                    11.547532081604002,
                    45.67864859413754
                ]
            }
        },
        {
            "type": "Feature",
            "properties": {
                "name": "Repsol_Thiene_(VI004)",
                "id": "23860",
                "brand": "Repsol",
                "amenity": "fuel",
                "operator": "REPSOL ITALIA S.P.A."
            },
            "geometry": {
                "type": "Point",
                "coordinates": [
                    11.485275328159332,
                    45.681624444528616
                ]
            }
        },
        {
            "type": "Feature",
            "properties": {
                "name": "BC",
                "id": "11146",
                "amenity": "fuel",
                "operator": "ENERGIA S.R.L."
            },
            "geometry": {
                "type": "Point",
                "coordinates": [
                    11.426649623348228,
                    45.69199810346484
                ]
            }
        },
        {
            "type": "Feature",
            "properties": {
                "name": "STAZIONE DI SERVIZIO H6",
                "id": "12605",
                "amenity": "fuel",
                "operator": "SCHIZZAROTTO ROBERTA & C. S.N.C."
            },
            "geometry": {
                "type": "Point",
                "coordinates": [
                    11.529380232095718,
                    45.64026187462241
                ]
            }
        },
        {
            "type": "Feature",
            "properties": {
                "name": "CELIN S.N.C. DI CELIN WALTER & MASSIMO",
                "id": "11380",
                "brand": "Tamoil",
                "amenity": "fuel",
                "operator": "CELIN S.N.C. DI CELIN WALTER & MASSIMO"
            },
            "geometry": {
                "type": "Point",
                "coordinates": [
                    11.592733338475227,
                    45.65791594407543
                ]
            }
        },
        {
            "type": "Feature",
            "properties": {
                "name": "STAZIONE ENI DI MARCHESIN ROBERTO & C. S.A.S",
                "id": "4244",
                "brand": "Agip Eni",
                "amenity": "fuel",
                "operator": "MARCHESIN ROBERTO & C. S.A.S."
            },
            "geometry": {
                "type": "Point",
                "coordinates": [
                    11.568439900875092,
                    45.620051351459225
                ]
            }
        },
        {
            "type": "Feature",
            "properties": {
                "name": "stazione eni dal molin lauro&c.cnc",
                "id": "19992",
                "brand": "Agip Eni",
                "amenity": "fuel",
                "operator": "DAL MOLIN LAURO & C. S.N.C."
            },
            "geometry": {
                "type": "Point",
                "coordinates": [
                    11.46877035498619,
                    45.68993687235835
                ]
            }
        },
        {
            "type": "Feature",
            "properties": {
                "name": "REPSOL",
                "id": "10671",
                "brand": "Repsol",
                "amenity": "fuel",
                "operator": "A.F. PETROLI S.P.A."
            },
            "geometry": {
                "type": "Point",
                "coordinates": [
                    11.453939080238342,
                    45.679934150973885
                ]
            }
        },
        {
            "type": "Feature",
            "properties": {
                "name": "TOTALERG",
                "id": "27422",
                "brand": "Total Erg",
                "amenity": "fuel",
                "operator": "BAR KING STONE DI D'URZO RAFFAELE"
            },
            "geometry": {
                "type": "Point",
                "coordinates": [
                    11.588902473449707,
                    45.70048180836695
                ]
            }
        },
        {
            "type": "Feature",
            "properties": {
                "name": "eni",
                "id": "30333",
                "brand": "Agip Eni",
                "amenity": "fuel",
                "operator": "F.LLI GRAZIANI SNC DI GRAZIANI MASSIMO & C."
            },
            "geometry": {
                "type": "Point",
                "coordinates": [
                    11.492186710238457,
                    45.63896509227842
                ]
            }
        },
        {
            "type": "Feature",
            "properties": {
                "name": "Adriano Menin",
                "id": "14267",
                "brand": "Repsol",
                "amenity": "fuel",
                "operator": "MENIN ADRIANO"
            },
            "geometry": {
                "type": "Point",
                "coordinates": [
                    11.589328944683075,
                    45.65572474565526
                ]
            }
        },
        {
            "type": "Feature",
            "properties": {
                "name": "AGRINORDEST-DISTRIBUTORE DUEVILLE",
                "id": "8352",
                "amenity": "fuel",
                "operator": "CONSORZIO AGRARIO DEL NORDEST SOCIETA' COOPERATIVA"
            },
            "geometry": {
                "type": "Point",
                "coordinates": [
                    11.54749457672119,
                    45.63799122851688
                ]
            }
        },
        {
            "type": "Feature",
            "properties": {
                "name": "COSTABISSARA - FRAZIONE MOTTA",
                "id": "7285",
                "brand": "Q8",
                "amenity": "fuel",
                "operator": "SERVIZI & GESTIONI ITALIA S.R.L."
            },
            "geometry": {
                "type": "Point",
                "coordinates": [
                    11.4940483558197,
                    45.60159286031929
                ]
            }
        },
        {
            "type": "Feature",
            "properties": {
                "name": "POSTUMIA",
                "id": "3822",
                "brand": "Total Erg",
                "amenity": "fuel",
                "operator": "POSTUMIA SUD S.R.L."
            },
            "geometry": {
                "type": "Point",
                "coordinates": [
                    11.59831166267395,
                    45.59401431359102
                ]
            }
        },
        {
            "type": "Feature",
            "properties": {
                "name": "Road House",
                "id": "18428",
                "brand": "Tamoil",
                "amenity": "fuel",
                "operator": "RONZANI SAMUEL"
            },
            "geometry": {
                "type": "Point",
                "coordinates": [
                    11.576871424913406,
                    45.666995155287154
                ]
            }
        },
        {
            "type": "Feature",
            "properties": {
                "name": "RA-FI &C S.N.C.",
                "id": "10564",
                "amenity": "fuel",
                "operator": "RA-FI DI RANIERO LORIS E C. S.N.C."
            },
            "geometry": {
                "type": "Point",
                "coordinates": [
                    11.55682210185239,
                    45.59615123868067
                ]
            }
        },
        {
            "type": "Feature",
            "properties": {
                "name": "BOGONI",
                "id": "8059",
                "amenity": "fuel",
                "operator": "BAR MARY DI VANGELISTA GIAN PIETRO & C. SNC"
            },
            "geometry": {
                "type": "Point",
                "coordinates": [
                    11.491066217422487,
                    45.62669415186529
                ]
            }
        },
        {
            "type": "Feature",
            "properties": {
                "name": "tamoil",
                "id": "12993",
                "brand": "Tamoil",
                "amenity": "fuel",
                "operator": "STAZIONE DI SERVIZIO DI LONGHIN NEREO"
            },
            "geometry": {
                "type": "Point",
                "coordinates": [
                    11.568880086508216,
                    45.593827265114605
                ]
            }
        },
        {
            "type": "Feature",
            "properties": {
                "name": "THIENE-VIA GOMBE SNC",
                "id": "11954",
                "brand": "Q8",
                "amenity": "fuel",
                "operator": "SERVIZI & GESTIONI ITALIA S.R.L."
            },
            "geometry": {
                "type": "Point",
                "coordinates": [
                    11.479456677246162,
                    45.69337494075931
                ]
            }
        },
        {
            "type": "Feature",
            "properties": {
                "name": "TAMOIL",
                "id": "16283",
                "brand": "Tamoil",
                "amenity": "fuel",
                "operator": "SOAVE MARCO E DARIO S.N.C."
            },
            "geometry": {
                "type": "Point",
                "coordinates": [
                    11.464207939811672,
                    45.61705970070875
                ]
            }
        },
        {
            "type": "Feature",
            "properties": {
                "name": "Stazione di servizio Q8",
                "id": "24673",
                "brand": "Q8",
                "amenity": "fuel",
                "operator": "SO.GES.CAR. DI PERDONCIN RICCARDO & C.-S.N.C."
            },
            "geometry": {
                "type": "Point",
                "coordinates": [
                    11.559194326400757,
                    45.608486664193386
                ]
            }
        },
        {
            "type": "Feature",
            "properties": {
                "name": "POSTUMIA",
                "id": "29315",
                "brand": "Tamoil",
                "amenity": "fuel",
                "operator": "WHITE S.R.L."
            },
            "geometry": {
                "type": "Point",
                "coordinates": [
                    11.599985361099243,
                    45.5948596375879
                ]
            }
        },
        {
            "type": "Feature",
            "properties": {
                "name": "TOTALERG",
                "id": "30971",
                "brand": "Total Erg",
                "amenity": "fuel",
                "operator": "GECA S.A.S. DI D'URZO RAFFAELE & C."
            },
            "geometry": {
                "type": "Point",
                "coordinates": [
                    11.55761352645868,
                    45.638192612468096
                ]
            }
        },
        {
            "type": "Feature",
            "properties": {
                "name": "BENZA CALDOGNO",
                "id": "4100",
                "brand": "Benza",
                "amenity": "fuel",
                "operator": "BORTOLAMEI SRL"
            },
            "geometry": {
                "type": "Point",
                "coordinates": [
                    11.514734548271234,
                    45.604154345582124
                ]
            }
        },
        {
            "type": "Feature",
            "properties": {
                "name": "mabilia orlando - eni",
                "id": "18573",
                "brand": "Agip Eni",
                "amenity": "fuel",
                "operator": "MABILIA ORLANDO"
            },
            "geometry": {
                "type": "Point",
                "coordinates": [
                    11.565719470381739,
                    45.68454167362507
                ]
            }
        },
        {
            "type": "Feature",
            "properties": {
                "name": "ENI STATION",
                "id": "28268",
                "brand": "Agip Eni",
                "amenity": "fuel",
                "operator": "FLOREANI COMMERCIALE S.A.S. DI FLOREANI ROBERTO"
            },
            "geometry": {
                "type": "Point",
                "coordinates": [
                    11.509710252285002,
                    45.693470057658956
                ]
            }
        }
    ]
}