{
    "type": "FeatureCollection",
    "features": [
        {
            "type": "Feature",
            "properties": {
                "name": "EUGANEA METANO SAS MONTAGNANA",
                "id": "4618",
                "amenity": "fuel",
                "operator": "EUGANEA METANO S.A.S. DI VERONESE ELSA E C."
            },
            "geometry": {
                "type": "Point",
                "coordinates": [
                    11.497375412828093,
                    45.224812850258225
                ]
            }
        },
        {
            "type": "Feature",
            "properties": {
                "name": "Stazione di Servizio  IES",
                "id": "19804",
                "brand": "Ies",
                "amenity": "fuel",
                "operator": "STRABELLO LORIS"
            },
            "geometry": {
                "type": "Point",
                "coordinates": [
                    11.46161955092623,
                    45.2324755555892
                ]
            }
        },
        {
            "type": "Feature",
            "properties": {
                "name": "LORO ROVEREDO DI GUA'",
                "id": "25464",
                "amenity": "fuel",
                "operator": "FRENIC SERVICE S.R.L."
            },
            "geometry": {
                "type": "Point",
                "coordinates": [
                    11.441901326179504,
                    45.27729859427399
                ]
            }
        },
        {
            "type": "Feature",
            "properties": {
                "name": "PASQUALIN SERAFINO DI PASQUALIN LUIGINO",
                "id": "20267",
                "brand": "Agip Eni",
                "amenity": "fuel",
                "operator": "PASQUALIN SERAFINO DI PASQUALIN LUIGINO"
            },
            "geometry": {
                "type": "Point",
                "coordinates": [
                    11.502468901049838,
                    45.28938895602988
                ]
            }
        },
        {
            "type": "Feature",
            "properties": {
                "name": "ZILIO PIETRO & C. SNC",
                "id": "4110",
                "brand": "Agip Eni",
                "amenity": "fuel",
                "operator": "ZILIO PIETRO & C. S.N.C."
            },
            "geometry": {
                "type": "Point",
                "coordinates": [
                    11.54447221772159,
                    45.29234616078462
                ]
            }
        },
        {
            "type": "Feature",
            "properties": {
                "name": "BERICA METANO SNC",
                "id": "22934",
                "brand": "Agip Eni",
                "amenity": "fuel",
                "operator": "BERICA METANO DI ZORDAN FRANCESCO E C. - S.N.C."
            },
            "geometry": {
                "type": "Point",
                "coordinates": [
                    11.529876440763472,
                    45.28503266041518
                ]
            }
        },
        {
            "type": "Feature",
            "properties": {
                "name": "STAZIONE DI SERVIZIO \"PIT STOP\"",
                "id": "12146",
                "amenity": "fuel",
                "operator": "L'ALBA - SOCIETA' COOPERATIVA SOCIALE"
            },
            "geometry": {
                "type": "Point",
                "coordinates": [
                    11.508627722753884,
                    45.32911852819396
                ]
            }
        },
        {
            "type": "Feature",
            "properties": {
                "name": "SALETTO NI010458",
                "id": "29105",
                "brand": "Total Erg",
                "amenity": "fuel",
                "operator": "CORO S.R.L."
            },
            "geometry": {
                "type": "Point",
                "coordinates": [
                    11.544195990212984,
                    45.22654839448058
                ]
            }
        },
        {
            "type": "Feature",
            "properties": {
                "name": "Olivieri Sonia Distributore IP",
                "id": "21987",
                "brand": "Api-Ip",
                "amenity": "fuel",
                "operator": "OLIVIERI SONIA"
            },
            "geometry": {
                "type": "Point",
                "coordinates": [
                    11.529386937618256,
                    45.305108001129426
                ]
            }
        },
        {
            "type": "Feature",
            "properties": {
                "name": "Al 46 di Paride Battaglia & c. S.a.s.",
                "id": "7646",
                "brand": "Tamoil",
                "amenity": "fuel",
                "operator": "AL 46 DI PARIDE BATTAGLIA & C. S.A.S."
            },
            "geometry": {
                "type": "Point",
                "coordinates": [
                    11.554810958196981,
                    45.29720910864415
                ]
            }
        },
        {
            "type": "Feature",
            "properties": {
                "name": "Costantin Saletto",
                "id": "24385",
                "brand": "Costantin",
                "amenity": "fuel",
                "operator": "COSTANTIN DISTRIBUZIONE E SERVIZI SRL"
            },
            "geometry": {
                "type": "Point",
                "coordinates": [
                    11.548554887619046,
                    45.22592533656783
                ]
            }
        },
        {
            "type": "Feature",
            "properties": {
                "name": "GT CARBURANTI",
                "id": "19714",
                "amenity": "fuel",
                "operator": "G.T. S.N.C. DI TOGNETTO GIULIANO & C."
            },
            "geometry": {
                "type": "Point",
                "coordinates": [
                    11.542847603559494,
                    45.33498199460531
                ]
            }
        },
        {
            "type": "Feature",
            "properties": {
                "name": "COSTANTIN MEGLIADINO",
                "id": "9072",
                "brand": "Costantin",
                "amenity": "fuel",
                "operator": "NAPOLI MARIA LUISA"
            },
            "geometry": {
                "type": "Point",
                "coordinates": [
                    11.513745730688472,
                    45.2258817697992
                ]
            }
        },
        {
            "type": "Feature",
            "properties": {
                "name": "GOLDIN MICHELE",
                "id": "5197",
                "brand": "Agip Eni",
                "amenity": "fuel",
                "operator": "GOLDIN MICHELE"
            },
            "geometry": {
                "type": "Point",
                "coordinates": [
                    11.487048268318176,
                    45.22471374532566
                ]
            }
        },
        {
            "type": "Feature",
            "properties": {
                "name": "Stazione di Servizio Tamoil di Cazzadore Lionella",
                "id": "10470",
                "brand": "Tamoil",
                "amenity": "fuel",
                "operator": "CAZZADORE LIONELLA"
            },
            "geometry": {
                "type": "Point",
                "coordinates": [
                    11.449408841697277,
                    45.2362286857962
                ]
            }
        }
    ]
}