{
    "type": "FeatureCollection",
    "features": [
        {
            "type": "Feature",
            "properties": {
                "name": "ENI SPA",
                "id": "19155",
                "brand": "Agip Eni",
                "amenity": "fuel",
                "operator": "NIEDDU BRUNO & C. S.A.S."
            },
            "geometry": {
                "type": "Point",
                "coordinates": [
                    11.45559936761856,
                    45.76683366964541
                ]
            }
        },
        {
            "type": "Feature",
            "properties": {
                "name": "F.LLI SIMONATO SNC STAZIONE DI SERVIZIO ENI OFFICINA AUTO MOTO CENTRO REVISIONI",
                "id": "6339",
                "brand": "Agip Eni",
                "amenity": "fuel",
                "operator": "F.LLI SIMONATO MARIO, ANTONIO E GIOVANNI S.N.C."
            },
            "geometry": {
                "type": "Point",
                "coordinates": [
                    11.522900058697132,
                    45.74380407964003
                ]
            }
        },
        {
            "type": "Feature",
            "properties": {
                "name": "GRUPPO NORD PETROLI",
                "id": "28218",
                "amenity": "fuel",
                "operator": "BERNARDI MARIA CLARA"
            },
            "geometry": {
                "type": "Point",
                "coordinates": [
                    11.573272663816397,
                    45.78410102604169
                ]
            }
        },
        {
            "type": "Feature",
            "properties": {
                "name": "STAZIONE DI SERVIZIO ESSO",
                "id": "16531",
                "brand": "Esso",
                "amenity": "fuel",
                "operator": "BEDENDI ANNA LISA"
            },
            "geometry": {
                "type": "Point",
                "coordinates": [
                    11.445049569010735,
                    45.71983880140599
                ]
            }
        },
        {
            "type": "Feature",
            "properties": {
                "name": "SBABO LUCA",
                "id": "16137",
                "brand": "Repsol",
                "amenity": "fuel",
                "operator": "SBABO LUCA"
            },
            "geometry": {
                "type": "Point",
                "coordinates": [
                    11.4915731549263,
                    45.7215956761382
                ]
            }
        },
        {
            "type": "Feature",
            "properties": {
                "name": "CORTESE SNC",
                "id": "12522",
                "brand": "Agip Eni",
                "amenity": "fuel",
                "operator": "CORTESE ROBERTO E GIAMPIETRO S.N.C."
            },
            "geometry": {
                "type": "Point",
                "coordinates": [
                    11.458943440475425,
                    45.74474423088775
                ]
            }
        },
        {
            "type": "Feature",
            "properties": {
                "name": "Punto Vendita Retitalia Zane",
                "id": "29293",
                "brand": "Retitalia",
                "amenity": "fuel",
                "operator": "BRIXIA FINANZIARIA S.R.L."
            },
            "geometry": {
                "type": "Point",
                "coordinates": [
                    11.45044684410095,
                    45.72363149945618
                ]
            }
        },
        {
            "type": "Feature",
            "properties": {
                "name": "FARA",
                "id": "12533",
                "brand": "Perin",
                "amenity": "fuel",
                "operator": "PERIN S.A.S. DI PERIN SERGIO & C."
            },
            "geometry": {
                "type": "Point",
                "coordinates": [
                    11.542932553997844,
                    45.73772772965519
                ]
            }
        },
        {
            "type": "Feature",
            "properties": {
                "name": "PIOVENE ROCCHETTE GORIZIA 7",
                "id": "6516",
                "brand": "Q8",
                "amenity": "fuel",
                "operator": "SERVIZI & GESTIONI ITALIA srl"
            },
            "geometry": {
                "type": "Point",
                "coordinates": [
                    11.43726835107873,
                    45.75672162957185
                ]
            }
        },
        {
            "type": "Feature",
            "properties": {
                "name": "PERDONCIN DOMENICO",
                "id": "15012",
                "brand": "Agip Eni",
                "amenity": "fuel",
                "operator": "PERDONCIN DOMENICO"
            },
            "geometry": {
                "type": "Point",
                "coordinates": [
                    11.471183001995087,
                    45.716221135729086
                ]
            }
        },
        {
            "type": "Feature",
            "properties": {
                "name": "ZANE'",
                "id": "5554",
                "brand": "Total Erg",
                "amenity": "fuel",
                "operator": "GESTIONI EUROPA S.p.A."
            },
            "geometry": {
                "type": "Point",
                "coordinates": [
                    11.432711830688502,
                    45.7230414702882
                ]
            }
        },
        {
            "type": "Feature",
            "properties": {
                "name": "BREGANZE",
                "id": "12536",
                "brand": "Perin",
                "amenity": "fuel",
                "operator": "PERIN S.A.S. DI PERIN SERGIO & C."
            },
            "geometry": {
                "type": "Point",
                "coordinates": [
                    11.553205219574009,
                    45.70798927057659
                ]
            }
        },
        {
            "type": "Feature",
            "properties": {
                "name": "CARETTA FRANCO",
                "id": "11972",
                "brand": "Agip Eni",
                "amenity": "fuel",
                "operator": "CARETTA FRANCO"
            },
            "geometry": {
                "type": "Point",
                "coordinates": [
                    11.500672520168337,
                    45.709933456139886
                ]
            }
        },
        {
            "type": "Feature",
            "properties": {
                "name": "Reposol_Caltrano_(VI001)",
                "id": "21672",
                "brand": "Repsol",
                "amenity": "fuel",
                "operator": "REPSOL ITALIA S.P.A."
            },
            "geometry": {
                "type": "Point",
                "coordinates": [
                    11.450578436997262,
                    45.77371900945684
                ]
            }
        },
        {
            "type": "Feature",
            "properties": {
                "name": "BONIFACI S.N.C.",
                "id": "6329",
                "amenity": "fuel",
                "operator": "BONIFACI S.N.C. DI BONIFACI PIA & C."
            },
            "geometry": {
                "type": "Point",
                "coordinates": [
                    11.432243004295968,
                    45.754206440435965
                ]
            }
        },
        {
            "type": "Feature",
            "properties": {
                "name": "VALERIO PIO & F.LLI SNC",
                "id": "20347",
                "amenity": "fuel",
                "operator": "VALERIO PIO & FRATELLI S.N.C."
            },
            "geometry": {
                "type": "Point",
                "coordinates": [
                    11.567234899943173,
                    45.759422160629214
                ]
            }
        }
    ]
}