{
    "type": "FeatureCollection",
    "features": [
        {
            "type": "Feature",
            "properties": {
                "name": "Pompei Giovanni",
                "id": "21941",
                "brand": "Esso",
                "amenity": "fuel",
                "operator": "POMPEI GIOVANNI"
            },
            "geometry": {
                "type": "Point",
                "coordinates": [
                    11.733404283861546,
                    44.37347160229637
                ]
            }
        },
        {
            "type": "Feature",
            "properties": {
                "name": "Imola De Amicis",
                "id": "20512",
                "brand": "Total Erg",
                "amenity": "fuel",
                "operator": "DI MARIO SABATINO"
            },
            "geometry": {
                "type": "Point",
                "coordinates": [
                    11.72026701271534,
                    44.35203296282902
                ]
            }
        },
        {
            "type": "Feature",
            "properties": {
                "name": "Repsol_Imola (BO003)",
                "id": "23308",
                "brand": "Repsol",
                "amenity": "fuel",
                "operator": "REPSOL ITALIA S.P.A."
            },
            "geometry": {
                "type": "Point",
                "coordinates": [
                    11.667263209819794,
                    44.371599733624606
                ]
            }
        },
        {
            "type": "Feature",
            "properties": {
                "name": "IMOLA VIA SELICE 213/A",
                "id": "6537",
                "brand": "Q8",
                "amenity": "fuel",
                "operator": "SERVIZI & GESTIONI ITALIA srl"
            },
            "geometry": {
                "type": "Point",
                "coordinates": [
                    11.724831970114108,
                    44.362426808850664
                ]
            }
        },
        {
            "type": "Feature",
            "properties": {
                "name": "STAZIONE DI SERVIZIO PEDAGNA",
                "id": "12582",
                "brand": "Api-Ip",
                "amenity": "fuel",
                "operator": "STAZIONE DI SERVIZIO PEDAGNA DI SANTANDREA CARLO"
            },
            "geometry": {
                "type": "Point",
                "coordinates": [
                    11.686663627624512,
                    44.34126794503245
                ]
            }
        },
        {
            "type": "Feature",
            "properties": {
                "name": "Ecofuel",
                "id": "26456",
                "amenity": "fuel",
                "operator": "ECOFUEL S.R.L."
            },
            "geometry": {
                "type": "Point",
                "coordinates": [
                    11.676695197820663,
                    44.368331037857054
                ]
            }
        },
        {
            "type": "Feature",
            "properties": {
                "name": "CAPRI 8",
                "id": "25153",
                "brand": "Repsol",
                "amenity": "fuel",
                "operator": "CAPRI SOCIETA' COOPERATIVA A RESPONSABILITA' LIMITATA IN SIGLA COOP. CAPRI"
            },
            "geometry": {
                "type": "Point",
                "coordinates": [
                    11.630589365959167,
                    44.38618009745825
                ]
            }
        },
        {
            "type": "Feature",
            "properties": {
                "name": "PV 55346",
                "id": "27638",
                "brand": "Agip Eni",
                "amenity": "fuel",
                "operator": "GESTIONI INNOVATIVE ITALIA S.R.L."
            },
            "geometry": {
                "type": "Point",
                "coordinates": [
                    11.704384982585905,
                    44.360818174902434
                ]
            }
        },
        {
            "type": "Feature",
            "properties": {
                "name": "IMOLA METANO",
                "id": "11325",
                "brand": "Agip Eni",
                "amenity": "fuel",
                "operator": "IMOLA METANO S.R.L. DI PAVANELLI & C.(O, IN BREVE,\"IMOLA METANO\")"
            },
            "geometry": {
                "type": "Point",
                "coordinates": [
                    11.734966911361653,
                    44.374455670137976
                ]
            }
        },
        {
            "type": "Feature",
            "properties": {
                "name": "TAROZZI GINO Staz. Rif. AGIP N. 25526",
                "id": "7014",
                "brand": "Agip Eni",
                "amenity": "fuel",
                "operator": "TAROZZI GINO"
            },
            "geometry": {
                "type": "Point",
                "coordinates": [
                    11.641332283616066,
                    44.38153393041104
                ]
            }
        },
        {
            "type": "Feature",
            "properties": {
                "name": "Shell",
                "id": "5099",
                "brand": "Shell",
                "amenity": "fuel",
                "operator": "DISTRIBUZIONE CARBURANTI DI FAROLFI MIRKO E C. SNC"
            },
            "geometry": {
                "type": "Point",
                "coordinates": [
                    11.744606047868729,
                    44.341355418870634
                ]
            }
        },
        {
            "type": "Feature",
            "properties": {
                "name": "bambi",
                "id": "8463",
                "brand": "Agip Eni",
                "amenity": "fuel",
                "operator": "DISTRIBUZIONE CARBURANTI*SELICE DI BAMBI GIANNI E C. S.N.C."
            },
            "geometry": {
                "type": "Point",
                "coordinates": [
                    11.728709936141968,
                    44.367399173169055
                ]
            }
        },
        {
            "type": "Feature",
            "properties": {
                "name": "IP",
                "id": "26288",
                "brand": "Api-Ip",
                "amenity": "fuel",
                "operator": "LINGUERRI STEFANO"
            },
            "geometry": {
                "type": "Point",
                "coordinates": [
                    11.722123559524562,
                    44.35865525314873
                ]
            }
        },
        {
            "type": "Feature",
            "properties": {
                "name": "INNELLA LEONARDO",
                "id": "12971",
                "amenity": "fuel",
                "operator": "INNELLA LEONARDO"
            },
            "geometry": {
                "type": "Point",
                "coordinates": [
                    11.658452153205873,
                    44.3742800507519
                ]
            }
        },
        {
            "type": "Feature",
            "properties": {
                "name": "TOTALERG",
                "id": "31507",
                "brand": "Total Erg",
                "amenity": "fuel",
                "operator": "ROME S.N.C. DI ALI A., IQBAL N. E ROME I."
            },
            "geometry": {
                "type": "Point",
                "coordinates": [
                    11.724452404306248,
                    44.34995560296502
                ]
            }
        },
        {
            "type": "Feature",
            "properties": {
                "name": "AGIP 15560",
                "id": "4313",
                "brand": "Agip Eni",
                "amenity": "fuel",
                "operator": "FRANCESCONI FLAVIO E C. S.N.C."
            },
            "geometry": {
                "type": "Point",
                "coordinates": [
                    11.76541194319725,
                    44.416221568348995
                ]
            }
        },
        {
            "type": "Feature",
            "properties": {
                "name": "klondike di brighenti luca",
                "id": "12523",
                "brand": "Total Erg",
                "amenity": "fuel",
                "operator": "KLONDIKE DI BRIGHENTI LUCA"
            },
            "geometry": {
                "type": "Point",
                "coordinates": [
                    11.740056245315145,
                    44.45755730229253
                ]
            }
        },
        {
            "type": "Feature",
            "properties": {
                "name": "IMOLA-VIA SELICE KM 4+265",
                "id": "11521",
                "brand": "Q8",
                "amenity": "fuel",
                "operator": "SERVIZI & GESTIONI ITALIA S.R.L."
            },
            "geometry": {
                "type": "Point",
                "coordinates": [
                    11.74337363010329,
                    44.38674092057356
                ]
            }
        },
        {
            "type": "Feature",
            "properties": {
                "name": "STAZIONE ESSO DI ONNEMBO FEDERICA",
                "id": "27691",
                "brand": "Esso",
                "amenity": "fuel",
                "operator": "STAZIONE ESSO DI ONNEMBO FEDERICA"
            },
            "geometry": {
                "type": "Point",
                "coordinates": [
                    11.689125895500183,
                    44.36345679907558
                ]
            }
        },
        {
            "type": "Feature",
            "properties": {
                "name": "CAPRI 2",
                "id": "10869",
                "brand": "Repsol",
                "amenity": "fuel",
                "operator": "CAPRI SOCIETA' COOPERATIVA A RESPONSABILITA' LIMITATA IN SIGLA COOP. CAPRI"
            },
            "geometry": {
                "type": "Point",
                "coordinates": [
                    11.723806858062744,
                    44.37477162068473
                ]
            }
        },
        {
            "type": "Feature",
            "properties": {
                "name": "Poli Mauro",
                "id": "20193",
                "brand": "Agip Eni",
                "amenity": "fuel",
                "operator": "POLI MAURO"
            },
            "geometry": {
                "type": "Point",
                "coordinates": [
                    11.69646960048601,
                    44.347648765655
                ]
            }
        },
        {
            "type": "Feature",
            "properties": {
                "name": "Totalerg di Cossentino Vincenza",
                "id": "22777",
                "brand": "Total Erg",
                "amenity": "fuel",
                "operator": "COSSENTINO VINCENZA"
            },
            "geometry": {
                "type": "Point",
                "coordinates": [
                    11.72440901398659,
                    44.34990957799288
                ]
            }
        },
        {
            "type": "Feature",
            "properties": {
                "name": "Distribuzione Carburanti snc",
                "id": "10610",
                "brand": "Shell",
                "amenity": "fuel",
                "operator": "DISTRIBUZIONE CARBURANTI DI FAROLFI MIRKO E C. SNC"
            },
            "geometry": {
                "type": "Point",
                "coordinates": [
                    11.722830533981325,
                    44.350168508092075
                ]
            }
        },
        {
            "type": "Feature",
            "properties": {
                "name": "STAZIONE SERVIZIO ERG",
                "id": "22256",
                "brand": "Total Erg",
                "amenity": "fuel",
                "operator": "REGAZZINI STEFANO"
            },
            "geometry": {
                "type": "Point",
                "coordinates": [
                    11.673480292451474,
                    44.43302820053519
                ]
            }
        },
        {
            "type": "Feature",
            "properties": {
                "name": "CAPRI 1",
                "id": "25195",
                "brand": "Repsol",
                "amenity": "fuel",
                "operator": "CAPRI SOCIETA' COOPERATIVA A RESPONSABILITA' LIMITATA IN SIGLA COOP. CAPRI"
            },
            "geometry": {
                "type": "Point",
                "coordinates": [
                    11.708404186508234,
                    44.36184956267401
                ]
            }
        },
        {
            "type": "Feature",
            "properties": {
                "name": "METANGAS",
                "id": "12492",
                "brand": "Agip Eni",
                "amenity": "fuel",
                "operator": "METANGAS S.R.L."
            },
            "geometry": {
                "type": "Point",
                "coordinates": [
                    11.685762405395508,
                    44.34058886723922
                ]
            }
        },
        {
            "type": "Feature",
            "properties": {
                "name": "DISTRIBUTORE CONAD IMOLA",
                "id": "27938",
                "brand": "CONAD",
                "amenity": "fuel",
                "operator": "CONAD CARDUCCI S.R.L."
            },
            "geometry": {
                "type": "Point",
                "coordinates": [
                    11.680277287960054,
                    44.36689910453271
                ]
            }
        },
        {
            "type": "Feature",
            "properties": {
                "name": "6053",
                "id": "30251",
                "brand": "Tamoil",
                "amenity": "fuel",
                "operator": "T.D.M. S.R.L."
            },
            "geometry": {
                "type": "Point",
                "coordinates": [
                    11.607211232185362,
                    44.39483542262513
                ]
            }
        }
    ]
}