{
    "type": "FeatureCollection",
    "features": [
        {
            "type": "Feature",
            "properties": {
                "name": "C & B  SRL",
                "id": "22173",
                "brand": "Ies",
                "amenity": "fuel",
                "operator": "C & B  S.R.L."
            },
            "geometry": {
                "type": "Point",
                "coordinates": [
                    11.762009311639416,
                    45.64009304088075
                ]
            }
        },
        {
            "type": "Feature",
            "properties": {
                "name": "AUTOFFICINA CATELAN S.N.C. DI CATELAN DANILLO & C",
                "id": "21031",
                "brand": "Esso",
                "amenity": "fuel",
                "operator": "AUTOFFICINA CATELAN S.N.C. DI CATELAN DANILLO & C."
            },
            "geometry": {
                "type": "Point",
                "coordinates": [
                    11.62423854232793,
                    45.588556375734846
                ]
            }
        },
        {
            "type": "Feature",
            "properties": {
                "name": "A.F. PETROLI",
                "id": "24692",
                "brand": "AF Petroli",
                "amenity": "fuel",
                "operator": "A.F. PETROLI S.P.A."
            },
            "geometry": {
                "type": "Point",
                "coordinates": [
                    11.68849289417267,
                    45.61183699162661
                ]
            }
        },
        {
            "type": "Feature",
            "properties": {
                "name": "tamoil",
                "id": "13509",
                "brand": "Tamoil",
                "amenity": "fuel",
                "operator": "MALFATTI PAOLO SNC DI MALFATTI PAOLO & C."
            },
            "geometry": {
                "type": "Point",
                "coordinates": [
                    11.711369454860687,
                    45.62272154718939
                ]
            }
        },
        {
            "type": "Feature",
            "properties": {
                "name": "Metanauto Group srl",
                "id": "4862",
                "amenity": "fuel",
                "operator": "METANAUTO GROUP SRL"
            },
            "geometry": {
                "type": "Point",
                "coordinates": [
                    11.670412057983414,
                    45.60474609592372
                ]
            }
        },
        {
            "type": "Feature",
            "properties": {
                "name": "CITTADELLA CRISTOFORO COLOMBO 1",
                "id": "23874",
                "brand": "Q8",
                "amenity": "fuel",
                "operator": "SERVIZI & GESTIONI ITALIA S.R.L."
            },
            "geometry": {
                "type": "Point",
                "coordinates": [
                    11.77430748939514,
                    45.643791633429515
                ]
            }
        },
        {
            "type": "Feature",
            "properties": {
                "name": "ENI",
                "id": "16895",
                "brand": "Agip Eni",
                "amenity": "fuel",
                "operator": "CAPPELLARI GIAMPIETRO"
            },
            "geometry": {
                "type": "Point",
                "coordinates": [
                    11.644130498170853,
                    45.696689037722315
                ]
            }
        },
        {
            "type": "Feature",
            "properties": {
                "name": "ESSO",
                "id": "9475",
                "brand": "Esso",
                "amenity": "fuel",
                "operator": "EMMEGI OIL S.A.S. DI MIAZZO MASSIMO & C."
            },
            "geometry": {
                "type": "Point",
                "coordinates": [
                    11.678300499916077,
                    45.60733531826682
                ]
            }
        },
        {
            "type": "Feature",
            "properties": {
                "name": "BC GARDIN COMBUSTIBILI SNC",
                "id": "16242",
                "amenity": "fuel",
                "operator": "GARDIN COMBUSTIBILI S.N.C. DI GARDIN FULVIO E C."
            },
            "geometry": {
                "type": "Point",
                "coordinates": [
                    11.713745892047882,
                    45.60408830527559
                ]
            }
        },
        {
            "type": "Feature",
            "properties": {
                "name": "ESSO",
                "id": "7437",
                "brand": "Esso",
                "amenity": "fuel",
                "operator": "RO.AL. SNC DI PIASERICO ROBERTO E PREBIANCA ALBERTO"
            },
            "geometry": {
                "type": "Point",
                "coordinates": [
                    11.624048949737587,
                    45.61066662172073
                ]
            }
        },
        {
            "type": "Feature",
            "properties": {
                "name": "SAN PIETRO IN GU-VIA MAZZINI 15",
                "id": "11758",
                "brand": "Q8",
                "amenity": "fuel",
                "operator": "SERVIZI & GESTIONI ITALIA S.R.L."
            },
            "geometry": {
                "type": "Point",
                "coordinates": [
                    11.667454402446765,
                    45.608755352365826
                ]
            }
        },
        {
            "type": "Feature",
            "properties": {
                "name": "Beyfin - A tutto gas",
                "id": "27108",
                "amenity": "fuel",
                "operator": "A TUTTO GAS S.A.S. DI BRUNI SIMONE & C."
            },
            "geometry": {
                "type": "Point",
                "coordinates": [
                    11.630229949951172,
                    45.5892364174222
                ]
            }
        },
        {
            "type": "Feature",
            "properties": {
                "name": "aver",
                "id": "12085",
                "amenity": "fuel",
                "operator": "AVER S.R.L."
            },
            "geometry": {
                "type": "Point",
                "coordinates": [
                    11.630387704368559,
                    45.64315729408961
                ]
            }
        },
        {
            "type": "Feature",
            "properties": {
                "name": "STAZIONE ESSO SABBADIN ANTONIO SNC",
                "id": "9464",
                "brand": "Esso",
                "amenity": "fuel",
                "operator": "SABBADIN ANTONIO S.N.C. DI SABBADIN ORNELLA"
            },
            "geometry": {
                "type": "Point",
                "coordinates": [
                    11.767478355819662,
                    45.64365759656503
                ]
            }
        },
        {
            "type": "Feature",
            "properties": {
                "name": "TEZZE SUL BRENTA-VIA JOLANDA 78",
                "id": "24129",
                "brand": "Q8",
                "amenity": "fuel",
                "operator": "SERVIZI & GESTIONI ITALIA S.R.L."
            },
            "geometry": {
                "type": "Point",
                "coordinates": [
                    11.732421442866325,
                    45.68328620441086
                ]
            }
        },
        {
            "type": "Feature",
            "properties": {
                "name": "SAN PIETRO IN GU",
                "id": "28531",
                "brand": "Total Erg",
                "amenity": "fuel",
                "operator": "GESTIONI EUROPA - SOCIETA' PER AZIONI"
            },
            "geometry": {
                "type": "Point",
                "coordinates": [
                    11.665281711418745,
                    45.602632679097155
                ]
            }
        },
        {
            "type": "Feature",
            "properties": {
                "name": "eni pit stop di longo stefano",
                "id": "28422",
                "brand": "Agip Eni",
                "amenity": "fuel",
                "operator": "PIT STOP DI LONGO STEFANO"
            },
            "geometry": {
                "type": "Point",
                "coordinates": [
                    11.66390910744667,
                    45.66027877269638
                ]
            }
        },
        {
            "type": "Feature",
            "properties": {
                "name": "stazione di servizio",
                "id": "23910",
                "brand": "Tamoil",
                "amenity": "fuel",
                "operator": "MALFATTI PAOLO SNC DI MALFATTI PAOLO & C."
            },
            "geometry": {
                "type": "Point",
                "coordinates": [
                    11.72609929447742,
                    45.605524000000024
                ]
            }
        },
        {
            "type": "Feature",
            "properties": {
                "name": "Trivengas",
                "id": "29311",
                "brand": "Trivengas",
                "amenity": "fuel",
                "operator": "AUTOFFICINA CATELAN S.N.C. DI CATELAN DANILLO & C."
            },
            "geometry": {
                "type": "Point",
                "coordinates": [
                    11.665321961045265,
                    45.60257638359076
                ]
            }
        },
        {
            "type": "Feature",
            "properties": {
                "name": "COSTANTIN",
                "id": "18063",
                "brand": "Costantin",
                "amenity": "fuel",
                "operator": "ANDREATTA GIOVANNI"
            },
            "geometry": {
                "type": "Point",
                "coordinates": [
                    11.714750541802916,
                    45.68374921063124
                ]
            }
        },
        {
            "type": "Feature",
            "properties": {
                "name": "GD GRANTORTO",
                "id": "28726",
                "brand": "Total Erg",
                "amenity": "fuel",
                "operator": "TOTALERG S.P.A."
            },
            "geometry": {
                "type": "Point",
                "coordinates": [
                    11.732456982135773,
                    45.585763103078726
                ]
            }
        },
        {
            "type": "Feature",
            "properties": {
                "name": "TAP",
                "id": "4870",
                "amenity": "fuel",
                "operator": "GIEMME OIL S.A.S. DI MIAZZO GIANANTONIO & C."
            },
            "geometry": {
                "type": "Point",
                "coordinates": [
                    11.740597486495972,
                    45.64224646538516
                ]
            }
        },
        {
            "type": "Feature",
            "properties": {
                "name": "Stazione Servizio Eni Ba√π Oscar",
                "id": "7785",
                "brand": "Agip Eni",
                "amenity": "fuel",
                "operator": "BAU' OSCAR"
            },
            "geometry": {
                "type": "Point",
                "coordinates": [
                    11.622497141361237,
                    45.58593241899125
                ]
            }
        },
        {
            "type": "Feature",
            "properties": {
                "name": "EMMEVI SNC",
                "id": "11292",
                "brand": "Agip Eni",
                "amenity": "fuel",
                "operator": "EMMEVI S.N.C. DI MANFIO VALTER & C."
            },
            "geometry": {
                "type": "Point",
                "coordinates": [
                    11.71547994017601,
                    45.62223100158476
                ]
            }
        }
    ]
}