{
    "type": "FeatureCollection",
    "features": [
        {
            "type": "Feature",
            "properties": {
                "name": "Lombardelli Paolo e Marchetti Andrea Snc",
                "id": "24717",
                "brand": "Agip Eni",
                "amenity": "fuel",
                "operator": "LOMBARDELLI PAOLO & MARCHETTI ANDREA S.N.C."
            },
            "geometry": {
                "type": "Point",
                "coordinates": [
                    11.628107734918217,
                    44.82013947378374
                ]
            }
        },
        {
            "type": "Feature",
            "properties": {
                "name": "FERRARA-VIA FORO BOARIO 132",
                "id": "11573",
                "brand": "Q8",
                "amenity": "fuel",
                "operator": "SERVIZI & GESTIONI ITALIA S.R.L."
            },
            "geometry": {
                "type": "Point",
                "coordinates": [
                    11.60469263792038,
                    44.83223673607927
                ]
            }
        },
        {
            "type": "Feature",
            "properties": {
                "name": "DOLCINI PAOLO",
                "id": "10702",
                "brand": "Api-Ip",
                "amenity": "fuel",
                "operator": "DOLCINI PAOLO"
            },
            "geometry": {
                "type": "Point",
                "coordinates": [
                    11.653098464012148,
                    44.76449172041943
                ]
            }
        },
        {
            "type": "Feature",
            "properties": {
                "name": "STAZIONE DI SERVIZIO Q8 di POLTRONIERI TIZIANO",
                "id": "9526",
                "brand": "Q8",
                "amenity": "fuel",
                "operator": "POLTRONIERI TIZIANO"
            },
            "geometry": {
                "type": "Point",
                "coordinates": [
                    11.635624217127202,
                    44.82264865092283
                ]
            }
        },
        {
            "type": "Feature",
            "properties": {
                "name": "TANI ANDREA & C. SNC",
                "id": "21564",
                "brand": "Ies",
                "amenity": "fuel",
                "operator": "TANI S.N.C. DI TANI ANDREA & C."
            },
            "geometry": {
                "type": "Point",
                "coordinates": [
                    11.645514518022537,
                    44.77975867076766
                ]
            }
        },
        {
            "type": "Feature",
            "properties": {
                "name": "tamoil",
                "id": "12657",
                "brand": "Tamoil",
                "amenity": "fuel",
                "operator": "GUIDOTTI LEONARDO"
            },
            "geometry": {
                "type": "Point",
                "coordinates": [
                    11.747222542762755,
                    44.7608721272858
                ]
            }
        },
        {
            "type": "Feature",
            "properties": {
                "name": "Distributore IP di San Bartolomeo",
                "id": "20753",
                "brand": "Api-Ip",
                "amenity": "fuel",
                "operator": "AGRI - FUTURA DI ZACCARINI P.A. ALBERTO E C. S.N.C."
            },
            "geometry": {
                "type": "Point",
                "coordinates": [
                    11.629776656627655,
                    44.72962328674932
                ]
            }
        },
        {
            "type": "Feature",
            "properties": {
                "name": "Stazione di Servizio di Saugo Luca",
                "id": "21835",
                "amenity": "fuel",
                "operator": "SAUGO LUCA"
            },
            "geometry": {
                "type": "Point",
                "coordinates": [
                    11.692944020032883,
                    44.80884159015149
                ]
            }
        },
        {
            "type": "Feature",
            "properties": {
                "name": "FERRARA-VIA RAVENNA 262",
                "id": "11577",
                "brand": "Q8",
                "amenity": "fuel",
                "operator": "SERVIZI & GESTIONI ITALIA S.R.L."
            },
            "geometry": {
                "type": "Point",
                "coordinates": [
                    11.632719533729528,
                    44.812197248100915
                ]
            }
        },
        {
            "type": "Feature",
            "properties": {
                "name": "cm di curri alberto e c. snc",
                "id": "4863",
                "brand": "Agip Eni",
                "amenity": "fuel",
                "operator": "C.M. DI CURRI ALBERTO & C. - S.N.C."
            },
            "geometry": {
                "type": "Point",
                "coordinates": [
                    11.632734462618828,
                    44.812203200111036
                ]
            }
        },
        {
            "type": "Feature",
            "properties": {
                "name": "STRATOS Esso",
                "id": "30950",
                "brand": "Esso",
                "amenity": "fuel",
                "operator": "STRATOS S.R.L."
            },
            "geometry": {
                "type": "Point",
                "coordinates": [
                    11.606412158058218,
                    44.81798882795795
                ]
            }
        },
        {
            "type": "Feature",
            "properties": {
                "name": "FERRARA - POMPOSA 298",
                "id": "31544",
                "brand": "Api-Ip",
                "amenity": "fuel",
                "operator": "IP SERVICES S.R.L."
            },
            "geometry": {
                "type": "Point",
                "coordinates": [
                    11.686699999999973,
                    44.82690475582352
                ]
            }
        },
        {
            "type": "Feature",
            "properties": {
                "name": "FERRARA",
                "id": "5938",
                "brand": "Total Erg",
                "amenity": "fuel",
                "operator": "GESTIONI EUROPA S.p.A."
            },
            "geometry": {
                "type": "Point",
                "coordinates": [
                    11.607758186508134,
                    44.81702793815808
                ]
            }
        },
        {
            "type": "Feature",
            "properties": {
                "name": "TOMAS DI SISTO PATRIZIA & C. SAS ENI",
                "id": "16821",
                "brand": "Agip Eni",
                "amenity": "fuel",
                "operator": "TOMAS DI SISTO PATRIZIA & C. S.A.S."
            },
            "geometry": {
                "type": "Point",
                "coordinates": [
                    11.624278128147125,
                    44.81631351340189
                ]
            }
        },
        {
            "type": "Feature",
            "properties": {
                "name": "agip",
                "id": "10549",
                "brand": "Agip Eni",
                "amenity": "fuel",
                "operator": "AGIP DI GRASSILLI SERENA"
            },
            "geometry": {
                "type": "Point",
                "coordinates": [
                    11.683080196380615,
                    44.747133283250726
                ]
            }
        },
        {
            "type": "Feature",
            "properties": {
                "name": "Totalerg",
                "id": "4992",
                "brand": "Total Erg",
                "amenity": "fuel",
                "operator": "STAZIONE DI SERVIZIO TOTALERG DI PESCI CRISTIANO"
            },
            "geometry": {
                "type": "Point",
                "coordinates": [
                    11.670752763748169,
                    44.82550195889671
                ]
            }
        },
        {
            "type": "Feature",
            "properties": {
                "name": "API GUALDO",
                "id": "29284",
                "brand": "Api-Ip",
                "amenity": "fuel",
                "operator": "LUBRIZ SERVICE S.N.C. DI COVEZZI LUCA & C."
            },
            "geometry": {
                "type": "Point",
                "coordinates": [
                    11.73633277416229,
                    44.78327392967329
                ]
            }
        },
        {
            "type": "Feature",
            "properties": {
                "name": "FERRARA-VIA BOLOGNA 184",
                "id": "11572",
                "brand": "Q8",
                "amenity": "fuel",
                "operator": "SERVIZI & GESTIONI ITALIA S.R.L."
            },
            "geometry": {
                "type": "Point",
                "coordinates": [
                    11.607010066509245,
                    44.82337201979062
                ]
            }
        },
        {
            "type": "Feature",
            "properties": {
                "name": "CONA",
                "id": "25198",
                "brand": "Ies",
                "amenity": "fuel",
                "operator": "IES ITALIANA ENERGIA E SERVIZI S.P.A."
            },
            "geometry": {
                "type": "Point",
                "coordinates": [
                    11.722838580608366,
                    44.798712571022975
                ]
            }
        },
        {
            "type": "Feature",
            "properties": {
                "name": "Staz.Serv. Eni Greco Anna",
                "id": "31955",
                "brand": "Agip Eni",
                "amenity": "fuel",
                "operator": "GRECO ANNA"
            },
            "geometry": {
                "type": "Point",
                "coordinates": [
                    11.642662659287454,
                    44.827654789604736
                ]
            }
        },
        {
            "type": "Feature",
            "properties": {
                "name": "15828 BOARIO",
                "id": "5408",
                "brand": "Agip Eni",
                "amenity": "fuel",
                "operator": "enirete oil&nonoil S.p.A."
            },
            "geometry": {
                "type": "Point",
                "coordinates": [
                    11.604251050262521,
                    44.83234901821318
                ]
            }
        },
        {
            "type": "Feature",
            "properties": {
                "name": "FERRARA VIA BOLOGNA",
                "id": "5479",
                "brand": "Agip Eni",
                "amenity": "fuel",
                "operator": "enirete oil&nonoil S.p.A."
            },
            "geometry": {
                "type": "Point",
                "coordinates": [
                    11.605015519838162,
                    44.82064132180134
                ]
            }
        }
    ]
}