{
    "type": "FeatureCollection",
    "features": [
        {
            "type": "Feature",
            "properties": {
                "name": "MONSELICE C. COLOMBO 32",
                "id": "20798",
                "brand": "Q8",
                "amenity": "fuel",
                "operator": "SERVIZI & GESTIONI ITALIA S.R.L."
            },
            "geometry": {
                "type": "Point",
                "coordinates": [
                    11.750736740475533,
                    45.23118945395476
                ]
            }
        },
        {
            "type": "Feature",
            "properties": {
                "name": "BOGONI ALFONSO & C. - S.A.S. DI BOGONI CARLO & C.",
                "id": "12708",
                "brand": "Bogoni",
                "amenity": "fuel",
                "operator": "BOGONI ALFONSO & C. - S.A.S. DI BOGONI CARLO & C."
            },
            "geometry": {
                "type": "Point",
                "coordinates": [
                    11.639273693917858,
                    45.32840567193365
                ]
            }
        },
        {
            "type": "Feature",
            "properties": {
                "name": "Sturaro Alessandro & c.snc",
                "id": "9759",
                "brand": "Total Erg",
                "amenity": "fuel",
                "operator": "STURARO ALESSANDRO & C. S.N.C."
            },
            "geometry": {
                "type": "Point",
                "coordinates": [
                    11.755456924438478,
                    45.21866586034901
                ]
            }
        },
        {
            "type": "Feature",
            "properties": {
                "name": "F.lli Zancanella Snc",
                "id": "10821",
                "brand": "Agip Eni",
                "amenity": "fuel",
                "operator": "F.LLI ZANCANELLA S.N.C.  DI ZANCANELLA TIZIANO E ZANCANELLA GIANNI"
            },
            "geometry": {
                "type": "Point",
                "coordinates": [
                    11.677964241278005,
                    45.22008591806603
                ]
            }
        },
        {
            "type": "Feature",
            "properties": {
                "name": "ESTE VIA PADANA INF.38 BIVIO TORRE",
                "id": "6493",
                "brand": "Q8",
                "amenity": "fuel",
                "operator": "SERVIZI & GESTIONI ITALIA srl"
            },
            "geometry": {
                "type": "Point",
                "coordinates": [
                    11.63822213984645,
                    45.22479217593389
                ]
            }
        },
        {
            "type": "Feature",
            "properties": {
                "name": "TAMOIL DI TOMMASIN IVAN",
                "id": "17963",
                "brand": "Tamoil",
                "amenity": "fuel",
                "operator": "TOMMASIN IVAN"
            },
            "geometry": {
                "type": "Point",
                "coordinates": [
                    11.7376820515899,
                    45.229378444328496
                ]
            }
        },
        {
            "type": "Feature",
            "properties": {
                "name": "TOTALERG",
                "id": "19592",
                "brand": "Total Erg",
                "amenity": "fuel",
                "operator": "CECCARELLO VALTER"
            },
            "geometry": {
                "type": "Point",
                "coordinates": [
                    11.729530021548271,
                    45.3096959274609
                ]
            }
        },
        {
            "type": "Feature",
            "properties": {
                "name": "Stazione IP Giaccarello Eddie",
                "id": "13227",
                "brand": "Retitalia",
                "amenity": "fuel",
                "operator": "GIACCARELLO EDDIE"
            },
            "geometry": {
                "type": "Point",
                "coordinates": [
                    11.753868762040725,
                    45.24726450668893
                ]
            }
        },
        {
            "type": "Feature",
            "properties": {
                "name": "EUGAS ESTE",
                "id": "26316",
                "amenity": "fuel",
                "operator": "EUGAS S.R.L."
            },
            "geometry": {
                "type": "Point",
                "coordinates": [
                    11.652714908123015,
                    45.223239807364386
                ]
            }
        },
        {
            "type": "Feature",
            "properties": {
                "name": "ESTE",
                "id": "24497",
                "amenity": "fuel",
                "operator": "ESTE CARBURANTI DI FRIOLO MIRCO E C. S.N.C."
            },
            "geometry": {
                "type": "Point",
                "coordinates": [
                    11.642702221870424,
                    45.246105345425775
                ]
            }
        },
        {
            "type": "Feature",
            "properties": {
                "name": "P.V. 42495 IP",
                "id": "22156",
                "brand": "Api-Ip",
                "amenity": "fuel",
                "operator": "PERARO GIAMPAOLO"
            },
            "geometry": {
                "type": "Point",
                "coordinates": [
                    11.776379495859146,
                    45.33308893380673
                ]
            }
        },
        {
            "type": "Feature",
            "properties": {
                "name": "Car Service Srl",
                "id": "18226",
                "amenity": "fuel",
                "operator": "CAR SERVICE S.R.L."
            },
            "geometry": {
                "type": "Point",
                "coordinates": [
                    11.753467823417623,
                    45.247342557323414
                ]
            }
        },
        {
            "type": "Feature",
            "properties": {
                "name": "TAMOIL",
                "id": "31750",
                "brand": "Tamoil",
                "amenity": "fuel",
                "operator": "PONCIO DI MIRKO E DANIELE RIGONI S.N.C."
            },
            "geometry": {
                "type": "Point",
                "coordinates": [
                    11.754771906745871,
                    45.23064273969663
                ]
            }
        },
        {
            "type": "Feature",
            "properties": {
                "name": "REPSOL",
                "id": "12821",
                "brand": "Repsol",
                "amenity": "fuel",
                "operator": "TERME CARBURANTI S.R.L."
            },
            "geometry": {
                "type": "Point",
                "coordinates": [
                    11.767309606075287,
                    45.335528406205285
                ]
            }
        },
        {
            "type": "Feature",
            "properties": {
                "name": "Pagliaro Sabrina",
                "id": "7788",
                "brand": "Agip Eni",
                "amenity": "fuel",
                "operator": "PAGLIARO SABRINA"
            },
            "geometry": {
                "type": "Point",
                "coordinates": [
                    11.665382981300354,
                    45.223867397528274
                ]
            }
        },
        {
            "type": "Feature",
            "properties": {
                "name": "VEGA MONSELICE VIA VOLTA",
                "id": "31448",
                "brand": "Total Erg",
                "amenity": "fuel",
                "operator": "VEGA CARBURANTI S.P.A."
            },
            "geometry": {
                "type": "Point",
                "coordinates": [
                    11.759331509262095,
                    45.24490555393652
                ]
            }
        },
        {
            "type": "Feature",
            "properties": {
                "name": "Vega Carburanti",
                "id": "21141",
                "brand": "Vega",
                "amenity": "fuel",
                "operator": "DUEEMME SERVICE SNC DI TROVO' GIANNICO"
            },
            "geometry": {
                "type": "Point",
                "coordinates": [
                    11.759279851590009,
                    45.24492385823323
                ]
            }
        },
        {
            "type": "Feature",
            "properties": {
                "name": "COSTANTIN",
                "id": "13393",
                "brand": "Costantin",
                "amenity": "fuel",
                "operator": "AMBROSI SANDRO E STRAZZACAPPA GIOVANNI S.N.C"
            },
            "geometry": {
                "type": "Point",
                "coordinates": [
                    11.633546861376999,
                    45.29081130439506
                ]
            }
        },
        {
            "type": "Feature",
            "properties": {
                "name": "TOTALERG",
                "id": "16685",
                "brand": "Total Erg",
                "amenity": "fuel",
                "operator": "GATTOLIN GIANPAOLO"
            },
            "geometry": {
                "type": "Point",
                "coordinates": [
                    11.66094996035099,
                    45.229077337273694
                ]
            }
        },
        {
            "type": "Feature",
            "properties": {
                "name": "ENI",
                "id": "21701",
                "brand": "Agip Eni",
                "amenity": "fuel",
                "operator": "TARABOTTI FERNANDO"
            },
            "geometry": {
                "type": "Point",
                "coordinates": [
                    11.763173655433663,
                    45.23747500572457
                ]
            }
        },
        {
            "type": "Feature",
            "properties": {
                "name": "VEGA MONSELICE VIA MOTTA",
                "id": "31446",
                "brand": "Vega",
                "amenity": "fuel",
                "operator": "VEGA CARBURANTI S.P.A."
            },
            "geometry": {
                "type": "Point",
                "coordinates": [
                    11.708872542189058,
                    45.2213692864551
                ]
            }
        },
        {
            "type": "Feature",
            "properties": {
                "name": "Tamoil Montecchio 2",
                "id": "12273",
                "brand": "Tamoil",
                "amenity": "fuel",
                "operator": "MONTECCHIO LUCIA & C. S.N.C."
            },
            "geometry": {
                "type": "Point",
                "coordinates": [
                    11.754837334156036,
                    45.23060665928394
                ]
            }
        },
        {
            "type": "Feature",
            "properties": {
                "name": "Stazione di servizio Esso",
                "id": "16290",
                "brand": "Esso",
                "amenity": "fuel",
                "operator": "MARATINI ANDREA"
            },
            "geometry": {
                "type": "Point",
                "coordinates": [
                    11.663164794445036,
                    45.22354415734316
                ]
            }
        },
        {
            "type": "Feature",
            "properties": {
                "name": "stazione di servizio tamoil 1389",
                "id": "6170",
                "brand": "Tamoil",
                "amenity": "fuel",
                "operator": "TAMIAZZO CRISTIAN"
            },
            "geometry": {
                "type": "Point",
                "coordinates": [
                    11.615105597553224,
                    45.223902770467646
                ]
            }
        },
        {
            "type": "Feature",
            "properties": {
                "name": "PGA CARBURANTI",
                "id": "7765",
                "brand": "Agip Eni",
                "amenity": "fuel",
                "operator": "P.G.A. CARBURANTI S.A.S. DI MAURO GUGLIELMO & C."
            },
            "geometry": {
                "type": "Point",
                "coordinates": [
                    11.759414523839949,
                    45.255066250131975
                ]
            }
        },
        {
            "type": "Feature",
            "properties": {
                "name": "ESSO",
                "id": "24107",
                "brand": "Esso",
                "amenity": "fuel",
                "operator": "MARATINI ANDREA"
            },
            "geometry": {
                "type": "Point",
                "coordinates": [
                    11.66308432817459,
                    45.22350372858884
                ]
            }
        },
        {
            "type": "Feature",
            "properties": {
                "name": "TAMOIL ZANELLA SNC",
                "id": "9843",
                "brand": "Tamoil",
                "amenity": "fuel",
                "operator": "ZANELLA S.N.C. DI ZANELLA MANUEL E C."
            },
            "geometry": {
                "type": "Point",
                "coordinates": [
                    11.639039665460587,
                    45.31944722055249
                ]
            }
        },
        {
            "type": "Feature",
            "properties": {
                "name": "EUGANEA METANO SAS MONSELICE",
                "id": "4619",
                "amenity": "fuel",
                "operator": "EUGANEA METANO S.A.S. DI VERONESE ELSA E C."
            },
            "geometry": {
                "type": "Point",
                "coordinates": [
                    11.719365119934082,
                    45.22595528454112
                ]
            }
        },
        {
            "type": "Feature",
            "properties": {
                "name": "SMP TORREGLIA",
                "id": "5192",
                "brand": "San Marco Petroli",
                "amenity": "fuel",
                "operator": "SAN MARCO PETROLI DISTRIBUZIONE S.R.L."
            },
            "geometry": {
                "type": "Point",
                "coordinates": [
                    11.751162707805634,
                    45.33410674470022
                ]
            }
        }
    ]
}