{
    "type": "FeatureCollection",
    "features": [
        {
            "type": "Feature",
            "properties": {
                "name": "distributore totalerg di salsa valentina",
                "id": "17259",
                "brand": "Total Erg",
                "amenity": "fuel",
                "operator": "SALSA VALENTINA"
            },
            "geometry": {
                "type": "Point",
                "coordinates": [
                    11.75559248056004,
                    42.250873427535495
                ]
            }
        },
        {
            "type": "Feature",
            "properties": {
                "name": "cancellieri carburanti",
                "id": "20801",
                "amenity": "fuel",
                "operator": "MICOZZI ANNA"
            },
            "geometry": {
                "type": "Point",
                "coordinates": [
                    11.727250398986142,
                    42.235185452932924
                ]
            }
        },
        {
            "type": "Feature",
            "properties": {
                "name": "Tarquinia",
                "id": "10132",
                "brand": "Total Erg",
                "amenity": "fuel",
                "operator": "GESTIONI EUROPA - SOCIETA' PER AZIONI"
            },
            "geometry": {
                "type": "Point",
                "coordinates": [
                    11.760543542490382,
                    42.25119978988536
                ]
            }
        },
        {
            "type": "Feature",
            "properties": {
                "name": "P.V. ENERPETROLI - TARQUINIA",
                "id": "25920",
                "brand": "Enerpetroli",
                "amenity": "fuel",
                "operator": "ENERPETROLI S.R.L."
            },
            "geometry": {
                "type": "Point",
                "coordinates": [
                    11.709816455841064,
                    42.22031742590403
                ]
            }
        },
        {
            "type": "Feature",
            "properties": {
                "name": "Tarquinia",
                "id": "32063",
                "brand": "Cancellieri carburanti",
                "amenity": "fuel",
                "operator": "CANCELLIERI CARBURANTI S.R.L."
            },
            "geometry": {
                "type": "Point",
                "coordinates": [
                    11.727242767810822,
                    42.23517558974109
                ]
            }
        },
        {
            "type": "Feature",
            "properties": {
                "name": "X FUEL TARQUINIA",
                "id": "31176",
                "amenity": "fuel",
                "operator": "X FUEL S.R.L."
            },
            "geometry": {
                "type": "Point",
                "coordinates": [
                    11.709314882755278,
                    42.27315495338215
                ]
            }
        },
        {
            "type": "Feature",
            "properties": {
                "name": "velka petroli srl",
                "id": "23372",
                "amenity": "fuel",
                "operator": "VELKA PETROLI S.R.L."
            },
            "geometry": {
                "type": "Point",
                "coordinates": [
                    11.7593514919281,
                    42.2677543784548
                ]
            }
        },
        {
            "type": "Feature",
            "properties": {
                "name": "Fuel&More S.r.l.",
                "id": "13487",
                "amenity": "fuel",
                "operator": "FUEL & MORE  S.R.L."
            },
            "geometry": {
                "type": "Point",
                "coordinates": [
                    11.738263921322869,
                    42.242699231107096
                ]
            }
        },
        {
            "type": "Feature",
            "properties": {
                "name": "cancellieri carburanti",
                "id": "20802",
                "amenity": "fuel",
                "operator": "MICOZZI ANNA"
            },
            "geometry": {
                "type": "Point",
                "coordinates": [
                    11.727250398986142,
                    42.235185452932924
                ]
            }
        }
    ]
}