{
    "type": "FeatureCollection",
    "features": [
        {
            "type": "Feature",
            "properties": {
                "name": "stefanetto enrico impianto eni",
                "id": "19866",
                "brand": "Agip Eni",
                "amenity": "fuel",
                "operator": "STEFANETTO ENRICO"
            },
            "geometry": {
                "type": "Point",
                "coordinates": [
                    11.753017165475512,
                    45.77008427231451
                ]
            }
        },
        {
            "type": "Feature",
            "properties": {
                "name": "AUTOFFICINA VALLOTTO MARIO",
                "id": "4186",
                "brand": "Agip Eni",
                "amenity": "fuel",
                "operator": "AUTOFFICINA VALLOTTO MARIO  DI XAUSA MILENA E FIGLI S.N.C."
            },
            "geometry": {
                "type": "Point",
                "coordinates": [
                    11.719437539577484,
                    45.80271644621296
                ]
            }
        },
        {
            "type": "Feature",
            "properties": {
                "name": "stazione di servizio ESSO di Marchioro Andrea",
                "id": "12989",
                "brand": "Esso",
                "amenity": "fuel",
                "operator": "MARCHIORO ANDREA"
            },
            "geometry": {
                "type": "Point",
                "coordinates": [
                    11.726453300594358,
                    45.76578242182391
                ]
            }
        },
        {
            "type": "Feature",
            "properties": {
                "name": "COSTANTIN NOVE",
                "id": "17609",
                "brand": "Costantin",
                "amenity": "fuel",
                "operator": "D.M. IMPIANTI S.N.C. DI CONTIERO DAVIDE & C."
            },
            "geometry": {
                "type": "Point",
                "coordinates": [
                    11.675469428300856,
                    45.710780900323044
                ]
            }
        },
        {
            "type": "Feature",
            "properties": {
                "name": "Area di servizio Motton snc esso",
                "id": "10408",
                "brand": "Esso",
                "amenity": "fuel",
                "operator": "AREA DI SERVIZIO MOTTON SNC DI SCOTTON GIAMPAOLO & C."
            },
            "geometry": {
                "type": "Point",
                "coordinates": [
                    11.736065744705229,
                    45.78615601519029
                ]
            }
        },
        {
            "type": "Feature",
            "properties": {
                "name": "nicolini michele totalerg",
                "id": "8516",
                "brand": "Total Erg",
                "amenity": "fuel",
                "operator": "NICOLINI MICHELE"
            },
            "geometry": {
                "type": "Point",
                "coordinates": [
                    11.767564415931702,
                    45.706904540606345
                ]
            }
        },
        {
            "type": "Feature",
            "properties": {
                "name": "Predebon Severino SNC",
                "id": "18718",
                "brand": "Som/Omv",
                "amenity": "fuel",
                "operator": "PREDEBON SEVERINO S.N.C. DI PREDEBON MIRKO & C."
            },
            "geometry": {
                "type": "Point",
                "coordinates": [
                    11.608084827577954,
                    45.80013821106503
                ]
            }
        },
        {
            "type": "Feature",
            "properties": {
                "name": "Frigo f.lli snc",
                "id": "21583",
                "brand": "Agip Eni",
                "amenity": "fuel",
                "operator": "FRIGO F.LLI S.N.C. DI FRIGO CESARE LINO, DANILO & GIOVANNI"
            },
            "geometry": {
                "type": "Point",
                "coordinates": [
                    11.772594228386879,
                    45.75913992101475
                ]
            }
        },
        {
            "type": "Feature",
            "properties": {
                "name": "ESSO",
                "id": "31919",
                "brand": "Esso",
                "amenity": "fuel",
                "operator": "SEBELLIN MICHELE"
            },
            "geometry": {
                "type": "Point",
                "coordinates": [
                    11.715367957949638,
                    45.818759143306174
                ]
            }
        },
        {
            "type": "Feature",
            "properties": {
                "name": "Full Gas snc di Facchinello Ondina & c.",
                "id": "16018",
                "brand": "Agip Eni",
                "amenity": "fuel",
                "operator": "FULL GAS SNC DI FACCHINELLO ONDINA & C."
            },
            "geometry": {
                "type": "Point",
                "coordinates": [
                    11.692439474868708,
                    45.75989550541064
                ]
            }
        },
        {
            "type": "Feature",
            "properties": {
                "name": "IP CASSOLA",
                "id": "27475",
                "brand": "Api-Ip",
                "amenity": "fuel",
                "operator": "EUROPAM S.R.L."
            },
            "geometry": {
                "type": "Point",
                "coordinates": [
                    11.751210987567902,
                    45.747620611373655
                ]
            }
        },
        {
            "type": "Feature",
            "properties": {
                "name": "Q8 vivian sonia",
                "id": "16215",
                "brand": "Q8",
                "amenity": "fuel",
                "operator": "VIVIAN SONIA"
            },
            "geometry": {
                "type": "Point",
                "coordinates": [
                    11.727564632892609,
                    45.74617339439479
                ]
            }
        },
        {
            "type": "Feature",
            "properties": {
                "name": "AGIP ENI",
                "id": "12825",
                "brand": "Agip Eni",
                "amenity": "fuel",
                "operator": "Z2 DI ZANOTTO GIULIANO & C. S.A.S."
            },
            "geometry": {
                "type": "Point",
                "coordinates": [
                    11.749962920896335,
                    45.7591270338821
                ]
            }
        },
        {
            "type": "Feature",
            "properties": {
                "name": "TONIOLO ROMANO D'EZZELINO",
                "id": "31601",
                "amenity": "fuel",
                "operator": "TONIOLO SIMONE"
            },
            "geometry": {
                "type": "Point",
                "coordinates": [
                    11.76746517419815,
                    45.77300855875974
                ]
            }
        },
        {
            "type": "Feature",
            "properties": {
                "name": "Vicenza - Bassano del Grappa",
                "id": "17635",
                "amenity": "fuel",
                "operator": "BEYFIN S.P.A."
            },
            "geometry": {
                "type": "Point",
                "coordinates": [
                    11.750170290470122,
                    45.74293966863869
                ]
            }
        },
        {
            "type": "Feature",
            "properties": {
                "name": "BASSANO DEL GRAPPA-VIA CA' REZZONICO 74",
                "id": "11948",
                "brand": "Q8",
                "amenity": "fuel",
                "operator": "SERVIZI & GESTIONI ITALIA S.R.L."
            },
            "geometry": {
                "type": "Point",
                "coordinates": [
                    11.744960932540836,
                    45.7542812852402
                ]
            }
        },
        {
            "type": "Feature",
            "properties": {
                "name": "Poggiana Carburanti",
                "id": "13543",
                "brand": "Agip Eni",
                "amenity": "fuel",
                "operator": "POGGIANA CARBURANTI DI POGGIANA DANIELE E DIEGO S.N.C."
            },
            "geometry": {
                "type": "Point",
                "coordinates": [
                    11.765383780002594,
                    45.71640091971078
                ]
            }
        },
        {
            "type": "Feature",
            "properties": {
                "name": "NUOVA GASPARONA",
                "id": "12526",
                "brand": "Perin",
                "amenity": "fuel",
                "operator": "PERIN S.A.S. DI PERIN SERGIO & C."
            },
            "geometry": {
                "type": "Point",
                "coordinates": [
                    11.619762385597255,
                    45.70848622216623
                ]
            }
        },
        {
            "type": "Feature",
            "properties": {
                "name": "Indipendente",
                "id": "9942",
                "amenity": "fuel",
                "operator": "MINCHIO PIETRO"
            },
            "geometry": {
                "type": "Point",
                "coordinates": [
                    11.696904169311551,
                    45.74779005290458
                ]
            }
        },
        {
            "type": "Feature",
            "properties": {
                "name": "_PETROLROSA &C SNC",
                "id": "4136",
                "brand": "Agip Eni",
                "amenity": "fuel",
                "operator": "PETROL ROSA' DI STRAGLIOTTO ANNA MARIA E MARILENA SNC"
            },
            "geometry": {
                "type": "Point",
                "coordinates": [
                    11.769254207611084,
                    45.72343900575002
                ]
            }
        },
        {
            "type": "Feature",
            "properties": {
                "name": "Punto Vendita Retitalia Marostica",
                "id": "29290",
                "brand": "Retitalia",
                "amenity": "fuel",
                "operator": "BRIXIA FINANZIARIA S.R.L."
            },
            "geometry": {
                "type": "Point",
                "coordinates": [
                    11.643544435501099,
                    45.740469512016226
                ]
            }
        },
        {
            "type": "Feature",
            "properties": {
                "name": "valsugana s.a.s.",
                "id": "5097",
                "brand": "Agip Eni",
                "amenity": "fuel",
                "operator": "VALSUGANA S.A.S. DI PELLIN GIANLUCA E C."
            },
            "geometry": {
                "type": "Point",
                "coordinates": [
                    11.773266792297363,
                    45.7595368251768
                ]
            }
        },
        {
            "type": "Feature",
            "properties": {
                "name": "Total Erg",
                "id": "12283",
                "brand": "Total Erg",
                "amenity": "fuel",
                "operator": "FIAMMENGO SILVIO"
            },
            "geometry": {
                "type": "Point",
                "coordinates": [
                    11.773217841982841,
                    45.805371197961534
                ]
            }
        },
        {
            "type": "Feature",
            "properties": {
                "name": "BASSANO DEL GRAPPA VIALE VICENZA 128",
                "id": "6515",
                "brand": "Q8",
                "amenity": "fuel",
                "operator": "SERVIZI & GESTIONI ITALIA srl"
            },
            "geometry": {
                "type": "Point",
                "coordinates": [
                    11.708713730024781,
                    45.7607748221744
                ]
            }
        },
        {
            "type": "Feature",
            "properties": {
                "name": "Poggiana Carburanti",
                "id": "13540",
                "brand": "Agip Eni",
                "amenity": "fuel",
                "operator": "POGGIANA CARBURANTI DI POGGIANA DANIELE E DIEGO S.N.C."
            },
            "geometry": {
                "type": "Point",
                "coordinates": [
                    11.765383780002594,
                    45.71640091971078
                ]
            }
        },
        {
            "type": "Feature",
            "properties": {
                "name": "MASON CENTRO",
                "id": "12539",
                "brand": "Perin",
                "amenity": "fuel",
                "operator": "PERIN S.A.S. DI PERIN SERGIO & C."
            },
            "geometry": {
                "type": "Point",
                "coordinates": [
                    11.608968779098518,
                    45.71999616407667
                ]
            }
        },
        {
            "type": "Feature",
            "properties": {
                "name": "COSTANTIN",
                "id": "11216",
                "brand": "Costantin",
                "amenity": "fuel",
                "operator": "BIASION ANTONIO SRL"
            },
            "geometry": {
                "type": "Point",
                "coordinates": [
                    11.738910377025606,
                    45.74450377011315
                ]
            }
        },
        {
            "type": "Feature",
            "properties": {
                "name": "Tamoil3451",
                "id": "30871",
                "brand": "Tamoil",
                "amenity": "fuel",
                "operator": "FANTINATO PAOLA"
            },
            "geometry": {
                "type": "Point",
                "coordinates": [
                    11.733653247356413,
                    45.72584850004193
                ]
            }
        },
        {
            "type": "Feature",
            "properties": {
                "name": "PFM PETROL FOX MAROSTICA DI VOLPATO EUGENIO GIUSEPPE",
                "id": "15601",
                "brand": "P F M",
                "amenity": "fuel",
                "operator": "PFM PETROL FOX MAROSTICA DI  VOLPATO EUGENIO GIUSEPPE"
            },
            "geometry": {
                "type": "Point",
                "coordinates": [
                    11.651610239286812,
                    45.75706628617415
                ]
            }
        },
        {
            "type": "Feature",
            "properties": {
                "name": "COSTANTIN CASSOLA",
                "id": "27740",
                "brand": "Costantin",
                "amenity": "fuel",
                "operator": "GRAPPA GAS S.R.L."
            },
            "geometry": {
                "type": "Point",
                "coordinates": [
                    11.75048037797933,
                    45.7486169516931
                ]
            }
        },
        {
            "type": "Feature",
            "properties": {
                "name": "SCANAGATTA",
                "id": "12031",
                "amenity": "fuel",
                "operator": "SCANAGATTA CARBURANTI S.R.L."
            },
            "geometry": {
                "type": "Point",
                "coordinates": [
                    11.65018826723099,
                    45.71961371074271
                ]
            }
        },
        {
            "type": "Feature",
            "properties": {
                "name": "morselli davide snc",
                "id": "7473",
                "brand": "Agip Eni",
                "amenity": "fuel",
                "operator": "MORSELLI DAVIDE S.N.C."
            },
            "geometry": {
                "type": "Point",
                "coordinates": [
                    11.740966296958959,
                    45.780809423552576
                ]
            }
        },
        {
            "type": "Feature",
            "properties": {
                "name": "IP VIALE VENEZIA 90",
                "id": "27693",
                "brand": "Api-Ip",
                "amenity": "fuel",
                "operator": "ANDRIOLLO GIANLUCA"
            },
            "geometry": {
                "type": "Point",
                "coordinates": [
                    11.74901588954924,
                    45.76954141954719
                ]
            }
        },
        {
            "type": "Feature",
            "properties": {
                "name": "STAZIONE SERVIZIO ZONTA E PIOTTO",
                "id": "15910",
                "brand": "Api-Ip",
                "amenity": "fuel",
                "operator": "STAZIONE DI SERVIZIO ZONTA ANTONIO & PIOTTO MASSIMO S.N.C."
            },
            "geometry": {
                "type": "Point",
                "coordinates": [
                    11.706044114190265,
                    45.7173136626653
                ]
            }
        },
        {
            "type": "Feature",
            "properties": {
                "name": "SMP ROMANO D'EZZELINO",
                "id": "23353",
                "brand": "San Marco Petroli",
                "amenity": "fuel",
                "operator": "SAN MARCO PETROLI DISTRIBUZIONE S.R.L."
            },
            "geometry": {
                "type": "Point",
                "coordinates": [
                    11.756310888784585,
                    45.79249113822866
                ]
            }
        },
        {
            "type": "Feature",
            "properties": {
                "name": "Metano autotrazione Casarin Oil Group",
                "id": "11157",
                "amenity": "fuel",
                "operator": "CASARIN OIL GROUP SRL"
            },
            "geometry": {
                "type": "Point",
                "coordinates": [
                    11.752635286508166,
                    45.73991844129146
                ]
            }
        },
        {
            "type": "Feature",
            "properties": {
                "name": "Punto Vendita Retitalia Molvena",
                "id": "29291",
                "brand": "Retitalia",
                "amenity": "fuel",
                "operator": "BRIXIA FINANZIARIA S.R.L."
            },
            "geometry": {
                "type": "Point",
                "coordinates": [
                    11.615150570869444,
                    45.72417826790933
                ]
            }
        },
        {
            "type": "Feature",
            "properties": {
                "name": "IP",
                "id": "7812",
                "brand": "Api-Ip",
                "amenity": "fuel",
                "operator": "ACS CARBURANTI S.N.C. DI SCHIRATO CHRISTIAN, LUNARDON ARIANNA E TOSIN ROBERTO ASSUMENDO LA DENOMINAZIONE  ABBREVIATA ACS CARBURANTI S.N.C."
            },
            "geometry": {
                "type": "Point",
                "coordinates": [
                    11.721085889549272,
                    45.76512729793696
                ]
            }
        },
        {
            "type": "Feature",
            "properties": {
                "name": "GIOVANNI BERTIN SPA",
                "id": "11288",
                "amenity": "fuel",
                "operator": "GIOVANNI BERTIN - S.P.A."
            },
            "geometry": {
                "type": "Point",
                "coordinates": [
                    11.758643388748169,
                    45.73907901806866
                ]
            }
        },
        {
            "type": "Feature",
            "properties": {
                "name": "BORTIGNON BASSO S.R.L.",
                "id": "19290",
                "brand": "Costantin",
                "amenity": "fuel",
                "operator": "BORTIGNON & BASSO S.R.L."
            },
            "geometry": {
                "type": "Point",
                "coordinates": [
                    11.772799067459118,
                    45.76858632207285
                ]
            }
        },
        {
            "type": "Feature",
            "properties": {
                "name": "AGIP ENI",
                "id": "12579",
                "brand": "Agip Eni",
                "amenity": "fuel",
                "operator": "PEDEMONTANA S.A.S. DI BERTIN  LUCA MATTEO & C."
            },
            "geometry": {
                "type": "Point",
                "coordinates": [
                    11.712909806151629,
                    45.762648172731616
                ]
            }
        }
    ]
}