{
    "type": "FeatureCollection",
    "features": [
        {
            "type": "Feature",
            "properties": {
                "name": "ROVIGO-V.LE PORTA PO-C.C. LA FATTORIA",
                "id": "11830",
                "brand": "Q8",
                "amenity": "fuel",
                "operator": "SERVIZI & GESTIONI ITALIA S.R.L."
            },
            "geometry": {
                "type": "Point",
                "coordinates": [
                    11.782051026821136,
                    45.03243184264399
                ]
            }
        },
        {
            "type": "Feature",
            "properties": {
                "name": "LORO F.LLI SPA",
                "id": "29007",
                "brand": "Loro",
                "amenity": "fuel",
                "operator": "LORO F.LLI-S.P.A."
            },
            "geometry": {
                "type": "Point",
                "coordinates": [
                    11.916873805557316,
                    45.028732810392846
                ]
            }
        },
        {
            "type": "Feature",
            "properties": {
                "name": "DALL'AGLIO CENTRO",
                "id": "21418",
                "brand": "Dall Aglio",
                "amenity": "fuel",
                "operator": "DALL'AGLIO S.R.L."
            },
            "geometry": {
                "type": "Point",
                "coordinates": [
                    11.789990365505219,
                    45.05724582915582
                ]
            }
        },
        {
            "type": "Feature",
            "properties": {
                "name": "Zaccaria snc",
                "id": "23633",
                "amenity": "fuel",
                "operator": "ZACCARIA S.N.C. DI ZACCARIA LORENZO & C."
            },
            "geometry": {
                "type": "Point",
                "coordinates": [
                    11.826479905249016,
                    45.07559081906277
                ]
            }
        },
        {
            "type": "Feature",
            "properties": {
                "name": "MILANI MIRCO",
                "id": "16775",
                "brand": "Esso",
                "amenity": "fuel",
                "operator": "MILANI MIRCO"
            },
            "geometry": {
                "type": "Point",
                "coordinates": [
                    11.785087957978249,
                    45.07881154445578
                ]
            }
        },
        {
            "type": "Feature",
            "properties": {
                "name": "LORO F.LLI SPA",
                "id": "29009",
                "brand": "Loro",
                "amenity": "fuel",
                "operator": "LORO F.LLI-S.P.A."
            },
            "geometry": {
                "type": "Point",
                "coordinates": [
                    11.886590215938556,
                    45.069976777373114
                ]
            }
        },
        {
            "type": "Feature",
            "properties": {
                "name": "_SMP ROVIGO",
                "id": "29836",
                "brand": "San Marco Petroli",
                "amenity": "fuel",
                "operator": "SAN MARCO PETROLI DISTRIBUZIONE S.R.L."
            },
            "geometry": {
                "type": "Point",
                "coordinates": [
                    11.785343438386917,
                    45.07795620875627
                ]
            }
        },
        {
            "type": "Feature",
            "properties": {
                "name": "DALL'AGLIO S.APOLLINARE",
                "id": "21419",
                "brand": "Dall Aglio",
                "amenity": "fuel",
                "operator": "DALL'AGLIO S.R.L."
            },
            "geometry": {
                "type": "Point",
                "coordinates": [
                    11.82342678308487,
                    45.0444528168247
                ]
            }
        },
        {
            "type": "Feature",
            "properties": {
                "name": "AF PETROLI",
                "id": "20266",
                "brand": "AF Petroli",
                "amenity": "fuel",
                "operator": "FERRARI PLUS S.A.S. DI BORGATO MASSIMILIANO & C."
            },
            "geometry": {
                "type": "Point",
                "coordinates": [
                    11.895860495700845,
                    45.06656021753775
                ]
            }
        },
        {
            "type": "Feature",
            "properties": {
                "name": "PONTECCHIO POLESINE",
                "id": "6908",
                "brand": "Ies",
                "amenity": "fuel",
                "operator": "IES ITALIANA ENERGIA E SERVIZI S.P.A."
            },
            "geometry": {
                "type": "Point",
                "coordinates": [
                    11.80854856967926,
                    45.02771555894603
                ]
            }
        },
        {
            "type": "Feature",
            "properties": {
                "name": "LORO F.LLI SPA",
                "id": "29016",
                "brand": "Loro",
                "amenity": "fuel",
                "operator": "LORO F.LLI-S.P.A."
            },
            "geometry": {
                "type": "Point",
                "coordinates": [
                    11.79957389831543,
                    44.98072107240508
                ]
            }
        },
        {
            "type": "Feature",
            "properties": {
                "name": "euroagip",
                "id": "18598",
                "brand": "Agip Eni",
                "amenity": "fuel",
                "operator": "EURO AGIP DI PADOAN ATTILIO"
            },
            "geometry": {
                "type": "Point",
                "coordinates": [
                    11.791476309299469,
                    45.05924736810957
                ]
            }
        },
        {
            "type": "Feature",
            "properties": {
                "name": "PV 52746",
                "id": "25205",
                "brand": "Agip Eni",
                "amenity": "fuel",
                "operator": "GESTIONI INNOVATIVE ITALIA S.R.L."
            },
            "geometry": {
                "type": "Point",
                "coordinates": [
                    11.785513758659363,
                    45.08051270775273
                ]
            }
        },
        {
            "type": "Feature",
            "properties": {
                "name": "DALL'AGLIO INTERPORTO",
                "id": "21417",
                "brand": "Dall Aglio",
                "amenity": "fuel",
                "operator": "DALL'AGLIO S.R.L."
            },
            "geometry": {
                "type": "Point",
                "coordinates": [
                    11.803272664546967,
                    45.037617789557416
                ]
            }
        },
        {
            "type": "Feature",
            "properties": {
                "name": "Giorgio Sprea S.r.l.",
                "id": "7795",
                "amenity": "fuel",
                "operator": "GIORGIO SPREA S.R.L."
            },
            "geometry": {
                "type": "Point",
                "coordinates": [
                    11.805989742279053,
                    45.066013127558186
                ]
            }
        },
        {
            "type": "Feature",
            "properties": {
                "name": "METANO VILLADOSE di Giannese Massimo",
                "id": "11194",
                "amenity": "fuel",
                "operator": "GIANNESE MASSIMO METANO VILLADOSE"
            },
            "geometry": {
                "type": "Point",
                "coordinates": [
                    11.887422949075699,
                    45.06976007616511
                ]
            }
        },
        {
            "type": "Feature",
            "properties": {
                "name": "Impianto Eni di Cestini Rossano",
                "id": "12585",
                "brand": "Agip Eni",
                "amenity": "fuel",
                "operator": "CESTINI ROSSANO"
            },
            "geometry": {
                "type": "Point",
                "coordinates": [
                    11.800477739425673,
                    45.071362961991724
                ]
            }
        },
        {
            "type": "Feature",
            "properties": {
                "name": "Giorgio Sprea S.r.l.",
                "id": "7793",
                "amenity": "fuel",
                "operator": "GIORGIO SPREA S.R.L."
            },
            "geometry": {
                "type": "Point",
                "coordinates": [
                    11.805388927459717,
                    45.06663146328952
                ]
            }
        },
        {
            "type": "Feature",
            "properties": {
                "name": "ROVIGO-VIA PORTA ADIGE SS. 16",
                "id": "11827",
                "brand": "Q8",
                "amenity": "fuel",
                "operator": "SERVIZI & GESTIONI ITALIA S.R.L."
            },
            "geometry": {
                "type": "Point",
                "coordinates": [
                    11.78555959999994,
                    45.086576024239655
                ]
            }
        }
    ]
}