{
    "type": "FeatureCollection",
    "features": [
        {
            "type": "Feature",
            "properties": {
                "name": "Nardelli Donato e C. Eni",
                "id": "17393",
                "brand": "Agip Eni",
                "amenity": "fuel",
                "operator": "NARDELLI DONATO E C. S.N.C. DI NARDELLI DONATO E NARDELLI ALESSIO"
            },
            "geometry": {
                "type": "Point",
                "coordinates": [
                    11.867820024490356,
                    43.45531185935819
                ]
            }
        },
        {
            "type": "Feature",
            "properties": {
                "name": "Automotivi",
                "id": "4333",
                "brand": "Agip Eni",
                "amenity": "fuel",
                "operator": "AUTOMOTIVI DI FALSINI M. E GIOCONDI F. S.N.C."
            },
            "geometry": {
                "type": "Point",
                "coordinates": [
                    11.871372984621077,
                    43.45531934524474
                ]
            }
        },
        {
            "type": "Feature",
            "properties": {
                "name": "AREZZO-VIA BENEDETTO DA MAIANO",
                "id": "11467",
                "brand": "Q8",
                "amenity": "fuel",
                "operator": "SERVIZI & GESTIONI ITALIA S.R.L."
            },
            "geometry": {
                "type": "Point",
                "coordinates": [
                    11.88547317790983,
                    43.45375326973068
                ]
            }
        },
        {
            "type": "Feature",
            "properties": {
                "name": "roberto dalla noce",
                "id": "15082",
                "brand": "Esso",
                "amenity": "fuel",
                "operator": "DALLA NOCE ROBERTO"
            },
            "geometry": {
                "type": "Point",
                "coordinates": [
                    11.871281442665804,
                    43.47621517922803
                ]
            }
        },
        {
            "type": "Feature",
            "properties": {
                "name": "myoil",
                "id": "18078",
                "brand": "MyOil",
                "amenity": "fuel",
                "operator": "CHERICI SIMONE E GIANNOTTI ELENA & C. S.N.C."
            },
            "geometry": {
                "type": "Point",
                "coordinates": [
                    11.853663094442707,
                    43.46942626372275
                ]
            }
        },
        {
            "type": "Feature",
            "properties": {
                "name": "AREZZO SAN GIULIANO",
                "id": "28520",
                "brand": "Q8",
                "amenity": "fuel",
                "operator": "STAR SERVICE S.R.L."
            },
            "geometry": {
                "type": "Point",
                "coordinates": [
                    11.808430552482605,
                    43.45420086501424
                ]
            }
        },
        {
            "type": "Feature",
            "properties": {
                "name": "PV 4684",
                "id": "30217",
                "brand": "Agip Eni",
                "amenity": "fuel",
                "operator": "GESTIONI INNOVATIVE ITALIA S.R.L."
            },
            "geometry": {
                "type": "Point",
                "coordinates": [
                    11.868757456541061,
                    43.4802187807935
                ]
            }
        },
        {
            "type": "Feature",
            "properties": {
                "name": "C & D snc",
                "id": "10268",
                "brand": "Esso",
                "amenity": "fuel",
                "operator": "C. & D. S.N.C. DI ZANINI CLAUDIO E POLENDONI DANIELE"
            },
            "geometry": {
                "type": "Point",
                "coordinates": [
                    11.871226429939268,
                    43.51077718440361
                ]
            }
        },
        {
            "type": "Feature",
            "properties": {
                "name": "IMPIANTO ENI BARACCHI STEFANO",
                "id": "23969",
                "brand": "Agip Eni",
                "amenity": "fuel",
                "operator": "BARACCHI STEFANO"
            },
            "geometry": {
                "type": "Point",
                "coordinates": [
                    11.829856038093567,
                    43.497327336946014
                ]
            }
        },
        {
            "type": "Feature",
            "properties": {
                "name": "beyfin",
                "id": "29133",
                "amenity": "fuel",
                "operator": "SUSANNA CARBURANTI DI NUTI SUSANNA"
            },
            "geometry": {
                "type": "Point",
                "coordinates": [
                    11.886105167528513,
                    43.47852744269499
                ]
            }
        },
        {
            "type": "Feature",
            "properties": {
                "name": "FONTEROSA PETROLI VIA SETTEPONTI",
                "id": "31236",
                "brand": "Esso",
                "amenity": "fuel",
                "operator": "FONTEROSA PETROLI S.N.C. DI RAPINI DOMENICA & C."
            },
            "geometry": {
                "type": "Point",
                "coordinates": [
                    11.8712854385376,
                    43.476201991010285
                ]
            }
        },
        {
            "type": "Feature",
            "properties": {
                "name": "AREZZO PESCAIOLA",
                "id": "28521",
                "brand": "Q8",
                "amenity": "fuel",
                "operator": "STAR SERVICE S.R.L."
            },
            "geometry": {
                "type": "Point",
                "coordinates": [
                    11.80831789970398,
                    43.45626551463557
                ]
            }
        },
        {
            "type": "Feature",
            "properties": {
                "name": "Stazione di Servizio Tamoil",
                "id": "10357",
                "brand": "Tamoil",
                "amenity": "fuel",
                "operator": "DANESI GIUSEPPE & INNOCENTI ELIO S.N.C."
            },
            "geometry": {
                "type": "Point",
                "coordinates": [
                    11.85098648071289,
                    43.46775219780616
                ]
            }
        },
        {
            "type": "Feature",
            "properties": {
                "name": "Bucci Daniele Api Ip",
                "id": "18337",
                "brand": "Api-Ip",
                "amenity": "fuel",
                "operator": "BUCCI DANIELE"
            },
            "geometry": {
                "type": "Point",
                "coordinates": [
                    11.78503096103668,
                    43.50824012522844
                ]
            }
        },
        {
            "type": "Feature",
            "properties": {
                "name": "AREZZO - DAL BORRO",
                "id": "24779",
                "brand": "Api-Ip",
                "amenity": "fuel",
                "operator": "IP SERVICES S.R.L."
            },
            "geometry": {
                "type": "Point",
                "coordinates": [
                    11.868141574239758,
                    43.46460389349198
                ]
            }
        },
        {
            "type": "Feature",
            "properties": {
                "name": "Arezzo",
                "id": "20673",
                "brand": "Total Erg",
                "amenity": "fuel",
                "operator": "GESTIONI EUROPA - SOCIETA' PER AZIONI"
            },
            "geometry": {
                "type": "Point",
                "coordinates": [
                    11.87035471200943,
                    43.46941422003049
                ]
            }
        },
        {
            "type": "Feature",
            "properties": {
                "name": "IMPIANTO AGIP FRATELLI ADALBERTI",
                "id": "21503",
                "brand": "Agip Eni",
                "amenity": "fuel",
                "operator": "FRATELLI ADALBERTI S.N.C."
            },
            "geometry": {
                "type": "Point",
                "coordinates": [
                    11.865543020901441,
                    43.47062232416525
                ]
            }
        },
        {
            "type": "Feature",
            "properties": {
                "name": "PROMONKEY DI NECCI MICHELE",
                "id": "29097",
                "amenity": "fuel",
                "operator": "NECCI MICHELE"
            },
            "geometry": {
                "type": "Point",
                "coordinates": [
                    11.870905655819683,
                    43.57759364490337
                ]
            }
        },
        {
            "type": "Feature",
            "properties": {
                "name": "TOTAL SANTA MARGHERITA",
                "id": "31270",
                "brand": "Total Erg",
                "amenity": "fuel",
                "operator": "ELETTRAUTO  DI CASINI GIORGIO"
            },
            "geometry": {
                "type": "Point",
                "coordinates": [
                    11.879170378573576,
                    43.473292642411444
                ]
            }
        },
        {
            "type": "Feature",
            "properties": {
                "name": "Fonterosa Petroli",
                "id": "19255",
                "brand": "Esso",
                "amenity": "fuel",
                "operator": "FONTEROSA PETROLI S.N.C. DI RAPINI DOMENICA & C."
            },
            "geometry": {
                "type": "Point",
                "coordinates": [
                    11.901005655527115,
                    43.45834372204217
                ]
            }
        },
        {
            "type": "Feature",
            "properties": {
                "name": "ENI",
                "id": "4343",
                "brand": "Agip Eni",
                "amenity": "fuel",
                "operator": "PRATESI PAOLO"
            },
            "geometry": {
                "type": "Point",
                "coordinates": [
                    11.875253390290823,
                    43.491985114267564
                ]
            }
        },
        {
            "type": "Feature",
            "properties": {
                "name": "AREZZO-VIA BENEDETTO CROCE",
                "id": "11466",
                "brand": "Q8",
                "amenity": "fuel",
                "operator": "SERVIZI & GESTIONI ITALIA S.R.L."
            },
            "geometry": {
                "type": "Point",
                "coordinates": [
                    11.848567128181458,
                    43.46283438436462
                ]
            }
        },
        {
            "type": "Feature",
            "properties": {
                "name": "AREZZO",
                "id": "5768",
                "brand": "Total Erg",
                "amenity": "fuel",
                "operator": "TotalErg SpA"
            },
            "geometry": {
                "type": "Point",
                "coordinates": [
                    11.875574690807296,
                    43.487707622013765
                ]
            }
        },
        {
            "type": "Feature",
            "properties": {
                "name": "IP",
                "id": "10758",
                "brand": "Api-Ip",
                "amenity": "fuel",
                "operator": "MARRAGHINI CLAUDIO S.N.C."
            },
            "geometry": {
                "type": "Point",
                "coordinates": [
                    11.891595125198364,
                    43.46878507857988
                ]
            }
        },
        {
            "type": "Feature",
            "properties": {
                "name": "ARCA",
                "id": "8260",
                "brand": "Api-Ip",
                "amenity": "fuel",
                "operator": "ARCA S.N.C. DI ARTINI FEDERICO E CACCIALUPI SAURO"
            },
            "geometry": {
                "type": "Point",
                "coordinates": [
                    11.871165351867717,
                    43.572313836152254
                ]
            }
        },
        {
            "type": "Feature",
            "properties": {
                "name": "ALFA CARBURANTI",
                "id": "15936",
                "brand": "Api-Ip",
                "amenity": "fuel",
                "operator": "AL.FA. CARBURANTI S.N.C. DI CEROFOLINI FABIO & C."
            },
            "geometry": {
                "type": "Point",
                "coordinates": [
                    11.862675763376613,
                    43.565060370919866
                ]
            }
        },
        {
            "type": "Feature",
            "properties": {
                "name": "DISTRIBUTORE IP NOCENTINI GIANCARLO",
                "id": "25232",
                "brand": "Api-Ip",
                "amenity": "fuel",
                "operator": "NOCENTINI GIANCARLO"
            },
            "geometry": {
                "type": "Point",
                "coordinates": [
                    11.878696382045746,
                    43.47551530695639
                ]
            }
        },
        {
            "type": "Feature",
            "properties": {
                "name": "Arezzo - San Leo",
                "id": "5269",
                "amenity": "fuel",
                "operator": "BEYFIN S.P.A."
            },
            "geometry": {
                "type": "Point",
                "coordinates": [
                    11.832168102264404,
                    43.47636548606913
                ]
            }
        },
        {
            "type": "Feature",
            "properties": {
                "name": "AREZZO VIA FIORENTINA 228",
                "id": "23558",
                "brand": "Q8",
                "amenity": "fuel",
                "operator": "SERVIZI & GESTIONI ITALIA S.R.L."
            },
            "geometry": {
                "type": "Point",
                "coordinates": [
                    11.859490716146864,
                    43.47169125089051
                ]
            }
        },
        {
            "type": "Feature",
            "properties": {
                "name": "ip",
                "id": "18079",
                "brand": "Api-Ip",
                "amenity": "fuel",
                "operator": "CHERICI SIMONE E GIANNOTTI ELENA & C. S.N.C."
            },
            "geometry": {
                "type": "Point",
                "coordinates": [
                    11.814066838243093,
                    43.47099337907095
                ]
            }
        },
        {
            "type": "Feature",
            "properties": {
                "name": "AREZZO - MARCO PERENNIO 44/E",
                "id": "30633",
                "brand": "Api-Ip",
                "amenity": "fuel",
                "operator": "IP SERVICES S.R.L."
            },
            "geometry": {
                "type": "Point",
                "coordinates": [
                    11.872745541000313,
                    43.46920794160213
                ]
            }
        },
        {
            "type": "Feature",
            "properties": {
                "name": "Arezzo - Setteponti",
                "id": "5268",
                "amenity": "fuel",
                "operator": "BEYFIN S.P.A."
            },
            "geometry": {
                "type": "Point",
                "coordinates": [
                    11.868378938622984,
                    43.47720905364789
                ]
            }
        }
    ]
}