{
    "type": "FeatureCollection",
    "features": [
        {
            "type": "Feature",
            "properties": {
                "name": "TOTALERG di Capuzzo Moreno",
                "id": "15737",
                "brand": "Total Erg",
                "amenity": "fuel",
                "operator": "CAPUZZO MORENO"
            },
            "geometry": {
                "type": "Point",
                "coordinates": [
                    11.911370381712912,
                    45.37424420517316
                ]
            }
        },
        {
            "type": "Feature",
            "properties": {
                "name": "TOTAL ERG",
                "id": "16112",
                "brand": "Total Erg",
                "amenity": "fuel",
                "operator": "BASSANELLO TIZIANO"
            },
            "geometry": {
                "type": "Point",
                "coordinates": [
                    11.899303123354912,
                    45.39716813814811
                ]
            }
        },
        {
            "type": "Feature",
            "properties": {
                "name": "Repsol",
                "id": "4905",
                "brand": "Repsol",
                "amenity": "fuel",
                "operator": "SAICAL PETROLI S.R.L"
            },
            "geometry": {
                "type": "Point",
                "coordinates": [
                    11.82689723345186,
                    45.36693359423643
                ]
            }
        },
        {
            "type": "Feature",
            "properties": {
                "name": "P. E G. S.N.C. (TotalErg)",
                "id": "16151",
                "brand": "Total Erg",
                "amenity": "fuel",
                "operator": "P. E G. S.N.C. DI PELUSI MARISTELLA & C."
            },
            "geometry": {
                "type": "Point",
                "coordinates": [
                    11.87311738729477,
                    45.42465216235085
                ]
            }
        },
        {
            "type": "Feature",
            "properties": {
                "name": "8705Braghetta s.a.s",
                "id": "28562",
                "amenity": "fuel",
                "operator": "BRAGHETTA S.A.S. DI BRAGHETTA LUIGI & C."
            },
            "geometry": {
                "type": "Point",
                "coordinates": [
                    11.845294694442714,
                    45.373590736307364
                ]
            }
        },
        {
            "type": "Feature",
            "properties": {
                "name": "ENI DI BERTOCCO ROBERTO",
                "id": "21792",
                "brand": "Agip Eni",
                "amenity": "fuel",
                "operator": "BERTOCCO ROBERTO"
            },
            "geometry": {
                "type": "Point",
                "coordinates": [
                    11.866609677672386,
                    45.342081540277704
                ]
            }
        },
        {
            "type": "Feature",
            "properties": {
                "name": "eni c.so australia",
                "id": "8549",
                "brand": "Agip Eni",
                "amenity": "fuel",
                "operator": "P.M. S.A.S. DI PASQUALI ANDREA & C."
            },
            "geometry": {
                "type": "Point",
                "coordinates": [
                    11.863163709640505,
                    45.43210975571265
                ]
            }
        },
        {
            "type": "Feature",
            "properties": {
                "name": "A.F. PETROLI",
                "id": "12360",
                "brand": "AF Petroli",
                "amenity": "fuel",
                "operator": "A.F. PETROLI S.P.A."
            },
            "geometry": {
                "type": "Point",
                "coordinates": [
                    11.868505306082172,
                    45.43588142794622
                ]
            }
        },
        {
            "type": "Feature",
            "properties": {
                "name": "RUBANO-VIA A.ROSSI SS. 11",
                "id": "11755",
                "brand": "Q8",
                "amenity": "fuel",
                "operator": "SERVIZI & GESTIONI ITALIA S.R.L."
            },
            "geometry": {
                "type": "Point",
                "coordinates": [
                    11.784231428241698,
                    45.42693365221099
                ]
            }
        },
        {
            "type": "Feature",
            "properties": {
                "name": "ENI",
                "id": "27505",
                "brand": "Agip Eni",
                "amenity": "fuel",
                "operator": "CAPPELLON GIANLUCA"
            },
            "geometry": {
                "type": "Point",
                "coordinates": [
                    11.888564229011536,
                    45.400754273665896
                ]
            }
        },
        {
            "type": "Feature",
            "properties": {
                "name": "Ponte San Nicol√≤",
                "id": "20107",
                "brand": "Total Erg",
                "amenity": "fuel",
                "operator": "GESTIONI EUROPA - SOCIETA' PER AZIONI"
            },
            "geometry": {
                "type": "Point",
                "coordinates": [
                    11.94681644439697,
                    45.366540023939116
                ]
            }
        },
        {
            "type": "Feature",
            "properties": {
                "name": "stazione di servizio IP",
                "id": "23510",
                "brand": "Api-Ip",
                "amenity": "fuel",
                "operator": "BANO VILLIAM"
            },
            "geometry": {
                "type": "Point",
                "coordinates": [
                    11.898623217721592,
                    45.43188318249291
                ]
            }
        },
        {
            "type": "Feature",
            "properties": {
                "name": "PADOVA-VIA MOZZONI",
                "id": "24131",
                "brand": "Q8",
                "amenity": "fuel",
                "operator": "SERVIZI & GESTIONI ITALIA S.R.L."
            },
            "geometry": {
                "type": "Point",
                "coordinates": [
                    11.921504437923431,
                    45.4234646692883
                ]
            }
        },
        {
            "type": "Feature",
            "properties": {
                "name": "Shell",
                "id": "28385",
                "brand": "Shell",
                "amenity": "fuel",
                "operator": "DEPIERA ERMANNO"
            },
            "geometry": {
                "type": "Point",
                "coordinates": [
                    11.92602127790451,
                    45.38252871265389
                ]
            }
        },
        {
            "type": "Feature",
            "properties": {
                "name": "BENZA di SELVAZZANO DENTRO (PD)",
                "id": "30531",
                "brand": "Benza",
                "amenity": "fuel",
                "operator": "BORTOLAMEI SRL"
            },
            "geometry": {
                "type": "Point",
                "coordinates": [
                    11.781161827911317,
                    45.383782285799775
                ]
            }
        },
        {
            "type": "Feature",
            "properties": {
                "name": "PADOVA VIA PONTEVIGODARZERE, 94",
                "id": "19936",
                "brand": "Q8",
                "amenity": "fuel",
                "operator": "SERVIZI & GESTIONI ITALIA S.R.L."
            },
            "geometry": {
                "type": "Point",
                "coordinates": [
                    11.893743657672074,
                    45.44347150241555
                ]
            }
        },
        {
            "type": "Feature",
            "properties": {
                "name": "Impianti Agip di Trabuio Melinda",
                "id": "17017",
                "brand": "Agip Eni",
                "amenity": "fuel",
                "operator": "IMPIANTI AGIP DI TRABUIO MELINDA"
            },
            "geometry": {
                "type": "Point",
                "coordinates": [
                    11.94775253534317,
                    45.39092555128513
                ]
            }
        },
        {
            "type": "Feature",
            "properties": {
                "name": "agip antonio grigolon",
                "id": "21272",
                "brand": "Agip Eni",
                "amenity": "fuel",
                "operator": "GRIGOLON ANTONIO"
            },
            "geometry": {
                "type": "Point",
                "coordinates": [
                    11.896578669548035,
                    45.43522328881738
                ]
            }
        },
        {
            "type": "Feature",
            "properties": {
                "name": "Tamoil",
                "id": "17450",
                "brand": "Tamoil",
                "amenity": "fuel",
                "operator": "NALOTTO DANIELE"
            },
            "geometry": {
                "type": "Point",
                "coordinates": [
                    11.87475316137693,
                    45.422097621360706
                ]
            }
        },
        {
            "type": "Feature",
            "properties": {
                "name": "Q8 Corso Australia",
                "id": "14901",
                "brand": "Q8",
                "amenity": "fuel",
                "operator": "TONIOLO MIRCO"
            },
            "geometry": {
                "type": "Point",
                "coordinates": [
                    11.863415837287901,
                    45.43125859545148
                ]
            }
        },
        {
            "type": "Feature",
            "properties": {
                "name": "PADOVA - VIA 13 GIUGNO",
                "id": "7299",
                "brand": "Q8",
                "amenity": "fuel",
                "operator": "SERVIZI & GESTIONI ITALIA S.R.L."
            },
            "geometry": {
                "type": "Point",
                "coordinates": [
                    11.877669095993042,
                    45.44210249254168
                ]
            }
        },
        {
            "type": "Feature",
            "properties": {
                "name": "7840",
                "id": "22643",
                "brand": "Tamoil",
                "amenity": "fuel",
                "operator": "T.D.M. S.R.L."
            },
            "geometry": {
                "type": "Point",
                "coordinates": [
                    11.832573652267458,
                    45.44252024338287
                ]
            }
        },
        {
            "type": "Feature",
            "properties": {
                "name": "eni blusnc",
                "id": "17621",
                "brand": "Agip Eni",
                "amenity": "fuel",
                "operator": "BLU S.N.C. DI ZANARDI ANDREA & C."
            },
            "geometry": {
                "type": "Point",
                "coordinates": [
                    11.849324852228165,
                    45.37718797071252
                ]
            }
        },
        {
            "type": "Feature",
            "properties": {
                "name": "IMPIANTO ENI",
                "id": "28406",
                "brand": "Agip Eni",
                "amenity": "fuel",
                "operator": "PIOVAN GIACOMINO"
            },
            "geometry": {
                "type": "Point",
                "coordinates": [
                    11.896093189716339,
                    45.354134928075716
                ]
            }
        },
        {
            "type": "Feature",
            "properties": {
                "name": "LIMENELLA",
                "id": "3907",
                "brand": "Q8",
                "amenity": "fuel",
                "operator": "TONIOLO MIRCO"
            },
            "geometry": {
                "type": "Point",
                "coordinates": [
                    11.845123171806335,
                    45.44923827186889
                ]
            }
        },
        {
            "type": "Feature",
            "properties": {
                "name": "GREGGIO OIL CARBURANTI",
                "id": "14059",
                "amenity": "fuel",
                "operator": "GREGGIO OIL S.N.C.DI GREGGIO ANTONIO E GREGGIO PAOLO"
            },
            "geometry": {
                "type": "Point",
                "coordinates": [
                    11.826317521842954,
                    45.443672321357624
                ]
            }
        },
        {
            "type": "Feature",
            "properties": {
                "name": "eni",
                "id": "25706",
                "brand": "Agip Eni",
                "amenity": "fuel",
                "operator": "RISTOSYSTEM S.A.S. DI PAOLO BORDIN"
            },
            "geometry": {
                "type": "Point",
                "coordinates": [
                    11.935764402151108,
                    45.4169565452905
                ]
            }
        },
        {
            "type": "Feature",
            "properties": {
                "name": "CARRARO ALBERTO",
                "id": "16120",
                "brand": "Agip Eni",
                "amenity": "fuel",
                "operator": "CARRARO ALBERTO IMPIANTO AGIP"
            },
            "geometry": {
                "type": "Point",
                "coordinates": [
                    11.913197636604309,
                    45.37795064169959
                ]
            }
        },
        {
            "type": "Feature",
            "properties": {
                "name": "via Vicenza",
                "id": "17603",
                "brand": "Agip Eni",
                "amenity": "fuel",
                "operator": "SATTIN MICHELE"
            },
            "geometry": {
                "type": "Point",
                "coordinates": [
                    11.861789077520372,
                    45.41174389484407
                ]
            }
        },
        {
            "type": "Feature",
            "properties": {
                "name": "STAZ.SERVIZIO ESSO DE.FA SAS",
                "id": "22936",
                "brand": "Esso",
                "amenity": "fuel",
                "operator": "DEFA S.A.S. DI FAVARATO BRUNO MORENO & C. CON SIGLA \"DEFA S.A.S.\""
            },
            "geometry": {
                "type": "Point",
                "coordinates": [
                    11.86686000793452,
                    45.38946737393962
                ]
            }
        },
        {
            "type": "Feature",
            "properties": {
                "name": "petrolifera padovana s.a.s.",
                "id": "27502",
                "brand": "Api-Ip",
                "amenity": "fuel",
                "operator": "PETROLIFERA PADOVANA S.A.S. DI TESSARI GIANFRANCO E C."
            },
            "geometry": {
                "type": "Point",
                "coordinates": [
                    11.8364093888855,
                    45.44329741747445
                ]
            }
        },
        {
            "type": "Feature",
            "properties": {
                "name": "Sbabo s.n.c.",
                "id": "23999",
                "brand": "Esso",
                "amenity": "fuel",
                "operator": "STAZIONE SERVIZIO SBABO S.N.C. DI FIORENZO SBABO & C."
            },
            "geometry": {
                "type": "Point",
                "coordinates": [
                    11.83179795742035,
                    45.41594003620744
                ]
            }
        },
        {
            "type": "Feature",
            "properties": {
                "name": "B&D Service \"Tamoil Abano T.\"",
                "id": "15435",
                "brand": "Tamoil",
                "amenity": "fuel",
                "operator": "B. & D. SERVICE DI BRUNINO & C. SNC"
            },
            "geometry": {
                "type": "Point",
                "coordinates": [
                    11.782422392095894,
                    45.363295335443205
                ]
            }
        },
        {
            "type": "Feature",
            "properties": {
                "name": "PADOVA CORSO PRIMO MAGGIO",
                "id": "19623",
                "brand": "Q8",
                "amenity": "fuel",
                "operator": "SERVIZI & GESTIONI ITALIA S.R.L."
            },
            "geometry": {
                "type": "Point",
                "coordinates": [
                    11.897981464862823,
                    45.370086421743295
                ]
            }
        },
        {
            "type": "Feature",
            "properties": {
                "name": "GIERRESSE VIA PLEBISCITO",
                "id": "21157",
                "brand": "Esso",
                "amenity": "fuel",
                "operator": "GIERRESSE S.N.C. DI RAVAZZOLO STEFANO, RAVAZZOLO GASTONE CON SIGL A GIERRESSE S.N.C."
            },
            "geometry": {
                "type": "Point",
                "coordinates": [
                    11.898232251405716,
                    45.433015111003705
                ]
            }
        },
        {
            "type": "Feature",
            "properties": {
                "name": "CHIESA NUOVA",
                "id": "5533",
                "brand": "Total Erg",
                "amenity": "fuel",
                "operator": "GESTIONI EUROPA S.p.A."
            },
            "geometry": {
                "type": "Point",
                "coordinates": [
                    11.84574054232792,
                    45.4114644682442
                ]
            }
        },
        {
            "type": "Feature",
            "properties": {
                "name": "VEGA PD IPPODROMO",
                "id": "31444",
                "brand": "Vega",
                "amenity": "fuel",
                "operator": "VEGA CARBURANTI S.P.A."
            },
            "geometry": {
                "type": "Point",
                "coordinates": [
                    11.926771489410386,
                    45.424204144142
                ]
            }
        },
        {
            "type": "Feature",
            "properties": {
                "name": "stazione di servizio IP",
                "id": "23511",
                "brand": "Api-Ip",
                "amenity": "fuel",
                "operator": "BANO VILLIAM"
            },
            "geometry": {
                "type": "Point",
                "coordinates": [
                    11.898623217721592,
                    45.43188318249291
                ]
            }
        },
        {
            "type": "Feature",
            "properties": {
                "name": "PV 3322",
                "id": "24930",
                "brand": "Agip Eni",
                "amenity": "fuel",
                "operator": "GESTIONI INNOVATIVE ITALIA S.R.L."
            },
            "geometry": {
                "type": "Point",
                "coordinates": [
                    11.889205276966095,
                    45.39505451276063
                ]
            }
        },
        {
            "type": "Feature",
            "properties": {
                "name": "VARGIU MARIA ADRIANA",
                "id": "11079",
                "brand": "Agip Eni",
                "amenity": "fuel",
                "operator": "VARGIU' MARIA ADRIANA"
            },
            "geometry": {
                "type": "Point",
                "coordinates": [
                    11.94741189479828,
                    45.43400364455716
                ]
            }
        },
        {
            "type": "Feature",
            "properties": {
                "name": "PADOVA - PLEBISCITO",
                "id": "30887",
                "brand": "Api-Ip",
                "amenity": "fuel",
                "operator": "IP SERVICES S.R.L."
            },
            "geometry": {
                "type": "Point",
                "coordinates": [
                    11.89877137541771,
                    45.43177000843167
                ]
            }
        },
        {
            "type": "Feature",
            "properties": {
                "name": "Tiso Andrea",
                "id": "10729",
                "brand": "Tamoil",
                "amenity": "fuel",
                "operator": "TISO ANDREA"
            },
            "geometry": {
                "type": "Point",
                "coordinates": [
                    11.794179796364572,
                    45.33994198164693
                ]
            }
        },
        {
            "type": "Feature",
            "properties": {
                "name": "Soc. Marina dei f.lli Casotto",
                "id": "13207",
                "brand": "Esso",
                "amenity": "fuel",
                "operator": "MARINA S.N.C. DI CASOTTO TIZIANO, LUCIANO E MARINA"
            },
            "geometry": {
                "type": "Point",
                "coordinates": [
                    11.795975390502576,
                    45.37727712362688
                ]
            }
        },
        {
            "type": "Feature",
            "properties": {
                "name": "Eni55291",
                "id": "8812",
                "brand": "Agip Eni",
                "amenity": "fuel",
                "operator": "SATTIN MAURO"
            },
            "geometry": {
                "type": "Point",
                "coordinates": [
                    11.84851884841919,
                    45.40503348773557
                ]
            }
        },
        {
            "type": "Feature",
            "properties": {
                "name": "impianti agip di trabuio severino",
                "id": "16936",
                "brand": "Agip Eni",
                "amenity": "fuel",
                "operator": "TRABUIO SEVERINO"
            },
            "geometry": {
                "type": "Point",
                "coordinates": [
                    11.929899752140043,
                    45.38838524427938
                ]
            }
        },
        {
            "type": "Feature",
            "properties": {
                "name": "EL.DA.snc",
                "id": "28462",
                "brand": "Q8",
                "amenity": "fuel",
                "operator": "EL.DA. S.N.C. DI COGNOLATO DAVIDE & C."
            },
            "geometry": {
                "type": "Point",
                "coordinates": [
                    11.840231413422432,
                    45.377439329191475
                ]
            }
        },
        {
            "type": "Feature",
            "properties": {
                "name": "VIA DEI COLLI 41 - PADOVA",
                "id": "29396",
                "brand": "Q8",
                "amenity": "fuel",
                "operator": "SERVIZI & GESTIONI ITALIA S.R.L."
            },
            "geometry": {
                "type": "Point",
                "coordinates": [
                    11.834773161971269,
                    45.39715575074703
                ]
            }
        },
        {
            "type": "Feature",
            "properties": {
                "name": "SMP PADOVA, Via dei Colli 81",
                "id": "5191",
                "brand": "San Marco Petroli",
                "amenity": "fuel",
                "operator": "SAN MARCO PETROLI DISTRIBUZIONE S.R.L."
            },
            "geometry": {
                "type": "Point",
                "coordinates": [
                    11.831001341342924,
                    45.39633227212848
                ]
            }
        },
        {
            "type": "Feature",
            "properties": {
                "name": "PERARO CARLO",
                "id": "12849",
                "brand": "Agip Eni",
                "amenity": "fuel",
                "operator": "PERARO CARLO"
            },
            "geometry": {
                "type": "Point",
                "coordinates": [
                    11.941634416580198,
                    45.4235475009417
                ]
            }
        },
        {
            "type": "Feature",
            "properties": {
                "name": "SMP",
                "id": "18995",
                "amenity": "fuel",
                "operator": "VIZZUTTI PAOLO"
            },
            "geometry": {
                "type": "Point",
                "coordinates": [
                    11.861395463347435,
                    45.40327666657866
                ]
            }
        },
        {
            "type": "Feature",
            "properties": {
                "name": "PADOVA BUONARROTI 167",
                "id": "6495",
                "brand": "Q8",
                "amenity": "fuel",
                "operator": "SERVIZI & GESTIONI ITALIA srl"
            },
            "geometry": {
                "type": "Point",
                "coordinates": [
                    11.878684649073762,
                    45.426405778034365
                ]
            }
        },
        {
            "type": "Feature",
            "properties": {
                "name": "ESSO CORSO AUSTRALIA",
                "id": "29750",
                "brand": "Esso",
                "amenity": "fuel",
                "operator": "EMMEGI OIL S.A.S. DI MIAZZO MASSIMO & C."
            },
            "geometry": {
                "type": "Point",
                "coordinates": [
                    11.853994973016372,
                    45.417866982876255
                ]
            }
        },
        {
            "type": "Feature",
            "properties": {
                "name": "ALIBARDI ENRICO",
                "id": "30341",
                "brand": "San Marco Petroli",
                "amenity": "fuel",
                "operator": "AGIP STAZIONE DI RIFORNIMENTO DI ALIBARDI ENRICO"
            },
            "geometry": {
                "type": "Point",
                "coordinates": [
                    11.92162297335233,
                    45.41109776016694
                ]
            }
        },
        {
            "type": "Feature",
            "properties": {
                "name": "Tamoil",
                "id": "31409",
                "brand": "Tamoil",
                "amenity": "fuel",
                "operator": "EL.DA. S.N.C. DI COGNOLATO DAVIDE & C."
            },
            "geometry": {
                "type": "Point",
                "coordinates": [
                    11.872637392065371,
                    45.419205484957175
                ]
            }
        },
        {
            "type": "Feature",
            "properties": {
                "name": "PITTON FABRIZIO S.N.C DI MATTEO PITTON & C",
                "id": "30807",
                "brand": "Q8",
                "amenity": "fuel",
                "operator": "PITTON FABRIZIO S.N.C. DI MATTEO PITTON E C."
            },
            "geometry": {
                "type": "Point",
                "coordinates": [
                    11.885796668122795,
                    45.37644360378694
                ]
            }
        },
        {
            "type": "Feature",
            "properties": {
                "name": "major",
                "id": "13619",
                "brand": "Major",
                "amenity": "fuel",
                "operator": "MIX S.N.C. DI BUSINARO LUCA & C."
            },
            "geometry": {
                "type": "Point",
                "coordinates": [
                    11.906092464923857,
                    45.376493682396955
                ]
            }
        },
        {
            "type": "Feature",
            "properties": {
                "name": "BC ABANO",
                "id": "28223",
                "amenity": "fuel",
                "operator": "ENERGIA S.R.L."
            },
            "geometry": {
                "type": "Point",
                "coordinates": [
                    11.79697645026249,
                    45.36178478694225
                ]
            }
        },
        {
            "type": "Feature",
            "properties": {
                "name": "Eni Gianfranco Carraro",
                "id": "18392",
                "brand": "Agip Eni",
                "amenity": "fuel",
                "operator": "CARRARO GIANFRANCO"
            },
            "geometry": {
                "type": "Point",
                "coordinates": [
                    11.858616024255753,
                    45.40198081349585
                ]
            }
        },
        {
            "type": "Feature",
            "properties": {
                "name": "LIMENELLA",
                "id": "25611",
                "brand": "Esso",
                "amenity": "fuel",
                "operator": "NUOVA SIDAP  S.R.L."
            },
            "geometry": {
                "type": "Point",
                "coordinates": [
                    11.845203638076782,
                    45.44787817767705
                ]
            }
        },
        {
            "type": "Feature",
            "properties": {
                "name": "COSTANTIN PADOVA",
                "id": "13601",
                "brand": "Costantin",
                "amenity": "fuel",
                "operator": "ENERGY S.R.L."
            },
            "geometry": {
                "type": "Point",
                "coordinates": [
                    11.847502400277678,
                    45.42631241249712
                ]
            }
        },
        {
            "type": "Feature",
            "properties": {
                "name": "SMP PADOVA URUGUAY",
                "id": "25042",
                "brand": "San Marco Petroli",
                "amenity": "fuel",
                "operator": "SAN MARCO PETROLI DISTRIBUZIONE S.R.L."
            },
            "geometry": {
                "type": "Point",
                "coordinates": [
                    11.928815664556849,
                    45.39968644336679
                ]
            }
        },
        {
            "type": "Feature",
            "properties": {
                "name": "Tangenziale Nord via Boves 23",
                "id": "28024",
                "brand": "Agip Eni",
                "amenity": "fuel",
                "operator": "OSCAR SNC DI RINALDI GIUSEPPINA E VENTURI FIORENZA"
            },
            "geometry": {
                "type": "Point",
                "coordinates": [
                    11.937757283449173,
                    45.428005547152374
                ]
            }
        },
        {
            "type": "Feature",
            "properties": {
                "name": "Q8 CADONEGHE",
                "id": "20778",
                "brand": "Q8",
                "amenity": "fuel",
                "operator": "DUE BI DUE DI BERTOLDO COSTANTINO E PAOLO S.N.C."
            },
            "geometry": {
                "type": "Point",
                "coordinates": [
                    11.92311242222786,
                    45.45408113023232
                ]
            }
        },
        {
            "type": "Feature",
            "properties": {
                "name": "PADOVA STRADA GRANZE 14 LOC CAMIN",
                "id": "6496",
                "brand": "Q8",
                "amenity": "fuel",
                "operator": "SERVIZI & GESTIONI ITALIA srl"
            },
            "geometry": {
                "type": "Point",
                "coordinates": [
                    11.944743406151588,
                    45.39676353545592
                ]
            }
        },
        {
            "type": "Feature",
            "properties": {
                "name": "esso",
                "id": "31190",
                "brand": "Esso",
                "amenity": "fuel",
                "operator": "MIX S.N.C. DI BUSINARO LUCA & C."
            },
            "geometry": {
                "type": "Point",
                "coordinates": [
                    11.87060683965683,
                    45.362726173338515
                ]
            }
        },
        {
            "type": "Feature",
            "properties": {
                "name": "8714Braghetta S.a.s.",
                "id": "28563",
                "amenity": "fuel",
                "operator": "BRAGHETTA S.A.S. DI BRAGHETTA LUIGI & C."
            },
            "geometry": {
                "type": "Point",
                "coordinates": [
                    11.879546642303465,
                    45.39003933703947
                ]
            }
        },
        {
            "type": "Feature",
            "properties": {
                "name": "Tamoil",
                "id": "30269",
                "brand": "Tamoil",
                "amenity": "fuel",
                "operator": "BHANDB SNC DI BORTOLOTTO MARCO E BILATO ENRICO"
            },
            "geometry": {
                "type": "Point",
                "coordinates": [
                    11.900135278701782,
                    45.42721696832925
                ]
            }
        },
        {
            "type": "Feature",
            "properties": {
                "name": "PV 55320",
                "id": "24932",
                "brand": "Agip Eni",
                "amenity": "fuel",
                "operator": "GESTIONI INNOVATIVE ITALIA S.R.L."
            },
            "geometry": {
                "type": "Point",
                "coordinates": [
                    11.88697099685669,
                    45.42698001310263
                ]
            }
        },
        {
            "type": "Feature",
            "properties": {
                "name": "VIGODARZERE  - SALETTO ROMA 81",
                "id": "6501",
                "brand": "Q8",
                "amenity": "fuel",
                "operator": "SERVIZI & GESTIONI ITALIA srl"
            },
            "geometry": {
                "type": "Point",
                "coordinates": [
                    11.885698060118896,
                    45.45354368776432
                ]
            }
        },
        {
            "type": "Feature",
            "properties": {
                "name": "LOC. STANGA/PADOVA VIA VENEZIA",
                "id": "20039",
                "brand": "Q8",
                "amenity": "fuel",
                "operator": "SERVIZI & GESTIONI ITALIA S.R.L."
            },
            "geometry": {
                "type": "Point",
                "coordinates": [
                    11.903069615364075,
                    45.40885804297548
                ]
            }
        },
        {
            "type": "Feature",
            "properties": {
                "name": "SAN MARCO PETROLI",
                "id": "21991",
                "brand": "Som/Omv",
                "amenity": "fuel",
                "operator": "GREGHI SAS DI GREGHI MONICA E C."
            },
            "geometry": {
                "type": "Point",
                "coordinates": [
                    11.945172376651726,
                    45.421236661207125
                ]
            }
        },
        {
            "type": "Feature",
            "properties": {
                "name": "BC",
                "id": "10409",
                "amenity": "fuel",
                "operator": "ENERGIA S.R.L."
            },
            "geometry": {
                "type": "Point",
                "coordinates": [
                    11.79563558844916,
                    45.415398564603976
                ]
            }
        },
        {
            "type": "Feature",
            "properties": {
                "name": "PADOVA VIA JACOPO AVANZO 12",
                "id": "6500",
                "brand": "Q8",
                "amenity": "fuel",
                "operator": "SERVIZI & GESTIONI ITALIA srl"
            },
            "geometry": {
                "type": "Point",
                "coordinates": [
                    11.89846490541845,
                    45.41998483304014
                ]
            }
        },
        {
            "type": "Feature",
            "properties": {
                "name": "ip",
                "id": "11382",
                "brand": "Api-Ip",
                "amenity": "fuel",
                "operator": "FECCHIO AMEDEO"
            },
            "geometry": {
                "type": "Point",
                "coordinates": [
                    11.865723891888365,
                    45.39423430232501
                ]
            }
        },
        {
            "type": "Feature",
            "properties": {
                "name": "CARRARO ALBERTO",
                "id": "16095",
                "brand": "Agip Eni",
                "amenity": "fuel",
                "operator": "CARRARO ALBERTO IMPIANTO AGIP"
            },
            "geometry": {
                "type": "Point",
                "coordinates": [
                    11.949278712272646,
                    45.355528191420134
                ]
            }
        },
        {
            "type": "Feature",
            "properties": {
                "name": "ENI",
                "id": "16272",
                "brand": "Agip Eni",
                "amenity": "fuel",
                "operator": "CAPPELLARO DIEGO"
            },
            "geometry": {
                "type": "Point",
                "coordinates": [
                    11.904559582471848,
                    45.409330680486974
                ]
            }
        },
        {
            "type": "Feature",
            "properties": {
                "name": "Tamoil Montecchio",
                "id": "12263",
                "brand": "Tamoil",
                "amenity": "fuel",
                "operator": "MONTECCHIO LUCIA & C. S.N.C."
            },
            "geometry": {
                "type": "Point",
                "coordinates": [
                    11.872635930776598,
                    45.419207523466234
                ]
            }
        },
        {
            "type": "Feature",
            "properties": {
                "name": "Q8",
                "id": "28489",
                "brand": "Q8",
                "amenity": "fuel",
                "operator": "F.LLI MIMO S.N.C. DI MIMO STEFANO & C."
            },
            "geometry": {
                "type": "Point",
                "coordinates": [
                    11.87963239021303,
                    45.42817188013463
                ]
            }
        },
        {
            "type": "Feature",
            "properties": {
                "name": "CADONEGHE",
                "id": "5838",
                "brand": "Total Erg",
                "amenity": "fuel",
                "operator": "TotalErg SpA"
            },
            "geometry": {
                "type": "Point",
                "coordinates": [
                    11.923681999999983,
                    45.45425659244126
                ]
            }
        },
        {
            "type": "Feature",
            "properties": {
                "name": "PADOVA DEL PLEBISCITO 1866",
                "id": "6499",
                "brand": "Q8",
                "amenity": "fuel",
                "operator": "SERVIZI & GESTIONI ITALIA srl"
            },
            "geometry": {
                "type": "Point",
                "coordinates": [
                    11.898106613491791,
                    45.43162035767453
                ]
            }
        },
        {
            "type": "Feature",
            "properties": {
                "name": "57909 PADOVA",
                "id": "5397",
                "brand": "Agip Eni",
                "amenity": "fuel",
                "operator": "enirete oil&nonoil S.p.A."
            },
            "geometry": {
                "type": "Point",
                "coordinates": [
                    11.842031779098534,
                    45.411798396755536
                ]
            }
        },
        {
            "type": "Feature",
            "properties": {
                "name": "ALBIGNASEGO-STRADA BATTAGLIA SS. 16",
                "id": "11754",
                "brand": "Q8",
                "amenity": "fuel",
                "operator": "SERVIZI & GESTIONI ITALIA S.R.L."
            },
            "geometry": {
                "type": "Point",
                "coordinates": [
                    11.855596559524542,
                    45.38029970199889
                ]
            }
        },
        {
            "type": "Feature",
            "properties": {
                "name": "Esso Via Venezia",
                "id": "27813",
                "brand": "Esso",
                "amenity": "fuel",
                "operator": "G.I.CAR.  S.N.C. DI BERGAMIN NICOLA & C."
            },
            "geometry": {
                "type": "Point",
                "coordinates": [
                    11.90719119510652,
                    45.410261192257245
                ]
            }
        },
        {
            "type": "Feature",
            "properties": {
                "name": "8711 Braghetta sas",
                "id": "28478",
                "amenity": "fuel",
                "operator": "BRAGHETTA S.A.S. DI BRAGHETTA LUIGI & C."
            },
            "geometry": {
                "type": "Point",
                "coordinates": [
                    11.878400668501852,
                    45.42395149178975
                ]
            }
        },
        {
            "type": "Feature",
            "properties": {
                "name": "F.LLI CATTELAN SNC",
                "id": "11136",
                "brand": "Tamoil",
                "amenity": "fuel",
                "operator": "FRATELLI CATTELAN - S.N.C. - DI CATTELAN SERGIO, CLAUDIO & C."
            },
            "geometry": {
                "type": "Point",
                "coordinates": [
                    11.803273494165069,
                    45.42281113816083
                ]
            }
        },
        {
            "type": "Feature",
            "properties": {
                "name": "eni",
                "id": "21478",
                "brand": "Agip Eni",
                "amenity": "fuel",
                "operator": "SIMIONATO PAOLO & C. S.N.C."
            },
            "geometry": {
                "type": "Point",
                "coordinates": [
                    11.826000793917842,
                    45.41287906057255
                ]
            }
        },
        {
            "type": "Feature",
            "properties": {
                "name": "STAZ.SERV.IP DI PAVAN DANILO",
                "id": "21534",
                "brand": "Api-Ip",
                "amenity": "fuel",
                "operator": "PAVAN DANILO"
            },
            "geometry": {
                "type": "Point",
                "coordinates": [
                    11.89646601676941,
                    45.430519231494166
                ]
            }
        },
        {
            "type": "Feature",
            "properties": {
                "name": "PV 52710",
                "id": "24927",
                "brand": "Agip Eni",
                "amenity": "fuel",
                "operator": "GESTIONI INNOVATIVE ITALIA S.R.L."
            },
            "geometry": {
                "type": "Point",
                "coordinates": [
                    11.875043210450713,
                    45.421799568461495
                ]
            }
        },
        {
            "type": "Feature",
            "properties": {
                "name": "Nicolini Francesco",
                "id": "10608",
                "brand": "Q8",
                "amenity": "fuel",
                "operator": "NICOLINI FRANCESCO"
            },
            "geometry": {
                "type": "Point",
                "coordinates": [
                    11.847939491271973,
                    45.41110783759899
                ]
            }
        },
        {
            "type": "Feature",
            "properties": {
                "name": "PADOVA VIA DEI COLLI",
                "id": "6498",
                "brand": "Q8",
                "amenity": "fuel",
                "operator": "SERVIZI & GESTIONI ITALIA srl"
            },
            "geometry": {
                "type": "Point",
                "coordinates": [
                    11.833679436176341,
                    45.39718637586126
                ]
            }
        },
        {
            "type": "Feature",
            "properties": {
                "name": "FR snc",
                "id": "16442",
                "brand": "Esso",
                "amenity": "fuel",
                "operator": "FR DI FONTANA MAURIZIO E RIZZATO ADRIANO S.N.C."
            },
            "geometry": {
                "type": "Point",
                "coordinates": [
                    11.89330369234085,
                    45.44368629197674
                ]
            }
        },
        {
            "type": "Feature",
            "properties": {
                "name": "Eni",
                "id": "14924",
                "brand": "Agip Eni",
                "amenity": "fuel",
                "operator": "TRIS OIL DI VIALE GIULIANO  &  C. SOCIETA' IN NOME COLLETTIVO"
            },
            "geometry": {
                "type": "Point",
                "coordinates": [
                    11.856887340545654,
                    45.454965812937594
                ]
            }
        },
        {
            "type": "Feature",
            "properties": {
                "name": "VEGA PD ELETTRONICA",
                "id": "31443",
                "brand": "Vega",
                "amenity": "fuel",
                "operator": "VEGA CARBURANTI S.P.A."
            },
            "geometry": {
                "type": "Point",
                "coordinates": [
                    11.91853791475296,
                    45.40917476704935
                ]
            }
        },
        {
            "type": "Feature",
            "properties": {
                "name": "SMP PADOVA, Via del Plebiscito",
                "id": "5190",
                "brand": "San Marco Petroli",
                "amenity": "fuel",
                "operator": "SAN MARCO PETROLI DISTRIBUZIONE S.R.L."
            },
            "geometry": {
                "type": "Point",
                "coordinates": [
                    11.895205378532408,
                    45.43641655734114
                ]
            }
        },
        {
            "type": "Feature",
            "properties": {
                "name": "totalerg",
                "id": "18293",
                "brand": "Total Erg",
                "amenity": "fuel",
                "operator": "GALANTE ORLANDO"
            },
            "geometry": {
                "type": "Point",
                "coordinates": [
                    11.913703903555868,
                    45.42706415728562
                ]
            }
        },
        {
            "type": "Feature",
            "properties": {
                "name": "PV 55948",
                "id": "24933",
                "brand": "Agip Eni",
                "amenity": "fuel",
                "operator": "GESTIONI INNOVATIVE ITALIA S.R.L."
            },
            "geometry": {
                "type": "Point",
                "coordinates": [
                    11.870287656784058,
                    45.374716001755274
                ]
            }
        },
        {
            "type": "Feature",
            "properties": {
                "name": "REPSOL",
                "id": "5727",
                "brand": "Repsol",
                "amenity": "fuel",
                "operator": "CAMBULI GIUSEPPE"
            },
            "geometry": {
                "type": "Point",
                "coordinates": [
                    11.937643960118294,
                    45.44028660126487
                ]
            }
        },
        {
            "type": "Feature",
            "properties": {
                "name": "P.V. 8067 Tamoil",
                "id": "22921",
                "brand": "Tamoil",
                "amenity": "fuel",
                "operator": "CAR-SERVICE DI GIACOMIN FEDERICO"
            },
            "geometry": {
                "type": "Point",
                "coordinates": [
                    11.944001596348244,
                    45.400974188922135
                ]
            }
        },
        {
            "type": "Feature",
            "properties": {
                "name": "agip",
                "id": "29025",
                "brand": "Agip Eni",
                "amenity": "fuel",
                "operator": "WASH & OIL S.N.C. DI BIANCO FRANCESCO & C."
            },
            "geometry": {
                "type": "Point",
                "coordinates": [
                    11.825547534349086,
                    45.340788727798795
                ]
            }
        },
        {
            "type": "Feature",
            "properties": {
                "name": "ESSO MARTINELLO CESARINO E MASSIMO SNC",
                "id": "14279",
                "brand": "Esso",
                "amenity": "fuel",
                "operator": "MARTINELLO CESARINO & MASSIMO SNC"
            },
            "geometry": {
                "type": "Point",
                "coordinates": [
                    11.870895100086274,
                    45.38992420750323
                ]
            }
        },
        {
            "type": "Feature",
            "properties": {
                "name": "A.F. PETROLI",
                "id": "12363",
                "brand": "AF Petroli",
                "amenity": "fuel",
                "operator": "A.F. PETROLI S.P.A."
            },
            "geometry": {
                "type": "Point",
                "coordinates": [
                    11.872090436770579,
                    45.36736623925516
                ]
            }
        },
        {
            "type": "Feature",
            "properties": {
                "name": "A.F. PETROLI",
                "id": "12364",
                "brand": "AF Petroli",
                "amenity": "fuel",
                "operator": "A.F. PETROLI S.P.A."
            },
            "geometry": {
                "type": "Point",
                "coordinates": [
                    11.788190324467452,
                    45.41360368762956
                ]
            }
        },
        {
            "type": "Feature",
            "properties": {
                "name": "ENI",
                "id": "21220",
                "brand": "Agip Eni",
                "amenity": "fuel",
                "operator": "BEZZI STEFANO"
            },
            "geometry": {
                "type": "Point",
                "coordinates": [
                    11.899354755878448,
                    45.369884799320474
                ]
            }
        },
        {
            "type": "Feature",
            "properties": {
                "name": "STAZ. SERVIZIO ESSO LOLLO SNC",
                "id": "17523",
                "brand": "Esso",
                "amenity": "fuel",
                "operator": "LOLLO S.N.C. DI LOLLO ANDREA & C."
            },
            "geometry": {
                "type": "Point",
                "coordinates": [
                    11.891210898756981,
                    45.43494717723817
                ]
            }
        },
        {
            "type": "Feature",
            "properties": {
                "name": "PD via facciolati",
                "id": "22186",
                "brand": "Oil Italia",
                "amenity": "fuel",
                "operator": "OIL ITALIA SRL"
            },
            "geometry": {
                "type": "Point",
                "coordinates": [
                    11.897079572081566,
                    45.38634292343277
                ]
            }
        },
        {
            "type": "Feature",
            "properties": {
                "name": "METANO",
                "id": "28450",
                "amenity": "fuel",
                "operator": "METANO PADOVA SNC DI GRIGOLETTO ROBERTO & C."
            },
            "geometry": {
                "type": "Point",
                "coordinates": [
                    11.861318349838257,
                    45.38346688882248
                ]
            }
        },
        {
            "type": "Feature",
            "properties": {
                "name": "TAMOIL",
                "id": "19859",
                "brand": "Tamoil",
                "amenity": "fuel",
                "operator": "VALESERVICE DI VALERIA BEZZE & C. SAS"
            },
            "geometry": {
                "type": "Point",
                "coordinates": [
                    11.80559820921235,
                    45.39035631031464
                ]
            }
        },
        {
            "type": "Feature",
            "properties": {
                "name": "PADOVA-CORSO BOSTON 51",
                "id": "11757",
                "brand": "Q8",
                "amenity": "fuel",
                "operator": "SERVIZI & GESTIONI ITALIA S.R.L."
            },
            "geometry": {
                "type": "Point",
                "coordinates": [
                    11.840413212776184,
                    45.377970989535946
                ]
            }
        },
        {
            "type": "Feature",
            "properties": {
                "name": "FACCIOLATI",
                "id": "5534",
                "brand": "Total Erg",
                "amenity": "fuel",
                "operator": "GESTIONI EUROPA S.p.A."
            },
            "geometry": {
                "type": "Point",
                "coordinates": [
                    11.888137644180235,
                    45.39634323311385
                ]
            }
        },
        {
            "type": "Feature",
            "properties": {
                "name": "AGIP/ENI",
                "id": "12435",
                "brand": "Agip Eni",
                "amenity": "fuel",
                "operator": "CALLEGARO GIANLUCA"
            },
            "geometry": {
                "type": "Point",
                "coordinates": [
                    11.926474571228027,
                    45.41782430086426
                ]
            }
        }
    ]
}