{
    "type": "FeatureCollection",
    "features": [
        {
            "type": "Feature",
            "properties": {
                "name": "Montevecchi Massimo",
                "id": "19938",
                "brand": "Total Erg",
                "amenity": "fuel",
                "operator": "MONTEVECCHI MASSIMO"
            },
            "geometry": {
                "type": "Point",
                "coordinates": [
                    11.871133893728256,
                    44.28161763207372
                ]
            }
        },
        {
            "type": "Feature",
            "properties": {
                "name": "CGM",
                "id": "16916",
                "brand": "Esso",
                "amenity": "fuel",
                "operator": "C G M DI CERONI RENATO E GOLIA MICHAEL S.N.C."
            },
            "geometry": {
                "type": "Point",
                "coordinates": [
                    11.780323281614754,
                    44.22520323789321
                ]
            }
        },
        {
            "type": "Feature",
            "properties": {
                "name": "LM Carburanti",
                "id": "21871",
                "brand": "Agip Eni",
                "amenity": "fuel",
                "operator": "MELANDRI LUCA"
            },
            "geometry": {
                "type": "Point",
                "coordinates": [
                    11.85434728860855,
                    44.29780646729836
                ]
            }
        },
        {
            "type": "Feature",
            "properties": {
                "name": "2M Service - Area di servizio Tamoil",
                "id": "12414",
                "brand": "Tamoil",
                "amenity": "fuel",
                "operator": "2M SERVICE S.R.L."
            },
            "geometry": {
                "type": "Point",
                "coordinates": [
                    11.889368891716003,
                    44.29722440843803
                ]
            }
        },
        {
            "type": "Feature",
            "properties": {
                "name": "Metano Faenza",
                "id": "13642",
                "amenity": "fuel",
                "operator": "METANO FAENZA S.A.S. DI BARALLI GIORGIO & C."
            },
            "geometry": {
                "type": "Point",
                "coordinates": [
                    11.894073486328125,
                    44.30377722729678
                ]
            }
        },
        {
            "type": "Feature",
            "properties": {
                "name": "ESSO",
                "id": "16872",
                "brand": "Esso",
                "amenity": "fuel",
                "operator": "CALAMINI STEFANO"
            },
            "geometry": {
                "type": "Point",
                "coordinates": [
                    11.902777925133705,
                    44.30292572469895
                ]
            }
        },
        {
            "type": "Feature",
            "properties": {
                "name": "Enercoop",
                "id": "29757",
                "amenity": "fuel",
                "operator": "ENERCOOP ADRIATICA S.P.A."
            },
            "geometry": {
                "type": "Point",
                "coordinates": [
                    11.903793673016366,
                    44.32620362750452
                ]
            }
        },
        {
            "type": "Feature",
            "properties": {
                "name": "repsol",
                "id": "19515",
                "brand": "Repsol",
                "amenity": "fuel",
                "operator": "MIRCO E OMAR S.N.C. DI FERNIANI MIRCO E CASADIO OMAR"
            },
            "geometry": {
                "type": "Point",
                "coordinates": [
                    11.90435993289225,
                    44.281159539802914
                ]
            }
        },
        {
            "type": "Feature",
            "properties": {
                "name": "CAPRI 10",
                "id": "4838",
                "brand": "Repsol",
                "amenity": "fuel",
                "operator": "CAPRI SOCIETA' COOPERATIVA A RESPONSABILITA' LIMITATA IN SIGLA COOP. CAPRI"
            },
            "geometry": {
                "type": "Point",
                "coordinates": [
                    11.820189356803892,
                    44.31219945049411
                ]
            }
        },
        {
            "type": "Feature",
            "properties": {
                "name": "eni",
                "id": "14833",
                "brand": "Agip Eni",
                "amenity": "fuel",
                "operator": "BERTACCINI BIANCA"
            },
            "geometry": {
                "type": "Point",
                "coordinates": [
                    11.887454739485749,
                    44.28882833983006
                ]
            }
        },
        {
            "type": "Feature",
            "properties": {
                "name": "Retitalia Faenza Via Laghi",
                "id": "30617",
                "brand": "Retitalia",
                "amenity": "fuel",
                "operator": "BRIXIA FINANZIARIA S.R.L."
            },
            "geometry": {
                "type": "Point",
                "coordinates": [
                    11.87907725572586,
                    44.29268100399789
                ]
            }
        },
        {
            "type": "Feature",
            "properties": {
                "name": "CONAD SUPERSTORE \"LA FILANDA\"",
                "id": "4193",
                "brand": "CONAD",
                "amenity": "fuel",
                "operator": "SUPERMERCATO LA FILANDA DI CONTI GIANCARLO E C. SNC"
            },
            "geometry": {
                "type": "Point",
                "coordinates": [
                    11.883914917443917,
                    44.29828240641812
                ]
            }
        },
        {
            "type": "Feature",
            "properties": {
                "name": "PEZZI GIUSEPPE SNC",
                "id": "12650",
                "brand": "Agip Eni",
                "amenity": "fuel",
                "operator": "PEZZI GIUSEPPE DI PEZZI ANDREA E VINCENZO SNC"
            },
            "geometry": {
                "type": "Point",
                "coordinates": [
                    11.871657549073802,
                    44.29063793768535
                ]
            }
        },
        {
            "type": "Feature",
            "properties": {
                "name": "ESSO",
                "id": "20969",
                "brand": "Esso",
                "amenity": "fuel",
                "operator": "DISTRIBUTORE CARBURANTI DI CREMONINI GUERRINO E C. S.N.C."
            },
            "geometry": {
                "type": "Point",
                "coordinates": [
                    11.907752752304077,
                    44.27623457318599
                ]
            }
        },
        {
            "type": "Feature",
            "properties": {
                "name": "REPSOL FAENZA V.P.FRANCESCA",
                "id": "12452",
                "brand": "Repsol",
                "amenity": "fuel",
                "operator": "SIRON SRL"
            },
            "geometry": {
                "type": "Point",
                "coordinates": [
                    11.878809242605598,
                    44.29910238133798
                ]
            }
        },
        {
            "type": "Feature",
            "properties": {
                "name": "FA.GAS. SOC.A R.L.",
                "id": "30524",
                "brand": "Agip Eni",
                "amenity": "fuel",
                "operator": "FA.GAS. SOC.A R.L."
            },
            "geometry": {
                "type": "Point",
                "coordinates": [
                    11.85951493914797,
                    44.29523798331698
                ]
            }
        },
        {
            "type": "Feature",
            "properties": {
                "name": "Mengozzi Paolo e Massimo s.a.s.",
                "id": "22560",
                "brand": "Esso",
                "amenity": "fuel",
                "operator": "MENGOZZI PAOLO MASSIMO & C. S.A.S."
            },
            "geometry": {
                "type": "Point",
                "coordinates": [
                    11.790796973016311,
                    44.322914520067116
                ]
            }
        },
        {
            "type": "Feature",
            "properties": {
                "name": "visani giovanni",
                "id": "20141",
                "brand": "Repsol",
                "amenity": "fuel",
                "operator": "VISANI GIOVANNI"
            },
            "geometry": {
                "type": "Point",
                "coordinates": [
                    11.877650952619433,
                    44.292278078899045
                ]
            }
        },
        {
            "type": "Feature",
            "properties": {
                "name": "ESSO",
                "id": "17939",
                "brand": "Esso",
                "amenity": "fuel",
                "operator": "STAZIONE PORFIDI NORIO E MAX S.N.C."
            },
            "geometry": {
                "type": "Point",
                "coordinates": [
                    11.910485923290253,
                    44.32890135752109
                ]
            }
        },
        {
            "type": "Feature",
            "properties": {
                "name": "Stazione Metano",
                "id": "5200",
                "amenity": "fuel",
                "operator": "METANBOYS S.N.C. DI RAVAGLI PAOLO, LOLLI CERONI GIULIANO E MARCO"
            },
            "geometry": {
                "type": "Point",
                "coordinates": [
                    11.858489289879797,
                    44.296178339385
                ]
            }
        },
        {
            "type": "Feature",
            "properties": {
                "name": "EUROPAM FAENZA",
                "id": "25335",
                "amenity": "fuel",
                "operator": "EUROPAM S.R.L."
            },
            "geometry": {
                "type": "Point",
                "coordinates": [
                    11.893381103689649,
                    44.31570711833571
                ]
            }
        },
        {
            "type": "Feature",
            "properties": {
                "name": "ESSO",
                "id": "31888",
                "brand": "Esso",
                "amenity": "fuel",
                "operator": "MENGOZZI PAOLO"
            },
            "geometry": {
                "type": "Point",
                "coordinates": [
                    11.79081916809082,
                    44.322880960295386
                ]
            }
        },
        {
            "type": "Feature",
            "properties": {
                "name": "Settembrini Mario",
                "id": "19928",
                "brand": "Agip Eni",
                "amenity": "fuel",
                "operator": "SETTEMBRINI MARIO"
            },
            "geometry": {
                "type": "Point",
                "coordinates": [
                    11.902606052848116,
                    44.318237019868
                ]
            }
        },
        {
            "type": "Feature",
            "properties": {
                "name": "Lombini Nadia",
                "id": "22101",
                "brand": "Total Erg",
                "amenity": "fuel",
                "operator": "LOMBINI NADIA"
            },
            "geometry": {
                "type": "Point",
                "coordinates": [
                    11.86253170950931,
                    44.28279140269615
                ]
            }
        },
        {
            "type": "Feature",
            "properties": {
                "name": "Balante Vincenzo",
                "id": "19852",
                "brand": "Agip Eni",
                "amenity": "fuel",
                "operator": "BALANTE VINCENZO"
            },
            "geometry": {
                "type": "Point",
                "coordinates": [
                    11.8683035411392,
                    44.296673078985584
                ]
            }
        }
    ]
}