{
    "type": "FeatureCollection",
    "features": [
        {
            "type": "Feature",
            "properties": {
                "name": "CAMPODARSEGO - RESCHIGLIANO-VIA BASSA PRIMA",
                "id": "11759",
                "brand": "Q8",
                "amenity": "fuel",
                "operator": "SERVIZI & GESTIONI ITALIA S.R.L."
            },
            "geometry": {
                "type": "Point",
                "coordinates": [
                    11.925562449073825,
                    45.47724137640305
                ]
            }
        },
        {
            "type": "Feature",
            "properties": {
                "name": "ENI",
                "id": "18489",
                "brand": "Agip Eni",
                "amenity": "fuel",
                "operator": "B.M. CAR SNC DI BERGAMIN ENRICO E MARZARO DEVIS"
            },
            "geometry": {
                "type": "Point",
                "coordinates": [
                    11.817345544695854,
                    45.5531636582834
                ]
            }
        },
        {
            "type": "Feature",
            "properties": {
                "name": "SMP LIMENA",
                "id": "5193",
                "brand": "San Marco Petroli",
                "amenity": "fuel",
                "operator": "SAN MARCO PETROLI DISTRIBUZIONE S.R.L."
            },
            "geometry": {
                "type": "Point",
                "coordinates": [
                    11.846658961971343,
                    45.47482788620914
                ]
            }
        },
        {
            "type": "Feature",
            "properties": {
                "name": "STAZIONE DI SERVIZIO ENI",
                "id": "9748",
                "brand": "Agip Eni",
                "amenity": "fuel",
                "operator": "SBABO GUIDO"
            },
            "geometry": {
                "type": "Point",
                "coordinates": [
                    11.780172080356579,
                    45.53834832045472
                ]
            }
        },
        {
            "type": "Feature",
            "properties": {
                "name": "Limena",
                "id": "4681",
                "brand": "Esso",
                "amenity": "fuel",
                "operator": "NUOVA SIDAP  S.R.L."
            },
            "geometry": {
                "type": "Point",
                "coordinates": [
                    11.830894052982332,
                    45.46705684137239
                ]
            }
        },
        {
            "type": "Feature",
            "properties": {
                "name": "NOALOIL PV5",
                "id": "4486",
                "brand": "Noaloil",
                "amenity": "fuel",
                "operator": "NOALOIL S.P.A."
            },
            "geometry": {
                "type": "Point",
                "coordinates": [
                    11.830664724111557,
                    45.52603182672285
                ]
            }
        },
        {
            "type": "Feature",
            "properties": {
                "name": "SCOIZZATO G. SNC",
                "id": "18976",
                "brand": "Tamoil",
                "amenity": "fuel",
                "operator": "SCOIZZATO G. S.N.C. DI SCOIZZATO MIRKO & C."
            },
            "geometry": {
                "type": "Point",
                "coordinates": [
                    11.894718101852392,
                    45.50884895109064
                ]
            }
        },
        {
            "type": "Feature",
            "properties": {
                "name": "ZUIN snc",
                "id": "20826",
                "brand": "Q8",
                "amenity": "fuel",
                "operator": "ZUIN S.N.C. DI ZUIN GIANFRANCO & C."
            },
            "geometry": {
                "type": "Point",
                "coordinates": [
                    11.902594864368439,
                    45.48929402387332
                ]
            }
        },
        {
            "type": "Feature",
            "properties": {
                "name": "Noal Oil Caimi Riccardo",
                "id": "30825",
                "brand": "Noaloil",
                "amenity": "fuel",
                "operator": "CAIMI RICCARDO"
            },
            "geometry": {
                "type": "Point",
                "coordinates": [
                    11.944642994271362,
                    45.53475923125417
                ]
            }
        },
        {
            "type": "Feature",
            "properties": {
                "name": "Franzon",
                "id": "15245",
                "amenity": "fuel",
                "operator": "FRANZON FRANCESCO"
            },
            "geometry": {
                "type": "Point",
                "coordinates": [
                    11.88711182565612,
                    45.57510804865501
                ]
            }
        },
        {
            "type": "Feature",
            "properties": {
                "name": "COSTANTIN  CAMPODARSEGO",
                "id": "11279",
                "brand": "Costantin",
                "amenity": "fuel",
                "operator": "COSTANTIN DISTRIBUZIONE E SERVIZI SRL"
            },
            "geometry": {
                "type": "Point",
                "coordinates": [
                    11.906127333641054,
                    45.498157637415304
                ]
            }
        },
        {
            "type": "Feature",
            "properties": {
                "name": "ZENA sas",
                "id": "25886",
                "brand": "Esso",
                "amenity": "fuel",
                "operator": "ZENA S.A.S. DI BENVENUTI PAOLO E SPADARO LILIANA"
            },
            "geometry": {
                "type": "Point",
                "coordinates": [
                    11.91695272922516,
                    45.48007620648203
                ]
            }
        },
        {
            "type": "Feature",
            "properties": {
                "name": "A.F. PETROLI",
                "id": "12377",
                "brand": "AF Petroli",
                "amenity": "fuel",
                "operator": "A.F. PETROLI S.P.A."
            },
            "geometry": {
                "type": "Point",
                "coordinates": [
                    11.86450481414795,
                    45.46907445665605
                ]
            }
        },
        {
            "type": "Feature",
            "properties": {
                "name": "A.F. PETROLI",
                "id": "12353",
                "brand": "AF Petroli",
                "amenity": "fuel",
                "operator": "A.F. PETROLI S.P.A."
            },
            "geometry": {
                "type": "Point",
                "coordinates": [
                    11.913673399999993,
                    45.46561599302139
                ]
            }
        },
        {
            "type": "Feature",
            "properties": {
                "name": "Stazione di servizio Retitalia",
                "id": "14939",
                "brand": "Api-Ip",
                "amenity": "fuel",
                "operator": "FRANZON MARINO"
            },
            "geometry": {
                "type": "Point",
                "coordinates": [
                    11.873375549912453,
                    45.5379753458131
                ]
            }
        },
        {
            "type": "Feature",
            "properties": {
                "name": "TAMOIL CAMPOSAMPIERO",
                "id": "17584",
                "brand": "Tamoil",
                "amenity": "fuel",
                "operator": "CAMPOIL SAS DI MARCATO LUIGINO & C."
            },
            "geometry": {
                "type": "Point",
                "coordinates": [
                    11.928656548261642,
                    45.55772147400758
                ]
            }
        },
        {
            "type": "Feature",
            "properties": {
                "name": "VILLAFRANCA PADOVANA",
                "id": "5842",
                "brand": "Total Erg",
                "amenity": "fuel",
                "operator": "TotalErg SpA"
            },
            "geometry": {
                "type": "Point",
                "coordinates": [
                    11.814492775463123,
                    45.47098919046746
                ]
            }
        },
        {
            "type": "Feature",
            "properties": {
                "name": "TAMOIL R.Z. CARBURANTI SNC DI ZOPPELLARO SILVANA E C.",
                "id": "14202",
                "brand": "Tamoil",
                "amenity": "fuel",
                "operator": "R.Z. CARBURANTI SNC DI ZOPPELLARO SILVANA E C."
            },
            "geometry": {
                "type": "Point",
                "coordinates": [
                    11.821097284555435,
                    45.54461170893837
                ]
            }
        },
        {
            "type": "Feature",
            "properties": {
                "name": "REDREZZA GAS SERVICE S.N.C.",
                "id": "23290",
                "brand": "Shell",
                "amenity": "fuel",
                "operator": "REDREZZA GAS SERVICE DI REDREZZA GIOVANNI E LUCIANO & C. SNC"
            },
            "geometry": {
                "type": "Point",
                "coordinates": [
                    11.829727622336804,
                    45.50027895859074
                ]
            }
        },
        {
            "type": "Feature",
            "properties": {
                "name": "SG Carburanti",
                "id": "20364",
                "amenity": "fuel",
                "operator": "FUNGENZI MARCO"
            },
            "geometry": {
                "type": "Point",
                "coordinates": [
                    11.921095401048662,
                    45.53925361016336
                ]
            }
        },
        {
            "type": "Feature",
            "properties": {
                "name": "VILLAFRANCA PADOVANA ROMA,110 S.P.12",
                "id": "20631",
                "brand": "Q8",
                "amenity": "fuel",
                "operator": "SERVIZI & GESTIONI ITALIA S.R.L."
            },
            "geometry": {
                "type": "Point",
                "coordinates": [
                    11.801099968122799,
                    45.48973180657192
                ]
            }
        },
        {
            "type": "Feature",
            "properties": {
                "name": "6175",
                "id": "22642",
                "brand": "Tamoil",
                "amenity": "fuel",
                "operator": "T.D.M. S.R.L."
            },
            "geometry": {
                "type": "Point",
                "coordinates": [
                    11.940207481384277,
                    45.5254015683529
                ]
            }
        },
        {
            "type": "Feature",
            "properties": {
                "name": "VEGA San Giorgio delle Pertiche",
                "id": "4467",
                "brand": "Vega",
                "amenity": "fuel",
                "operator": "PARVO S.R.L."
            },
            "geometry": {
                "type": "Point",
                "coordinates": [
                    11.924060583114624,
                    45.54730653323748
                ]
            }
        },
        {
            "type": "Feature",
            "properties": {
                "name": "Casarin Roberto & C. Snc",
                "id": "13595",
                "brand": "Esso",
                "amenity": "fuel",
                "operator": "CASARIN ROBERTO & C. S.N.C."
            },
            "geometry": {
                "type": "Point",
                "coordinates": [
                    11.912178628766696,
                    45.50084253902795
                ]
            }
        },
        {
            "type": "Feature",
            "properties": {
                "name": "ENI",
                "id": "18491",
                "brand": "Agip Eni",
                "amenity": "fuel",
                "operator": "B.M. CAR SNC DI BERGAMIN ENRICO E MARZARO DEVIS"
            },
            "geometry": {
                "type": "Point",
                "coordinates": [
                    11.817345544695854,
                    45.5531636582834
                ]
            }
        },
        {
            "type": "Feature",
            "properties": {
                "name": "Borgoricco (PD)",
                "id": "23788",
                "brand": "Total Erg",
                "amenity": "fuel",
                "operator": "GESTIONI EUROPA - SOCIETA' PER AZIONI"
            },
            "geometry": {
                "type": "Point",
                "coordinates": [
                    11.939678271163983,
                    45.525714878882994
                ]
            }
        },
        {
            "type": "Feature",
            "properties": {
                "name": "Limena",
                "id": "27224",
                "brand": "Total Erg",
                "amenity": "fuel",
                "operator": "GESTIONI EUROPA - SOCIETA' PER AZIONI"
            },
            "geometry": {
                "type": "Point",
                "coordinates": [
                    11.830118894577026,
                    45.46678749053538
                ]
            }
        },
        {
            "type": "Feature",
            "properties": {
                "name": "TotalErg",
                "id": "15960",
                "brand": "Total Erg",
                "amenity": "fuel",
                "operator": "ZULIAN SNC DI ZULIAN BRUNO & C."
            },
            "geometry": {
                "type": "Point",
                "coordinates": [
                    11.90690323544311,
                    45.54031979634703
                ]
            }
        }
    ]
}