{
    "type": "FeatureCollection",
    "features": [
        {
            "type": "Feature",
            "properties": {
                "name": "FELTRE-VIA BELLUNO  52",
                "id": "11507",
                "brand": "Q8",
                "amenity": "fuel",
                "operator": "SERVIZI & GESTIONI ITALIA S.R.L."
            },
            "geometry": {
                "type": "Point",
                "coordinates": [
                    11.924890029430344,
                    46.02441862396798
                ]
            }
        },
        {
            "type": "Feature",
            "properties": {
                "name": "Feltregas",
                "id": "8473",
                "amenity": "fuel",
                "operator": "FELTREGAS DI ARBOIT CRISTINA E FRANCESCA S.N.C."
            },
            "geometry": {
                "type": "Point",
                "coordinates": [
                    11.925774721565176,
                    46.012043538052495
                ]
            }
        },
        {
            "type": "Feature",
            "properties": {
                "name": "TOTAL ERG",
                "id": "19346",
                "brand": "Total Erg",
                "amenity": "fuel",
                "operator": "D'INCA' DIEGO E CECCHET RAFFAELLA S.N.C."
            },
            "geometry": {
                "type": "Point",
                "coordinates": [
                    11.932804045230114,
                    46.008852174297836
                ]
            }
        },
        {
            "type": "Feature",
            "properties": {
                "name": "Repsol_Feltre_(BL005)",
                "id": "10114",
                "brand": "Repsol",
                "amenity": "fuel",
                "operator": "REPSOL ITALIA S.P.A."
            },
            "geometry": {
                "type": "Point",
                "coordinates": [
                    11.87434047460556,
                    46.01434181193882
                ]
            }
        },
        {
            "type": "Feature",
            "properties": {
                "name": "Tamoil",
                "id": "18414",
                "brand": "Tamoil",
                "amenity": "fuel",
                "operator": "CRESTANI GIUSEPPE"
            },
            "geometry": {
                "type": "Point",
                "coordinates": [
                    11.910594354933778,
                    46.01443585167458
                ]
            }
        },
        {
            "type": "Feature",
            "properties": {
                "name": "PV 3040 Eni rete Feltre",
                "id": "31016",
                "brand": "Agip Eni",
                "amenity": "fuel",
                "operator": "ENI RETE OIL&NONOIL S.P.A."
            },
            "geometry": {
                "type": "Point",
                "coordinates": [
                    11.923167931213358,
                    46.023457852016776
                ]
            }
        },
        {
            "type": "Feature",
            "properties": {
                "name": "api",
                "id": "27757",
                "brand": "Api-Ip",
                "amenity": "fuel",
                "operator": "GROVA CALOGERO"
            },
            "geometry": {
                "type": "Point",
                "coordinates": [
                    11.899888222000982,
                    46.01830039382753
                ]
            }
        },
        {
            "type": "Feature",
            "properties": {
                "name": "BEYFIN",
                "id": "21329",
                "amenity": "fuel",
                "operator": "PELLINI ELVIO"
            },
            "geometry": {
                "type": "Point",
                "coordinates": [
                    11.826090064967502,
                    46.00239322343165
                ]
            }
        },
        {
            "type": "Feature",
            "properties": {
                "name": "Feltre",
                "id": "4647",
                "brand": "Esso",
                "amenity": "fuel",
                "operator": "NUOVA SIDAP  S.R.L."
            },
            "geometry": {
                "type": "Point",
                "coordinates": [
                    11.90591275691986,
                    46.021405228009606
                ]
            }
        },
        {
            "type": "Feature",
            "properties": {
                "name": "X8 oil s.a.s",
                "id": "23336",
                "brand": "Agip Eni",
                "amenity": "fuel",
                "operator": "X8 OIL DI PEROTTO RUDY S.A.S."
            },
            "geometry": {
                "type": "Point",
                "coordinates": [
                    11.923178660049418,
                    46.02342805314714
                ]
            }
        },
        {
            "type": "Feature",
            "properties": {
                "name": "X8 OIL s.a.s.",
                "id": "8429",
                "brand": "Total Erg",
                "amenity": "fuel",
                "operator": "X8 OIL DI PEROTTO RUDY S.A.S."
            },
            "geometry": {
                "type": "Point",
                "coordinates": [
                    11.881129145622253,
                    46.038747206219576
                ]
            }
        },
        {
            "type": "Feature",
            "properties": {
                "name": "STAZIONE IP",
                "id": "27059",
                "brand": "Api-Ip",
                "amenity": "fuel",
                "operator": "CARBOLUBE DI VIECELI PIERLUIGI & C. S.A.S."
            },
            "geometry": {
                "type": "Point",
                "coordinates": [
                    11.786409154689977,
                    46.02041162981708
                ]
            }
        },
        {
            "type": "Feature",
            "properties": {
                "name": "FELTRE-VIA D.ALIGHIERI 25",
                "id": "11504",
                "brand": "Q8",
                "amenity": "fuel",
                "operator": "SERVIZI & GESTIONI ITALIA S.R.L."
            },
            "geometry": {
                "type": "Point",
                "coordinates": [
                    11.889843673610699,
                    46.018708733222496
                ]
            }
        },
        {
            "type": "Feature",
            "properties": {
                "name": "Marin Stefano",
                "id": "27730",
                "brand": "Api-Ip",
                "amenity": "fuel",
                "operator": "MARIN STEFANO"
            },
            "geometry": {
                "type": "Point",
                "coordinates": [
                    11.91198799384847,
                    46.033460011159804
                ]
            }
        }
    ]
}