{
    "type": "FeatureCollection",
    "features": [
        {
            "type": "Feature",
            "properties": {
                "name": "FORLI' VIALE ITALIA 105 B",
                "id": "6598",
                "brand": "Q8",
                "amenity": "fuel",
                "operator": "SERVIZI & GESTIONI ITALIA srl"
            },
            "geometry": {
                "type": "Point",
                "coordinates": [
                    12.034222260117533,
                    44.22875101897796
                ]
            }
        },
        {
            "type": "Feature",
            "properties": {
                "name": "FORLI VIALE ROMA 130",
                "id": "6596",
                "brand": "Q8",
                "amenity": "fuel",
                "operator": "SERVIZI & GESTIONI ITALIA srl"
            },
            "geometry": {
                "type": "Point",
                "coordinates": [
                    12.058682196400921,
                    44.21440536570369
                ]
            }
        },
        {
            "type": "Feature",
            "properties": {
                "name": "PIERI LUCIANO",
                "id": "22928",
                "brand": "Agip Eni",
                "amenity": "fuel",
                "operator": "PIERI LUCIANO"
            },
            "geometry": {
                "type": "Point",
                "coordinates": [
                    12.076580375432968,
                    44.22400338051741
                ]
            }
        },
        {
            "type": "Feature",
            "properties": {
                "name": "CAPRI 9",
                "id": "10867",
                "brand": "Repsol",
                "amenity": "fuel",
                "operator": "CAPRI SOCIETA' COOPERATIVA A RESPONSABILITA' LIMITATA IN SIGLA COOP. CAPRI"
            },
            "geometry": {
                "type": "Point",
                "coordinates": [
                    12.012680768966675,
                    44.236655724486006
                ]
            }
        },
        {
            "type": "Feature",
            "properties": {
                "name": "FORLI' - RAVEGNANA",
                "id": "30954",
                "brand": "Api-Ip",
                "amenity": "fuel",
                "operator": "IP SERVICES S.R.L."
            },
            "geometry": {
                "type": "Point",
                "coordinates": [
                    12.071751720237671,
                    44.24190192153608
                ]
            }
        },
        {
            "type": "Feature",
            "properties": {
                "name": "FO FIRENZE",
                "id": "17666",
                "brand": "Api-Ip",
                "amenity": "fuel",
                "operator": "IP SERVICES S.R.L."
            },
            "geometry": {
                "type": "Point",
                "coordinates": [
                    12.026850379133293,
                    44.22330768857352
                ]
            }
        },
        {
            "type": "Feature",
            "properties": {
                "name": "Pieraccini e Prati SNC",
                "id": "13920",
                "brand": "Agip Eni",
                "amenity": "fuel",
                "operator": "PIERACCINI & PRATI E C. - S.N.C."
            },
            "geometry": {
                "type": "Point",
                "coordinates": [
                    12.057081131872451,
                    44.21508236288469
                ]
            }
        },
        {
            "type": "Feature",
            "properties": {
                "name": "COSTANZO II",
                "id": "26399",
                "brand": "Api-Ip",
                "amenity": "fuel",
                "operator": "S.C.E.L.F. SRL"
            },
            "geometry": {
                "type": "Point",
                "coordinates": [
                    12.081286311149595,
                    44.23404214440792
                ]
            }
        },
        {
            "type": "Feature",
            "properties": {
                "name": "AGIP",
                "id": "5037",
                "brand": "Agip Eni",
                "amenity": "fuel",
                "operator": "FAST SERVICE DI GIOVANNINI DAVIDE"
            },
            "geometry": {
                "type": "Point",
                "coordinates": [
                    11.989246308803558,
                    44.24307868082325
                ]
            }
        },
        {
            "type": "Feature",
            "properties": {
                "name": "GAS 9.4 SRL",
                "id": "29157",
                "brand": "Agip Eni",
                "amenity": "fuel",
                "operator": "GAS 9.4 S.R.L."
            },
            "geometry": {
                "type": "Point",
                "coordinates": [
                    12.076597809791563,
                    44.244667930215115
                ]
            }
        },
        {
            "type": "Feature",
            "properties": {
                "name": "PRATI ANGELO",
                "id": "8264",
                "brand": "Agip Eni",
                "amenity": "fuel",
                "operator": "PRATI ANGELO"
            },
            "geometry": {
                "type": "Point",
                "coordinates": [
                    12.054300606250763,
                    44.216600828943804
                ]
            }
        },
        {
            "type": "Feature",
            "properties": {
                "name": "Donori Loris - Totalerg",
                "id": "11075",
                "brand": "Total Erg",
                "amenity": "fuel",
                "operator": "DONORI LORIS"
            },
            "geometry": {
                "type": "Point",
                "coordinates": [
                    12.011641412973404,
                    44.23397834083114
                ]
            }
        },
        {
            "type": "Feature",
            "properties": {
                "name": "GREGGI DOMENICO di GREGGI GIANLUCA",
                "id": "16161",
                "brand": "Agip Eni",
                "amenity": "fuel",
                "operator": "GREGGI DOMENICO DI GREGGI GIANLUCA"
            },
            "geometry": {
                "type": "Point",
                "coordinates": [
                    12.030066847801207,
                    44.2281707747405
                ]
            }
        },
        {
            "type": "Feature",
            "properties": {
                "name": "S.CHIARA",
                "id": "26405",
                "brand": "Api-Ip",
                "amenity": "fuel",
                "operator": "S.C.E.L.F. SRL"
            },
            "geometry": {
                "type": "Point",
                "coordinates": [
                    12.039509564638138,
                    44.22969248626791
                ]
            }
        },
        {
            "type": "Feature",
            "properties": {
                "name": "DISTRIBUTORE AVIA FORLI'",
                "id": "14457",
                "amenity": "fuel",
                "operator": "NUOVA C.L.A.R.  S.R.L."
            },
            "geometry": {
                "type": "Point",
                "coordinates": [
                    12.080342588954863,
                    44.24613676419343
                ]
            }
        },
        {
            "type": "Feature",
            "properties": {
                "name": "Alessandro Valgiusti",
                "id": "29206",
                "brand": "Q8",
                "amenity": "fuel",
                "operator": "VALGIUSTI ALESSANDRO"
            },
            "geometry": {
                "type": "Point",
                "coordinates": [
                    12.089708447456358,
                    44.245194403804774
                ]
            }
        },
        {
            "type": "Feature",
            "properties": {
                "name": "REPSOL",
                "id": "8382",
                "brand": "Repsol",
                "amenity": "fuel",
                "operator": "MAGNANI MAURO"
            },
            "geometry": {
                "type": "Point",
                "coordinates": [
                    12.017433643341064,
                    44.23170135430596
                ]
            }
        },
        {
            "type": "Feature",
            "properties": {
                "name": "PV 5964",
                "id": "25929",
                "brand": "Agip Eni",
                "amenity": "fuel",
                "operator": "GESTIONI INNOVATIVE ITALIA S.R.L."
            },
            "geometry": {
                "type": "Point",
                "coordinates": [
                    12.065954726983591,
                    44.238456956376886
                ]
            }
        },
        {
            "type": "Feature",
            "properties": {
                "name": "_robgas pv3",
                "id": "4581",
                "amenity": "fuel",
                "operator": "ROBGAS COMMERCIALE S.R.L."
            },
            "geometry": {
                "type": "Point",
                "coordinates": [
                    12.099798917770386,
                    44.25982695149665
                ]
            }
        },
        {
            "type": "Feature",
            "properties": {
                "name": "MATTEI",
                "id": "26402",
                "brand": "Api-Ip",
                "amenity": "fuel",
                "operator": "S.C.E.L.F. SRL"
            },
            "geometry": {
                "type": "Point",
                "coordinates": [
                    12.082048058509827,
                    44.215624645341286
                ]
            }
        },
        {
            "type": "Feature",
            "properties": {
                "name": "agip",
                "id": "19716",
                "brand": "Agip Eni",
                "amenity": "fuel",
                "operator": "MERENDI GIUSEPPE"
            },
            "geometry": {
                "type": "Point",
                "coordinates": [
                    12.03252733722013,
                    44.23429530289653
                ]
            }
        },
        {
            "type": "Feature",
            "properties": {
                "name": "STAZIONE DI RIFORNIMENTO ENI",
                "id": "13760",
                "brand": "Agip Eni",
                "amenity": "fuel",
                "operator": "F.LLI BARTOLUCCI S.N.C. DI ANDREA ED ALVERO"
            },
            "geometry": {
                "type": "Point",
                "coordinates": [
                    12.066280022263529,
                    44.22864338881068
                ]
            }
        },
        {
            "type": "Feature",
            "properties": {
                "name": "METANO SCHIAVONIA SNC",
                "id": "11128",
                "amenity": "fuel",
                "operator": "METANO SCHIAVONIA  S.N.C. DI CARINI MARCO E C."
            },
            "geometry": {
                "type": "Point",
                "coordinates": [
                    12.02054299414158,
                    44.23539103525638
                ]
            }
        },
        {
            "type": "Feature",
            "properties": {
                "name": "ENERGIA FLUIDA",
                "id": "18818",
                "brand": "Energia Fluida",
                "amenity": "fuel",
                "operator": "BONDI ALESSANDRO"
            },
            "geometry": {
                "type": "Point",
                "coordinates": [
                    12.068824768066406,
                    44.24053206495151
                ]
            }
        },
        {
            "type": "Feature",
            "properties": {
                "name": "LAMBRUSCHI ROMANO & C. SNC",
                "id": "13469",
                "brand": "Tamoil",
                "amenity": "fuel",
                "operator": "LAMBRUSCHI ROMANO & C. - SOCIETA' IN NOME COLLETTIVO"
            },
            "geometry": {
                "type": "Point",
                "coordinates": [
                    12.020719349384308,
                    44.2301807517776
                ]
            }
        },
        {
            "type": "Feature",
            "properties": {
                "name": "BMB CARBURANTI",
                "id": "11060",
                "brand": "Agip Eni",
                "amenity": "fuel",
                "operator": "B.M.B. CARBURANTI S.N.C. DI BERTONI MASSIMO E C."
            },
            "geometry": {
                "type": "Point",
                "coordinates": [
                    12.08799183368683,
                    44.240641210556646
                ]
            }
        },
        {
            "type": "Feature",
            "properties": {
                "name": "STAZIONE AGIP",
                "id": "14332",
                "brand": "Agip Eni",
                "amenity": "fuel",
                "operator": "CATANIA NICOLA"
            },
            "geometry": {
                "type": "Point",
                "coordinates": [
                    12.040991102039698,
                    44.21622865837178
                ]
            }
        },
        {
            "type": "Feature",
            "properties": {
                "name": "METANO FORLI'",
                "id": "10837",
                "amenity": "fuel",
                "operator": "ZANNONI S.R.L."
            },
            "geometry": {
                "type": "Point",
                "coordinates": [
                    12.096063941717146,
                    44.255559981411146
                ]
            }
        },
        {
            "type": "Feature",
            "properties": {
                "name": "caroli a e scavone b snc",
                "id": "5098",
                "brand": "Total Erg",
                "amenity": "fuel",
                "operator": "CAROLI ALESSANDRO E SCAVONE BRUNETTA S.N.C."
            },
            "geometry": {
                "type": "Point",
                "coordinates": [
                    12.059809863567352,
                    44.214291642147224
                ]
            }
        }
    ]
}