{
    "type": "FeatureCollection",
    "features": [
        {
            "type": "Feature",
            "properties": {
                "name": "ADRIA VIA MONSIGNOR POZZATO 10",
                "id": "6473",
                "brand": "Q8",
                "amenity": "fuel",
                "operator": "SERVIZI & GESTIONI ITALIA srl"
            },
            "geometry": {
                "type": "Point",
                "coordinates": [
                    12.068316803704874,
                    45.052978433825615
                ]
            }
        },
        {
            "type": "Feature",
            "properties": {
                "name": "AGHENIE CONSTANTIN &C.S.N.C.",
                "id": "4961",
                "amenity": "fuel",
                "operator": "AGHENIE CONSTANTIN & C. SNC IN SIGLA C.D. S.N.C."
            },
            "geometry": {
                "type": "Point",
                "coordinates": [
                    12.032057046890259,
                    45.061302643198644
                ]
            }
        },
        {
            "type": "Feature",
            "properties": {
                "name": "RAVARRO ROSSANO",
                "id": "15893",
                "brand": "Api-Ip",
                "amenity": "fuel",
                "operator": "RAVARRO ROSSANO"
            },
            "geometry": {
                "type": "Point",
                "coordinates": [
                    12.059891670942307,
                    45.05795558392544
                ]
            }
        },
        {
            "type": "Feature",
            "properties": {
                "name": "LORO.FLLI SPA",
                "id": "29010",
                "brand": "Loro",
                "amenity": "fuel",
                "operator": "LORO F.LLI-S.P.A."
            },
            "geometry": {
                "type": "Point",
                "coordinates": [
                    12.06724762916565,
                    45.04974720314281
                ]
            }
        },
        {
            "type": "Feature",
            "properties": {
                "name": "PR  CARBURANTI",
                "id": "12964",
                "amenity": "fuel",
                "operator": "PREO & RIGON - SOCIETA' IN NOME COLLETTIVO"
            },
            "geometry": {
                "type": "Point",
                "coordinates": [
                    12.072158753871918,
                    45.03861095091345
                ]
            }
        },
        {
            "type": "Feature",
            "properties": {
                "name": "LORO F.LLI S.P.A.",
                "id": "25450",
                "amenity": "fuel",
                "operator": "F.LLI MANCIN SRL"
            },
            "geometry": {
                "type": "Point",
                "coordinates": [
                    12.058495581150055,
                    45.077850143293134
                ]
            }
        },
        {
            "type": "Feature",
            "properties": {
                "name": "UGA",
                "id": "28041",
                "amenity": "fuel",
                "operator": "LA FENICE DI POZZATI FERRUCCIO & C S.A.S."
            },
            "geometry": {
                "type": "Point",
                "coordinates": [
                    12.100096412563742,
                    45.034090183183366
                ]
            }
        },
        {
            "type": "Feature",
            "properties": {
                "name": "ADRIA",
                "id": "5883",
                "brand": "Total Erg",
                "amenity": "fuel",
                "operator": "TotalErg SpA"
            },
            "geometry": {
                "type": "Point",
                "coordinates": [
                    12.128053009925909,
                    45.05167394291145
                ]
            }
        },
        {
            "type": "Feature",
            "properties": {
                "name": "BERRA",
                "id": "6907",
                "brand": "Ies",
                "amenity": "fuel",
                "operator": "IES ITALIANA ENERGIA E SERVIZI S.P.A."
            },
            "geometry": {
                "type": "Point",
                "coordinates": [
                    11.972986373016397,
                    44.97209137787379
                ]
            }
        },
        {
            "type": "Feature",
            "properties": {
                "name": "PR",
                "id": "12967",
                "amenity": "fuel",
                "operator": "PREO & RIGON - SOCIETA' IN NOME COLLETTIVO"
            },
            "geometry": {
                "type": "Point",
                "coordinates": [
                    12.03825831413269,
                    44.9939111080598
                ]
            }
        },
        {
            "type": "Feature",
            "properties": {
                "name": "PR",
                "id": "12961",
                "amenity": "fuel",
                "operator": "PREO & RIGON - SOCIETA' IN NOME COLLETTIVO"
            },
            "geometry": {
                "type": "Point",
                "coordinates": [
                    12.097808718681334,
                    45.004590289601545
                ]
            }
        },
        {
            "type": "Feature",
            "properties": {
                "name": "ENI STATION",
                "id": "29266",
                "brand": "Agip Eni",
                "amenity": "fuel",
                "operator": "CURINA ALESSIO"
            },
            "geometry": {
                "type": "Point",
                "coordinates": [
                    11.96106567978859,
                    44.96898692168845
                ]
            }
        },
        {
            "type": "Feature",
            "properties": {
                "name": "ADRIA-P.LE ROVIGNO 2",
                "id": "11829",
                "brand": "Q8",
                "amenity": "fuel",
                "operator": "SERVIZI & GESTIONI ITALIA S.R.L."
            },
            "geometry": {
                "type": "Point",
                "coordinates": [
                    12.054820954799654,
                    45.04411699772213
                ]
            }
        },
        {
            "type": "Feature",
            "properties": {
                "name": "LORO F.LLI SPA",
                "id": "29006",
                "brand": "Loro",
                "amenity": "fuel",
                "operator": "LORO F.LLI-S.P.A."
            },
            "geometry": {
                "type": "Point",
                "coordinates": [
                    11.958320438861847,
                    44.992065861845084
                ]
            }
        },
        {
            "type": "Feature",
            "properties": {
                "name": "CREPALDI & CREPALDI S.A.S. DI CREPALDI MASSIMO E RENZO & C",
                "id": "13508",
                "brand": "Agip Eni",
                "amenity": "fuel",
                "operator": "CREPALDI & CREPALDI S.A.S. DI CREPALDI MASSIMO E RENZO & C"
            },
            "geometry": {
                "type": "Point",
                "coordinates": [
                    12.060758787866234,
                    45.05833773123809
                ]
            }
        }
    ]
}