{
    "type": "FeatureCollection",
    "features": [
        {
            "type": "Feature",
            "properties": {
                "name": "Viterbo Via Cassia Sud",
                "id": "24643",
                "brand": "Total Erg",
                "amenity": "fuel",
                "operator": "GESTIONI EUROPA - SOCIETA' PER AZIONI"
            },
            "geometry": {
                "type": "Point",
                "coordinates": [
                    12.107869684696198,
                    42.40743260852877
                ]
            }
        },
        {
            "type": "Feature",
            "properties": {
                "name": "POMPEI PAOLO",
                "id": "15599",
                "amenity": "fuel",
                "operator": "POMPEI PAOLO"
            },
            "geometry": {
                "type": "Point",
                "coordinates": [
                    12.049956433475018,
                    42.322471978255955
                ]
            }
        },
        {
            "type": "Feature",
            "properties": {
                "name": "UGA",
                "id": "17437",
                "amenity": "fuel",
                "operator": "VESTRI GIOVANNI"
            },
            "geometry": {
                "type": "Point",
                "coordinates": [
                    12.063129097223282,
                    42.423290597821584
                ]
            }
        },
        {
            "type": "Feature",
            "properties": {
                "name": "distributore carburanti gas",
                "id": "31974",
                "amenity": "fuel",
                "operator": "PAGLIARI MADDALENA"
            },
            "geometry": {
                "type": "Point",
                "coordinates": [
                    12.062318209976183,
                    42.37276909545829
                ]
            }
        },
        {
            "type": "Feature",
            "properties": {
                "name": "POMPA BIANCA",
                "id": "18741",
                "amenity": "fuel",
                "operator": "GRASSI PAOLA"
            },
            "geometry": {
                "type": "Point",
                "coordinates": [
                    12.092299903292997,
                    42.30103874534751
                ]
            }
        },
        {
            "type": "Feature",
            "properties": {
                "name": "VITERBO",
                "id": "23214",
                "brand": "Esso",
                "amenity": "fuel",
                "operator": "PENTA PETROLI SRL"
            },
            "geometry": {
                "type": "Point",
                "coordinates": [
                    12.07982450723648,
                    42.422482374493924
                ]
            }
        },
        {
            "type": "Feature",
            "properties": {
                "name": "ENERPETROLI - BERSAGLIERI",
                "id": "23333",
                "brand": "Enerpetroli",
                "amenity": "fuel",
                "operator": "ENERPETROLI S.R.L."
            },
            "geometry": {
                "type": "Point",
                "coordinates": [
                    12.10391879081726,
                    42.41051026213288
                ]
            }
        },
        {
            "type": "Feature",
            "properties": {
                "name": "Viterbo Vico Squarano",
                "id": "30352",
                "amenity": "fuel",
                "operator": "PENTA PETROLI SRL"
            },
            "geometry": {
                "type": "Point",
                "coordinates": [
                    12.1007564663887,
                    42.41128972684579
                ]
            }
        },
        {
            "type": "Feature",
            "properties": {
                "name": "STAZIONE DI SERVIZIO IP DI SAVERI DAVIDE",
                "id": "30541",
                "brand": "Api-Ip",
                "amenity": "fuel",
                "operator": "SAVERI DAVIDE"
            },
            "geometry": {
                "type": "Point",
                "coordinates": [
                    12.054512347290824,
                    42.321941302905216
                ]
            }
        },
        {
            "type": "Feature",
            "properties": {
                "name": "VT BAGNI",
                "id": "24189",
                "brand": "Total Erg",
                "amenity": "fuel",
                "operator": "TIBER S.R.L."
            },
            "geometry": {
                "type": "Point",
                "coordinates": [
                    12.084048986434937,
                    42.41912819572395
                ]
            }
        },
        {
            "type": "Feature",
            "properties": {
                "name": "VITERBO VIA DIAZ",
                "id": "6662",
                "brand": "Q8",
                "amenity": "fuel",
                "operator": "SERVIZI & GESTIONI ITALIA srl"
            },
            "geometry": {
                "type": "Point",
                "coordinates": [
                    12.10964757402769,
                    42.412062723228466
                ]
            }
        },
        {
            "type": "Feature",
            "properties": {
                "name": "TIBER",
                "id": "30916",
                "amenity": "fuel",
                "operator": "BERNARDI LUCA"
            },
            "geometry": {
                "type": "Point",
                "coordinates": [
                    12.083646655082703,
                    42.305750622655665
                ]
            }
        },
        {
            "type": "Feature",
            "properties": {
                "name": "PV ENERPETROLI-VETRALLA AURELIA",
                "id": "22280",
                "brand": "Enerpetroli",
                "amenity": "fuel",
                "operator": "ENERPETROLI S.R.L."
            },
            "geometry": {
                "type": "Point",
                "coordinates": [
                    12.049897760152817,
                    42.32296448841576
                ]
            }
        },
        {
            "type": "Feature",
            "properties": {
                "name": "VITERBO - ARMANDO DIAZ",
                "id": "25074",
                "brand": "Api-Ip",
                "amenity": "fuel",
                "operator": "IP SERVICES S.R.L."
            },
            "geometry": {
                "type": "Point",
                "coordinates": [
                    12.10914827976228,
                    42.411715842575646
                ]
            }
        },
        {
            "type": "Feature",
            "properties": {
                "name": "ENI SPA",
                "id": "18784",
                "brand": "Agip Eni",
                "amenity": "fuel",
                "operator": "TANILLI PAOLO"
            },
            "geometry": {
                "type": "Point",
                "coordinates": [
                    12.109858204786178,
                    42.413464634617696
                ]
            }
        },
        {
            "type": "Feature",
            "properties": {
                "name": "VITERBO CAPOCCI",
                "id": "30433",
                "brand": "Total Erg",
                "amenity": "fuel",
                "operator": "TIBER S.R.L."
            },
            "geometry": {
                "type": "Point",
                "coordinates": [
                    12.110263174868807,
                    42.418621189946286
                ]
            }
        },
        {
            "type": "Feature",
            "properties": {
                "name": "VITERBO 2000",
                "id": "13009",
                "brand": "Agip Eni",
                "amenity": "fuel",
                "operator": "VITERBO 2000 S.N.C. DI PANCIANESCHI FABIO & C."
            },
            "geometry": {
                "type": "Point",
                "coordinates": [
                    12.096026390790938,
                    42.420024773009644
                ]
            }
        },
        {
            "type": "Feature",
            "properties": {
                "name": "Pit Stop Service",
                "id": "9468",
                "brand": "Shell",
                "amenity": "fuel",
                "operator": "MIMOSA DUE S.R.L."
            },
            "geometry": {
                "type": "Point",
                "coordinates": [
                    12.126229886383044,
                    42.376161419030105
                ]
            }
        },
        {
            "type": "Feature",
            "properties": {
                "name": "VITERBO PIETRARE",
                "id": "30347",
                "amenity": "fuel",
                "operator": "PENTA PETROLI SRL"
            },
            "geometry": {
                "type": "Point",
                "coordinates": [
                    12.11057335138321,
                    42.40860433494882
                ]
            }
        },
        {
            "type": "Feature",
            "properties": {
                "name": "Cura di Vetralla",
                "id": "28467",
                "brand": "Cancellieri carburanti",
                "amenity": "fuel",
                "operator": "CANCELLIERI CARBURANTI S.R.L."
            },
            "geometry": {
                "type": "Point",
                "coordinates": [
                    12.075852155685425,
                    42.30949566889075
                ]
            }
        }
    ]
}