{
    "type": "FeatureCollection",
    "features": [
        {
            "type": "Feature",
            "properties": {
                "name": "Servizio Total di Lazzarini Flavio",
                "id": "22618",
                "brand": "Total Erg",
                "amenity": "fuel",
                "operator": "LAZZARINI FLAVIO"
            },
            "geometry": {
                "type": "Point",
                "coordinates": [
                    12.062457375779788,
                    44.12943267345459
                ]
            }
        },
        {
            "type": "Feature",
            "properties": {
                "name": "STAZIONE DI SERVIZIO BIDENTE",
                "id": "10836",
                "brand": "Zannoni",
                "amenity": "fuel",
                "operator": "ZANNONI S.R.L."
            },
            "geometry": {
                "type": "Point",
                "coordinates": [
                    12.074587494134903,
                    44.16490506045403
                ]
            }
        },
        {
            "type": "Feature",
            "properties": {
                "name": "Beyfin",
                "id": "10505",
                "amenity": "fuel",
                "operator": "DISTRIBUTORE CARBURANTI DI CREMONINI GUERRINO E C. S.N.C."
            },
            "geometry": {
                "type": "Point",
                "coordinates": [
                    11.99774220585823,
                    44.19686197448613
                ]
            }
        },
        {
            "type": "Feature",
            "properties": {
                "name": "Gpower",
                "id": "27731",
                "amenity": "fuel",
                "operator": "G POWER DI BISERNI GIORGIO"
            },
            "geometry": {
                "type": "Point",
                "coordinates": [
                    11.981051690807362,
                    44.10894022530951
                ]
            }
        },
        {
            "type": "Feature",
            "properties": {
                "name": "Stazione di servizio IP di Fattini Giuseppe",
                "id": "10802",
                "brand": "Api-Ip",
                "amenity": "fuel",
                "operator": "FATTINI GIUSEPPE"
            },
            "geometry": {
                "type": "Point",
                "coordinates": [
                    12.061556741901656,
                    44.13373641249147
                ]
            }
        },
        {
            "type": "Feature",
            "properties": {
                "name": "MELDOLA",
                "id": "26401",
                "brand": "Api-Ip",
                "amenity": "fuel",
                "operator": "S.C.E.L.F. SRL"
            },
            "geometry": {
                "type": "Point",
                "coordinates": [
                    12.061533036991024,
                    44.12244651007528
                ]
            }
        },
        {
            "type": "Feature",
            "properties": {
                "name": "STAZIONE DI SERVIZIO ESSO",
                "id": "10734",
                "brand": "Esso",
                "amenity": "fuel",
                "operator": "F.LLI GALASSI DI GALASSI STEFANIA E C. - S.N.C."
            },
            "geometry": {
                "type": "Point",
                "coordinates": [
                    12.074969708919525,
                    44.20755003665053
                ]
            }
        },
        {
            "type": "Feature",
            "properties": {
                "name": "PV 15916",
                "id": "25927",
                "brand": "Agip Eni",
                "amenity": "fuel",
                "operator": "GESTIONI INNOVATIVE ITALIA S.R.L."
            },
            "geometry": {
                "type": "Point",
                "coordinates": [
                    12.050848603248596,
                    44.207956869620276
                ]
            }
        },
        {
            "type": "Feature",
            "properties": {
                "name": "ESSO di Boattini Angela",
                "id": "20997",
                "brand": "Esso",
                "amenity": "fuel",
                "operator": "BOATTINI ANGELA"
            },
            "geometry": {
                "type": "Point",
                "coordinates": [
                    11.981083005666733,
                    44.09844179063157
                ]
            }
        },
        {
            "type": "Feature",
            "properties": {
                "name": "Stazione di Servizio EGO",
                "id": "10123",
                "brand": "Ego",
                "amenity": "fuel",
                "operator": "ATENA S.R.L."
            },
            "geometry": {
                "type": "Point",
                "coordinates": [
                    12.059495453360228,
                    44.13042258983052
                ]
            }
        },
        {
            "type": "Feature",
            "properties": {
                "name": "TOTAL ERG",
                "id": "9170",
                "brand": "Total Erg",
                "amenity": "fuel",
                "operator": "DUE D S.A.S. DI D'AMICO ALFIO E FIGLIO"
            },
            "geometry": {
                "type": "Point",
                "coordinates": [
                    12.018505856394768,
                    44.213185845705645
                ]
            }
        },
        {
            "type": "Feature",
            "properties": {
                "name": "STAZIONE DI SERVIZIO ENI AGIP",
                "id": "15590",
                "brand": "Agip Eni",
                "amenity": "fuel",
                "operator": "SARAGONI FIORENZO"
            },
            "geometry": {
                "type": "Point",
                "coordinates": [
                    12.020673914086158,
                    44.197836038222775
                ]
            }
        },
        {
            "type": "Feature",
            "properties": {
                "name": "STAZIONE ESSO",
                "id": "13704",
                "brand": "Esso",
                "amenity": "fuel",
                "operator": "MONTANARI IVAN"
            },
            "geometry": {
                "type": "Point",
                "coordinates": [
                    12.033304274082182,
                    44.21157767454112
                ]
            }
        },
        {
            "type": "Feature",
            "properties": {
                "name": "FORLI'-V.LE ROMA 152",
                "id": "11592",
                "brand": "Q8",
                "amenity": "fuel",
                "operator": "SERVIZI & GESTIONI ITALIA S.R.L."
            },
            "geometry": {
                "type": "Point",
                "coordinates": [
                    12.06177277050017,
                    44.21314232577458
                ]
            }
        },
        {
            "type": "Feature",
            "properties": {
                "name": "Q8",
                "id": "4217",
                "brand": "Q8",
                "amenity": "fuel",
                "operator": "CASALI S.N.C. DI CASALI MAURIZIO"
            },
            "geometry": {
                "type": "Point",
                "coordinates": [
                    12.040087580680847,
                    44.20805761608845
                ]
            }
        },
        {
            "type": "Feature",
            "properties": {
                "name": "ESSO",
                "id": "12922",
                "brand": "Esso",
                "amenity": "fuel",
                "operator": "CANGINI GABRIELE"
            },
            "geometry": {
                "type": "Point",
                "coordinates": [
                    11.953611820936205,
                    44.17847535688146
                ]
            }
        },
        {
            "type": "Feature",
            "properties": {
                "name": "SUPER SERVIZIO di Capacci Giorgio",
                "id": "12103",
                "amenity": "fuel",
                "operator": "CAPACCI GIORGIO"
            },
            "geometry": {
                "type": "Point",
                "coordinates": [
                    12.054769992828367,
                    44.10948028685179
                ]
            }
        },
        {
            "type": "Feature",
            "properties": {
                "name": "METANAUTO LA ROCCA",
                "id": "14180",
                "amenity": "fuel",
                "operator": "METANAUTO LA ROCCA DI ROVINELLI GIORGIO E CALBOLI PAOLO S.N.C."
            },
            "geometry": {
                "type": "Point",
                "coordinates": [
                    12.103037685155869,
                    44.19739329876489
                ]
            }
        },
        {
            "type": "Feature",
            "properties": {
                "name": "GEP CELLI GIULIANO SRL PV FORLI'",
                "id": "4309",
                "brand": "Gep carburanti",
                "amenity": "fuel",
                "operator": "CELLI GIULIANO S.R.L."
            },
            "geometry": {
                "type": "Point",
                "coordinates": [
                    12.077011866453518,
                    44.17771103552166
                ]
            }
        },
        {
            "type": "Feature",
            "properties": {
                "name": "AREA SERVIZIO MERLI CLAUDIO",
                "id": "10857",
                "brand": "Agip Eni",
                "amenity": "fuel",
                "operator": "MERLI CLAUDIO"
            },
            "geometry": {
                "type": "Point",
                "coordinates": [
                    12.080419957637787,
                    44.20727855676775
                ]
            }
        },
        {
            "type": "Feature",
            "properties": {
                "name": "Stazione di Servizio EGO",
                "id": "13625",
                "brand": "Ego",
                "amenity": "fuel",
                "operator": "MAESTRI S.P.A."
            },
            "geometry": {
                "type": "Point",
                "coordinates": [
                    12.126549173016427,
                    44.18602107092285
                ]
            }
        },
        {
            "type": "Feature",
            "properties": {
                "name": "ENI",
                "id": "4828",
                "brand": "Agip Eni",
                "amenity": "fuel",
                "operator": "BERTI & RUFFILLI S.N.C. DI BERTI VANNI & RUFFILLI SILVERIO"
            },
            "geometry": {
                "type": "Point",
                "coordinates": [
                    12.098731398582458,
                    44.1976775159135
                ]
            }
        },
        {
            "type": "Feature",
            "properties": {
                "name": "AREA DI SERVIZIO TOTALERG",
                "id": "13862",
                "brand": "Total Erg",
                "amenity": "fuel",
                "operator": "PAGANELLI MAURIZIO"
            },
            "geometry": {
                "type": "Point",
                "coordinates": [
                    12.03445494567859,
                    44.18877234697211
                ]
            }
        },
        {
            "type": "Feature",
            "properties": {
                "name": "FO APPENNINO",
                "id": "17668",
                "brand": "Api-Ip",
                "amenity": "fuel",
                "operator": "IP SERVICES S.R.L."
            },
            "geometry": {
                "type": "Point",
                "coordinates": [
                    12.030353644180309,
                    44.20743078422442
                ]
            }
        },
        {
            "type": "Feature",
            "properties": {
                "name": "BRAVI GIULIANA",
                "id": "18990",
                "brand": "Api-Ip",
                "amenity": "fuel",
                "operator": "BRAVI GIULIANA"
            },
            "geometry": {
                "type": "Point",
                "coordinates": [
                    11.98573477546313,
                    44.14363922577252
                ]
            }
        },
        {
            "type": "Feature",
            "properties": {
                "name": "PV 5914",
                "id": "25928",
                "brand": "Agip Eni",
                "amenity": "fuel",
                "operator": "GESTIONI INNOVATIVE ITALIA S.R.L."
            },
            "geometry": {
                "type": "Point",
                "coordinates": [
                    12.123131457672114,
                    44.18705885643521
                ]
            }
        },
        {
            "type": "Feature",
            "properties": {
                "name": "Stazione di Servizio EGO",
                "id": "22555",
                "brand": "Ego",
                "amenity": "fuel",
                "operator": "ATENA S.R.L."
            },
            "geometry": {
                "type": "Point",
                "coordinates": [
                    12.08464980125427,
                    44.205813466738896
                ]
            }
        },
        {
            "type": "Feature",
            "properties": {
                "name": "ENI",
                "id": "28297",
                "brand": "Agip Eni",
                "amenity": "fuel",
                "operator": "BENEDETTI - ALBONETTI - GRAMELLINI - MISSIROLI - S.N.C. DI BENEDETTI CLAUDIO & C."
            },
            "geometry": {
                "type": "Point",
                "coordinates": [
                    11.997523605823517,
                    44.20815451716723
                ]
            }
        },
        {
            "type": "Feature",
            "properties": {
                "name": "Stazione di Servizio TotalErg Maurizio e Angela",
                "id": "11274",
                "brand": "Total Erg",
                "amenity": "fuel",
                "operator": "STAZIONE DI SERVIZIO ERG DI CAMPORESI MAURIZIO"
            },
            "geometry": {
                "type": "Point",
                "coordinates": [
                    12.11925610343553,
                    44.18958546929261
                ]
            }
        }
    ]
}