{
    "type": "FeatureCollection",
    "features": [
        {
            "type": "Feature",
            "properties": {
                "name": "BIGOLINO VALDOBBIADENE - SP2 ERIZZO",
                "id": "7282",
                "brand": "Q8",
                "amenity": "fuel",
                "operator": "SERVIZI & GESTIONI ITALIA S.R.L."
            },
            "geometry": {
                "type": "Point",
                "coordinates": [
                    12.006018034393268,
                    45.87216111253731
                ]
            }
        },
        {
            "type": "Feature",
            "properties": {
                "name": "Spader Italo",
                "id": "25860",
                "amenity": "fuel",
                "operator": "SPADER ITALO"
            },
            "geometry": {
                "type": "Point",
                "coordinates": [
                    12.024589776992798,
                    45.861017792480894
                ]
            }
        },
        {
            "type": "Feature",
            "properties": {
                "name": "COSTANTIN",
                "id": "12676",
                "brand": "Costantin",
                "amenity": "fuel",
                "operator": "BALBINOT TERENZIO S.N.C. DI BALBINOT A. & S."
            },
            "geometry": {
                "type": "Point",
                "coordinates": [
                    12.05848217010498,
                    45.85839558151508
                ]
            }
        },
        {
            "type": "Feature",
            "properties": {
                "name": "ENERGYCA",
                "id": "16909",
                "brand": "Energyca",
                "amenity": "fuel",
                "operator": "VIDORI ANDREA"
            },
            "geometry": {
                "type": "Point",
                "coordinates": [
                    11.981031318839996,
                    45.897273137974246
                ]
            }
        },
        {
            "type": "Feature",
            "properties": {
                "name": "BORTOLINI ALDO",
                "id": "26332",
                "brand": "Total Erg",
                "amenity": "fuel",
                "operator": "BORTOLINI ALDO"
            },
            "geometry": {
                "type": "Point",
                "coordinates": [
                    12.092991367479044,
                    45.943862604230596
                ]
            }
        },
        {
            "type": "Feature",
            "properties": {
                "name": "TORMENA  NICOLA",
                "id": "28958",
                "brand": "Esso",
                "amenity": "fuel",
                "operator": "ESSO STAZIONE DI SERVIZIO TORMENA NICOLA"
            },
            "geometry": {
                "type": "Point",
                "coordinates": [
                    12.08736599055078,
                    45.89486339546324
                ]
            }
        },
        {
            "type": "Feature",
            "properties": {
                "name": "Stazione Retitalia",
                "id": "30434",
                "brand": "Retitalia",
                "amenity": "fuel",
                "operator": "BERRA GILBERTO"
            },
            "geometry": {
                "type": "Point",
                "coordinates": [
                    11.954487766270406,
                    45.910463389803354
                ]
            }
        },
        {
            "type": "Feature",
            "properties": {
                "name": "BORTOLINI ALDO",
                "id": "26331",
                "brand": "Total Erg",
                "amenity": "fuel",
                "operator": "BORTOLINI ALDO"
            },
            "geometry": {
                "type": "Point",
                "coordinates": [
                    12.122621600454975,
                    45.94781727295503
                ]
            }
        },
        {
            "type": "Feature",
            "properties": {
                "name": "MORIAGO-VIA MONTEGRAPPA SP 34",
                "id": "11904",
                "brand": "Q8",
                "amenity": "fuel",
                "operator": "SERVIZI & GESTIONI ITALIA S.R.L."
            },
            "geometry": {
                "type": "Point",
                "coordinates": [
                    12.073737550926241,
                    45.86034396253977
                ]
            }
        },
        {
            "type": "Feature",
            "properties": {
                "name": "TrivengaS",
                "id": "4115",
                "brand": "Trivengas",
                "amenity": "fuel",
                "operator": "TRIVENGAS S.R.L"
            },
            "geometry": {
                "type": "Point",
                "coordinates": [
                    12.111063029430397,
                    45.90052386656598
                ]
            }
        },
        {
            "type": "Feature",
            "properties": {
                "name": "stazione di servizio Q8",
                "id": "14513",
                "brand": "Q8",
                "amenity": "fuel",
                "operator": "GUARISA ROBERTO"
            },
            "geometry": {
                "type": "Point",
                "coordinates": [
                    11.997123956680298,
                    45.8597774972667
                ]
            }
        },
        {
            "type": "Feature",
            "properties": {
                "name": "Tamoil Favretto snc",
                "id": "12995",
                "brand": "Tamoil",
                "amenity": "fuel",
                "operator": "FAVRETTO S.N.C. DI FAVRETTO LUIGI & C."
            },
            "geometry": {
                "type": "Point",
                "coordinates": [
                    12.003242745995522,
                    45.88973073372687
                ]
            }
        },
        {
            "type": "Feature",
            "properties": {
                "name": "ENERGYCA",
                "id": "20215",
                "brand": "Energyca",
                "amenity": "fuel",
                "operator": "PEDERIVA ACHILLE"
            },
            "geometry": {
                "type": "Point",
                "coordinates": [
                    12.127821582208979,
                    45.86876418504558
                ]
            }
        },
        {
            "type": "Feature",
            "properties": {
                "name": "IP gruppo API",
                "id": "16886",
                "brand": "Api-Ip",
                "amenity": "fuel",
                "operator": "MORETTO SILVESTRO"
            },
            "geometry": {
                "type": "Point",
                "coordinates": [
                    11.989027708768845,
                    45.843888811469284
                ]
            }
        }
    ]
}