{
    "type": "FeatureCollection",
    "features": [
        {
            "type": "Feature",
            "properties": {
                "name": "STAZIONE SERVIZIO KUWAIT",
                "id": "31099",
                "brand": "Q8",
                "amenity": "fuel",
                "operator": "CAGNIN RENZO"
            },
            "geometry": {
                "type": "Point",
                "coordinates": [
                    11.986895352602005,
                    45.61136942879613
                ]
            }
        },
        {
            "type": "Feature",
            "properties": {
                "name": "Bertelli Assunta",
                "id": "11164",
                "brand": "Agip Eni",
                "amenity": "fuel",
                "operator": "BERTELLI ASSUNTA"
            },
            "geometry": {
                "type": "Point",
                "coordinates": [
                    12.03376829624176,
                    45.68680219668004
                ]
            }
        },
        {
            "type": "Feature",
            "properties": {
                "name": "Stazione di Servizio Agip Bianchi Luigi",
                "id": "13624",
                "brand": "Agip Eni",
                "amenity": "fuel",
                "operator": "BIANCHI LUIGI"
            },
            "geometry": {
                "type": "Point",
                "coordinates": [
                    11.957129538059235,
                    45.62930663600884
                ]
            }
        },
        {
            "type": "Feature",
            "properties": {
                "name": "Tamoil Vedelago",
                "id": "12151",
                "brand": "Tamoil",
                "amenity": "fuel",
                "operator": "GIRARDI FRANCO"
            },
            "geometry": {
                "type": "Point",
                "coordinates": [
                    12.038140296936035,
                    45.66362900432607
                ]
            }
        },
        {
            "type": "Feature",
            "properties": {
                "name": "NOALOIL PV7",
                "id": "4487",
                "brand": "Noaloil",
                "amenity": "fuel",
                "operator": "NOALOIL S.P.A."
            },
            "geometry": {
                "type": "Point",
                "coordinates": [
                    12.02843338251114,
                    45.62899602536743
                ]
            }
        },
        {
            "type": "Feature",
            "properties": {
                "name": "COSTANTIN ISTRANA - VIA SAURO",
                "id": "22155",
                "brand": "Costantin",
                "amenity": "fuel",
                "operator": "COSTANTIN DISTRIBUZIONE E SERVIZI SRL"
            },
            "geometry": {
                "type": "Point",
                "coordinates": [
                    12.098785620866808,
                    45.67843116543201
                ]
            }
        },
        {
            "type": "Feature",
            "properties": {
                "name": "NOAL OIL",
                "id": "22513",
                "amenity": "fuel",
                "operator": "MIOTTO IVANO"
            },
            "geometry": {
                "type": "Point",
                "coordinates": [
                    12.124570525131276,
                    45.68945222029616
                ]
            }
        },
        {
            "type": "Feature",
            "properties": {
                "name": "valoil",
                "id": "12655",
                "amenity": "fuel",
                "operator": "VALLOTTO S.A.S. DI VALLOTTO NERIO E C."
            },
            "geometry": {
                "type": "Point",
                "coordinates": [
                    12.010470628738403,
                    45.60578276512077
                ]
            }
        },
        {
            "type": "Feature",
            "properties": {
                "name": "COSTANTIN ISTRANA - VIA FILZI",
                "id": "13308",
                "brand": "Costantin",
                "amenity": "fuel",
                "operator": "COSTANTIN DISTRIBUZIONE E SERVIZI SRL"
            },
            "geometry": {
                "type": "Point",
                "coordinates": [
                    12.09939993917942,
                    45.67805602875537
                ]
            }
        },
        {
            "type": "Feature",
            "properties": {
                "name": "BENOIL",
                "id": "13284",
                "amenity": "fuel",
                "operator": "BENIN GIOVANNI S.R.L."
            },
            "geometry": {
                "type": "Point",
                "coordinates": [
                    11.97452299296856,
                    45.63566824200519
                ]
            }
        },
        {
            "type": "Feature",
            "properties": {
                "name": "LORO",
                "id": "20906",
                "amenity": "fuel",
                "operator": "ENERGY SYSTEM  SNC DI BIZZOTTO PAOLO & ROSSI ORESTE"
            },
            "geometry": {
                "type": "Point",
                "coordinates": [
                    11.996885777909823,
                    45.635768153261665
                ]
            }
        },
        {
            "type": "Feature",
            "properties": {
                "name": "PIGHI",
                "id": "16597",
                "amenity": "fuel",
                "operator": "PIGHI S.A.S. DI ROSSETTO ALBERTO E FRANCESCO & C."
            },
            "geometry": {
                "type": "Point",
                "coordinates": [
                    12.118420153856276,
                    45.642990176683604
                ]
            }
        },
        {
            "type": "Feature",
            "properties": {
                "name": "Distibutore ENI  Via Circonvallazione Est",
                "id": "28408",
                "brand": "Agip Eni",
                "amenity": "fuel",
                "operator": "REGINATO EUGENIO E GIAN ANTONIO SNC"
            },
            "geometry": {
                "type": "Point",
                "coordinates": [
                    11.98742777109146,
                    45.68509182259653
                ]
            }
        },
        {
            "type": "Feature",
            "properties": {
                "name": "MASONCARBURANTI",
                "id": "27677",
                "amenity": "fuel",
                "operator": "MASON F.LLI S.N.C. DI MASON LORENZO & C."
            },
            "geometry": {
                "type": "Point",
                "coordinates": [
                    12.05014318227768,
                    45.586269923039914
                ]
            }
        },
        {
            "type": "Feature",
            "properties": {
                "name": "LORO",
                "id": "20907",
                "amenity": "fuel",
                "operator": "ENERGY SYSTEM  SNC DI BIZZOTTO PAOLO & ROSSI ORESTE"
            },
            "geometry": {
                "type": "Point",
                "coordinates": [
                    12.016034871339798,
                    45.67894693594517
                ]
            }
        },
        {
            "type": "Feature",
            "properties": {
                "name": "FERRO AMPELIO& C SNC",
                "id": "31223",
                "brand": "Esso",
                "amenity": "fuel",
                "operator": "FERRO AMPELIO E C. S.N.C."
            },
            "geometry": {
                "type": "Point",
                "coordinates": [
                    12.053269533729576,
                    45.62430142913076
                ]
            }
        },
        {
            "type": "Feature",
            "properties": {
                "name": "TOTAL ERG",
                "id": "17310",
                "brand": "Total Erg",
                "amenity": "fuel",
                "operator": "STAZIONE DI SERVIZIO DI TESSARIOL IVANO  &  C.S.A.S."
            },
            "geometry": {
                "type": "Point",
                "coordinates": [
                    12.012388408184052,
                    45.700116892212314
                ]
            }
        }
    ]
}