{
    "type": "FeatureCollection",
    "features": [
        {
            "type": "Feature",
            "properties": {
                "name": "Leonardo snc",
                "id": "19066",
                "brand": "Agip Eni",
                "amenity": "fuel",
                "operator": "LEONARDO S.N.C. DI SISTI GIOVANNI & C."
            },
            "geometry": {
                "type": "Point",
                "coordinates": [
                    12.235357761383058,
                    41.76242280960267
                ]
            }
        },
        {
            "type": "Feature",
            "properties": {
                "name": "tei sas",
                "id": "28922",
                "brand": "Agip Eni",
                "amenity": "fuel",
                "operator": "TEI S.A.S. DI TEI ANDREA & C."
            },
            "geometry": {
                "type": "Point",
                "coordinates": [
                    12.268628700964996,
                    41.73595353182739
                ]
            }
        },
        {
            "type": "Feature",
            "properties": {
                "name": "CARBURANTI DE LUCA",
                "id": "5001",
                "brand": "Tamoil",
                "amenity": "fuel",
                "operator": "CARBURANTI DE LUCA DI DE LUCA ANTONIO & C. S.N.C."
            },
            "geometry": {
                "type": "Point",
                "coordinates": [
                    12.279355376958845,
                    41.733367750701824
                ]
            }
        },
        {
            "type": "Feature",
            "properties": {
                "name": "Fiumicino",
                "id": "28243",
                "amenity": "fuel",
                "operator": "DIBEOL ECOLOGICA S.R.L."
            },
            "geometry": {
                "type": "Point",
                "coordinates": [
                    12.250329852104187,
                    41.77060592866601
                ]
            }
        },
        {
            "type": "Feature",
            "properties": {
                "name": "LATINI MAURO",
                "id": "13822",
                "brand": "Total Erg",
                "amenity": "fuel",
                "operator": "LATINI MAURO"
            },
            "geometry": {
                "type": "Point",
                "coordinates": [
                    12.284818609108584,
                    41.728064750135616
                ]
            }
        },
        {
            "type": "Feature",
            "properties": {
                "name": "tei andrea",
                "id": "18457",
                "brand": "Agip Eni",
                "amenity": "fuel",
                "operator": "TEI ANDREA"
            },
            "geometry": {
                "type": "Point",
                "coordinates": [
                    12.287627603704777,
                    41.73543848464644
                ]
            }
        },
        {
            "type": "Feature",
            "properties": {
                "name": "Ditta Chierici Ivano Piazzale della Posta",
                "id": "17767",
                "brand": "Api-Ip",
                "amenity": "fuel",
                "operator": "CHIERICI IVANO"
            },
            "geometry": {
                "type": "Point",
                "coordinates": [
                    12.278322590547528,
                    41.731915091548245
                ]
            }
        },
        {
            "type": "Feature",
            "properties": {
                "name": "OSTIA POSTA",
                "id": "5488",
                "brand": "Agip Eni",
                "amenity": "fuel",
                "operator": "enirete oil&nonoil S.p.A."
            },
            "geometry": {
                "type": "Point",
                "coordinates": [
                    12.277447114086156,
                    41.73151501243623
                ]
            }
        },
        {
            "type": "Feature",
            "properties": {
                "name": "MARINO MASSIMO",
                "id": "14625",
                "brand": "Total Erg",
                "amenity": "fuel",
                "operator": "MARINO MASSIMO"
            },
            "geometry": {
                "type": "Point",
                "coordinates": [
                    12.271479516032969,
                    41.7355738524124
                ]
            }
        },
        {
            "type": "Feature",
            "properties": {
                "name": "Ditta Chierici Ivano Viale dei Romagnoli",
                "id": "17768",
                "brand": "Api-Ip",
                "amenity": "fuel",
                "operator": "CHIERICI IVANO"
            },
            "geometry": {
                "type": "Point",
                "coordinates": [
                    12.299376860228222,
                    41.75777627846495
                ]
            }
        },
        {
            "type": "Feature",
            "properties": {
                "name": "FIUMICINO TRINCEA DELLE FRASCHE 110H",
                "id": "6625",
                "brand": "Q8",
                "amenity": "fuel",
                "operator": "SERVIZI & GESTIONI ITALIA srl"
            },
            "geometry": {
                "type": "Point",
                "coordinates": [
                    12.252593636512756,
                    41.75523311116705
                ]
            }
        },
        {
            "type": "Feature",
            "properties": {
                "name": "GAGLIANO DISTRIBUZIONE SNC",
                "id": "19324",
                "brand": "Agip Eni",
                "amenity": "fuel",
                "operator": "GAGLIANO DISTRIBUZIONE DI F. GAGLIANO S.N.C."
            },
            "geometry": {
                "type": "Point",
                "coordinates": [
                    12.293032468647768,
                    41.73732428471401
                ]
            }
        },
        {
            "type": "Feature",
            "properties": {
                "name": "Ditta Chierici Ivano Via dei Bragozzi",
                "id": "29350",
                "brand": "Api-Ip",
                "amenity": "fuel",
                "operator": "CHIERICI IVANO"
            },
            "geometry": {
                "type": "Point",
                "coordinates": [
                    12.273852053042221,
                    41.73354533322027
                ]
            }
        },
        {
            "type": "Feature",
            "properties": {
                "name": "SARHAN HOSNY ABD ELMAKSOD EL SAYED",
                "id": "16182",
                "brand": "Tamoil",
                "amenity": "fuel",
                "operator": "SARHAN HOSNY ABD ELMAKSOD EL SAYED"
            },
            "geometry": {
                "type": "Point",
                "coordinates": [
                    12.277625670160885,
                    41.73114948281631
                ]
            }
        },
        {
            "type": "Feature",
            "properties": {
                "name": "CICCHINELLI CARLO",
                "id": "13390",
                "brand": "Total Erg",
                "amenity": "fuel",
                "operator": "CICCHINELLI CARLO"
            },
            "geometry": {
                "type": "Point",
                "coordinates": [
                    12.286741434762233,
                    41.733560151346616
                ]
            }
        },
        {
            "type": "Feature",
            "properties": {
                "name": "GAVIOLI JUAN CARLOS",
                "id": "13563",
                "brand": "Agip Eni",
                "amenity": "fuel",
                "operator": "GAVIOLI JUAN CARLOS"
            },
            "geometry": {
                "type": "Point",
                "coordinates": [
                    12.235570423669172,
                    41.76418531649675
                ]
            }
        }
    ]
}