{
    "type": "FeatureCollection",
    "features": [
        {
            "type": "Feature",
            "properties": {
                "name": "DUBOIS ANGUILLARESE",
                "id": "23853",
                "amenity": "fuel",
                "operator": "DUBOIS LUCIANA"
            },
            "geometry": {
                "type": "Point",
                "coordinates": [
                    12.295487523078918,
                    42.053771870181315
                ]
            }
        },
        {
            "type": "Feature",
            "properties": {
                "name": "DUBOIS BR1",
                "id": "17881",
                "amenity": "fuel",
                "operator": "DUBOIS LUCIANA"
            },
            "geometry": {
                "type": "Point",
                "coordinates": [
                    12.18252494931221,
                    42.092800503590766
                ]
            }
        },
        {
            "type": "Feature",
            "properties": {
                "name": "MEDES",
                "id": "19435",
                "amenity": "fuel",
                "operator": "MEDES DI DUBOIS LUCIANA & C. - SOCIETA' IN ACCOMANDITA SEMPLICE"
            },
            "geometry": {
                "type": "Point",
                "coordinates": [
                    12.233258262276646,
                    42.16245387991389
                ]
            }
        },
        {
            "type": "Feature",
            "properties": {
                "name": "DUBOIS MONTEBELLO",
                "id": "17887",
                "amenity": "fuel",
                "operator": "DUBOIS LUCIANA"
            },
            "geometry": {
                "type": "Point",
                "coordinates": [
                    12.15395137667656,
                    42.104868899668965
                ]
            }
        },
        {
            "type": "Feature",
            "properties": {
                "name": "CONAD",
                "id": "6811",
                "brand": "CONAD",
                "amenity": "fuel",
                "operator": "SAGIAL S.R.L."
            },
            "geometry": {
                "type": "Point",
                "coordinates": [
                    12.153561115264893,
                    42.099900517162304
                ]
            }
        },
        {
            "type": "Feature",
            "properties": {
                "name": "ENI PALMA",
                "id": "28703",
                "brand": "Agip Eni",
                "amenity": "fuel",
                "operator": "PALMA S.N.C. DI PALMA FABIO E MARCO"
            },
            "geometry": {
                "type": "Point",
                "coordinates": [
                    12.248904484963985,
                    42.1553917100233
                ]
            }
        },
        {
            "type": "Feature",
            "properties": {
                "name": "DUBOIS BR2",
                "id": "17877",
                "amenity": "fuel",
                "operator": "DUBOIS LUCIANA"
            },
            "geometry": {
                "type": "Point",
                "coordinates": [
                    12.157152160174519,
                    42.0979290706141
                ]
            }
        },
        {
            "type": "Feature",
            "properties": {
                "name": "EMCA",
                "id": "12054",
                "amenity": "fuel",
                "operator": "EREDI MICHELI CESARE ANTONIO S.R.L."
            },
            "geometry": {
                "type": "Point",
                "coordinates": [
                    12.270779991868496,
                    42.09174560394155
                ]
            }
        },
        {
            "type": "Feature",
            "properties": {
                "name": "TOIL SPA BRACCIANO",
                "id": "21669",
                "amenity": "fuel",
                "operator": "TOIL S.P.A."
            },
            "geometry": {
                "type": "Point",
                "coordinates": [
                    12.161425352096558,
                    42.041248747346714
                ]
            }
        },
        {
            "type": "Feature",
            "properties": {
                "name": "IP DUBOIS",
                "id": "17890",
                "amenity": "fuel",
                "operator": "DUBOIS LUCIANA"
            },
            "geometry": {
                "type": "Point",
                "coordinates": [
                    12.182280868291855,
                    42.08542857713535
                ]
            }
        },
        {
            "type": "Feature",
            "properties": {
                "name": "Saturnino Capparella",
                "id": "31255",
                "brand": "Esso",
                "amenity": "fuel",
                "operator": "SATURNINO CAPPARELLA S.R.L."
            },
            "geometry": {
                "type": "Point",
                "coordinates": [
                    12.277750074863434,
                    42.08914948078577
                ]
            }
        },
        {
            "type": "Feature",
            "properties": {
                "name": "TAMOIL",
                "id": "4534",
                "brand": "Tamoil",
                "amenity": "fuel",
                "operator": "TOMMY OIL S.N.C. DI MARANGIO MASSIMO"
            },
            "geometry": {
                "type": "Point",
                "coordinates": [
                    12.202905121433563,
                    42.07900145946789
                ]
            }
        },
        {
            "type": "Feature",
            "properties": {
                "name": "ENERGIA PETROLI 2000 SRL - BRACCIANO",
                "id": "30312",
                "brand": "Esso",
                "amenity": "fuel",
                "operator": "ENERGIA PETROLI 2000 S.R.L."
            },
            "geometry": {
                "type": "Point",
                "coordinates": [
                    12.190067321062088,
                    42.08526057093762
                ]
            }
        },
        {
            "type": "Feature",
            "properties": {
                "name": "IP SCHIAFFI MAURO",
                "id": "13861",
                "brand": "Api-Ip",
                "amenity": "fuel",
                "operator": "SCHIAFFI MAURO"
            },
            "geometry": {
                "type": "Point",
                "coordinates": [
                    12.273341864347458,
                    42.091019106169924
                ]
            }
        },
        {
            "type": "Feature",
            "properties": {
                "name": "Bracciano",
                "id": "22617",
                "brand": "Total Erg",
                "amenity": "fuel",
                "operator": "GESTIONI EUROPA - SOCIETA' PER AZIONI"
            },
            "geometry": {
                "type": "Point",
                "coordinates": [
                    12.183244451880455,
                    42.089191081683246
                ]
            }
        },
        {
            "type": "Feature",
            "properties": {
                "name": "Bracciano",
                "id": "23632",
                "brand": "Api-Ip",
                "amenity": "fuel",
                "operator": "FGS GAS S.A.S. DI CIVITELLA GIORGIO"
            },
            "geometry": {
                "type": "Point",
                "coordinates": [
                    12.209491878747937,
                    42.0769958709573
                ]
            }
        },
        {
            "type": "Feature",
            "properties": {
                "name": "stazione di servizio Tamoil di Petrosino Nicola",
                "id": "17286",
                "brand": "Tamoil",
                "amenity": "fuel",
                "operator": "PETROSINO NICOLA"
            },
            "geometry": {
                "type": "Point",
                "coordinates": [
                    12.290830537676811,
                    42.06863710933266
                ]
            }
        }
    ]
}