{
    "type": "FeatureCollection",
    "features": [
        {
            "type": "Feature",
            "properties": {
                "name": "ALPI PETROLI",
                "id": "20474",
                "brand": "Agip Eni",
                "amenity": "fuel",
                "operator": "ALPI PETROLI SAS DI STEFFAN A. & C."
            },
            "geometry": {
                "type": "Point",
                "coordinates": [
                    12.28352889418602,
                    46.177999223222294
                ]
            }
        },
        {
            "type": "Feature",
            "properties": {
                "name": "stazione di servizio ip monti di sopra giovanni via feltre 242 belluno",
                "id": "10790",
                "brand": "Api-Ip",
                "amenity": "fuel",
                "operator": "MONTI DI SOPRA GIOVANNI"
            },
            "geometry": {
                "type": "Point",
                "coordinates": [
                    12.201737956916531,
                    46.13605954278254
                ]
            }
        },
        {
            "type": "Feature",
            "properties": {
                "name": "BELLUNO BALDENICH",
                "id": "17647",
                "brand": "Api-Ip",
                "amenity": "fuel",
                "operator": "IP SERVICES S.R.L."
            },
            "geometry": {
                "type": "Point",
                "coordinates": [
                    12.222498836639943,
                    46.14482795304991
                ]
            }
        },
        {
            "type": "Feature",
            "properties": {
                "name": "PONTE NELLE ALPI-VIALE CADORE 24",
                "id": "11505",
                "brand": "Q8",
                "amenity": "fuel",
                "operator": "SERVIZI & GESTIONI ITALIA S.R.L."
            },
            "geometry": {
                "type": "Point",
                "coordinates": [
                    12.28384099140169,
                    46.181340856281565
                ]
            }
        },
        {
            "type": "Feature",
            "properties": {
                "name": "Repsol",
                "id": "29028",
                "brand": "Repsol",
                "amenity": "fuel",
                "operator": "LO SCRIGNO SAS DI DAL MAGRO CALUA & C."
            },
            "geometry": {
                "type": "Point",
                "coordinates": [
                    12.142700643377678,
                    46.08392064500241
                ]
            }
        },
        {
            "type": "Feature",
            "properties": {
                "name": "VIA AGORDO 255 BELLUNO",
                "id": "17475",
                "amenity": "fuel",
                "operator": "BRASIL CARBURANTE DI FONGARO SERGIO"
            },
            "geometry": {
                "type": "Point",
                "coordinates": [
                    12.181140357609364,
                    46.140224496676126
                ]
            }
        },
        {
            "type": "Feature",
            "properties": {
                "name": "ENERGYCA LIMANA",
                "id": "31202",
                "brand": "Energyca",
                "amenity": "fuel",
                "operator": "BALCON IVAN"
            },
            "geometry": {
                "type": "Point",
                "coordinates": [
                    12.196138501167297,
                    46.10707103358503
                ]
            }
        },
        {
            "type": "Feature",
            "properties": {
                "name": "SALVADOR DINO",
                "id": "20444",
                "brand": "Agip Eni",
                "amenity": "fuel",
                "operator": "SALVADOR DINO"
            },
            "geometry": {
                "type": "Point",
                "coordinates": [
                    12.22609754232792,
                    46.148353342845134
                ]
            }
        },
        {
            "type": "Feature",
            "properties": {
                "name": "TotalErg",
                "id": "5377",
                "brand": "Total Erg",
                "amenity": "fuel",
                "operator": "VETROMILE FABRIZIO"
            },
            "geometry": {
                "type": "Point",
                "coordinates": [
                    12.156260758638382,
                    46.11493476373087
                ]
            }
        },
        {
            "type": "Feature",
            "properties": {
                "name": "Distributore Totalerg",
                "id": "24813",
                "brand": "Total Erg",
                "amenity": "fuel",
                "operator": "TURBIAN GIANCARLO"
            },
            "geometry": {
                "type": "Point",
                "coordinates": [
                    12.233088612556458,
                    46.12679387606094
                ]
            }
        },
        {
            "type": "Feature",
            "properties": {
                "name": "TAMOIL STAZIONE DI RIFORNIMENTO PIAZZA LEONE",
                "id": "8579",
                "brand": "Tamoil",
                "amenity": "fuel",
                "operator": "PIAZZA LEONE"
            },
            "geometry": {
                "type": "Point",
                "coordinates": [
                    12.130878144490453,
                    46.07338764421362
                ]
            }
        },
        {
            "type": "Feature",
            "properties": {
                "name": "CUCAGAS",
                "id": "20480",
                "brand": "Cucagas",
                "amenity": "fuel",
                "operator": "SB 89 S.R.L."
            },
            "geometry": {
                "type": "Point",
                "coordinates": [
                    12.189652919769289,
                    46.13086146851731
                ]
            }
        },
        {
            "type": "Feature",
            "properties": {
                "name": "Stazione di servizio repsol di Balcon Davide",
                "id": "7901",
                "brand": "Repsol",
                "amenity": "fuel",
                "operator": "STAZIONE DI SERVIZIO REPSOL DI BALCON DAVIDE"
            },
            "geometry": {
                "type": "Point",
                "coordinates": [
                    12.289350628852842,
                    46.17282254745507
                ]
            }
        },
        {
            "type": "Feature",
            "properties": {
                "name": "DISTRIBUTORE AGIP",
                "id": "16609",
                "brand": "Agip Eni",
                "amenity": "fuel",
                "operator": "DEON ANDREA & C. SNC"
            },
            "geometry": {
                "type": "Point",
                "coordinates": [
                    12.201614230871199,
                    46.14354599601825
                ]
            }
        },
        {
            "type": "Feature",
            "properties": {
                "name": "BELLUNO-VIA FELTRE 79",
                "id": "11509",
                "brand": "Q8",
                "amenity": "fuel",
                "operator": "SERVIZI & GESTIONI ITALIA S.R.L."
            },
            "geometry": {
                "type": "Point",
                "coordinates": [
                    12.204133524582854,
                    46.13688225420928
                ]
            }
        },
        {
            "type": "Feature",
            "properties": {
                "name": "SMP PONTE NELLE ALPI",
                "id": "5170",
                "brand": "San Marco Petroli",
                "amenity": "fuel",
                "operator": "SAN MARCO PETROLI DISTRIBUZIONE S.R.L."
            },
            "geometry": {
                "type": "Point",
                "coordinates": [
                    12.285505682229994,
                    46.18546806674113
                ]
            }
        },
        {
            "type": "Feature",
            "properties": {
                "name": "ESSO",
                "id": "24608",
                "brand": "Esso",
                "amenity": "fuel",
                "operator": "DELLA VECCHIA PIERLUIGI"
            },
            "geometry": {
                "type": "Point",
                "coordinates": [
                    12.21147499695894,
                    46.145335416160606
                ]
            }
        },
        {
            "type": "Feature",
            "properties": {
                "name": "MARIN WILLIAMS & GUADAGNIN LUANA SNC",
                "id": "23351",
                "brand": "Agip Eni",
                "amenity": "fuel",
                "operator": "MARIN WILLIAMS & GUADAGNIN LUANA SNC"
            },
            "geometry": {
                "type": "Point",
                "coordinates": [
                    12.257601320743563,
                    46.15094705124394
                ]
            }
        },
        {
            "type": "Feature",
            "properties": {
                "name": "esso",
                "id": "23250",
                "brand": "Esso",
                "amenity": "fuel",
                "operator": "DE BARBA D. & IMBOLITO A. SAS"
            },
            "geometry": {
                "type": "Point",
                "coordinates": [
                    12.238246500492098,
                    46.15945736906662
                ]
            }
        },
        {
            "type": "Feature",
            "properties": {
                "name": "MARIN WILLIAMS & GUADAGNIN LUANA SNC",
                "id": "12941",
                "brand": "Agip Eni",
                "amenity": "fuel",
                "operator": "MARIN WILLIAMS & GUADAGNIN LUANA SNC"
            },
            "geometry": {
                "type": "Point",
                "coordinates": [
                    12.217403054237366,
                    46.133621356516734
                ]
            }
        }
    ]
}