{
    "type": "FeatureCollection",
    "features": [
        {
            "type": "Feature",
            "properties": {
                "name": "v.le della repubblica 216 31100 treviso",
                "id": "7962",
                "brand": "Tamoil",
                "amenity": "fuel",
                "operator": "MORO GIUSEPPE"
            },
            "geometry": {
                "type": "Point",
                "coordinates": [
                    12.245086133480072,
                    45.68538300960054
                ]
            }
        },
        {
            "type": "Feature",
            "properties": {
                "name": "impianto ENI FORCOLIN STEFANO",
                "id": "10751",
                "brand": "Agip Eni",
                "amenity": "fuel",
                "operator": "FORCOLIN STEFANO"
            },
            "geometry": {
                "type": "Point",
                "coordinates": [
                    12.25378791527487,
                    45.655554259422665
                ]
            }
        },
        {
            "type": "Feature",
            "properties": {
                "name": "STAZIONE DI SERVIZIO GIOVANNI FOFFANO e C. s.a.s.",
                "id": "10502",
                "brand": "Agip Eni",
                "amenity": "fuel",
                "operator": "STAZIONE DI SERVIZIO DI GIOVANNI FOFFANO & C. S.A.S."
            },
            "geometry": {
                "type": "Point",
                "coordinates": [
                    12.14840455410615,
                    45.59450507716722
                ]
            }
        },
        {
            "type": "Feature",
            "properties": {
                "name": "Tegon di Tegon Giuseppe",
                "id": "19116",
                "brand": "Repsol",
                "amenity": "fuel",
                "operator": "TEGON DI TEGON GIUSEPPE"
            },
            "geometry": {
                "type": "Point",
                "coordinates": [
                    12.222629009509319,
                    45.66543795325203
                ]
            }
        },
        {
            "type": "Feature",
            "properties": {
                "name": "CARRARO",
                "id": "26551",
                "brand": "Esso",
                "amenity": "fuel",
                "operator": "CARRARO SERGIO & FIGLI - S.N.C. DI CARRARO BRUNO & C."
            },
            "geometry": {
                "type": "Point",
                "coordinates": [
                    12.171550927619474,
                    45.6713815680875
                ]
            }
        },
        {
            "type": "Feature",
            "properties": {
                "name": "COSTANTIN",
                "id": "12813",
                "brand": "Costantin",
                "amenity": "fuel",
                "operator": "AURORA DI MICHIELIN NEREO"
            },
            "geometry": {
                "type": "Point",
                "coordinates": [
                    12.248933931877104,
                    45.6897685482898
                ]
            }
        },
        {
            "type": "Feature",
            "properties": {
                "name": "STAZIONE DI SERVIZIO SNC",
                "id": "25996",
                "brand": "Agip Eni",
                "amenity": "fuel",
                "operator": "STAZIONE DI SERVIZIO S.N.C. DI ORTOLAN ALESSANDRO  &  GASHI REXHE P"
            },
            "geometry": {
                "type": "Point",
                "coordinates": [
                    12.18586410029627,
                    45.65010959719421
                ]
            }
        },
        {
            "type": "Feature",
            "properties": {
                "name": "PREGANZIOL",
                "id": "5903",
                "brand": "Total Erg",
                "amenity": "fuel",
                "operator": "TotalErg SpA"
            },
            "geometry": {
                "type": "Point",
                "coordinates": [
                    12.240156224536918,
                    45.63277237335965
                ]
            }
        },
        {
            "type": "Feature",
            "properties": {
                "name": "Giotto Duilio",
                "id": "18490",
                "brand": "Repsol",
                "amenity": "fuel",
                "operator": "GIOTTO DUILIO DI GIOTTO DUILIO E C. S.A.S."
            },
            "geometry": {
                "type": "Point",
                "coordinates": [
                    12.222033888101576,
                    45.6766868450554
                ]
            }
        },
        {
            "type": "Feature",
            "properties": {
                "name": "PREGANZIOL-VIA TERRAGLIO",
                "id": "11898",
                "brand": "Q8",
                "amenity": "fuel",
                "operator": "SERVIZI & GESTIONI ITALIA S.R.L."
            },
            "geometry": {
                "type": "Point",
                "coordinates": [
                    12.236385423278762,
                    45.6076194806274
                ]
            }
        },
        {
            "type": "Feature",
            "properties": {
                "name": "Area Zero s.n.c.",
                "id": "6013",
                "brand": "Agip Eni",
                "amenity": "fuel",
                "operator": "AREA ZERO S.N.C. DI STECCA MARINA & C."
            },
            "geometry": {
                "type": "Point",
                "coordinates": [
                    12.173901247221348,
                    45.60507058675546
                ]
            }
        },
        {
            "type": "Feature",
            "properties": {
                "name": "T.A.P.",
                "id": "6102",
                "amenity": "fuel",
                "operator": "TONON MORENO"
            },
            "geometry": {
                "type": "Point",
                "coordinates": [
                    12.222842555261991,
                    45.66565228596359
                ]
            }
        },
        {
            "type": "Feature",
            "properties": {
                "name": "STAZIONE DI SERVIZIO Q8",
                "id": "24664",
                "brand": "Q8",
                "amenity": "fuel",
                "operator": "CUOMO SANDRO"
            },
            "geometry": {
                "type": "Point",
                "coordinates": [
                    12.252133352778628,
                    45.68094987247098
                ]
            }
        },
        {
            "type": "Feature",
            "properties": {
                "name": "noaloil",
                "id": "27898",
                "brand": "Noaloil",
                "amenity": "fuel",
                "operator": "R.B.M. DI ONISTO MIRCO"
            },
            "geometry": {
                "type": "Point",
                "coordinates": [
                    12.226258925231717,
                    45.62617285014066
                ]
            }
        },
        {
            "type": "Feature",
            "properties": {
                "name": "VEGA TREVISO SUD",
                "id": "31527",
                "brand": "Vega",
                "amenity": "fuel",
                "operator": "VEGA CARBURANTI S.P.A."
            },
            "geometry": {
                "type": "Point",
                "coordinates": [
                    12.22016841173172,
                    45.651924253018905
                ]
            }
        },
        {
            "type": "Feature",
            "properties": {
                "name": "PUNTO VENDITA SMP",
                "id": "20386",
                "amenity": "fuel",
                "operator": "SERENA CARLO"
            },
            "geometry": {
                "type": "Point",
                "coordinates": [
                    12.232218235731125,
                    45.69293966322285
                ]
            }
        },
        {
            "type": "Feature",
            "properties": {
                "name": "Dinagas",
                "id": "17032",
                "amenity": "fuel",
                "operator": "DINAGAS DI BAREA OTELLO & C. - S.A.S."
            },
            "geometry": {
                "type": "Point",
                "coordinates": [
                    12.264320254325867,
                    45.612514838120156
                ]
            }
        },
        {
            "type": "Feature",
            "properties": {
                "name": "PREGANZIOL -LOC. LE GRAZIE S.S. 13,VIA DEL TERRAGLIO",
                "id": "7493",
                "brand": "Q8",
                "amenity": "fuel",
                "operator": "SERVIZI & GESTIONI ITALIA S.R.L."
            },
            "geometry": {
                "type": "Point",
                "coordinates": [
                    12.238436937332155,
                    45.62117729884335
                ]
            }
        },
        {
            "type": "Feature",
            "properties": {
                "name": "stazione servizio diellegi",
                "id": "9699",
                "brand": "Q8",
                "amenity": "fuel",
                "operator": "DIELLEGI S.R.L."
            },
            "geometry": {
                "type": "Point",
                "coordinates": [
                    12.17877924442291,
                    45.70248168588893
                ]
            }
        },
        {
            "type": "Feature",
            "properties": {
                "name": "TREVISO - MONTE GRAPPA",
                "id": "31027",
                "brand": "Api-Ip",
                "amenity": "fuel",
                "operator": "IP SERVICES S.R.L."
            },
            "geometry": {
                "type": "Point",
                "coordinates": [
                    12.2314981745418,
                    45.6667971554742
                ]
            }
        },
        {
            "type": "Feature",
            "properties": {
                "name": "Stazione di servizio \"ESSO\" Biliato Giovanni",
                "id": "8733",
                "brand": "Esso",
                "amenity": "fuel",
                "operator": "BILIATO GIOVANNI"
            },
            "geometry": {
                "type": "Point",
                "coordinates": [
                    12.250823378562927,
                    45.678123868825395
                ]
            }
        },
        {
            "type": "Feature",
            "properties": {
                "name": "TREVISO V.LE FELISSENT 104",
                "id": "6490",
                "brand": "Q8",
                "amenity": "fuel",
                "operator": "SERVIZI & GESTIONI ITALIA srl"
            },
            "geometry": {
                "type": "Point",
                "coordinates": [
                    12.259260053967298,
                    45.69762381299891
                ]
            }
        },
        {
            "type": "Feature",
            "properties": {
                "name": "metanotv1",
                "id": "21113",
                "amenity": "fuel",
                "operator": "LA METANO TREVISO S.R.L."
            },
            "geometry": {
                "type": "Point",
                "coordinates": [
                    12.265786156500782,
                    45.67877884261998
                ]
            }
        },
        {
            "type": "Feature",
            "properties": {
                "name": "EL NIDO SNC di paulon laura & c.",
                "id": "21166",
                "brand": "Total Erg",
                "amenity": "fuel",
                "operator": "EL NIDO S.N.C. DI PAULON LAURA & C."
            },
            "geometry": {
                "type": "Point",
                "coordinates": [
                    12.27022647857666,
                    45.60113085296527
                ]
            }
        },
        {
            "type": "Feature",
            "properties": {
                "name": "PAESE VIA POSTUMIA 137",
                "id": "6488",
                "brand": "Q8",
                "amenity": "fuel",
                "operator": "SERVIZI & GESTIONI ITALIA srl"
            },
            "geometry": {
                "type": "Point",
                "coordinates": [
                    12.169029958860845,
                    45.67193347170996
                ]
            }
        },
        {
            "type": "Feature",
            "properties": {
                "name": "TREVISO",
                "id": "5551",
                "brand": "Total Erg",
                "amenity": "fuel",
                "operator": "GESTIONI EUROPA S.p.A."
            },
            "geometry": {
                "type": "Point",
                "coordinates": [
                    12.266703341104515,
                    45.6628961180847
                ]
            }
        },
        {
            "type": "Feature",
            "properties": {
                "name": "San Marco Petroli",
                "id": "25638",
                "amenity": "fuel",
                "operator": "GRANELLO FABIO & C. S.A.S."
            },
            "geometry": {
                "type": "Point",
                "coordinates": [
                    12.235030478872885,
                    45.67582318954372
                ]
            }
        },
        {
            "type": "Feature",
            "properties": {
                "name": "FILVAR SAS SMP",
                "id": "19229",
                "amenity": "fuel",
                "operator": "FILVAR DI FILIPPETTO IVO & C. - S.A.S."
            },
            "geometry": {
                "type": "Point",
                "coordinates": [
                    12.29255720973015,
                    45.69079498967274
                ]
            }
        },
        {
            "type": "Feature",
            "properties": {
                "name": "TREVISO - VIA IV NOVEMBRE  78",
                "id": "30832",
                "brand": "Q8",
                "amenity": "fuel",
                "operator": "SERVIZI & GESTIONI ITALIA S.R.L."
            },
            "geometry": {
                "type": "Point",
                "coordinates": [
                    12.261784768717234,
                    45.66420367247441
                ]
            }
        },
        {
            "type": "Feature",
            "properties": {
                "name": "BEYFIN",
                "id": "9919",
                "amenity": "fuel",
                "operator": "STATION SERVICE S.R.L."
            },
            "geometry": {
                "type": "Point",
                "coordinates": [
                    12.193547487258911,
                    45.65317423870474
                ]
            }
        },
        {
            "type": "Feature",
            "properties": {
                "name": "API-DUE s.n.c",
                "id": "6107",
                "brand": "Api-Ip",
                "amenity": "fuel",
                "operator": "API-DUE S.N.C. DI TONON P. & C."
            },
            "geometry": {
                "type": "Point",
                "coordinates": [
                    12.273308336734774,
                    45.655476711946946
                ]
            }
        },
        {
            "type": "Feature",
            "properties": {
                "name": "Scorz√® (VE)",
                "id": "24313",
                "brand": "Total Erg",
                "amenity": "fuel",
                "operator": "GESTIONI EUROPA - SOCIETA' PER AZIONI"
            },
            "geometry": {
                "type": "Point",
                "coordinates": [
                    12.137899696826935,
                    45.58827894987835
                ]
            }
        },
        {
            "type": "Feature",
            "properties": {
                "name": "CASALE SUL SILE",
                "id": "5905",
                "brand": "Total Erg",
                "amenity": "fuel",
                "operator": "TotalErg SpA"
            },
            "geometry": {
                "type": "Point",
                "coordinates": [
                    12.266664999999989,
                    45.59584563034708
                ]
            }
        },
        {
            "type": "Feature",
            "properties": {
                "name": "Stazione di servizio Eni Pezzato Alessandro",
                "id": "24456",
                "brand": "Agip Eni",
                "amenity": "fuel",
                "operator": "PEZZATO ALESSANDRO"
            },
            "geometry": {
                "type": "Point",
                "coordinates": [
                    12.230567769418936,
                    45.666756420011076
                ]
            }
        },
        {
            "type": "Feature",
            "properties": {
                "name": "EUROGAS",
                "id": "4353",
                "amenity": "fuel",
                "operator": "EUROGAS DI SCATTOLON LUCA & C. S.A.S."
            },
            "geometry": {
                "type": "Point",
                "coordinates": [
                    12.259179800748827,
                    45.702982393387536
                ]
            }
        },
        {
            "type": "Feature",
            "properties": {
                "name": "v.le della repubblica 216 31100 treviso",
                "id": "7960",
                "brand": "Tamoil",
                "amenity": "fuel",
                "operator": "MORO GIUSEPPE"
            },
            "geometry": {
                "type": "Point",
                "coordinates": [
                    12.245086133480072,
                    45.68538300960054
                ]
            }
        },
        {
            "type": "Feature",
            "properties": {
                "name": "Autofficina B.S.",
                "id": "24641",
                "brand": "Agip Eni",
                "amenity": "fuel",
                "operator": "AUTOFFICINA B.S. S.N.C. DI BERALDO MAURO E C."
            },
            "geometry": {
                "type": "Point",
                "coordinates": [
                    12.244227826595306,
                    45.656047581739195
                ]
            }
        },
        {
            "type": "Feature",
            "properties": {
                "name": "STAZIONE DI SERVIZIO MARTON & FOFFANO",
                "id": "13741",
                "brand": "Costantin",
                "amenity": "fuel",
                "operator": "STAZIONE DI SERVIZIO DI MARTON LUCA E FOFFANO CHRISTIAN S.N.C."
            },
            "geometry": {
                "type": "Point",
                "coordinates": [
                    12.204052358865738,
                    45.64439093723488
                ]
            }
        },
        {
            "type": "Feature",
            "properties": {
                "name": "AGIP FIERA S.N.C. DI PEZZATO FEDERICO & C.",
                "id": "12573",
                "brand": "Agip Eni",
                "amenity": "fuel",
                "operator": "AGIP FIERA S.N.C. DI PEZZATO FEDERICO  & C."
            },
            "geometry": {
                "type": "Point",
                "coordinates": [
                    12.258696784655742,
                    45.665239091368974
                ]
            }
        },
        {
            "type": "Feature",
            "properties": {
                "name": "Sia Fuel Casale",
                "id": "26155",
                "brand": "Sia fuel",
                "amenity": "fuel",
                "operator": "S.I.A. ENGINEERING CONSTRUCTION S.R.L."
            },
            "geometry": {
                "type": "Point",
                "coordinates": [
                    12.276223897933956,
                    45.60117889394231
                ]
            }
        },
        {
            "type": "Feature",
            "properties": {
                "name": "IP STAZIONE DI SERVIZIO",
                "id": "21185",
                "brand": "Api-Ip",
                "amenity": "fuel",
                "operator": "BRUGNARO CLAUDIO &  WALTER S.N.C."
            },
            "geometry": {
                "type": "Point",
                "coordinates": [
                    12.236214056611058,
                    45.60656880446292
                ]
            }
        },
        {
            "type": "Feature",
            "properties": {
                "name": "vega Paese Treviso",
                "id": "4468",
                "brand": "Vega",
                "amenity": "fuel",
                "operator": "PARVO S.R.L."
            },
            "geometry": {
                "type": "Point",
                "coordinates": [
                    12.133975625038147,
                    45.67875728667009
                ]
            }
        },
        {
            "type": "Feature",
            "properties": {
                "name": "VEGA TREVISO NORD",
                "id": "31528",
                "brand": "Vega",
                "amenity": "fuel",
                "operator": "VEGA CARBURANTI S.P.A."
            },
            "geometry": {
                "type": "Point",
                "coordinates": [
                    12.220197916030882,
                    45.65246703557353
                ]
            }
        },
        {
            "type": "Feature",
            "properties": {
                "name": "Stazione di servizio Agip Stiore",
                "id": "14636",
                "brand": "Agip Eni",
                "amenity": "fuel",
                "operator": "STAZIONE SERVIZIO \"STIORE\" SNC DI MURER LUCIANO E PASATO MARTINA E C."
            },
            "geometry": {
                "type": "Point",
                "coordinates": [
                    12.225027182664462,
                    45.668441548529735
                ]
            }
        },
        {
            "type": "Feature",
            "properties": {
                "name": "TREVISO-VIALE DELLA REPUBBLICA 124",
                "id": "11899",
                "brand": "Q8",
                "amenity": "fuel",
                "operator": "SERVIZI & GESTIONI ITALIA S.R.L."
            },
            "geometry": {
                "type": "Point",
                "coordinates": [
                    12.236593469905872,
                    45.67631713069044
                ]
            }
        },
        {
            "type": "Feature",
            "properties": {
                "name": "ESSO",
                "id": "29213",
                "brand": "Esso",
                "amenity": "fuel",
                "operator": "VENTURIN  PAOLO"
            },
            "geometry": {
                "type": "Point",
                "coordinates": [
                    12.242795526981354,
                    45.65391527388349
                ]
            }
        },
        {
            "type": "Feature",
            "properties": {
                "name": "Stazione di servizio F.lli Cendron Snc",
                "id": "5080",
                "brand": "Agip Eni",
                "amenity": "fuel",
                "operator": "F.LLI CENDRON S.N.C. DI CENDRON IVANO & C."
            },
            "geometry": {
                "type": "Point",
                "coordinates": [
                    12.259340125287963,
                    45.70091963174538
                ]
            }
        }
    ]
}