{
    "type": "FeatureCollection",
    "features": [
        {
            "type": "Feature",
            "properties": {
                "name": "IP CERBARA",
                "id": "8786",
                "brand": "Api-Ip",
                "amenity": "fuel",
                "operator": "F.LLI CALABRESI S.N.C. DI CALABRESI ROMANO E RENATO"
            },
            "geometry": {
                "type": "Point",
                "coordinates": [
                    12.20956563949585,
                    43.50129641799766
                ]
            }
        },
        {
            "type": "Feature",
            "properties": {
                "name": "SANSEPOLCRO",
                "id": "26779",
                "brand": "Shell",
                "amenity": "fuel",
                "operator": "TIBER S.R.L."
            },
            "geometry": {
                "type": "Point",
                "coordinates": [
                    12.154690235875025,
                    43.56577645709385
                ]
            }
        },
        {
            "type": "Feature",
            "properties": {
                "name": "distributore totalerg",
                "id": "29658",
                "brand": "Total Erg",
                "amenity": "fuel",
                "operator": "GDA CARBURANTI DI DE AGAZIO GIOVANNI"
            },
            "geometry": {
                "type": "Point",
                "coordinates": [
                    12.201613462692311,
                    43.51292767073956
                ]
            }
        },
        {
            "type": "Feature",
            "properties": {
                "name": "F.lli giunti snc",
                "id": "8562",
                "brand": "Api-Ip",
                "amenity": "fuel",
                "operator": "F.LLI GIUNTI S.N.C. DI GIUNTI GIAMPIERO E FRANCO"
            },
            "geometry": {
                "type": "Point",
                "coordinates": [
                    12.129313945770264,
                    43.57104034996856
                ]
            }
        },
        {
            "type": "Feature",
            "properties": {
                "name": "Eni",
                "id": "16338",
                "brand": "Agip Eni",
                "amenity": "fuel",
                "operator": "FRATELLI TACCHINI S.N.C. DI TACCHINI ERNESTO ED ENRICO"
            },
            "geometry": {
                "type": "Point",
                "coordinates": [
                    12.239356935024263,
                    43.463272024078435
                ]
            }
        },
        {
            "type": "Feature",
            "properties": {
                "name": "Malatesta 156",
                "id": "5732",
                "brand": "Agip Eni",
                "amenity": "fuel",
                "operator": "D.F.D. DI VITTORIO FLAMINI E FILIPPO DEL TOGNO SNC"
            },
            "geometry": {
                "type": "Point",
                "coordinates": [
                    12.139329314231873,
                    43.573907059879495
                ]
            }
        },
        {
            "type": "Feature",
            "properties": {
                "name": "CITTA' DI CASTELLO NAZARIO SAURO  12",
                "id": "6603",
                "brand": "Q8",
                "amenity": "fuel",
                "operator": "SERVIZI & GESTIONI ITALIA srl"
            },
            "geometry": {
                "type": "Point",
                "coordinates": [
                    12.235715857672174,
                    43.45855367754239
                ]
            }
        },
        {
            "type": "Feature",
            "properties": {
                "name": "ARCIPRETI LEONELLO",
                "id": "27203",
                "brand": "Agip Eni",
                "amenity": "fuel",
                "operator": "ARCIPRETI LEONELLO"
            },
            "geometry": {
                "type": "Point",
                "coordinates": [
                    12.17919766902924,
                    43.5445588076872
                ]
            }
        },
        {
            "type": "Feature",
            "properties": {
                "name": "ENI",
                "id": "7507",
                "brand": "Agip Eni",
                "amenity": "fuel",
                "operator": "ZANGARELLI DARIO & C. S.A.S."
            },
            "geometry": {
                "type": "Point",
                "coordinates": [
                    12.243647690023295,
                    43.45479567711563
                ]
            }
        },
        {
            "type": "Feature",
            "properties": {
                "name": "distributore totalerg",
                "id": "30420",
                "amenity": "fuel",
                "operator": "GDA CARBURANTI DI DE AGAZIO GIOVANNI"
            },
            "geometry": {
                "type": "Point",
                "coordinates": [
                    12.201613462692311,
                    43.51292767073956
                ]
            }
        },
        {
            "type": "Feature",
            "properties": {
                "name": "La Sosta s.n.c.",
                "id": "8640",
                "brand": "Esso",
                "amenity": "fuel",
                "operator": "LA SOSTA S.N.C. DI MARTINELLI ANTONIO & C."
            },
            "geometry": {
                "type": "Point",
                "coordinates": [
                    12.221412956714628,
                    43.48547924658348
                ]
            }
        },
        {
            "type": "Feature",
            "properties": {
                "name": "STAZIONE DI SERVIZIO IP DI PIERACCI MASSIMO",
                "id": "24363",
                "brand": "Api-Ip",
                "amenity": "fuel",
                "operator": "STAZIONE DI SERVIZIO IP DI PIERACCI MASSIMO"
            },
            "geometry": {
                "type": "Point",
                "coordinates": [
                    12.171872556209566,
                    43.55232234747606
                ]
            }
        },
        {
            "type": "Feature",
            "properties": {
                "name": "p.&l.di pietosi f. & landi r. s.n.c.",
                "id": "15147",
                "brand": "Tamoil",
                "amenity": "fuel",
                "operator": "P. & L. DI PIETOSI F. & LANDI R. S.N.C."
            },
            "geometry": {
                "type": "Point",
                "coordinates": [
                    12.252438068389893,
                    43.462704337785084
                ]
            }
        },
        {
            "type": "Feature",
            "properties": {
                "name": "distributore totalerg",
                "id": "29138",
                "amenity": "fuel",
                "operator": "GDA CARBURANTI DI DE AGAZIO GIOVANNI"
            },
            "geometry": {
                "type": "Point",
                "coordinates": [
                    12.201613462692311,
                    43.51292767073956
                ]
            }
        },
        {
            "type": "Feature",
            "properties": {
                "name": "GREEN SERVICE",
                "id": "8377",
                "amenity": "fuel",
                "operator": "GAS SERVICE DI ALESSANDRO BRIZZI & C. S.A.S."
            },
            "geometry": {
                "type": "Point",
                "coordinates": [
                    12.244391441345215,
                    43.47208799812177
                ]
            }
        },
        {
            "type": "Feature",
            "properties": {
                "name": "STAZIONE DI SERVIZIO IP DI CORSINI LORIANO",
                "id": "24353",
                "brand": "Api-Ip",
                "amenity": "fuel",
                "operator": "STAZIONE DI SERVIZIO DI CORSINI LORIANO"
            },
            "geometry": {
                "type": "Point",
                "coordinates": [
                    12.21204807180743,
                    43.517952521881014
                ]
            }
        },
        {
            "type": "Feature",
            "properties": {
                "name": "Totalerg Via Vittorio Emanuele Orlando",
                "id": "17044",
                "brand": "Total Erg",
                "amenity": "fuel",
                "operator": "RAF 28 SRL"
            },
            "geometry": {
                "type": "Point",
                "coordinates": [
                    12.24420893367812,
                    43.453292644123806
                ]
            }
        },
        {
            "type": "Feature",
            "properties": {
                "name": "Cuku Mark",
                "id": "25435",
                "brand": "Agip Eni",
                "amenity": "fuel",
                "operator": "CUKU MARK"
            },
            "geometry": {
                "type": "Point",
                "coordinates": [
                    12.152183092065458,
                    43.56665961538409
                ]
            }
        },
        {
            "type": "Feature",
            "properties": {
                "name": "Il Quadrifoglio, area di servizio Total Erg",
                "id": "22287",
                "brand": "Total Erg",
                "amenity": "fuel",
                "operator": "IL QUADRIFOGLIO S.N.C. DI ACQUISTI-GAUDENZI-SMACCHIA"
            },
            "geometry": {
                "type": "Point",
                "coordinates": [
                    12.154584378004074,
                    43.50610021306998
                ]
            }
        }
    ]
}