{
    "type": "FeatureCollection",
    "features": [
        {
            "type": "Feature",
            "properties": {
                "name": "san mauro",
                "id": "9130",
                "brand": "Tamoil",
                "amenity": "fuel",
                "operator": "CALISESI & BIONDI S.R.L."
            },
            "geometry": {
                "type": "Point",
                "coordinates": [
                    12.21359431743622,
                    44.134277796370625
                ]
            }
        },
        {
            "type": "Feature",
            "properties": {
                "name": "ENERGIA FLUIDA CESENA",
                "id": "24754",
                "brand": "Energia Fluida",
                "amenity": "fuel",
                "operator": "SACCHETTI MASSIMO"
            },
            "geometry": {
                "type": "Point",
                "coordinates": [
                    12.27043837308884,
                    44.13068362279312
                ]
            }
        },
        {
            "type": "Feature",
            "properties": {
                "name": "TOTALERG di LEONI snc",
                "id": "5297",
                "brand": "Total Erg",
                "amenity": "fuel",
                "operator": "LEONI S.N.C. DI LEONI DEMIS E RUDY"
            },
            "geometry": {
                "type": "Point",
                "coordinates": [
                    12.15191423892975,
                    44.17617467862354
                ]
            }
        },
        {
            "type": "Feature",
            "properties": {
                "name": "ATRAS MONTALTI",
                "id": "4808",
                "brand": "Atras Montalti",
                "amenity": "fuel",
                "operator": "MONTALTI S.A.S. DI MONTALTI PAOLO E MAURO & C."
            },
            "geometry": {
                "type": "Point",
                "coordinates": [
                    12.235940630024743,
                    44.14088723581107
                ]
            }
        },
        {
            "type": "Feature",
            "properties": {
                "name": "Stazione di servizio ESSO",
                "id": "11289",
                "brand": "Esso",
                "amenity": "fuel",
                "operator": "PASINI DAVIDE"
            },
            "geometry": {
                "type": "Point",
                "coordinates": [
                    12.134690433740616,
                    44.18301912494629
                ]
            }
        },
        {
            "type": "Feature",
            "properties": {
                "name": "PV 533365 eni rete Cesena Marconi",
                "id": "31017",
                "brand": "Agip Eni",
                "amenity": "fuel",
                "operator": "ENI RETE OIL&NONOIL S.P.A."
            },
            "geometry": {
                "type": "Point",
                "coordinates": [
                    12.261903762896736,
                    44.13733914795853
                ]
            }
        },
        {
            "type": "Feature",
            "properties": {
                "name": "esso 3b lavaggio cesenate",
                "id": "18003",
                "brand": "Esso",
                "amenity": "fuel",
                "operator": "ESSO 3 B LAVAGGIO CESENATE DI BRAVACCINI R. & C. S.N.C."
            },
            "geometry": {
                "type": "Point",
                "coordinates": [
                    12.229491770267487,
                    44.14098774671407
                ]
            }
        },
        {
            "type": "Feature",
            "properties": {
                "name": "romea 863",
                "id": "9129",
                "brand": "Tamoil",
                "amenity": "fuel",
                "operator": "CALISESI & BIONDI S.R.L."
            },
            "geometry": {
                "type": "Point",
                "coordinates": [
                    12.217333316802982,
                    44.13775240539169
                ]
            }
        },
        {
            "type": "Feature",
            "properties": {
                "name": "cellini",
                "id": "9133",
                "brand": "Tamoil",
                "amenity": "fuel",
                "operator": "CALISESI & BIONDI S.R.L."
            },
            "geometry": {
                "type": "Point",
                "coordinates": [
                    12.273475118572605,
                    44.13017463498212
                ]
            }
        },
        {
            "type": "Feature",
            "properties": {
                "name": "calabrina",
                "id": "9134",
                "brand": "Tamoil",
                "amenity": "fuel",
                "operator": "CALISESI & BIONDI S.R.L."
            },
            "geometry": {
                "type": "Point",
                "coordinates": [
                    12.285515069961546,
                    44.17230179593376
                ]
            }
        },
        {
            "type": "Feature",
            "properties": {
                "name": "_ENI",
                "id": "7029",
                "brand": "Agip Eni",
                "amenity": "fuel",
                "operator": "CESENA 2006 SNC DI VERSITANO ANTONIO E C."
            },
            "geometry": {
                "type": "Point",
                "coordinates": [
                    12.257035374641422,
                    44.13897126136839
                ]
            }
        },
        {
            "type": "Feature",
            "properties": {
                "name": "gozi carmen",
                "id": "4207",
                "brand": "Agip Eni",
                "amenity": "fuel",
                "operator": "GOZI CARMEN SNC E C."
            },
            "geometry": {
                "type": "Point",
                "coordinates": [
                    12.214240729808807,
                    44.13151297806209
                ]
            }
        },
        {
            "type": "Feature",
            "properties": {
                "name": "san vittore 2",
                "id": "4827",
                "brand": "Tamoil",
                "amenity": "fuel",
                "operator": "CALISESI & BIONDI S.R.L."
            },
            "geometry": {
                "type": "Point",
                "coordinates": [
                    12.204877138137817,
                    44.11125936590017
                ]
            }
        },
        {
            "type": "Feature",
            "properties": {
                "name": "CALABRINA",
                "id": "26404",
                "brand": "Api-Ip",
                "amenity": "fuel",
                "operator": "S.C.E.L.F. SRL"
            },
            "geometry": {
                "type": "Point",
                "coordinates": [
                    12.296078254336635,
                    44.18051563455802
                ]
            }
        },
        {
            "type": "Feature",
            "properties": {
                "name": "Metanauto del Savio s.n.c. \"Pievesestina\"",
                "id": "15853",
                "amenity": "fuel",
                "operator": "METANAUTO DEL SAVIO DI NISO AVIO & MORDENTI BENITO S.N.C."
            },
            "geometry": {
                "type": "Point",
                "coordinates": [
                    12.22100811746304,
                    44.16004157736681
                ]
            }
        },
        {
            "type": "Feature",
            "properties": {
                "name": "stazione di servizio bartolini sesto & c.",
                "id": "8968",
                "brand": "Q8",
                "amenity": "fuel",
                "operator": "STAZIONE DI SERVIZIO SNC DI BARTOLINI SESTO & C."
            },
            "geometry": {
                "type": "Point",
                "coordinates": [
                    12.242803573608398,
                    44.12909880572727
                ]
            }
        },
        {
            "type": "Feature",
            "properties": {
                "name": "f.lli monti",
                "id": "4276",
                "brand": "Agip Eni",
                "amenity": "fuel",
                "operator": "F.LLI MONTI S.N.C. DI MONTI LORENO E IURI"
            },
            "geometry": {
                "type": "Point",
                "coordinates": [
                    12.220718264579773,
                    44.174887721710434
                ]
            }
        },
        {
            "type": "Feature",
            "properties": {
                "name": "san vittore 1",
                "id": "4822",
                "brand": "Tamoil",
                "amenity": "fuel",
                "operator": "CALISESI & BIONDI S.R.L."
            },
            "geometry": {
                "type": "Point",
                "coordinates": [
                    12.204190492630007,
                    44.11155362719369
                ]
            }
        },
        {
            "type": "Feature",
            "properties": {
                "name": "CONAD SUPERSTORE \"MONTEFIORE\"",
                "id": "4267",
                "brand": "CONAD",
                "amenity": "fuel",
                "operator": "LAEMA SRL"
            },
            "geometry": {
                "type": "Point",
                "coordinates": [
                    12.262213379144669,
                    44.14495314631386
                ]
            }
        },
        {
            "type": "Feature",
            "properties": {
                "name": "Massimo Vincenti",
                "id": "8305",
                "brand": "Agip Eni",
                "amenity": "fuel",
                "operator": "VINCENTI MASSIMO"
            },
            "geometry": {
                "type": "Point",
                "coordinates": [
                    12.246845662593842,
                    44.15150272846761
                ]
            }
        },
        {
            "type": "Feature",
            "properties": {
                "name": "Stazione di Servizio",
                "id": "25158",
                "amenity": "fuel",
                "operator": "MAESTRI S.P.A."
            },
            "geometry": {
                "type": "Point",
                "coordinates": [
                    12.24268128226231,
                    44.1708634722676
                ]
            }
        },
        {
            "type": "Feature",
            "properties": {
                "name": "Enercoop Cesena",
                "id": "31605",
                "amenity": "fuel",
                "operator": "ADRIATICA ENERGY S.R.L."
            },
            "geometry": {
                "type": "Point",
                "coordinates": [
                    12.22495749592781,
                    44.1738727564506
                ]
            }
        },
        {
            "type": "Feature",
            "properties": {
                "name": "PV 15946",
                "id": "25911",
                "brand": "Agip Eni",
                "amenity": "fuel",
                "operator": "GESTIONI INNOVATIVE ITALIA S.R.L."
            },
            "geometry": {
                "type": "Point",
                "coordinates": [
                    12.277275323867798,
                    44.13657202378569
                ]
            }
        },
        {
            "type": "Feature",
            "properties": {
                "name": "Cesena",
                "id": "27221",
                "brand": "Total Erg",
                "amenity": "fuel",
                "operator": "GESTIONI EUROPA - SOCIETA' PER AZIONI"
            },
            "geometry": {
                "type": "Point",
                "coordinates": [
                    12.29664623737335,
                    44.12345033525919
                ]
            }
        },
        {
            "type": "Feature",
            "properties": {
                "name": "Oilone- Cesena",
                "id": "13672",
                "amenity": "fuel",
                "operator": "ACEMA S.P.A."
            },
            "geometry": {
                "type": "Point",
                "coordinates": [
                    12.218599490737915,
                    44.14377303510056
                ]
            }
        },
        {
            "type": "Feature",
            "properties": {
                "name": "Stazione di Servizio EGO",
                "id": "31062",
                "brand": "Ego",
                "amenity": "fuel",
                "operator": "MAESTRI S.P.A."
            },
            "geometry": {
                "type": "Point",
                "coordinates": [
                    12.1741163829422,
                    44.18772702017967
                ]
            }
        },
        {
            "type": "Feature",
            "properties": {
                "name": "Stazione di Servizio EGO",
                "id": "24382",
                "brand": "Ego",
                "amenity": "fuel",
                "operator": "MAESTRI S.P.A."
            },
            "geometry": {
                "type": "Point",
                "coordinates": [
                    12.250886406268135,
                    44.14167512791245
                ]
            }
        },
        {
            "type": "Feature",
            "properties": {
                "name": "diegaro",
                "id": "9131",
                "brand": "Tamoil",
                "amenity": "fuel",
                "operator": "CALISESI & BIONDI S.R.L."
            },
            "geometry": {
                "type": "Point",
                "coordinates": [
                    12.193772792816162,
                    44.15755858362757
                ]
            }
        },
        {
            "type": "Feature",
            "properties": {
                "name": "ponte pietra",
                "id": "9132",
                "brand": "Tamoil",
                "amenity": "fuel",
                "operator": "CALISESI & BIONDI S.R.L."
            },
            "geometry": {
                "type": "Point",
                "coordinates": [
                    12.280327677726746,
                    44.14053194543282
                ]
            }
        },
        {
            "type": "Feature",
            "properties": {
                "name": "Metanauto del Savio s.n.c. \"Villachiaviche\"",
                "id": "15646",
                "amenity": "fuel",
                "operator": "METANAUTO DEL SAVIO DI NISO AVIO & MORDENTI BENITO S.N.C."
            },
            "geometry": {
                "type": "Point",
                "coordinates": [
                    12.278368036498934,
                    44.166943399484886
                ]
            }
        },
        {
            "type": "Feature",
            "properties": {
                "name": "ATRAS MONTALTI",
                "id": "4809",
                "brand": "Atras Montalti",
                "amenity": "fuel",
                "operator": "MONTALTI S.A.S. DI MONTALTI PAOLO E MAURO & C."
            },
            "geometry": {
                "type": "Point",
                "coordinates": [
                    12.22219372911377,
                    44.15614299415792
                ]
            }
        },
        {
            "type": "Feature",
            "properties": {
                "name": "Stazione di Servizio EGO",
                "id": "10075",
                "brand": "Ego",
                "amenity": "fuel",
                "operator": "MAESTRI S.P.A."
            },
            "geometry": {
                "type": "Point",
                "coordinates": [
                    12.231660744844017,
                    44.14051659443896
                ]
            }
        },
        {
            "type": "Feature",
            "properties": {
                "name": "eni  -r.t.m.di romualdi roberto e c sas",
                "id": "19429",
                "brand": "Agip Eni",
                "amenity": "fuel",
                "operator": "R.T.M. DI ROMUALDI ROBERTO E C. S.A.S."
            },
            "geometry": {
                "type": "Point",
                "coordinates": [
                    12.27352626621723,
                    44.16839537468908
                ]
            }
        },
        {
            "type": "Feature",
            "properties": {
                "name": "ATRAS MONTALTI",
                "id": "28214",
                "brand": "Atras Montalti",
                "amenity": "fuel",
                "operator": "MONTALTI S.A.S. DI MONTALTI PAOLO E MAURO & C."
            },
            "geometry": {
                "type": "Point",
                "coordinates": [
                    12.226856499910355,
                    44.1726219166202
                ]
            }
        },
        {
            "type": "Feature",
            "properties": {
                "name": "romea 3000",
                "id": "9128",
                "brand": "Tamoil",
                "amenity": "fuel",
                "operator": "CALISESI & BIONDI S.R.L."
            },
            "geometry": {
                "type": "Point",
                "coordinates": [
                    12.208075816532869,
                    44.119322525445796
                ]
            }
        },
        {
            "type": "Feature",
            "properties": {
                "name": "Stazione di Servizio Q8",
                "id": "27520",
                "brand": "Q8",
                "amenity": "fuel",
                "operator": "MAESTRI S.P.A."
            },
            "geometry": {
                "type": "Point",
                "coordinates": [
                    12.223295278573573,
                    44.14370446621185
                ]
            }
        }
    ]
}