{
    "type": "FeatureCollection",
    "features": [
        {
            "type": "Feature",
            "properties": {
                "name": "TAMOIL",
                "id": "24688",
                "brand": "Tamoil",
                "amenity": "fuel",
                "operator": "GESTIONE AREE SERVIZIO S.R.L."
            },
            "geometry": {
                "type": "Point",
                "coordinates": [
                    12.352148912303164,
                    41.91485507439615
                ]
            }
        },
        {
            "type": "Feature",
            "properties": {
                "name": "SECLA SAS",
                "id": "17108",
                "brand": "Api-Ip",
                "amenity": "fuel",
                "operator": "SECLA S.A.S. DI SERGIO NERI E C."
            },
            "geometry": {
                "type": "Point",
                "coordinates": [
                    12.4602609872818,
                    41.905087010349376
                ]
            }
        },
        {
            "type": "Feature",
            "properties": {
                "name": "ESSO LUNGOTEVERE FLAMINIO",
                "id": "28710",
                "brand": "Esso",
                "amenity": "fuel",
                "operator": "FLAMINIO CARBURANTI SOCIETA' IN ACCOMANDITA SEMPLICE DI OLCESE EZIO"
            },
            "geometry": {
                "type": "Point",
                "coordinates": [
                    12.470997880796402,
                    41.92047499904106
                ]
            }
        },
        {
            "type": "Feature",
            "properties": {
                "name": "Ashour",
                "id": "17837",
                "brand": "Api-Ip",
                "amenity": "fuel",
                "operator": "ASHOUR HAMDY EBRAHIM AHMED"
            },
            "geometry": {
                "type": "Point",
                "coordinates": [
                    12.444271742922181,
                    41.91119116176115
                ]
            }
        },
        {
            "type": "Feature",
            "properties": {
                "name": "ip  sigi",
                "id": "19312",
                "brand": "Api-Ip",
                "amenity": "fuel",
                "operator": "SI.GI. 2007 - S.R.L."
            },
            "geometry": {
                "type": "Point",
                "coordinates": [
                    12.470972388982773,
                    41.939436442269304
                ]
            }
        },
        {
            "type": "Feature",
            "properties": {
                "name": "tamoil",
                "id": "13080",
                "brand": "Tamoil",
                "amenity": "fuel",
                "operator": "MIGLIORINO PASQUALE"
            },
            "geometry": {
                "type": "Point",
                "coordinates": [
                    12.445000438944705,
                    41.91100800076698
                ]
            }
        },
        {
            "type": "Feature",
            "properties": {
                "name": "ROMA VIA DI TORREVECCHIA 639",
                "id": "24461",
                "brand": "Q8",
                "amenity": "fuel",
                "operator": "SERVIZI & GESTIONI ITALIA S.R.L."
            },
            "geometry": {
                "type": "Point",
                "coordinates": [
                    12.410786703704844,
                    41.92131668218526
                ]
            }
        },
        {
            "type": "Feature",
            "properties": {
                "name": "impianto ENI",
                "id": "4867",
                "brand": "Agip Eni",
                "amenity": "fuel",
                "operator": "SCANU GIOVANNI"
            },
            "geometry": {
                "type": "Point",
                "coordinates": [
                    12.334759086370468,
                    41.934247810871476
                ]
            }
        },
        {
            "type": "Feature",
            "properties": {
                "name": "Retitalia",
                "id": "30091",
                "brand": "Retitalia",
                "amenity": "fuel",
                "operator": "TROIANI DANILO"
            },
            "geometry": {
                "type": "Point",
                "coordinates": [
                    12.42430195212364,
                    41.910191591417686
                ]
            }
        },
        {
            "type": "Feature",
            "properties": {
                "name": "VIA BOCCEA N. 498",
                "id": "20131",
                "brand": "Total Erg",
                "amenity": "fuel",
                "operator": "GESTIONE CARBURANTI - SOCIETA' IN ACCOMANDITA SEMPLICE DI MARCELL O GRASSETTI"
            },
            "geometry": {
                "type": "Point",
                "coordinates": [
                    12.386122481592793,
                    41.91460806383858
                ]
            }
        },
        {
            "type": "Feature",
            "properties": {
                "name": "16980 TORREVECCHIA ROMA",
                "id": "26092",
                "brand": "Agip Eni",
                "amenity": "fuel",
                "operator": "ENI RETE OIL&NONOIL S.P.A."
            },
            "geometry": {
                "type": "Point",
                "coordinates": [
                    12.420011758804321,
                    41.93424860892963
                ]
            }
        },
        {
            "type": "Feature",
            "properties": {
                "name": "Merchioli Adriano TOTAL ERG",
                "id": "23225",
                "brand": "Total Erg",
                "amenity": "fuel",
                "operator": "MERCHIOLI ADRIANO"
            },
            "geometry": {
                "type": "Point",
                "coordinates": [
                    12.459628780885623,
                    41.95097932263702
                ]
            }
        },
        {
            "type": "Feature",
            "properties": {
                "name": "NI003683",
                "id": "8645",
                "brand": "Total Erg",
                "amenity": "fuel",
                "operator": "CORO S.R.L."
            },
            "geometry": {
                "type": "Point",
                "coordinates": [
                    12.420312504470758,
                    41.93217653516006
                ]
            }
        },
        {
            "type": "Feature",
            "properties": {
                "name": "ROMA - BOCCEA",
                "id": "27753",
                "brand": "Api-Ip",
                "amenity": "fuel",
                "operator": "IP SERVICES S.R.L."
            },
            "geometry": {
                "type": "Point",
                "coordinates": [
                    12.384467813491824,
                    41.914846904487526
                ]
            }
        },
        {
            "type": "Feature",
            "properties": {
                "name": "SELVA CANDIDA ESTERNA",
                "id": "3708",
                "brand": "Q8",
                "amenity": "fuel",
                "operator": "G.R.A. CARBURANTI DI BUCCI MARCO E C. SOCIETA' IN ACCOMANDITA SEM PLICE"
            },
            "geometry": {
                "type": "Point",
                "coordinates": [
                    12.38534688949585,
                    41.95789763968404
                ]
            }
        },
        {
            "type": "Feature",
            "properties": {
                "name": "Repsol - T.Petrol s.r.l. (ex Erg)",
                "id": "17169",
                "brand": "Repsol",
                "amenity": "fuel",
                "operator": "MARTINI VIRGILIO"
            },
            "geometry": {
                "type": "Point",
                "coordinates": [
                    12.46393608162157,
                    41.91485307181867
                ]
            }
        },
        {
            "type": "Feature",
            "properties": {
                "name": "ROMA TRIONFALE  8573",
                "id": "6622",
                "brand": "Q8",
                "amenity": "fuel",
                "operator": "SERVIZI & GESTIONI ITALIA srl"
            },
            "geometry": {
                "type": "Point",
                "coordinates": [
                    12.424324490213051,
                    41.93921228637908
                ]
            }
        },
        {
            "type": "Feature",
            "properties": {
                "name": "ORSI SECONDO",
                "id": "14364",
                "brand": "Api-Ip",
                "amenity": "fuel",
                "operator": "ORSI SECONDO"
            },
            "geometry": {
                "type": "Point",
                "coordinates": [
                    12.417682998147598,
                    41.90912210577426
                ]
            }
        },
        {
            "type": "Feature",
            "properties": {
                "name": "TAMOIL",
                "id": "9204",
                "brand": "Tamoil",
                "amenity": "fuel",
                "operator": "SCANU GIOVANNI"
            },
            "geometry": {
                "type": "Point",
                "coordinates": [
                    12.418474593254132,
                    41.93047564520286
                ]
            }
        },
        {
            "type": "Feature",
            "properties": {
                "name": "AgipCassia Neroni",
                "id": "20682",
                "brand": "Agip Eni",
                "amenity": "fuel",
                "operator": "AGIP CASSIA DI NERONI GIORGIO E TITO S.N.C."
            },
            "geometry": {
                "type": "Point",
                "coordinates": [
                    12.405804097652435,
                    41.98601512520213
                ]
            }
        },
        {
            "type": "Feature",
            "properties": {
                "name": "ENERPETROLI - VIA TRIONFALE",
                "id": "23327",
                "brand": "Enerpetroli",
                "amenity": "fuel",
                "operator": "ENERPETROLI S.R.L."
            },
            "geometry": {
                "type": "Point",
                "coordinates": [
                    12.414023317266128,
                    41.94895876917448
                ]
            }
        },
        {
            "type": "Feature",
            "properties": {
                "name": "GENNARI DARIO",
                "id": "14016",
                "brand": "Esso",
                "amenity": "fuel",
                "operator": "GENNARI DARIO"
            },
            "geometry": {
                "type": "Point",
                "coordinates": [
                    12.421089889549197,
                    41.90354367361627
                ]
            }
        },
        {
            "type": "Feature",
            "properties": {
                "name": "d'onofrio adriano",
                "id": "13850",
                "brand": "Api-Ip",
                "amenity": "fuel",
                "operator": "D'ONOFRIO ADRIANO"
            },
            "geometry": {
                "type": "Point",
                "coordinates": [
                    12.423062101006508,
                    41.92683393810708
                ]
            }
        },
        {
            "type": "Feature",
            "properties": {
                "name": "CAIAZZO CARLO",
                "id": "23390",
                "brand": "Shell",
                "amenity": "fuel",
                "operator": "CAIAZZO CARLO"
            },
            "geometry": {
                "type": "Point",
                "coordinates": [
                    12.381259202957152,
                    41.921915917556134
                ]
            }
        },
        {
            "type": "Feature",
            "properties": {
                "name": "IP CORRIDONI",
                "id": "30852",
                "brand": "Api-Ip",
                "amenity": "fuel",
                "operator": "HOSSAIN SHEIKH JABBER"
            },
            "geometry": {
                "type": "Point",
                "coordinates": [
                    12.460135378318228,
                    41.92129925770602
                ]
            }
        },
        {
            "type": "Feature",
            "properties": {
                "name": "SELF AREA ENI RAFFAELLI MAURO",
                "id": "12185",
                "brand": "Agip Eni",
                "amenity": "fuel",
                "operator": "RAFFAELLI MAURO"
            },
            "geometry": {
                "type": "Point",
                "coordinates": [
                    12.446501255035402,
                    41.91039978230909
                ]
            }
        },
        {
            "type": "Feature",
            "properties": {
                "name": "MARINO VINCENZO",
                "id": "17955",
                "brand": "Api-Ip",
                "amenity": "fuel",
                "operator": "MARINO VINCENZO"
            },
            "geometry": {
                "type": "Point",
                "coordinates": [
                    12.473546923688902,
                    41.91947707864666
                ]
            }
        },
        {
            "type": "Feature",
            "properties": {
                "name": "RM TORREVECCHIA",
                "id": "17696",
                "brand": "Api-Ip",
                "amenity": "fuel",
                "operator": "IP SERVICES S.R.L."
            },
            "geometry": {
                "type": "Point",
                "coordinates": [
                    12.417726822090117,
                    41.929305986448284
                ]
            }
        },
        {
            "type": "Feature",
            "properties": {
                "name": "stazione servizio totalerg",
                "id": "28881",
                "brand": "Total Erg",
                "amenity": "fuel",
                "operator": "TIGRE CARBURANTI DI CASANI MASSIMILIANO E C. S.A.S."
            },
            "geometry": {
                "type": "Point",
                "coordinates": [
                    12.383785843849186,
                    42.002357841929
                ]
            }
        },
        {
            "type": "Feature",
            "properties": {
                "name": "IP CLODIO",
                "id": "31294",
                "brand": "Api-Ip",
                "amenity": "fuel",
                "operator": "MD. ABU HANIF"
            },
            "geometry": {
                "type": "Point",
                "coordinates": [
                    12.455486722285514,
                    41.917878503007465
                ]
            }
        },
        {
            "type": "Feature",
            "properties": {
                "name": "Q8LAROSAGIUSEPPE",
                "id": "15691",
                "brand": "Q8",
                "amenity": "fuel",
                "operator": "LAROSA GIUSEPPE"
            },
            "geometry": {
                "type": "Point",
                "coordinates": [
                    12.451631793786532,
                    41.90971863843042
                ]
            }
        },
        {
            "type": "Feature",
            "properties": {
                "name": "STAR OIL BOCCEA",
                "id": "30854",
                "brand": "Q8",
                "amenity": "fuel",
                "operator": "HOSSAIN SHEIKH JABBER"
            },
            "geometry": {
                "type": "Point",
                "coordinates": [
                    12.377611608797679,
                    41.91858563465165
                ]
            }
        },
        {
            "type": "Feature",
            "properties": {
                "name": "Impianto IP",
                "id": "15641",
                "brand": "Api-Ip",
                "amenity": "fuel",
                "operator": "ASHOUR IBRAHIM ELDOSOUKI HIBRAHIM"
            },
            "geometry": {
                "type": "Point",
                "coordinates": [
                    12.47364897517446,
                    41.92597074711719
                ]
            }
        },
        {
            "type": "Feature",
            "properties": {
                "name": "stazione di servizio q8 di ciero giuseppe",
                "id": "18523",
                "brand": "Q8",
                "amenity": "fuel",
                "operator": "CIERO GIUSEPPE"
            },
            "geometry": {
                "type": "Point",
                "coordinates": [
                    12.47443291684408,
                    41.910190028176224
                ]
            }
        },
        {
            "type": "Feature",
            "properties": {
                "name": "Roma Battistini",
                "id": "10084",
                "brand": "Total Erg",
                "amenity": "fuel",
                "operator": "GESTIONI EUROPA - SOCIETA' PER AZIONI"
            },
            "geometry": {
                "type": "Point",
                "coordinates": [
                    12.41600587964058,
                    41.90681533163475
                ]
            }
        },
        {
            "type": "Feature",
            "properties": {
                "name": "tamoil",
                "id": "29620",
                "brand": "Tamoil",
                "amenity": "fuel",
                "operator": "PONTESILLI MARIO"
            },
            "geometry": {
                "type": "Point",
                "coordinates": [
                    12.440810993883133,
                    41.973410451347206
                ]
            }
        },
        {
            "type": "Feature",
            "properties": {
                "name": "ENERPETROLI-TORRESINA",
                "id": "27621",
                "brand": "Enerpetroli",
                "amenity": "fuel",
                "operator": "ENERPETROLI S.R.L."
            },
            "geometry": {
                "type": "Point",
                "coordinates": [
                    12.401346266269686,
                    41.92861731126757
                ]
            }
        },
        {
            "type": "Feature",
            "properties": {
                "name": "al.ma carburanti snc",
                "id": "16480",
                "brand": "Q8",
                "amenity": "fuel",
                "operator": "AL.MA. CARBURANTI DI FABIO MASSIMO SILVERI & C. SNC"
            },
            "geometry": {
                "type": "Point",
                "coordinates": [
                    12.44300056686484,
                    41.935214108586415
                ]
            }
        },
        {
            "type": "Feature",
            "properties": {
                "name": "GIGLIO FRANCESCO",
                "id": "13433",
                "brand": "Api-Ip",
                "amenity": "fuel",
                "operator": "GIGLIO FRANCESCO"
            },
            "geometry": {
                "type": "Point",
                "coordinates": [
                    12.468929312153932,
                    41.93693790766051
                ]
            }
        },
        {
            "type": "Feature",
            "properties": {
                "name": "Cagof Carburanti sas",
                "id": "23514",
                "brand": "Q8",
                "amenity": "fuel",
                "operator": "CAGOF CARBURANTI S.A.S. DI LUCA VENANZI"
            },
            "geometry": {
                "type": "Point",
                "coordinates": [
                    12.446588241718246,
                    41.9072629613055
                ]
            }
        },
        {
            "type": "Feature",
            "properties": {
                "name": "L'olimpica S.N.C.",
                "id": "23077",
                "brand": "Esso",
                "amenity": "fuel",
                "operator": "L'OLIMPICA DI FEDERICI FABIO E C. - SOCIETA' IN NOME COLLETTIVO"
            },
            "geometry": {
                "type": "Point",
                "coordinates": [
                    12.470829634254413,
                    41.924652216018245
                ]
            }
        },
        {
            "type": "Feature",
            "properties": {
                "name": "ROMA - C.SO FRANCIA",
                "id": "24276",
                "brand": "Api-Ip",
                "amenity": "fuel",
                "operator": "IP SERVICES S.R.L."
            },
            "geometry": {
                "type": "Point",
                "coordinates": [
                    12.470572634059973,
                    41.94271470644685
                ]
            }
        },
        {
            "type": "Feature",
            "properties": {
                "name": "SELVA CANDIDA INTERNA",
                "id": "3696",
                "brand": "Q8",
                "amenity": "fuel",
                "operator": "SERVIZI & GESTIONI ITALIA S.R.L."
            },
            "geometry": {
                "type": "Point",
                "coordinates": [
                    12.389311194419857,
                    41.95909039216814
                ]
            }
        },
        {
            "type": "Feature",
            "properties": {
                "name": "ROMA-VIA TRIONFALE 13911",
                "id": "11809",
                "brand": "Q8",
                "amenity": "fuel",
                "operator": "SERVIZI & GESTIONI ITALIA S.R.L."
            },
            "geometry": {
                "type": "Point",
                "coordinates": [
                    12.407540991401676,
                    41.9825604330372
                ]
            }
        },
        {
            "type": "Feature",
            "properties": {
                "name": "IP BRACCIANESE",
                "id": "32057",
                "brand": "Api-Ip",
                "amenity": "fuel",
                "operator": "S & P PETROLI S.R.L."
            },
            "geometry": {
                "type": "Point",
                "coordinates": [
                    12.343544661998745,
                    42.02492478879671
                ]
            }
        },
        {
            "type": "Feature",
            "properties": {
                "name": "ROMA VIA MEDAGLIE D'ORO 57",
                "id": "6619",
                "brand": "Q8",
                "amenity": "fuel",
                "operator": "SERVIZI & GESTIONI ITALIA srl"
            },
            "geometry": {
                "type": "Point",
                "coordinates": [
                    12.445767616532864,
                    41.91070761505201
                ]
            }
        },
        {
            "type": "Feature",
            "properties": {
                "name": "API Anonima Petroli Italiana",
                "id": "24326",
                "brand": "Api-Ip",
                "amenity": "fuel",
                "operator": "PIERI FRANCO"
            },
            "geometry": {
                "type": "Point",
                "coordinates": [
                    12.462774741568637,
                    41.94073822846907
                ]
            }
        },
        {
            "type": "Feature",
            "properties": {
                "name": "PRIORETTI PETROLI GROUP SRL",
                "id": "5065",
                "brand": "Esso",
                "amenity": "fuel",
                "operator": "PRIORETTI PETROLI GROUP S.R.L."
            },
            "geometry": {
                "type": "Point",
                "coordinates": [
                    12.396983653306961,
                    41.95037161473592
                ]
            }
        },
        {
            "type": "Feature",
            "properties": {
                "name": "GIOVANROSA SNC DI GIOVANROSA MARCO E GIOVANROSA VINCENZO",
                "id": "13972",
                "brand": "Agip Eni",
                "amenity": "fuel",
                "operator": "GIOVANROSA SNC DI GIOVANROSA MARCO E GIOVANROSA VINCENZO"
            },
            "geometry": {
                "type": "Point",
                "coordinates": [
                    12.425488829612732,
                    41.90474405535887
                ]
            }
        },
        {
            "type": "Feature",
            "properties": {
                "name": "Roma Cassia",
                "id": "12940",
                "brand": "Total Erg",
                "amenity": "fuel",
                "operator": "GESTIONI EUROPA - SOCIETA' PER AZIONI"
            },
            "geometry": {
                "type": "Point",
                "coordinates": [
                    12.468034029006954,
                    41.95127436227773
                ]
            }
        },
        {
            "type": "Feature",
            "properties": {
                "name": "GAGLIARDINI STEFANO",
                "id": "14362",
                "brand": "Q8",
                "amenity": "fuel",
                "operator": "GAGLIARDINI STEFANO"
            },
            "geometry": {
                "type": "Point",
                "coordinates": [
                    12.41024851799011,
                    41.903774668621594
                ]
            }
        },
        {
            "type": "Feature",
            "properties": {
                "name": "NOVA TEVERE 93 SNC",
                "id": "9963",
                "brand": "Tamoil",
                "amenity": "fuel",
                "operator": "NOVA TEVERE 93 - S.N.C. DI BUCCHI FRANCESCO"
            },
            "geometry": {
                "type": "Point",
                "coordinates": [
                    12.458981117279677,
                    41.93028235325016
                ]
            }
        },
        {
            "type": "Feature",
            "properties": {
                "name": "MANCA OTTAVIO",
                "id": "14348",
                "amenity": "fuel",
                "operator": "MANCA OTTAVIO"
            },
            "geometry": {
                "type": "Point",
                "coordinates": [
                    12.415732467902673,
                    41.90357589838071
                ]
            }
        },
        {
            "type": "Feature",
            "properties": {
                "name": "SHEIKH OIL PETROLI TORREVECCHIA",
                "id": "30857",
                "brand": "Q8",
                "amenity": "fuel",
                "operator": "SHEIKH  JASIM  UDDIN"
            },
            "geometry": {
                "type": "Point",
                "coordinates": [
                    12.414561270500144,
                    41.9258697735303
                ]
            }
        },
        {
            "type": "Feature",
            "properties": {
                "name": "Energia Romana",
                "id": "4017",
                "brand": "Agip Eni",
                "amenity": "fuel",
                "operator": "ENERGIA ROMANA S.R.L."
            },
            "geometry": {
                "type": "Point",
                "coordinates": [
                    12.424248307943344,
                    41.92334241081608
                ]
            }
        },
        {
            "type": "Feature",
            "properties": {
                "name": "clarioni 2011",
                "id": "19308",
                "brand": "Agip Eni",
                "amenity": "fuel",
                "operator": "CLARIONI 2011 S.R.L."
            },
            "geometry": {
                "type": "Point",
                "coordinates": [
                    12.469257116317747,
                    41.94666153385342
                ]
            }
        },
        {
            "type": "Feature",
            "properties": {
                "name": "Panta - selva candida",
                "id": "31228",
                "brand": "Api-Ip",
                "amenity": "fuel",
                "operator": "PANTA IMPIANTI DISTRIBUZIONE CARBURANTI E AFFINI  S.R.L."
            },
            "geometry": {
                "type": "Point",
                "coordinates": [
                    12.377905413457142,
                    41.93761715219853
                ]
            }
        },
        {
            "type": "Feature",
            "properties": {
                "name": "TOTAL ERG",
                "id": "13172",
                "brand": "Total Erg",
                "amenity": "fuel",
                "operator": "CONFALONE MASSIMO"
            },
            "geometry": {
                "type": "Point",
                "coordinates": [
                    12.4362434084685,
                    41.93617166454271
                ]
            }
        },
        {
            "type": "Feature",
            "properties": {
                "name": "esso",
                "id": "28571",
                "brand": "Esso",
                "amenity": "fuel",
                "operator": "STIVALETTA S.A.S. DI STIVALETTA ANDREA E STIVALETTA STEFANIA & C."
            },
            "geometry": {
                "type": "Point",
                "coordinates": [
                    12.447989917652192,
                    41.96247462226486
                ]
            }
        },
        {
            "type": "Feature",
            "properties": {
                "name": "IP di Cozzatella",
                "id": "31763",
                "brand": "Api-Ip",
                "amenity": "fuel",
                "operator": "COZZATELLA CARLO"
            },
            "geometry": {
                "type": "Point",
                "coordinates": [
                    12.409981664418071,
                    41.98349837635695
                ]
            }
        },
        {
            "type": "Feature",
            "properties": {
                "name": "ROMA",
                "id": "5881",
                "brand": "Total Erg",
                "amenity": "fuel",
                "operator": "TotalErg SpA"
            },
            "geometry": {
                "type": "Point",
                "coordinates": [
                    12.395406318360529,
                    41.95834399473275
                ]
            }
        },
        {
            "type": "Feature",
            "properties": {
                "name": "TAMOIL",
                "id": "31266",
                "brand": "Tamoil",
                "amenity": "fuel",
                "operator": "SCANU GIUSEPPE"
            },
            "geometry": {
                "type": "Point",
                "coordinates": [
                    12.39520736038685,
                    41.90726467153115
                ]
            }
        },
        {
            "type": "Feature",
            "properties": {
                "name": "SELVA CANDIDA ESTERNA",
                "id": "3926",
                "brand": "Total Erg",
                "amenity": "fuel",
                "operator": "PETROLGEST DI VINCENZO CULTRERA - S.A.S."
            },
            "geometry": {
                "type": "Point",
                "coordinates": [
                    12.385175228118898,
                    41.958133798518766
                ]
            }
        },
        {
            "type": "Feature",
            "properties": {
                "name": "Apicella Luigi",
                "id": "14225",
                "brand": "Api-Ip",
                "amenity": "fuel",
                "operator": "APICELLA LUIGI"
            },
            "geometry": {
                "type": "Point",
                "coordinates": [
                    12.443180205801582,
                    41.939149887981536
                ]
            }
        },
        {
            "type": "Feature",
            "properties": {
                "name": "ewa",
                "id": "29072",
                "amenity": "fuel",
                "operator": "M.G. PETROLI S.A.S. DI LUCIANO MASSIMILIANO"
            },
            "geometry": {
                "type": "Point",
                "coordinates": [
                    12.413815952778576,
                    41.91338070541341
                ]
            }
        },
        {
            "type": "Feature",
            "properties": {
                "name": "stazione di servizio totalerg",
                "id": "18084",
                "brand": "Total Erg",
                "amenity": "fuel",
                "operator": "REALE ALESSANDRA"
            },
            "geometry": {
                "type": "Point",
                "coordinates": [
                    12.471833057017191,
                    41.94289018318586
                ]
            }
        },
        {
            "type": "Feature",
            "properties": {
                "name": "GRASSETTI MARCELLO",
                "id": "14018",
                "brand": "Total Erg",
                "amenity": "fuel",
                "operator": "GRASSETTI MARCELLO"
            },
            "geometry": {
                "type": "Point",
                "coordinates": [
                    12.472046839086717,
                    41.903544968121196
                ]
            }
        },
        {
            "type": "Feature",
            "properties": {
                "name": "Distributore Goldengas",
                "id": "28857",
                "brand": "Api-Ip",
                "amenity": "fuel",
                "operator": "ESSEMME GAS DI FARCOMENI SERGIO & C. S.A.S."
            },
            "geometry": {
                "type": "Point",
                "coordinates": [
                    12.404457628726957,
                    41.95681496812502
                ]
            }
        },
        {
            "type": "Feature",
            "properties": {
                "name": "TOTALERG",
                "id": "20893",
                "brand": "Total Erg",
                "amenity": "fuel",
                "operator": "SHAIK MAHABUB ALOM"
            },
            "geometry": {
                "type": "Point",
                "coordinates": [
                    12.448378801345827,
                    41.91181478345268
                ]
            }
        },
        {
            "type": "Feature",
            "properties": {
                "name": "BO.RO PETROLI SRL - Cassia",
                "id": "28919",
                "brand": "Total Erg",
                "amenity": "fuel",
                "operator": "BO.RO PETROLI S.R.L."
            },
            "geometry": {
                "type": "Point",
                "coordinates": [
                    12.396553158760074,
                    41.99129783281552
                ]
            }
        },
        {
            "type": "Feature",
            "properties": {
                "name": "Fuel Discount",
                "id": "29602",
                "amenity": "fuel",
                "operator": "A.F.G. - PETROLI S.R.L."
            },
            "geometry": {
                "type": "Point",
                "coordinates": [
                    12.375297993421555,
                    41.921580110779
                ]
            }
        },
        {
            "type": "Feature",
            "properties": {
                "name": "meda86 esso",
                "id": "20390",
                "brand": "Esso",
                "amenity": "fuel",
                "operator": "M.E.D.A. 86 DI SCALINI MASSIMO - SOCIETA' IN ACCOMANDITA SEMPLICE"
            },
            "geometry": {
                "type": "Point",
                "coordinates": [
                    12.41501299940569,
                    41.906845826439586
                ]
            }
        },
        {
            "type": "Feature",
            "properties": {
                "name": "ESSO",
                "id": "23024",
                "amenity": "fuel",
                "operator": "PARADISI MAURIZIO"
            },
            "geometry": {
                "type": "Point",
                "coordinates": [
                    12.423141947607409,
                    41.921313937785186
                ]
            }
        },
        {
            "type": "Feature",
            "properties": {
                "name": "IP GRUPPO API",
                "id": "17846",
                "brand": "Api-Ip",
                "amenity": "fuel",
                "operator": "2 OPL DISTRIBUZIONE CARBURANTI DI OLIVI PIETRO E LIVIO SOCIETA IN NOME COLLETTIVO"
            },
            "geometry": {
                "type": "Point",
                "coordinates": [
                    12.462845117468419,
                    41.91457337936972
                ]
            }
        },
        {
            "type": "Feature",
            "properties": {
                "name": "Distributore IP",
                "id": "28879",
                "brand": "Api-Ip",
                "amenity": "fuel",
                "operator": "FARCOMENI SERGIO"
            },
            "geometry": {
                "type": "Point",
                "coordinates": [
                    12.404433488845823,
                    41.956814968155456
                ]
            }
        },
        {
            "type": "Feature",
            "properties": {
                "name": "ciucci maurizio",
                "id": "16793",
                "brand": "Agip Eni",
                "amenity": "fuel",
                "operator": "CIUCCI MAURIZIO"
            },
            "geometry": {
                "type": "Point",
                "coordinates": [
                    12.469448527957864,
                    41.915271416336765
                ]
            }
        },
        {
            "type": "Feature",
            "properties": {
                "name": "Panta - Boccea",
                "id": "31227",
                "brand": "Api-Ip",
                "amenity": "fuel",
                "operator": "PANTA IMPIANTI DISTRIBUZIONE CARBURANTI E AFFINI  S.R.L."
            },
            "geometry": {
                "type": "Point",
                "coordinates": [
                    12.399616241455075,
                    41.91030377106662
                ]
            }
        },
        {
            "type": "Feature",
            "properties": {
                "name": "cassia carburanti - via cassia",
                "id": "12691",
                "brand": "Tamoil",
                "amenity": "fuel",
                "operator": "CASSIA CARBURANTI DUE DI GIULIANI FEDERICO & C. S.A.S."
            },
            "geometry": {
                "type": "Point",
                "coordinates": [
                    12.376498281955715,
                    42.01611339276925
                ]
            }
        },
        {
            "type": "Feature",
            "properties": {
                "name": "Petrolitalia",
                "id": "29219",
                "amenity": "fuel",
                "operator": "FRANCO EMANUELE"
            },
            "geometry": {
                "type": "Point",
                "coordinates": [
                    12.413958806745885,
                    41.92514197552705
                ]
            }
        },
        {
            "type": "Feature",
            "properties": {
                "name": "Camilluccia",
                "id": "7534",
                "brand": "Agip Eni",
                "amenity": "fuel",
                "operator": "GESTIONI RIUNITE G.R. S.R.L."
            },
            "geometry": {
                "type": "Point",
                "coordinates": [
                    12.450556755065918,
                    41.94419101234029
                ]
            }
        },
        {
            "type": "Feature",
            "properties": {
                "name": "daniele orlandi",
                "id": "29216",
                "brand": "Esso",
                "amenity": "fuel",
                "operator": "ORLANDI DANIELE"
            },
            "geometry": {
                "type": "Point",
                "coordinates": [
                    12.468754471361535,
                    41.9142390172028
                ]
            }
        },
        {
            "type": "Feature",
            "properties": {
                "name": "ferranti gino",
                "id": "16769",
                "brand": "Api-Ip",
                "amenity": "fuel",
                "operator": "FERRANTI GINO"
            },
            "geometry": {
                "type": "Point",
                "coordinates": [
                    12.454281023099385,
                    41.91599140775332
                ]
            }
        },
        {
            "type": "Feature",
            "properties": {
                "name": "Ip di BONELLI luca",
                "id": "28797",
                "brand": "Api-Ip",
                "amenity": "fuel",
                "operator": "BONELLI LUCA"
            },
            "geometry": {
                "type": "Point",
                "coordinates": [
                    12.409960180521011,
                    41.98350978272954
                ]
            }
        },
        {
            "type": "Feature",
            "properties": {
                "name": "RM PRIMAVALLE",
                "id": "17709",
                "brand": "Api-Ip",
                "amenity": "fuel",
                "operator": "IP SERVICES S.R.L."
            },
            "geometry": {
                "type": "Point",
                "coordinates": [
                    12.413051720237718,
                    41.91215608759595
                ]
            }
        },
        {
            "type": "Feature",
            "properties": {
                "name": "STAZIONE ESSO MAURIZIO PARADISI",
                "id": "29181",
                "brand": "Esso",
                "amenity": "fuel",
                "operator": "PARADISI MAURIZIO"
            },
            "geometry": {
                "type": "Point",
                "coordinates": [
                    12.423173412680626,
                    41.92146525674208
                ]
            }
        },
        {
            "type": "Feature",
            "properties": {
                "name": "ROSCILLI FRANCO",
                "id": "13499",
                "brand": "Q8",
                "amenity": "fuel",
                "operator": "ROSCILLI FRANCO"
            },
            "geometry": {
                "type": "Point",
                "coordinates": [
                    12.457429866260895,
                    41.919925144355695
                ]
            }
        },
        {
            "type": "Feature",
            "properties": {
                "name": "ERG",
                "id": "11229",
                "brand": "Total Erg",
                "amenity": "fuel",
                "operator": "MASELLI FILIPPO"
            },
            "geometry": {
                "type": "Point",
                "coordinates": [
                    12.449810827552026,
                    41.94377433592225
                ]
            }
        },
        {
            "type": "Feature",
            "properties": {
                "name": "alessandro innocenzi",
                "id": "9100",
                "brand": "Q8",
                "amenity": "fuel",
                "operator": "INNOCENZI ALESSANDRO"
            },
            "geometry": {
                "type": "Point",
                "coordinates": [
                    12.41378171945405,
                    41.91385248140172
                ]
            }
        },
        {
            "type": "Feature",
            "properties": {
                "name": "GI.CLA.petroli s.n.c.",
                "id": "13480",
                "brand": "Q8",
                "amenity": "fuel",
                "operator": "GI.CLA. PETROLI S.N.C. DI AQUILA GIOVANNI & CLAUDIO."
            },
            "geometry": {
                "type": "Point",
                "coordinates": [
                    12.419718779692856,
                    41.94249601125925
                ]
            }
        },
        {
            "type": "Feature",
            "properties": {
                "name": "petrol selce",
                "id": "27645",
                "amenity": "fuel",
                "operator": "PETROL SELCE S.R.L."
            },
            "geometry": {
                "type": "Point",
                "coordinates": [
                    12.345776117474315,
                    41.9031730475424
                ]
            }
        },
        {
            "type": "Feature",
            "properties": {
                "name": "totalerg",
                "id": "20408",
                "brand": "Total Erg",
                "amenity": "fuel",
                "operator": "LUCHINI EZIO"
            },
            "geometry": {
                "type": "Point",
                "coordinates": [
                    12.438402825848355,
                    41.92260802666711
                ]
            }
        },
        {
            "type": "Feature",
            "properties": {
                "name": "BOVINI MAURIZIO",
                "id": "13946",
                "amenity": "fuel",
                "operator": "BOVINI MAURIZIO"
            },
            "geometry": {
                "type": "Point",
                "coordinates": [
                    12.425192891801315,
                    41.936724900501446
                ]
            }
        },
        {
            "type": "Feature",
            "properties": {
                "name": "Flaminia Servizi sas",
                "id": "19016",
                "brand": "Agip Eni",
                "amenity": "fuel",
                "operator": "FLAMINIA SERVIZI S.A.S. DI PICIERNO ANGELA"
            },
            "geometry": {
                "type": "Point",
                "coordinates": [
                    12.471794486045837,
                    41.943684216437795
                ]
            }
        },
        {
            "type": "Feature",
            "properties": {
                "name": "ROMA - DI CASALOTTI 49",
                "id": "31420",
                "brand": "Api-Ip",
                "amenity": "fuel",
                "operator": "IP SERVICES S.R.L."
            },
            "geometry": {
                "type": "Point",
                "coordinates": [
                    12.374882186508215,
                    41.91616625471393
                ]
            }
        },
        {
            "type": "Feature",
            "properties": {
                "name": "Cortina",
                "id": "7537",
                "brand": "Total Erg",
                "amenity": "fuel",
                "operator": "GESTIONI RIUNITE G.R. S.R.L."
            },
            "geometry": {
                "type": "Point",
                "coordinates": [
                    12.43847742676735,
                    41.94240306579519
                ]
            }
        },
        {
            "type": "Feature",
            "properties": {
                "name": "FELGAS BOCCEA",
                "id": "17555",
                "amenity": "fuel",
                "operator": "FELGAS PETROLI SRL"
            },
            "geometry": {
                "type": "Point",
                "coordinates": [
                    12.378678917884825,
                    41.91663301734352
                ]
            }
        },
        {
            "type": "Feature",
            "properties": {
                "name": "LA VISTA FRANCO",
                "id": "14312",
                "brand": "Shell",
                "amenity": "fuel",
                "operator": "LA VISTA FRANCO"
            },
            "geometry": {
                "type": "Point",
                "coordinates": [
                    12.423220687137244,
                    41.92503198308635
                ]
            }
        },
        {
            "type": "Feature",
            "properties": {
                "name": "IP GRUPPO API",
                "id": "15423",
                "brand": "Api-Ip",
                "amenity": "fuel",
                "operator": "CICOGNA ALESSIO"
            },
            "geometry": {
                "type": "Point",
                "coordinates": [
                    12.422912996889522,
                    41.924448715279276
                ]
            }
        },
        {
            "type": "Feature",
            "properties": {
                "name": "ip",
                "id": "19747",
                "brand": "Api-Ip",
                "amenity": "fuel",
                "operator": "BELLASSAI GAETANO"
            },
            "geometry": {
                "type": "Point",
                "coordinates": [
                    12.421896681189537,
                    41.92676808460841
                ]
            }
        },
        {
            "type": "Feature",
            "properties": {
                "name": "stazione di servizio eni",
                "id": "23392",
                "brand": "Agip Eni",
                "amenity": "fuel",
                "operator": "IMPERIALE NICO"
            },
            "geometry": {
                "type": "Point",
                "coordinates": [
                    12.480278313159943,
                    41.9337585545872
                ]
            }
        },
        {
            "type": "Feature",
            "properties": {
                "name": "eni",
                "id": "31769",
                "brand": "Agip Eni",
                "amenity": "fuel",
                "operator": "MUNDIAL CARBURANTI DI CATALDO & DE FABRITIIS S.N.C."
            },
            "geometry": {
                "type": "Point",
                "coordinates": [
                    12.471416790212972,
                    41.939905350084764
                ]
            }
        },
        {
            "type": "Feature",
            "properties": {
                "name": "IP",
                "id": "7540",
                "brand": "Api-Ip",
                "amenity": "fuel",
                "operator": "EMMEBI OIL DI MECARELLI GIANLUCA & C. SOCIETA'IN NOME COLLETTIVO"
            },
            "geometry": {
                "type": "Point",
                "coordinates": [
                    12.379810810089111,
                    42.006016845768066
                ]
            }
        },
        {
            "type": "Feature",
            "properties": {
                "name": "SELVA CANDIDA INTERNA",
                "id": "3527",
                "brand": "Total Erg",
                "amenity": "fuel",
                "operator": "PETROL POINT 90 DI ZANGRILLI MARIA PIA E C. - S.A.S."
            },
            "geometry": {
                "type": "Point",
                "coordinates": [
                    12.389612942934036,
                    41.9588039740919
                ]
            }
        },
        {
            "type": "Feature",
            "properties": {
                "name": "CHECK POINT DI STEFANO ROSSI",
                "id": "18176",
                "brand": "Api-Ip",
                "amenity": "fuel",
                "operator": "CHECK POINT DI STEFANO ROSSI"
            },
            "geometry": {
                "type": "Point",
                "coordinates": [
                    12.3756266711639,
                    41.92201445632845
                ]
            }
        },
        {
            "type": "Feature",
            "properties": {
                "name": "GRASSETTI MARCELLO",
                "id": "14019",
                "brand": "Total Erg",
                "amenity": "fuel",
                "operator": "GRASSETTI MARCELLO"
            },
            "geometry": {
                "type": "Point",
                "coordinates": [
                    12.462601290508132,
                    41.90586231628871
                ]
            }
        },
        {
            "type": "Feature",
            "properties": {
                "name": "STABILE ANGELO",
                "id": "14599",
                "brand": "Esso",
                "amenity": "fuel",
                "operator": "STABILE ANGELO"
            },
            "geometry": {
                "type": "Point",
                "coordinates": [
                    12.444850489464443,
                    41.9727866465882
                ]
            }
        },
        {
            "type": "Feature",
            "properties": {
                "name": "agip",
                "id": "15150",
                "brand": "Agip Eni",
                "amenity": "fuel",
                "operator": "DI GIACOMO MARCO"
            },
            "geometry": {
                "type": "Point",
                "coordinates": [
                    12.432435032848048,
                    41.93492324319562
                ]
            }
        },
        {
            "type": "Feature",
            "properties": {
                "name": "ROMA ANASTASIO II",
                "id": "23343",
                "brand": "Api-Ip",
                "amenity": "fuel",
                "operator": "IP SERVICES S.R.L."
            },
            "geometry": {
                "type": "Point",
                "coordinates": [
                    12.4428038478851,
                    41.90383194047735
                ]
            }
        },
        {
            "type": "Feature",
            "properties": {
                "name": "fabio massimo silveri",
                "id": "16462",
                "brand": "Agip Eni",
                "amenity": "fuel",
                "operator": "SILVERI FABIO MASSIMO"
            },
            "geometry": {
                "type": "Point",
                "coordinates": [
                    12.422451212803251,
                    41.922619566460625
                ]
            }
        },
        {
            "type": "Feature",
            "properties": {
                "name": "AREA TAMOIL BALDUINA",
                "id": "8543",
                "brand": "Tamoil",
                "amenity": "fuel",
                "operator": "BALDUINA CARBURANTI - S.R.L."
            },
            "geometry": {
                "type": "Point",
                "coordinates": [
                    12.44238406419754,
                    41.925627810225215
                ]
            }
        },
        {
            "type": "Feature",
            "properties": {
                "name": "IP - ROMA - VIA BOCCEA",
                "id": "24791",
                "brand": "Api-Ip",
                "amenity": "fuel",
                "operator": "ITALA PETROLI S.R.L."
            },
            "geometry": {
                "type": "Point",
                "coordinates": [
                    12.404626816007973,
                    41.90856306055225
                ]
            }
        },
        {
            "type": "Feature",
            "properties": {
                "name": "Roma Trionfale",
                "id": "10102",
                "brand": "Total Erg",
                "amenity": "fuel",
                "operator": "GESTIONI EUROPA - SOCIETA' PER AZIONI"
            },
            "geometry": {
                "type": "Point",
                "coordinates": [
                    12.412646532540862,
                    41.95682506587507
                ]
            }
        },
        {
            "type": "Feature",
            "properties": {
                "name": "ROMA VIA COGOLETO 28",
                "id": "6631",
                "brand": "Q8",
                "amenity": "fuel",
                "operator": "SERVIZI & GESTIONI ITALIA srl"
            },
            "geometry": {
                "type": "Point",
                "coordinates": [
                    12.422840517790974,
                    41.93007362280622
                ]
            }
        },
        {
            "type": "Feature",
            "properties": {
                "name": "GIANELLI ALBERTO",
                "id": "13504",
                "brand": "Q8",
                "amenity": "fuel",
                "operator": "GIANELLI ALBERTO"
            },
            "geometry": {
                "type": "Point",
                "coordinates": [
                    12.45481878519058,
                    41.91762795529374
                ]
            }
        },
        {
            "type": "Feature",
            "properties": {
                "name": "TOTALERG",
                "id": "14878",
                "brand": "Total Erg",
                "amenity": "fuel",
                "operator": "BUOZZI CARBURANTI S.N.C. DI FRANCO E MASSIMO CERTELLI"
            },
            "geometry": {
                "type": "Point",
                "coordinates": [
                    12.476955391466616,
                    41.919183666580366
                ]
            }
        },
        {
            "type": "Feature",
            "properties": {
                "name": "FLAMINIA CARBURANTI",
                "id": "28950",
                "brand": "Total Erg",
                "amenity": "fuel",
                "operator": "FLAMINIA CARBURANTI SOCIETA' IN NOME COLLETTIVO DI D. DE LEONIBUS , F. DI NARDI E D. DI NARDI"
            },
            "geometry": {
                "type": "Point",
                "coordinates": [
                    12.475833774170269,
                    41.95445172499823
                ]
            }
        },
        {
            "type": "Feature",
            "properties": {
                "name": "Tiziano",
                "id": "7532",
                "brand": "Total Erg",
                "amenity": "fuel",
                "operator": "GESTIONI RIUNITE G.R. S.R.L."
            },
            "geometry": {
                "type": "Point",
                "coordinates": [
                    12.472251802682877,
                    41.922826060151
                ]
            }
        },
        {
            "type": "Feature",
            "properties": {
                "name": "FADDA SALVATORE",
                "id": "20188",
                "brand": "Api-Ip",
                "amenity": "fuel",
                "operator": "FADDA SALVATORE"
            },
            "geometry": {
                "type": "Point",
                "coordinates": [
                    12.473762072768979,
                    41.91003808269651
                ]
            }
        },
        {
            "type": "Feature",
            "properties": {
                "name": "LA STORTA",
                "id": "22212",
                "amenity": "fuel",
                "operator": "I.C.M. SOCIETA' IN NOME COLLETTIVO DI BRUNO, CRISTIANO E FABRIZIO MAGGI"
            },
            "geometry": {
                "type": "Point",
                "coordinates": [
                    12.363198548555378,
                    41.96342919010397
                ]
            }
        },
        {
            "type": "Feature",
            "properties": {
                "name": "Esso di Campidonico Giorgio",
                "id": "28821",
                "brand": "Esso",
                "amenity": "fuel",
                "operator": "CAMPIDONICO GIORGIO"
            },
            "geometry": {
                "type": "Point",
                "coordinates": [
                    12.410862711639426,
                    41.96009827960411
                ]
            }
        },
        {
            "type": "Feature",
            "properties": {
                "name": "ROMA - BRACCIANESE",
                "id": "31200",
                "brand": "Api-Ip",
                "amenity": "fuel",
                "operator": "IP SERVICES S.R.L."
            },
            "geometry": {
                "type": "Point",
                "coordinates": [
                    12.36764162778854,
                    42.011420656782654
                ]
            }
        },
        {
            "type": "Feature",
            "properties": {
                "name": "Retitalia",
                "id": "22288",
                "brand": "Retitalia",
                "amenity": "fuel",
                "operator": "TROIANI DANILO"
            },
            "geometry": {
                "type": "Point",
                "coordinates": [
                    12.446028232172011,
                    41.904073481801866
                ]
            }
        },
        {
            "type": "Feature",
            "properties": {
                "name": "PIBIRI PAOLO",
                "id": "13832",
                "brand": "Agip Eni",
                "amenity": "fuel",
                "operator": "PIBIRI PAOLO"
            },
            "geometry": {
                "type": "Point",
                "coordinates": [
                    12.457652193070317,
                    41.92608368723024
                ]
            }
        },
        {
            "type": "Feature",
            "properties": {
                "name": "Spaziocarburanti s.r.l.",
                "id": "28691",
                "brand": "Agip Eni",
                "amenity": "fuel",
                "operator": "SPAZIO CARBURANTI S.R.L."
            },
            "geometry": {
                "type": "Point",
                "coordinates": [
                    12.402267605066298,
                    41.91227945748745
                ]
            }
        },
        {
            "type": "Feature",
            "properties": {
                "name": "DISTRIBUTORE TOTALERG",
                "id": "31863",
                "brand": "Total Erg",
                "amenity": "fuel",
                "operator": "SILVESTRINI ILENIA"
            },
            "geometry": {
                "type": "Point",
                "coordinates": [
                    12.452040687203406,
                    41.96037546832733
                ]
            }
        },
        {
            "type": "Feature",
            "properties": {
                "name": "GARGARI RENZO",
                "id": "14014",
                "brand": "Api-Ip",
                "amenity": "fuel",
                "operator": "GARGARI RENZO"
            },
            "geometry": {
                "type": "Point",
                "coordinates": [
                    12.432044938452236,
                    41.93508813781812
                ]
            }
        },
        {
            "type": "Feature",
            "properties": {
                "name": "TROCIONI MIRELLA",
                "id": "16559",
                "brand": "Api-Ip",
                "amenity": "fuel",
                "operator": "TROCIONI MIRELLA"
            },
            "geometry": {
                "type": "Point",
                "coordinates": [
                    12.40945327445047,
                    41.961617332400046
                ]
            }
        },
        {
            "type": "Feature",
            "properties": {
                "name": "FILMARTE",
                "id": "7332",
                "brand": "Api-Ip",
                "amenity": "fuel",
                "operator": "FILMARTE  S.R.L."
            },
            "geometry": {
                "type": "Point",
                "coordinates": [
                    12.374881178075158,
                    41.91616085717579
                ]
            }
        }
    ]
}