{
    "type": "FeatureCollection",
    "features": [
        {
            "type": "Feature",
            "properties": {
                "name": "stazione di servizio",
                "id": "19253",
                "brand": "Api-Ip",
                "amenity": "fuel",
                "operator": "BABUCCI ANTONIO"
            },
            "geometry": {
                "type": "Point",
                "coordinates": [
                    12.337186664459294,
                    42.91209472650921
                ]
            }
        },
        {
            "type": "Feature",
            "properties": {
                "name": "RUBECA MARIO",
                "id": "15315",
                "amenity": "fuel",
                "operator": "RUBECA MARIO"
            },
            "geometry": {
                "type": "Point",
                "coordinates": [
                    12.33763575553894,
                    42.91735751697375
                ]
            }
        },
        {
            "type": "Feature",
            "properties": {
                "name": "TOTALERG",
                "id": "20462",
                "brand": "Total Erg",
                "amenity": "fuel",
                "operator": "AGRITURISMO IL NOCETO S.N.C. DI PEZZANERA V. & C."
            },
            "geometry": {
                "type": "Point",
                "coordinates": [
                    12.3694708943367,
                    42.855052484518204
                ]
            }
        },
        {
            "type": "Feature",
            "properties": {
                "name": "totalerg",
                "id": "30806",
                "brand": "Total Erg",
                "amenity": "fuel",
                "operator": "BARRESI ALESSANDRO"
            },
            "geometry": {
                "type": "Point",
                "coordinates": [
                    12.396647036075596,
                    42.92929427195402
                ]
            }
        },
        {
            "type": "Feature",
            "properties": {
                "name": "METACOM S.A.S.",
                "id": "30973",
                "brand": "Agip Eni",
                "amenity": "fuel",
                "operator": "METACOM S.A.S. DI AURELIO TABARRINI E C."
            },
            "geometry": {
                "type": "Point",
                "coordinates": [
                    12.40215904837953,
                    42.817997158984454
                ]
            }
        },
        {
            "type": "Feature",
            "properties": {
                "name": "stazione di servizio",
                "id": "19252",
                "brand": "Api-Ip",
                "amenity": "fuel",
                "operator": "BABUCCI ANTONIO"
            },
            "geometry": {
                "type": "Point",
                "coordinates": [
                    12.337186664459294,
                    42.91209472650921
                ]
            }
        },
        {
            "type": "Feature",
            "properties": {
                "name": "MORETTI SNC",
                "id": "32025",
                "amenity": "fuel",
                "operator": "VICTORIA CARBURANTI SOCIETA' A RESPONSABILITA' LIMITATA"
            },
            "geometry": {
                "type": "Point",
                "coordinates": [
                    12.354449182748793,
                    42.92878051371794
                ]
            }
        },
        {
            "type": "Feature",
            "properties": {
                "name": "GSA ENERGY",
                "id": "23793",
                "amenity": "fuel",
                "operator": "GSA SERVICE S.R.L."
            },
            "geometry": {
                "type": "Point",
                "coordinates": [
                    12.372984815621978,
                    42.85281870963308
                ]
            }
        },
        {
            "type": "Feature",
            "properties": {
                "name": "Stazione Servizio Q8 Collepepe",
                "id": "4909",
                "brand": "Q8",
                "amenity": "fuel",
                "operator": "GUGLIELMI GIULIO"
            },
            "geometry": {
                "type": "Point",
                "coordinates": [
                    12.39692062139511,
                    42.9288349141249
                ]
            }
        },
        {
            "type": "Feature",
            "properties": {
                "name": "ip",
                "id": "30772",
                "brand": "Api-Ip",
                "amenity": "fuel",
                "operator": "SOCIETA' MARCONI DI MERI E ROBERTO MARCONI S.N.C."
            },
            "geometry": {
                "type": "Point",
                "coordinates": [
                    12.40545809268951,
                    42.81423291107215
                ]
            }
        },
        {
            "type": "Feature",
            "properties": {
                "name": "_Moretti",
                "id": "4584",
                "amenity": "fuel",
                "operator": "MORETTI S.N.C. DI MORETTI MARSILIA E C."
            },
            "geometry": {
                "type": "Point",
                "coordinates": [
                    12.434490323066708,
                    42.90330895713283
                ]
            }
        },
        {
            "type": "Feature",
            "properties": {
                "name": "BERARDI MARIA PIA",
                "id": "8557",
                "brand": "Agip Eni",
                "amenity": "fuel",
                "operator": "BERARDI MARIA PIA"
            },
            "geometry": {
                "type": "Point",
                "coordinates": [
                    12.338756918907166,
                    42.91187614638772
                ]
            }
        },
        {
            "type": "Feature",
            "properties": {
                "name": "Stazione Rifornimento IP di Pinchi Sandro",
                "id": "25698",
                "brand": "Api-Ip",
                "amenity": "fuel",
                "operator": "PINCHI SANDRO"
            },
            "geometry": {
                "type": "Point",
                "coordinates": [
                    12.474511563777922,
                    42.86563106658039
                ]
            }
        },
        {
            "type": "Feature",
            "properties": {
                "name": "P.F. SERVICE",
                "id": "21149",
                "brand": "Api-Ip",
                "amenity": "fuel",
                "operator": "P.F. SERVICE SOCIETA' IN ACCOMANDITA SEMPLICE DI PALOMBA FABIO & C."
            },
            "geometry": {
                "type": "Point",
                "coordinates": [
                    12.394063700575655,
                    42.86947753403909
                ]
            }
        },
        {
            "type": "Feature",
            "properties": {
                "name": "METANO TODI PIAN DI PORTO",
                "id": "29887",
                "amenity": "fuel",
                "operator": "METANO TODI DI QUARTUCCI GIUSEPPE"
            },
            "geometry": {
                "type": "Point",
                "coordinates": [
                    12.402305155992508,
                    42.81783915416078
                ]
            }
        },
        {
            "type": "Feature",
            "properties": {
                "name": "PANTALLA DI TODI",
                "id": "4441",
                "brand": "Api-Ip",
                "amenity": "fuel",
                "operator": "RAUSEO GESTIONI S.A.S. DI RAUSEO GIUSEPPE"
            },
            "geometry": {
                "type": "Point",
                "coordinates": [
                    12.395356893539429,
                    42.8791844554647
                ]
            }
        },
        {
            "type": "Feature",
            "properties": {
                "name": "MORETTI PETROLI",
                "id": "14809",
                "amenity": "fuel",
                "operator": "FALDEMAC DI FALCHI S. & LOLETTI M. S.N.C."
            },
            "geometry": {
                "type": "Point",
                "coordinates": [
                    12.354453543624915,
                    42.92878078968803
                ]
            }
        },
        {
            "type": "Feature",
            "properties": {
                "name": "MORETTI SNC",
                "id": "32024",
                "amenity": "fuel",
                "operator": "VICTORIA CARBURANTI SOCIETA' A RESPONSABILITA' LIMITATA"
            },
            "geometry": {
                "type": "Point",
                "coordinates": [
                    12.382051170669568,
                    42.917338359627024
                ]
            }
        },
        {
            "type": "Feature",
            "properties": {
                "name": "FEDERICI ANTONIO",
                "id": "21890",
                "brand": "Total Erg",
                "amenity": "fuel",
                "operator": "FEDERICI ANTONIO"
            },
            "geometry": {
                "type": "Point",
                "coordinates": [
                    12.337258234620094,
                    42.913405062543326
                ]
            }
        },
        {
            "type": "Feature",
            "properties": {
                "name": "MARSCIANO - CRUCIANI",
                "id": "27278",
                "brand": "Api-Ip",
                "amenity": "fuel",
                "operator": "IP SERVICES S.R.L."
            },
            "geometry": {
                "type": "Point",
                "coordinates": [
                    12.345199999999979,
                    42.90365108265833
                ]
            }
        },
        {
            "type": "Feature",
            "properties": {
                "name": "Moretti",
                "id": "4583",
                "amenity": "fuel",
                "operator": "MORETTI S.N.C. DI MORETTI MARSILIA E C."
            },
            "geometry": {
                "type": "Point",
                "coordinates": [
                    12.382059842348099,
                    42.917322159924574
                ]
            }
        }
    ]
}