{
    "type": "FeatureCollection",
    "features": [
        {
            "type": "Feature",
            "properties": {
                "name": "Q8",
                "id": "14961",
                "brand": "Shell",
                "amenity": "fuel",
                "operator": "PAGANELLI MARCELLO"
            },
            "geometry": {
                "type": "Point",
                "coordinates": [
                    12.402030229568485,
                    44.192719096317234
                ]
            }
        },
        {
            "type": "Feature",
            "properties": {
                "name": "BB SNC",
                "id": "10941",
                "brand": "Q8",
                "amenity": "fuel",
                "operator": "BB S.N.C. DI ENZO BOLOGNESI E C."
            },
            "geometry": {
                "type": "Point",
                "coordinates": [
                    12.349386513233181,
                    44.16519366711534
                ]
            }
        },
        {
            "type": "Feature",
            "properties": {
                "name": "RUBICONE OVEST",
                "id": "3679",
                "brand": "Q8",
                "amenity": "fuel",
                "operator": "Rubicone ovest snc"
            },
            "geometry": {
                "type": "Point",
                "coordinates": [
                    12.408521865081752,
                    44.11620743663914
                ]
            }
        },
        {
            "type": "Feature",
            "properties": {
                "name": "Totalerg",
                "id": "18907",
                "brand": "Total Erg",
                "amenity": "fuel",
                "operator": "MUSSONI MARIA ASSUNTA"
            },
            "geometry": {
                "type": "Point",
                "coordinates": [
                    12.455856425933803,
                    44.14590046761958
                ]
            }
        },
        {
            "type": "Feature",
            "properties": {
                "name": "SAVIGNANO",
                "id": "5941",
                "brand": "Total Erg",
                "amenity": "fuel",
                "operator": "GESTIONI EUROPA S.p.A."
            },
            "geometry": {
                "type": "Point",
                "coordinates": [
                    12.42771726256558,
                    44.15942739382415
                ]
            }
        },
        {
            "type": "Feature",
            "properties": {
                "name": "ROCCHI",
                "id": "17055",
                "brand": "Q8",
                "amenity": "fuel",
                "operator": "ROCCHI SERGIO & C. - SOCIETA' IN NOME COLLETTIVO"
            },
            "geometry": {
                "type": "Point",
                "coordinates": [
                    12.338889688253403,
                    44.10910628444805
                ]
            }
        },
        {
            "type": "Feature",
            "properties": {
                "name": "RUBICONE EST",
                "id": "3893",
                "brand": "Api-Ip",
                "amenity": "fuel",
                "operator": "RUBICONE PETROLI SNC DI BALASSO CLAUDIO E CO."
            },
            "geometry": {
                "type": "Point",
                "coordinates": [
                    12.408400000000002,
                    44.1169
                ]
            }
        },
        {
            "type": "Feature",
            "properties": {
                "name": "GEP CELLI GIULIANO SRL PV GATTEO",
                "id": "25019",
                "brand": "Gep carburanti",
                "amenity": "fuel",
                "operator": "CELLI GIULIANO S.R.L."
            },
            "geometry": {
                "type": "Point",
                "coordinates": [
                    12.38936155052488,
                    44.133514322542396
                ]
            }
        },
        {
            "type": "Feature",
            "properties": {
                "name": "Total Erg",
                "id": "5046",
                "brand": "Total Erg",
                "amenity": "fuel",
                "operator": "GUIDI CARBURANTI DI GUIDI DANIELE  &  MARCO S.N.C."
            },
            "geometry": {
                "type": "Point",
                "coordinates": [
                    12.388833761215208,
                    44.201961759289894
                ]
            }
        },
        {
            "type": "Feature",
            "properties": {
                "name": "savignano",
                "id": "9127",
                "brand": "Tamoil",
                "amenity": "fuel",
                "operator": "CALISESI & BIONDI S.R.L."
            },
            "geometry": {
                "type": "Point",
                "coordinates": [
                    12.375347614288328,
                    44.091693872494375
                ]
            }
        },
        {
            "type": "Feature",
            "properties": {
                "name": "Metanopoli",
                "id": "4252",
                "brand": "Agip Eni",
                "amenity": "fuel",
                "operator": "METANOPOLI DI GRIDELLI QUINTO E FAENZA GIANCARLO  S.N.C. ."
            },
            "geometry": {
                "type": "Point",
                "coordinates": [
                    12.35415982019049,
                    44.11444318705252
                ]
            }
        },
        {
            "type": "Feature",
            "properties": {
                "name": "distributore Q8 di Magnani Davide",
                "id": "12436",
                "brand": "Q8",
                "amenity": "fuel",
                "operator": "MAGNANI DAVIDE"
            },
            "geometry": {
                "type": "Point",
                "coordinates": [
                    12.417687050926247,
                    44.18113038850559
                ]
            }
        },
        {
            "type": "Feature",
            "properties": {
                "name": "GEP CELLI GIULIANO SRL PV SAN MAURO",
                "id": "4308",
                "brand": "Gep carburanti",
                "amenity": "fuel",
                "operator": "CELLI GIULIANO S.R.L."
            },
            "geometry": {
                "type": "Point",
                "coordinates": [
                    12.431411520793178,
                    44.11095881940476
                ]
            }
        },
        {
            "type": "Feature",
            "properties": {
                "name": "GEP CELLI GIULIANO SRL PV GATTEO",
                "id": "4307",
                "brand": "Gep carburanti",
                "amenity": "fuel",
                "operator": "CELLI GIULIANO S.R.L."
            },
            "geometry": {
                "type": "Point",
                "coordinates": [
                    12.38936155052488,
                    44.133514322542396
                ]
            }
        },
        {
            "type": "Feature",
            "properties": {
                "name": "esso",
                "id": "17962",
                "brand": "Esso",
                "amenity": "fuel",
                "operator": "GARDINI LORETTA"
            },
            "geometry": {
                "type": "Point",
                "coordinates": [
                    12.399409711360931,
                    44.1950264361877
                ]
            }
        },
        {
            "type": "Feature",
            "properties": {
                "name": "carabini marco e c. s.a.s.",
                "id": "5181",
                "brand": "Tamoil",
                "amenity": "fuel",
                "operator": "CARABINI MARCO & C. S.A.S."
            },
            "geometry": {
                "type": "Point",
                "coordinates": [
                    12.397440969944002,
                    44.1931391086047
                ]
            }
        },
        {
            "type": "Feature",
            "properties": {
                "name": "Stazione di Servizio Q8",
                "id": "10069",
                "brand": "Q8",
                "amenity": "fuel",
                "operator": "MAESTRI S.P.A."
            },
            "geometry": {
                "type": "Point",
                "coordinates": [
                    12.38762409325409,
                    44.1116570194327
                ]
            }
        },
        {
            "type": "Feature",
            "properties": {
                "name": "DISTRIBUTORE TOTALERG DI BARGELLINI ELIO",
                "id": "14900",
                "brand": "Total Erg",
                "amenity": "fuel",
                "operator": "DISTRIBUTORE TOTAL DI BARGELLINI ELIO"
            },
            "geometry": {
                "type": "Point",
                "coordinates": [
                    12.39081537050015,
                    44.196169659405
                ]
            }
        },
        {
            "type": "Feature",
            "properties": {
                "name": "S.MAURO PASCOLI V. NUOVA CIR.NE - S.P. 10 snc",
                "id": "23947",
                "brand": "Total Erg",
                "amenity": "fuel",
                "operator": "TOTALERG S.P.A."
            },
            "geometry": {
                "type": "Point",
                "coordinates": [
                    12.410732656717302,
                    44.107873715986635
                ]
            }
        },
        {
            "type": "Feature",
            "properties": {
                "name": "LONGIANO-VIA EMILIA 2500",
                "id": "11594",
                "brand": "Q8",
                "amenity": "fuel",
                "operator": "SERVIZI & GESTIONI ITALIA S.R.L."
            },
            "geometry": {
                "type": "Point",
                "coordinates": [
                    12.341715395450592,
                    44.101165781967005
                ]
            }
        },
        {
            "type": "Feature",
            "properties": {
                "name": "BELLARIA NUOVA SS.16 KM.187,800",
                "id": "21658",
                "brand": "Q8",
                "amenity": "fuel",
                "operator": "SERVIZI & GESTIONI ITALIA S.R.L."
            },
            "geometry": {
                "type": "Point",
                "coordinates": [
                    12.444216549265546,
                    44.149529776590285
                ]
            }
        },
        {
            "type": "Feature",
            "properties": {
                "name": "GEP via Rigossa",
                "id": "30915",
                "brand": "Gep carburanti",
                "amenity": "fuel",
                "operator": "CELLI GIULIANO S.R.L."
            },
            "geometry": {
                "type": "Point",
                "coordinates": [
                    12.402922407006827,
                    44.150199819034945
                ]
            }
        },
        {
            "type": "Feature",
            "properties": {
                "name": "Monti",
                "id": "12972",
                "amenity": "fuel",
                "operator": "SERVISAVENA S.R.L."
            },
            "geometry": {
                "type": "Point",
                "coordinates": [
                    12.383793890476229,
                    44.146546776197134
                ]
            }
        },
        {
            "type": "Feature",
            "properties": {
                "name": "Stazione eni di Paganelli Nerio",
                "id": "8753",
                "brand": "Agip Eni",
                "amenity": "fuel",
                "operator": "PAGANELLI NERIO"
            },
            "geometry": {
                "type": "Point",
                "coordinates": [
                    12.304839044809341,
                    44.188146841481
                ]
            }
        },
        {
            "type": "Feature",
            "properties": {
                "name": "7255",
                "id": "24742",
                "brand": "Tamoil",
                "amenity": "fuel",
                "operator": "T.D.M. S.R.L."
            },
            "geometry": {
                "type": "Point",
                "coordinates": [
                    12.4330472946167,
                    44.155737793414666
                ]
            }
        },
        {
            "type": "Feature",
            "properties": {
                "name": "REPSOL",
                "id": "24323",
                "brand": "Repsol",
                "amenity": "fuel",
                "operator": "3G SRL"
            },
            "geometry": {
                "type": "Point",
                "coordinates": [
                    12.407201528549193,
                    44.18748637969709
                ]
            }
        },
        {
            "type": "Feature",
            "properties": {
                "name": "P.V.Tamoil",
                "id": "26709",
                "brand": "Tamoil",
                "amenity": "fuel",
                "operator": "C.B. PETROLI S.N.C. DI CUCCHI FABRIZIO E BASCHETTI GIUSEPPE"
            },
            "geometry": {
                "type": "Point",
                "coordinates": [
                    12.447706953372972,
                    44.15213724465819
                ]
            }
        },
        {
            "type": "Feature",
            "properties": {
                "name": "IP",
                "id": "8541",
                "brand": "Api-Ip",
                "amenity": "fuel",
                "operator": "GOBBI VILMA & C. S.A.S."
            },
            "geometry": {
                "type": "Point",
                "coordinates": [
                    12.331914603710175,
                    44.11363960415895
                ]
            }
        },
        {
            "type": "Feature",
            "properties": {
                "name": "IP cesenatico",
                "id": "24200",
                "brand": "Api-Ip",
                "amenity": "fuel",
                "operator": "FABBRI ELGA"
            },
            "geometry": {
                "type": "Point",
                "coordinates": [
                    12.398771223278802,
                    44.19612075348096
                ]
            }
        },
        {
            "type": "Feature",
            "properties": {
                "name": "bartolini",
                "id": "12706",
                "brand": "Api-Ip",
                "amenity": "fuel",
                "operator": "BARTOLINI VALTER E PATRIZIA S.N.C."
            },
            "geometry": {
                "type": "Point",
                "coordinates": [
                    12.403052105786967,
                    44.088742465576296
                ]
            }
        },
        {
            "type": "Feature",
            "properties": {
                "name": "f.lli maroni s.n.c.di maroni marica e andrea",
                "id": "19682",
                "brand": "Total Erg",
                "amenity": "fuel",
                "operator": "F.LLI MARONI S.N.C. DI MARONI MARICA E ANDREA"
            },
            "geometry": {
                "type": "Point",
                "coordinates": [
                    12.326412051916122,
                    44.10745579240781
                ]
            }
        }
    ]
}