{
    "type": "FeatureCollection",
    "features": [
        {
            "type": "Feature",
            "properties": {
                "name": "noaloil andreatta michele",
                "id": "19739",
                "brand": "Noaloil",
                "amenity": "fuel",
                "operator": "ANDREATTA MICHELE"
            },
            "geometry": {
                "type": "Point",
                "coordinates": [
                    12.432673522090111,
                    45.73358559156837
                ]
            }
        },
        {
            "type": "Feature",
            "properties": {
                "name": "RONCO Carburanti",
                "id": "16401",
                "amenity": "fuel",
                "operator": "RONCO S.R.L."
            },
            "geometry": {
                "type": "Point",
                "coordinates": [
                    12.414942383766174,
                    45.751568260662346
                ]
            }
        },
        {
            "type": "Feature",
            "properties": {
                "name": "MI8 GASOLINE",
                "id": "29601",
                "brand": "Q8",
                "amenity": "fuel",
                "operator": "MI8 GASOLINE DI MIOTTO MIRCO"
            },
            "geometry": {
                "type": "Point",
                "coordinates": [
                    12.464363030653773,
                    45.71270682440428
                ]
            }
        },
        {
            "type": "Feature",
            "properties": {
                "name": "DA OIL - Maserada",
                "id": "28883",
                "amenity": "fuel",
                "operator": "DELL'ANTONIA S.A.S. DI DELL'ANTONIA MAURO & C."
            },
            "geometry": {
                "type": "Point",
                "coordinates": [
                    12.3218644660011,
                    45.74754784026602
                ]
            }
        },
        {
            "type": "Feature",
            "properties": {
                "name": "CARBURANTI PIAVE di Cella Christian",
                "id": "12698",
                "amenity": "fuel",
                "operator": "CARBURANTI PIAVE DI CELLA CHRISTIAN"
            },
            "geometry": {
                "type": "Point",
                "coordinates": [
                    12.370645961515036,
                    45.77451789903546
                ]
            }
        },
        {
            "type": "Feature",
            "properties": {
                "name": "Stazione Servizio Esso",
                "id": "13046",
                "brand": "Esso",
                "amenity": "fuel",
                "operator": "ZAGO ALESSANDRO & C. S.N.C."
            },
            "geometry": {
                "type": "Point",
                "coordinates": [
                    12.473474889993664,
                    45.72743817014437
                ]
            }
        },
        {
            "type": "Feature",
            "properties": {
                "name": "Il baretto",
                "id": "12688",
                "amenity": "fuel",
                "operator": "IL BARETTO S.A.S. DI MERLE PATRICK & C."
            },
            "geometry": {
                "type": "Point",
                "coordinates": [
                    12.348383367061619,
                    45.81183159980156
                ]
            }
        },
        {
            "type": "Feature",
            "properties": {
                "name": "PONTE DI PIAVE",
                "id": "12084",
                "brand": "Total Erg",
                "amenity": "fuel",
                "operator": "GESTIONI EUROPA - SOCIETA' PER AZIONI"
            },
            "geometry": {
                "type": "Point",
                "coordinates": [
                    12.462795674800873,
                    45.71547053161837
                ]
            }
        },
        {
            "type": "Feature",
            "properties": {
                "name": "GPOL - TEZZE",
                "id": "10553",
                "amenity": "fuel",
                "operator": "POL GIOVANNI"
            },
            "geometry": {
                "type": "Point",
                "coordinates": [
                    12.345918416976927,
                    45.80597662359488
                ]
            }
        },
        {
            "type": "Feature",
            "properties": {
                "name": "ORMELLE OIL ITALIA",
                "id": "7486",
                "brand": "Oil Italia",
                "amenity": "fuel",
                "operator": "AZZALINI MARIO & C. - S.A.S."
            },
            "geometry": {
                "type": "Point",
                "coordinates": [
                    12.438148856163025,
                    45.78324789321552
                ]
            }
        },
        {
            "type": "Feature",
            "properties": {
                "name": "VEGA SAN POLO DI PIAVE",
                "id": "31529",
                "brand": "Vega",
                "amenity": "fuel",
                "operator": "VEGA CARBURANTI S.P.A."
            },
            "geometry": {
                "type": "Point",
                "coordinates": [
                    12.411576211452484,
                    45.7823096401709
                ]
            }
        },
        {
            "type": "Feature",
            "properties": {
                "name": "MZ  PETROLI",
                "id": "21616",
                "amenity": "fuel",
                "operator": "MZ SERVICE S.N.C. DI MAUGLIANI ANTONIO E ZANOTTO ROSANNA"
            },
            "geometry": {
                "type": "Point",
                "coordinates": [
                    12.478356510400772,
                    45.812457893990306
                ]
            }
        },
        {
            "type": "Feature",
            "properties": {
                "name": "GPOL - SAN POLO",
                "id": "10551",
                "amenity": "fuel",
                "operator": "POL GIOVANNI"
            },
            "geometry": {
                "type": "Point",
                "coordinates": [
                    12.379211982803326,
                    45.80047495941466
                ]
            }
        },
        {
            "type": "Feature",
            "properties": {
                "name": "distributore eni di daniel valter",
                "id": "18073",
                "brand": "Agip Eni",
                "amenity": "fuel",
                "operator": "DANIEL VALTER"
            },
            "geometry": {
                "type": "Point",
                "coordinates": [
                    12.391555948410087,
                    45.7299974458222
                ]
            }
        }
    ]
}