{
    "type": "FeatureCollection",
    "features": [
        {
            "type": "Feature",
            "properties": {
                "name": "DISTRIBUTORE ESSO",
                "id": "28679",
                "brand": "Esso",
                "amenity": "fuel",
                "operator": "ADAMO IDROCARBURI S.R.L."
            },
            "geometry": {
                "type": "Point",
                "coordinates": [
                    12.454476803541182,
                    37.792265135118015
                ]
            }
        },
        {
            "type": "Feature",
            "properties": {
                "name": "q8",
                "id": "17215",
                "brand": "Q8",
                "amenity": "fuel",
                "operator": "CURATOLO GIUSEPPE"
            },
            "geometry": {
                "type": "Point",
                "coordinates": [
                    12.428848296403881,
                    37.79862445766362
                ]
            }
        },
        {
            "type": "Feature",
            "properties": {
                "name": "Q8",
                "id": "24027",
                "brand": "Q8",
                "amenity": "fuel",
                "operator": "GENNA ANTONINO"
            },
            "geometry": {
                "type": "Point",
                "coordinates": [
                    12.478222399950027,
                    37.81584384972082
                ]
            }
        },
        {
            "type": "Feature",
            "properties": {
                "name": "rifornimento IP",
                "id": "30454",
                "brand": "Api-Ip",
                "amenity": "fuel",
                "operator": "CIMIOTTA  VITALIANO"
            },
            "geometry": {
                "type": "Point",
                "coordinates": [
                    12.438045591115953,
                    37.79162289873579
                ]
            }
        },
        {
            "type": "Feature",
            "properties": {
                "name": "ESSO F.LLI PACE",
                "id": "25944",
                "brand": "Esso",
                "amenity": "fuel",
                "operator": "F.LLI PACE S.N.C. DI PACE ANTONINO E PACE GIUSEPPE"
            },
            "geometry": {
                "type": "Point",
                "coordinates": [
                    12.446233034133908,
                    37.79238340768587
                ]
            }
        },
        {
            "type": "Feature",
            "properties": {
                "name": "Stazione di servizio Esso di Lamia Salvatore",
                "id": "29779",
                "brand": "Esso",
                "amenity": "fuel",
                "operator": "LAMIA SALVATORE"
            },
            "geometry": {
                "type": "Point",
                "coordinates": [
                    12.469617202877998,
                    37.76468570152517
                ]
            }
        },
        {
            "type": "Feature",
            "properties": {
                "name": "Esso",
                "id": "29636",
                "brand": "Esso",
                "amenity": "fuel",
                "operator": "MARCHESE GIUSEPPE"
            },
            "geometry": {
                "type": "Point",
                "coordinates": [
                    12.476112842559811,
                    37.74584060012083
                ]
            }
        },
        {
            "type": "Feature",
            "properties": {
                "name": "TP088",
                "id": "28683",
                "amenity": "fuel",
                "operator": "ADAMO IGNAZIO E FIGLI S.R.L."
            },
            "geometry": {
                "type": "Point",
                "coordinates": [
                    12.441235392868068,
                    37.79764195447883
                ]
            }
        },
        {
            "type": "Feature",
            "properties": {
                "name": "TP068",
                "id": "16236",
                "brand": "Esso",
                "amenity": "fuel",
                "operator": "ADAMO IGNAZIO E FIGLI S.R.L."
            },
            "geometry": {
                "type": "Point",
                "coordinates": [
                    12.475832551717758,
                    37.81340579585591
                ]
            }
        },
        {
            "type": "Feature",
            "properties": {
                "name": "TP075",
                "id": "16244",
                "brand": "Esso",
                "amenity": "fuel",
                "operator": "ADAMO IGNAZIO E FIGLI S.R.L."
            },
            "geometry": {
                "type": "Point",
                "coordinates": [
                    12.444627732038496,
                    37.78729751375542
                ]
            }
        },
        {
            "type": "Feature",
            "properties": {
                "name": "TP065",
                "id": "22440",
                "brand": "Esso",
                "amenity": "fuel",
                "operator": "ADAMO IGNAZIO E FIGLI S.R.L."
            },
            "geometry": {
                "type": "Point",
                "coordinates": [
                    12.447427287697792,
                    37.79857083680847
                ]
            }
        },
        {
            "type": "Feature",
            "properties": {
                "name": "Impianto Q8 9348",
                "id": "20621",
                "brand": "Q8",
                "amenity": "fuel",
                "operator": "ANGILERI  FRANCESCO"
            },
            "geometry": {
                "type": "Point",
                "coordinates": [
                    12.45426893234253,
                    37.80545496919982
                ]
            }
        },
        {
            "type": "Feature",
            "properties": {
                "name": "q8 PV9334",
                "id": "28727",
                "brand": "Q8",
                "amenity": "fuel",
                "operator": "MILIONE SERGIO"
            },
            "geometry": {
                "type": "Point",
                "coordinates": [
                    12.447901172612546,
                    37.791589353018914
                ]
            }
        },
        {
            "type": "Feature",
            "properties": {
                "name": "AP",
                "id": "16200",
                "amenity": "fuel",
                "operator": "ADAMO IGNAZIO E FIGLI S.R.L."
            },
            "geometry": {
                "type": "Point",
                "coordinates": [
                    12.444814816117287,
                    37.79327362567747
                ]
            }
        },
        {
            "type": "Feature",
            "properties": {
                "name": "PEDACE VITO",
                "id": "31501",
                "brand": "Q8",
                "amenity": "fuel",
                "operator": "PEDACE VITO"
            },
            "geometry": {
                "type": "Point",
                "coordinates": [
                    12.477744999028005,
                    37.75509428042539
                ]
            }
        },
        {
            "type": "Feature",
            "properties": {
                "name": "agip tumbarello gaspare",
                "id": "8403",
                "brand": "Agip Eni",
                "amenity": "fuel",
                "operator": "TUMBARELLO GASPARE"
            },
            "geometry": {
                "type": "Point",
                "coordinates": [
                    12.448407057672057,
                    37.79040651392229
                ]
            }
        },
        {
            "type": "Feature",
            "properties": {
                "name": "Urso Giuseppe",
                "id": "28743",
                "brand": "Esso",
                "amenity": "fuel",
                "operator": "URSO GIUSEPPE - DISTRIBUZIONE CARBURANTI"
            },
            "geometry": {
                "type": "Point",
                "coordinates": [
                    12.469521313905716,
                    37.76464011347564
                ]
            }
        },
        {
            "type": "Feature",
            "properties": {
                "name": "Q8 PACE GIAMPIERO",
                "id": "30263",
                "brand": "Q8",
                "amenity": "fuel",
                "operator": "PACE GIAMPIERO"
            },
            "geometry": {
                "type": "Point",
                "coordinates": [
                    12.472317410065445,
                    37.793784521187746
                ]
            }
        },
        {
            "type": "Feature",
            "properties": {
                "name": "q8 PV9335",
                "id": "31847",
                "brand": "Q8",
                "amenity": "fuel",
                "operator": "MILIONE SERGIO"
            },
            "geometry": {
                "type": "Point",
                "coordinates": [
                    12.448139738198051,
                    37.79142768542205
                ]
            }
        },
        {
            "type": "Feature",
            "properties": {
                "name": "Q8",
                "id": "20404",
                "brand": "Q8",
                "amenity": "fuel",
                "operator": "FAZIO GIOVANNI PIERO"
            },
            "geometry": {
                "type": "Point",
                "coordinates": [
                    12.441341612268385,
                    37.79362605977189
                ]
            }
        }
    ]
}