{
    "type": "FeatureCollection",
    "features": [
        {
            "type": "Feature",
            "properties": {
                "name": "CESARETTI ALESSANDRO",
                "id": "4824",
                "brand": "Api-Ip",
                "amenity": "fuel",
                "operator": "DISTRIBUTORE API DI CESARETTI ALESSANDRO"
            },
            "geometry": {
                "type": "Point",
                "coordinates": [
                    12.405318617820738,
                    43.058608459701865
                ]
            }
        },
        {
            "type": "Feature",
            "properties": {
                "name": "Total Erg",
                "id": "30053",
                "brand": "Total Erg",
                "amenity": "fuel",
                "operator": "BARTOCCINI EGIZIANO"
            },
            "geometry": {
                "type": "Point",
                "coordinates": [
                    12.360089784689308,
                    43.021664072221476
                ]
            }
        },
        {
            "type": "Feature",
            "properties": {
                "name": "ESSO TORGIANO",
                "id": "29986",
                "brand": "Esso",
                "amenity": "fuel",
                "operator": "PENTA PETROLI SRL"
            },
            "geometry": {
                "type": "Point",
                "coordinates": [
                    12.444841638207437,
                    43.023103739747306
                ]
            }
        },
        {
            "type": "Feature",
            "properties": {
                "name": "totalerg flli cardia sas di cardia roberto",
                "id": "21096",
                "brand": "Total Erg",
                "amenity": "fuel",
                "operator": "F.LLI CARDIA S.A.S. DI CARDIA ROBERTO"
            },
            "geometry": {
                "type": "Point",
                "coordinates": [
                    12.418535202741623,
                    42.98709708636102
                ]
            }
        },
        {
            "type": "Feature",
            "properties": {
                "name": "Totalerg",
                "id": "14206",
                "brand": "Total Erg",
                "amenity": "fuel",
                "operator": "CECCHETTI FRANCESCO"
            },
            "geometry": {
                "type": "Point",
                "coordinates": [
                    12.42754876613617,
                    43.031698032932475
                ]
            }
        },
        {
            "type": "Feature",
            "properties": {
                "name": "AREA TAMOIL DI SIGISMONDI SAS",
                "id": "30991",
                "brand": "Tamoil",
                "amenity": "fuel",
                "operator": "SIGISMONDI S.A.S. DI SIGISMONDI CARLO E FAUSTO"
            },
            "geometry": {
                "type": "Point",
                "coordinates": [
                    12.4226651340723,
                    43.01655679914766
                ]
            }
        },
        {
            "type": "Feature",
            "properties": {
                "name": "stazione di rifornimento deruta gest.boco massimiliano",
                "id": "11055",
                "brand": "Api-Ip",
                "amenity": "fuel",
                "operator": "BOCO MASSIMILIANO"
            },
            "geometry": {
                "type": "Point",
                "coordinates": [
                    12.41624057292938,
                    42.981345836791824
                ]
            }
        },
        {
            "type": "Feature",
            "properties": {
                "name": "ALMA SAS",
                "id": "7739",
                "brand": "Agip Eni",
                "amenity": "fuel",
                "operator": "ALMA S.A.S. DI  ROSSI  MASSIMILIANO & C."
            },
            "geometry": {
                "type": "Point",
                "coordinates": [
                    12.412989735603333,
                    43.02529741474304
                ]
            }
        },
        {
            "type": "Feature",
            "properties": {
                "name": "Q8 Balanzano",
                "id": "22333",
                "brand": "Q8",
                "amenity": "fuel",
                "operator": "F.F.M. S.R.L."
            },
            "geometry": {
                "type": "Point",
                "coordinates": [
                    12.415119409561157,
                    43.06631849900725
                ]
            }
        },
        {
            "type": "Feature",
            "properties": {
                "name": "CONAD SUPERMERCATO",
                "id": "29433",
                "brand": "CONAD",
                "amenity": "fuel",
                "operator": "IMMOBILIARE TENERINI S.R.L."
            },
            "geometry": {
                "type": "Point",
                "coordinates": [
                    12.305579334497452,
                    43.06625226705546
                ]
            }
        },
        {
            "type": "Feature",
            "properties": {
                "name": "ip",
                "id": "29549",
                "brand": "Api-Ip",
                "amenity": "fuel",
                "operator": "AUTOSERVICE S.N.C. DI SCHIPPA NICOLA E C."
            },
            "geometry": {
                "type": "Point",
                "coordinates": [
                    12.320818305015564,
                    42.95805337825694
                ]
            }
        },
        {
            "type": "Feature",
            "properties": {
                "name": "TOTALERG",
                "id": "15172",
                "brand": "Total Erg",
                "amenity": "fuel",
                "operator": "LUCACCI  CLAUDIO"
            },
            "geometry": {
                "type": "Point",
                "coordinates": [
                    12.3346021771431,
                    43.05453043189633
                ]
            }
        },
        {
            "type": "Feature",
            "properties": {
                "name": "Staz. di servizio Montagnoli Bigonzoni Sonia",
                "id": "16491",
                "brand": "Total Erg",
                "amenity": "fuel",
                "operator": "MONTAGNOLI BIGONZONI SONIA"
            },
            "geometry": {
                "type": "Point",
                "coordinates": [
                    12.3839456011774,
                    42.997238334480855
                ]
            }
        },
        {
            "type": "Feature",
            "properties": {
                "name": "area di servizio Q8",
                "id": "8099",
                "brand": "Q8",
                "amenity": "fuel",
                "operator": "EUROGAS 2000 S.N.C. DI MIRCO E MORENO SETTESOLDI"
            },
            "geometry": {
                "type": "Point",
                "coordinates": [
                    12.41454585015106,
                    43.03758215395269
                ]
            }
        }
    ]
}