{
    "type": "FeatureCollection",
    "features": [
        {
            "type": "Feature",
            "properties": {
                "name": "CIVITACASTELLANA-SS.3 FLAMINIA KM.58+252",
                "id": "11966",
                "brand": "Q8",
                "amenity": "fuel",
                "operator": "SERVIZI & GESTIONI ITALIA S.R.L."
            },
            "geometry": {
                "type": "Point",
                "coordinates": [
                    12.448678134918282,
                    42.33202240357492
                ]
            }
        },
        {
            "type": "Feature",
            "properties": {
                "name": "2 EMME DI MANCA FEDERICO E C. S.A.S.",
                "id": "27821",
                "amenity": "fuel",
                "operator": "2 EMME DI MANCA FEDERICO E C. S.A.S."
            },
            "geometry": {
                "type": "Point",
                "coordinates": [
                    12.41887718439102,
                    42.30531976930569
                ]
            }
        },
        {
            "type": "Feature",
            "properties": {
                "name": "PV ENERPETROLI - CORCHIANO",
                "id": "22231",
                "brand": "Enerpetroli",
                "amenity": "fuel",
                "operator": "ENERPETROLI S.R.L."
            },
            "geometry": {
                "type": "Point",
                "coordinates": [
                    12.354702069311543,
                    42.345432472423326
                ]
            }
        },
        {
            "type": "Feature",
            "properties": {
                "name": "MAGLIANO SABINA SP MAGLIANO SABINA-FRANGELLINI",
                "id": "6665",
                "brand": "Q8",
                "amenity": "fuel",
                "operator": "SERVIZI & GESTIONI ITALIA srl"
            },
            "geometry": {
                "type": "Point",
                "coordinates": [
                    12.471552167493885,
                    42.36876409511893
                ]
            }
        },
        {
            "type": "Feature",
            "properties": {
                "name": "Fabrica di roma",
                "id": "25227",
                "brand": "Cancellieri carburanti",
                "amenity": "fuel",
                "operator": "CANCELLIERI CARBURANTI S.R.L."
            },
            "geometry": {
                "type": "Point",
                "coordinates": [
                    12.323599755764008,
                    42.326768000471446
                ]
            }
        },
        {
            "type": "Feature",
            "properties": {
                "name": "G.P.Oil",
                "id": "17376",
                "amenity": "fuel",
                "operator": "DE ANGELIS MIRKO"
            },
            "geometry": {
                "type": "Point",
                "coordinates": [
                    12.357788532972336,
                    42.34172995102798
                ]
            }
        },
        {
            "type": "Feature",
            "properties": {
                "name": "IP DI MILIA LUIGI",
                "id": "9057",
                "brand": "Api-Ip",
                "amenity": "fuel",
                "operator": "MILIA LUIGI"
            },
            "geometry": {
                "type": "Point",
                "coordinates": [
                    12.45700880885124,
                    42.346428767850064
                ]
            }
        },
        {
            "type": "Feature",
            "properties": {
                "name": "AGIP AGNELLI PAOLO",
                "id": "22910",
                "brand": "Agip Eni",
                "amenity": "fuel",
                "operator": "AGNELLI PAOLO"
            },
            "geometry": {
                "type": "Point",
                "coordinates": [
                    12.348833307623863,
                    42.30562089089326
                ]
            }
        },
        {
            "type": "Feature",
            "properties": {
                "name": "PEGASO SAS",
                "id": "27197",
                "brand": "Api-Ip",
                "amenity": "fuel",
                "operator": "PEGASO SOCIETA' IN ACCOMANDITA SEMPLICE DI SCIARRINI SIGISMONDO E C."
            },
            "geometry": {
                "type": "Point",
                "coordinates": [
                    12.411377727985382,
                    42.306490524949915
                ]
            }
        },
        {
            "type": "Feature",
            "properties": {
                "name": "TAMOIL",
                "id": "27562",
                "brand": "Tamoil",
                "amenity": "fuel",
                "operator": "KHAN AZIZ"
            },
            "geometry": {
                "type": "Point",
                "coordinates": [
                    12.471608072519304,
                    42.37409672570291
                ]
            }
        },
        {
            "type": "Feature",
            "properties": {
                "name": "Tamoil",
                "id": "16345",
                "brand": "Tamoil",
                "amenity": "fuel",
                "operator": "ACCETTONE STEFANO"
            },
            "geometry": {
                "type": "Point",
                "coordinates": [
                    12.384625375270844,
                    42.31751027118761
                ]
            }
        },
        {
            "type": "Feature",
            "properties": {
                "name": "Oroenergy snc",
                "id": "11168",
                "brand": "Agip Eni",
                "amenity": "fuel",
                "operator": "ORO ENERGY SNC DI ORO SALVATORE & C."
            },
            "geometry": {
                "type": "Point",
                "coordinates": [
                    12.413963815938585,
                    42.295474336628715
                ]
            }
        },
        {
            "type": "Feature",
            "properties": {
                "name": "PEGASO SAS",
                "id": "27196",
                "brand": "Api-Ip",
                "amenity": "fuel",
                "operator": "PEGASO SOCIETA' IN ACCOMANDITA SEMPLICE DI SCIARRINI SIGISMONDO E C."
            },
            "geometry": {
                "type": "Point",
                "coordinates": [
                    12.385816276073456,
                    42.3184670047087
                ]
            }
        },
        {
            "type": "Feature",
            "properties": {
                "name": "flaminia service",
                "id": "24661",
                "brand": "Total Erg",
                "amenity": "fuel",
                "operator": "FLAMINIA SERVICE S.N.C. DI DI FRANCESCO DANIELA E C."
            },
            "geometry": {
                "type": "Point",
                "coordinates": [
                    12.468844056129457,
                    42.408811090437915
                ]
            }
        },
        {
            "type": "Feature",
            "properties": {
                "name": "Tamoil",
                "id": "30925",
                "brand": "Tamoil",
                "amenity": "fuel",
                "operator": "ACCETTONE STEFANO"
            },
            "geometry": {
                "type": "Point",
                "coordinates": [
                    12.434933558106422,
                    42.32003549849597
                ]
            }
        },
        {
            "type": "Feature",
            "properties": {
                "name": "MONTI ANTONIO E FIGLI S.N.C.",
                "id": "29358",
                "amenity": "fuel",
                "operator": "MONTI ANTONIO E FIGLI SNC DI MONTI MASSIMO E C."
            },
            "geometry": {
                "type": "Point",
                "coordinates": [
                    12.398419976234436,
                    42.37471475538045
                ]
            }
        },
        {
            "type": "Feature",
            "properties": {
                "name": "stazione di servizio ip di cioccolini loreno",
                "id": "27390",
                "brand": "Api-Ip",
                "amenity": "fuel",
                "operator": "CIOCCOLINI LORENO"
            },
            "geometry": {
                "type": "Point",
                "coordinates": [
                    12.407332956790922,
                    42.30066033502353
                ]
            }
        }
    ]
}