{
    "type": "FeatureCollection",
    "features": [
        {
            "type": "Feature",
            "properties": {
                "name": "ENI di La Monaca Valerio",
                "id": "14129",
                "brand": "Agip Eni",
                "amenity": "fuel",
                "operator": "LA MONACA VALERIO"
            },
            "geometry": {
                "type": "Point",
                "coordinates": [
                    12.378715346618717,
                    41.76724152606889
                ]
            }
        },
        {
            "type": "Feature",
            "properties": {
                "name": "Esso",
                "id": "14171",
                "brand": "Esso",
                "amenity": "fuel",
                "operator": "MAIORANA & C. S.A.S. DI MAIORANA ANTONINO"
            },
            "geometry": {
                "type": "Point",
                "coordinates": [
                    12.310392826730096,
                    41.76425591980588
                ]
            }
        },
        {
            "type": "Feature",
            "properties": {
                "name": "Trigoria Carburanti 96 sas",
                "id": "16983",
                "brand": "Total Erg",
                "amenity": "fuel",
                "operator": "TRIGORIA CARBURANTI 1996 DI FABIO DI MARCO SOCIETA' IN ACCOMANDIT A SEMPLICE"
            },
            "geometry": {
                "type": "Point",
                "coordinates": [
                    12.477784708598392,
                    41.76521784756489
                ]
            }
        },
        {
            "type": "Feature",
            "properties": {
                "name": "CASTELROMANO",
                "id": "5544",
                "brand": "Total Erg",
                "amenity": "fuel",
                "operator": "GESTIONI EUROPA S.p.A."
            },
            "geometry": {
                "type": "Point",
                "coordinates": [
                    12.444101038028748,
                    41.71538201728655
                ]
            }
        },
        {
            "type": "Feature",
            "properties": {
                "name": "OSTIENSE",
                "id": "23235",
                "amenity": "fuel",
                "operator": "I.C.M. SOCIETA' IN NOME COLLETTIVO DI BRUNO, CRISTIANO E FABRIZIO MAGGI"
            },
            "geometry": {
                "type": "Point",
                "coordinates": [
                    12.31424555182457,
                    41.76533415424886
                ]
            }
        },
        {
            "type": "Feature",
            "properties": {
                "name": "ROMA DI MACCHIA SAPONARA",
                "id": "6620",
                "brand": "Q8",
                "amenity": "fuel",
                "operator": "SERVIZI & GESTIONI ITALIA srl"
            },
            "geometry": {
                "type": "Point",
                "coordinates": [
                    12.355856001377106,
                    41.770814774121575
                ]
            }
        },
        {
            "type": "Feature",
            "properties": {
                "name": "ermo snc di ermo carlo e c",
                "id": "17597",
                "brand": "Tamoil",
                "amenity": "fuel",
                "operator": "ERMO S.N.C. DI ERMO CARLO E C."
            },
            "geometry": {
                "type": "Point",
                "coordinates": [
                    12.437510490417482,
                    41.76354478925799
                ]
            }
        },
        {
            "type": "Feature",
            "properties": {
                "name": "Ditta Chierici Ivano Canale della Lingua",
                "id": "17765",
                "brand": "Api-Ip",
                "amenity": "fuel",
                "operator": "CHIERICI IVANO"
            },
            "geometry": {
                "type": "Point",
                "coordinates": [
                    12.345028191821257,
                    41.736663400989016
                ]
            }
        },
        {
            "type": "Feature",
            "properties": {
                "name": "Impianto IP di Zitarelli Fabrizio",
                "id": "9310",
                "brand": "Api-Ip",
                "amenity": "fuel",
                "operator": "ZITARELLI FABRIZIO"
            },
            "geometry": {
                "type": "Point",
                "coordinates": [
                    12.36096188683473,
                    41.76170648626033
                ]
            }
        },
        {
            "type": "Feature",
            "properties": {
                "name": "AL.MA. PETROLI SNC DI FUSCO MASSIMO",
                "id": "16314",
                "brand": "Agip Eni",
                "amenity": "fuel",
                "operator": "AL.MA. PETROLI DI FUSCO MASSIMO - SOCIETA' IN NOME COLLETTIVO"
            },
            "geometry": {
                "type": "Point",
                "coordinates": [
                    12.318391672595226,
                    41.714800636612146
                ]
            }
        },
        {
            "type": "Feature",
            "properties": {
                "name": "PV ENERPETROLI C.FUSANO",
                "id": "20589",
                "brand": "Enerpetroli",
                "amenity": "fuel",
                "operator": "ENERPETROLI S.R.L."
            },
            "geometry": {
                "type": "Point",
                "coordinates": [
                    12.308012179442244,
                    41.754088707053775
                ]
            }
        },
        {
            "type": "Feature",
            "properties": {
                "name": "TOR VAIANICA LUNGOMARE DELLE SIRENE 511",
                "id": "6654",
                "brand": "Q8",
                "amenity": "fuel",
                "operator": "SERVIZI & GESTIONI ITALIA srl"
            },
            "geometry": {
                "type": "Point",
                "coordinates": [
                    12.430319417582723,
                    41.64685058081279
                ]
            }
        },
        {
            "type": "Feature",
            "properties": {
                "name": "dimar s.a.s",
                "id": "15334",
                "brand": "Esso",
                "amenity": "fuel",
                "operator": "DIMAR SOCIETA' IN ACCOMANDITA SEMPLICE DI LIUNI ANTONIO & C."
            },
            "geometry": {
                "type": "Point",
                "coordinates": [
                    12.369489669799803,
                    41.75540959191545
                ]
            }
        },
        {
            "type": "Feature",
            "properties": {
                "name": "TAMOIL LITORANEA",
                "id": "10397",
                "brand": "Tamoil",
                "amenity": "fuel",
                "operator": "DASTOLI DIVINA"
            },
            "geometry": {
                "type": "Point",
                "coordinates": [
                    12.330343097382867,
                    41.71008038370472
                ]
            }
        },
        {
            "type": "Feature",
            "properties": {
                "name": "S.S. Esso di Anteghini Claudio",
                "id": "9646",
                "brand": "Esso",
                "amenity": "fuel",
                "operator": "ANTEGHINI CLAUDIO"
            },
            "geometry": {
                "type": "Point",
                "coordinates": [
                    12.439858093857767,
                    41.72598722669455
                ]
            }
        },
        {
            "type": "Feature",
            "properties": {
                "name": "ROMA ACILIA VIA DI ACILIA 365",
                "id": "23944",
                "brand": "Total Erg",
                "amenity": "fuel",
                "operator": "TOTALERG S.P.A."
            },
            "geometry": {
                "type": "Point",
                "coordinates": [
                    12.37567752599716,
                    41.76968411956623
                ]
            }
        },
        {
            "type": "Feature",
            "properties": {
                "name": "nuova palocco carburanti",
                "id": "28921",
                "brand": "Esso",
                "amenity": "fuel",
                "operator": "NUOVA PALOCCO CARBURANTI DI KATIA PATRIZI & C. SOCIETA' IN ACCOMANDITA SEMPLICE"
            },
            "geometry": {
                "type": "Point",
                "coordinates": [
                    12.356241464142823,
                    41.75733337676224
                ]
            }
        },
        {
            "type": "Feature",
            "properties": {
                "name": "Pontina 58191",
                "id": "6072",
                "brand": "Agip Eni",
                "amenity": "fuel",
                "operator": "GESTIONI RIUNITE G.R. S.R.L."
            },
            "geometry": {
                "type": "Point",
                "coordinates": [
                    12.455652952194216,
                    41.71111491037238
                ]
            }
        },
        {
            "type": "Feature",
            "properties": {
                "name": "IXOIL",
                "id": "4448",
                "amenity": "fuel",
                "operator": "ICSOIL    SOCIETA' A RESPONSABILITA' LIMITATA"
            },
            "geometry": {
                "type": "Point",
                "coordinates": [
                    12.360321879386902,
                    41.763701240667764
                ]
            }
        }
    ]
}