{
    "type": "FeatureCollection",
    "features": [
        {
            "type": "Feature",
            "properties": {
                "name": "XOil",
                "id": "15470",
                "brand": "Xoil",
                "amenity": "fuel",
                "operator": "SOLDA' ALFEO E C. - S.N.C."
            },
            "geometry": {
                "type": "Point",
                "coordinates": [
                    12.331281153442433,
                    45.66046196980167
                ]
            }
        },
        {
            "type": "Feature",
            "properties": {
                "name": "esso",
                "id": "15168",
                "brand": "Esso",
                "amenity": "fuel",
                "operator": "ZAGO LUCA"
            },
            "geometry": {
                "type": "Point",
                "coordinates": [
                    12.326436618385287,
                    45.60176111424057
                ]
            }
        },
        {
            "type": "Feature",
            "properties": {
                "name": "_SMP CASALE SUL SILE",
                "id": "25943",
                "brand": "San Marco Petroli",
                "amenity": "fuel",
                "operator": "SAN MARCO PETROLI DISTRIBUZIONE S.R.L."
            },
            "geometry": {
                "type": "Point",
                "coordinates": [
                    12.331879734992981,
                    45.60325888318154
                ]
            }
        },
        {
            "type": "Feature",
            "properties": {
                "name": "SAN BIAGIO DI CALLALTA",
                "id": "5904",
                "brand": "Total Erg",
                "amenity": "fuel",
                "operator": "TotalErg SpA"
            },
            "geometry": {
                "type": "Point",
                "coordinates": [
                    12.32407145767206,
                    45.64602812572405
                ]
            }
        },
        {
            "type": "Feature",
            "properties": {
                "name": "EREDI GALLETTI S.A.S.",
                "id": "10859",
                "brand": "Tamoil",
                "amenity": "fuel",
                "operator": "MAZZON GIANCARLO"
            },
            "geometry": {
                "type": "Point",
                "coordinates": [
                    12.32343278825283,
                    45.69010100237106
                ]
            }
        },
        {
            "type": "Feature",
            "properties": {
                "name": "STAZIONE AGIP DI MAURO PEGORER",
                "id": "15352",
                "brand": "Agip Eni",
                "amenity": "fuel",
                "operator": "PEGORER MAURO"
            },
            "geometry": {
                "type": "Point",
                "coordinates": [
                    12.330889999866486,
                    45.644913728856615
                ]
            }
        },
        {
            "type": "Feature",
            "properties": {
                "name": "VEGA RONCADE",
                "id": "31531",
                "brand": "Vega",
                "amenity": "fuel",
                "operator": "VEGA CARBURANTI S.P.A."
            },
            "geometry": {
                "type": "Point",
                "coordinates": [
                    12.396373450756073,
                    45.63798165553188
                ]
            }
        },
        {
            "type": "Feature",
            "properties": {
                "name": "RONCADE-VIA E. HEMINGWAY 1/A",
                "id": "11902",
                "brand": "Q8",
                "amenity": "fuel",
                "operator": "SERVIZI & GESTIONI ITALIA S.R.L."
            },
            "geometry": {
                "type": "Point",
                "coordinates": [
                    12.425639882278459,
                    45.6354725422649
                ]
            }
        },
        {
            "type": "Feature",
            "properties": {
                "name": "ENERGYCA BACCHIN SNC",
                "id": "13667",
                "brand": "Energyca",
                "amenity": "fuel",
                "operator": "BACCHIN S.N.C. DI BACCHIN F. M. E O."
            },
            "geometry": {
                "type": "Point",
                "coordinates": [
                    12.335528880357742,
                    45.62702428294235
                ]
            }
        },
        {
            "type": "Feature",
            "properties": {
                "name": "TAMOIL",
                "id": "30457",
                "brand": "Tamoil",
                "amenity": "fuel",
                "operator": "SARTORI RENATO"
            },
            "geometry": {
                "type": "Point",
                "coordinates": [
                    12.37247205774156,
                    45.62675472666673
                ]
            }
        },
        {
            "type": "Feature",
            "properties": {
                "name": "RONCADE VIA GARIBALDI N. 17",
                "id": "9968",
                "brand": "Q8",
                "amenity": "fuel",
                "operator": "SERVIZI & GESTIONI ITALIA S.R.L."
            },
            "geometry": {
                "type": "Point",
                "coordinates": [
                    12.37603209762267,
                    45.62345304570194
                ]
            }
        },
        {
            "type": "Feature",
            "properties": {
                "name": "SMP MEOLO",
                "id": "5242",
                "brand": "San Marco Petroli",
                "amenity": "fuel",
                "operator": "SAN MARCO PETROLI DISTRIBUZIONE S.R.L."
            },
            "geometry": {
                "type": "Point",
                "coordinates": [
                    12.47262597084045,
                    45.62301906143083
                ]
            }
        },
        {
            "type": "Feature",
            "properties": {
                "name": "eni station di gianfranco camuffo",
                "id": "12900",
                "brand": "Agip Eni",
                "amenity": "fuel",
                "operator": "CAMUFFO GIANFRANCO"
            },
            "geometry": {
                "type": "Point",
                "coordinates": [
                    12.335793344180276,
                    45.67559629755654
                ]
            }
        },
        {
            "type": "Feature",
            "properties": {
                "name": "tamoil monastier",
                "id": "17430",
                "brand": "Tamoil",
                "amenity": "fuel",
                "operator": "MINERVINI MAURIZIO"
            },
            "geometry": {
                "type": "Point",
                "coordinates": [
                    12.424751222133636,
                    45.65131509275143
                ]
            }
        },
        {
            "type": "Feature",
            "properties": {
                "name": "OIL ITALIA SRL",
                "id": "29366",
                "amenity": "fuel",
                "operator": "ZANOTTO RENATO"
            },
            "geometry": {
                "type": "Point",
                "coordinates": [
                    12.443103566765785,
                    45.70617343192824
                ]
            }
        },
        {
            "type": "Feature",
            "properties": {
                "name": "AREA DI SERVIZIO ENI",
                "id": "14865",
                "brand": "Agip Eni",
                "amenity": "fuel",
                "operator": "CIMBRO MASSIMILIANO"
            },
            "geometry": {
                "type": "Point",
                "coordinates": [
                    12.307458221912382,
                    45.58852990888993
                ]
            }
        },
        {
            "type": "Feature",
            "properties": {
                "name": "FORCOLIN STEFANO",
                "id": "10752",
                "brand": "Agip Eni",
                "amenity": "fuel",
                "operator": "FORCOLIN STEFANO"
            },
            "geometry": {
                "type": "Point",
                "coordinates": [
                    12.359233000802647,
                    45.6819917680725
                ]
            }
        },
        {
            "type": "Feature",
            "properties": {
                "name": "_SMP CASALE SUL SILE VIA NUOVA TREVIGIANA",
                "id": "27261",
                "brand": "San Marco Petroli",
                "amenity": "fuel",
                "operator": "SAN MARCO PETROLI DISTRIBUZIONE S.R.L."
            },
            "geometry": {
                "type": "Point",
                "coordinates": [
                    12.328164875507355,
                    45.611657622022605
                ]
            }
        }
    ]
}