{
    "type": "FeatureCollection",
    "features": [
        {
            "type": "Feature",
            "properties": {
                "name": "appia",
                "id": "19509",
                "brand": "Agip Eni",
                "amenity": "fuel",
                "operator": "FEDELGAS S.A.S. DI FEDELI MARCO  E C."
            },
            "geometry": {
                "type": "Point",
                "coordinates": [
                    12.533473894000053,
                    41.86182541950875
                ]
            }
        },
        {
            "type": "Feature",
            "properties": {
                "name": "RM TOGLIATTI 596",
                "id": "17706",
                "brand": "Api-Ip",
                "amenity": "fuel",
                "operator": "IP SERVICES S.R.L."
            },
            "geometry": {
                "type": "Point",
                "coordinates": [
                    12.572267055225439,
                    41.876954066268596
                ]
            }
        },
        {
            "type": "Feature",
            "properties": {
                "name": "Q8 largo preneste",
                "id": "19934",
                "brand": "Q8",
                "amenity": "fuel",
                "operator": "GATTUSO DANIELE"
            },
            "geometry": {
                "type": "Point",
                "coordinates": [
                    12.541226000524945,
                    41.892786121874906
                ]
            }
        },
        {
            "type": "Feature",
            "properties": {
                "name": "ANTONELLI FABIO",
                "id": "11247",
                "brand": "Api-Ip",
                "amenity": "fuel",
                "operator": "ANTONELLI FABIO"
            },
            "geometry": {
                "type": "Point",
                "coordinates": [
                    12.534851178721622,
                    41.88909153524003
                ]
            }
        },
        {
            "type": "Feature",
            "properties": {
                "name": "Stazione di Servizio B.g. snc",
                "id": "20002",
                "brand": "Total Erg",
                "amenity": "fuel",
                "operator": "STAZIONE DI SERVIZIO B.G. - SOCIETA' IN NOME COLLETTIVO DI GIANNINI FILIBERTO"
            },
            "geometry": {
                "type": "Point",
                "coordinates": [
                    12.637060415205381,
                    41.77773239425597
                ]
            }
        },
        {
            "type": "Feature",
            "properties": {
                "name": "CICULI GIOVANNI",
                "id": "9451",
                "brand": "Tamoil",
                "amenity": "fuel",
                "operator": "CICULI GIOVANNI STAZIONE DISTRIBUTORE AUTOMATICO CARBURANTI \"TAMO IL\""
            },
            "geometry": {
                "type": "Point",
                "coordinates": [
                    12.616328001022339,
                    41.86314301773879
                ]
            }
        },
        {
            "type": "Feature",
            "properties": {
                "name": "DITRIBUTORE FINA DI FABRIZI E. & C. SAS",
                "id": "18655",
                "brand": "Total Erg",
                "amenity": "fuel",
                "operator": "DISTRIBUTORE FINA DI FABRIZI EMANUELA E C. S.A.S."
            },
            "geometry": {
                "type": "Point",
                "coordinates": [
                    12.615676224231716,
                    41.8173359899166
                ]
            }
        },
        {
            "type": "Feature",
            "properties": {
                "name": "TOTALERG",
                "id": "13592",
                "brand": "Total Erg",
                "amenity": "fuel",
                "operator": "MULTARI SANTO"
            },
            "geometry": {
                "type": "Point",
                "coordinates": [
                    12.50138018465577,
                    41.88012267857298
                ]
            }
        },
        {
            "type": "Feature",
            "properties": {
                "name": "DISTRIB. Retitalia - Via Torre Spaccata 163",
                "id": "31883",
                "amenity": "fuel",
                "operator": "PETROLIFERA ADRIATICA S.P.A."
            },
            "geometry": {
                "type": "Point",
                "coordinates": [
                    12.586588448205248,
                    41.866503634915546
                ]
            }
        },
        {
            "type": "Feature",
            "properties": {
                "name": "FRASCHETTI EUGENIO",
                "id": "11162",
                "brand": "Api-Ip",
                "amenity": "fuel",
                "operator": "FRASCHETTI EUGENIO"
            },
            "geometry": {
                "type": "Point",
                "coordinates": [
                    12.561128675806687,
                    41.88987571239631
                ]
            }
        },
        {
            "type": "Feature",
            "properties": {
                "name": "NICOLETTI FABRIZIO",
                "id": "13481",
                "brand": "Q8",
                "amenity": "fuel",
                "operator": "NICOLETTI FABRIZIO"
            },
            "geometry": {
                "type": "Point",
                "coordinates": [
                    12.597863674163818,
                    41.83745095034207
                ]
            }
        },
        {
            "type": "Feature",
            "properties": {
                "name": "TUSCOLANA 90",
                "id": "29218",
                "brand": "Api-Ip",
                "amenity": "fuel",
                "operator": "TUSCOLANA 90 - SOCIETA' A RESPONSABILITA' LIMITATA"
            },
            "geometry": {
                "type": "Point",
                "coordinates": [
                    12.563244627053107,
                    41.86324605019875
                ]
            }
        },
        {
            "type": "Feature",
            "properties": {
                "name": "CAR WASH 2000 SRL",
                "id": "18997",
                "brand": "Total Erg",
                "amenity": "fuel",
                "operator": "CAR WASH 2000 S.R.L."
            },
            "geometry": {
                "type": "Point",
                "coordinates": [
                    12.627320229876208,
                    41.87721221876522
                ]
            }
        },
        {
            "type": "Feature",
            "properties": {
                "name": "FABRIZIO ROMEO",
                "id": "22781",
                "brand": "Esso",
                "amenity": "fuel",
                "operator": "ROMEO FABRIZIO"
            },
            "geometry": {
                "type": "Point",
                "coordinates": [
                    12.4885249202855,
                    41.873089957561575
                ]
            }
        },
        {
            "type": "Feature",
            "properties": {
                "name": "SABATINO PROSPERO",
                "id": "15640",
                "brand": "Api-Ip",
                "amenity": "fuel",
                "operator": "SABATINO PROSPERO"
            },
            "geometry": {
                "type": "Point",
                "coordinates": [
                    12.550590065587356,
                    41.877181824078434
                ]
            }
        },
        {
            "type": "Feature",
            "properties": {
                "name": "BATTISTI MAURO",
                "id": "14291",
                "brand": "Esso",
                "amenity": "fuel",
                "operator": "BATTISTI MAURO"
            },
            "geometry": {
                "type": "Point",
                "coordinates": [
                    12.501181588383018,
                    41.8595979390458
                ]
            }
        },
        {
            "type": "Feature",
            "properties": {
                "name": "ESSO",
                "id": "16738",
                "brand": "Esso",
                "amenity": "fuel",
                "operator": "COLABONI SERGIO"
            },
            "geometry": {
                "type": "Point",
                "coordinates": [
                    12.55360227882079,
                    41.85903871515149
                ]
            }
        },
        {
            "type": "Feature",
            "properties": {
                "name": "TARTUFARI LUCA",
                "id": "24917",
                "brand": "Api-Ip",
                "amenity": "fuel",
                "operator": "TARTUFARI LUCA"
            },
            "geometry": {
                "type": "Point",
                "coordinates": [
                    12.56972736490377,
                    41.89488236823519
                ]
            }
        },
        {
            "type": "Feature",
            "properties": {
                "name": "APPIA NUOVA",
                "id": "23239",
                "amenity": "fuel",
                "operator": "I.C.M. SOCIETA' IN NOME COLLETTIVO DI BRUNO, CRISTIANO E FABRIZIO MAGGI"
            },
            "geometry": {
                "type": "Point",
                "coordinates": [
                    12.530392922353712,
                    41.86801540624037
                ]
            }
        },
        {
            "type": "Feature",
            "properties": {
                "name": "ROKA SNC",
                "id": "14382",
                "amenity": "fuel",
                "operator": "RO.KA. SOCIETA' IN NOME COLLETTIVO DI KASHEM ABUL E C."
            },
            "geometry": {
                "type": "Point",
                "coordinates": [
                    12.510176561772825,
                    41.876964476608904
                ]
            }
        },
        {
            "type": "Feature",
            "properties": {
                "name": "STAZIONE SERVIZIO ENI 1423",
                "id": "23856",
                "brand": "Agip Eni",
                "amenity": "fuel",
                "operator": "RINALDI GIUSEPPE"
            },
            "geometry": {
                "type": "Point",
                "coordinates": [
                    12.622937634587288,
                    41.86254754499946
                ]
            }
        },
        {
            "type": "Feature",
            "properties": {
                "name": "S.T.L. Petroli S.r.l. Via Britannia",
                "id": "31957",
                "amenity": "fuel",
                "operator": "S.T.L. PETROLI S.R.L."
            },
            "geometry": {
                "type": "Point",
                "coordinates": [
                    12.508108072587902,
                    41.879501876089286
                ]
            }
        },
        {
            "type": "Feature",
            "properties": {
                "name": "distib agip serratore massimo",
                "id": "24191",
                "brand": "Agip Eni",
                "amenity": "fuel",
                "operator": "SERRATORE MASSIMO"
            },
            "geometry": {
                "type": "Point",
                "coordinates": [
                    12.609646100524968,
                    41.7955099370092
                ]
            }
        },
        {
            "type": "Feature",
            "properties": {
                "name": "ROMA VIA PRENESTINA  640  DISTR. Q8",
                "id": "6650",
                "brand": "Q8",
                "amenity": "fuel",
                "operator": "SERVIZI & GESTIONI ITALIA srl"
            },
            "geometry": {
                "type": "Point",
                "coordinates": [
                    12.583988293219363,
                    41.893454818653666
                ]
            }
        },
        {
            "type": "Feature",
            "properties": {
                "name": "Impianto IP di Fragiacomo Giuseppe",
                "id": "27481",
                "brand": "Api-Ip",
                "amenity": "fuel",
                "operator": "FRAGIACOMO GIUSEPPE"
            },
            "geometry": {
                "type": "Point",
                "coordinates": [
                    12.522458277815872,
                    41.874483791629835
                ]
            }
        },
        {
            "type": "Feature",
            "properties": {
                "name": "Eco Gasauto Srl",
                "id": "30430",
                "brand": "Agip Eni",
                "amenity": "fuel",
                "operator": "ECO GASAUTO SRL SOCIO UNICO"
            },
            "geometry": {
                "type": "Point",
                "coordinates": [
                    12.552975900471212,
                    41.87925123698288
                ]
            }
        },
        {
            "type": "Feature",
            "properties": {
                "name": "GRUPPO  API - IP",
                "id": "14396",
                "brand": "Api-Ip",
                "amenity": "fuel",
                "operator": "RAPANOTTI MASSIMILIANO"
            },
            "geometry": {
                "type": "Point",
                "coordinates": [
                    12.563036972532473,
                    41.891284494725376
                ]
            }
        },
        {
            "type": "Feature",
            "properties": {
                "name": "8127",
                "id": "30468",
                "brand": "Tamoil",
                "amenity": "fuel",
                "operator": "T.D.M. S.R.L."
            },
            "geometry": {
                "type": "Point",
                "coordinates": [
                    12.523646161567514,
                    41.89091664707677
                ]
            }
        },
        {
            "type": "Feature",
            "properties": {
                "name": "distributore ip di pacella alessandro",
                "id": "29237",
                "brand": "Api-Ip",
                "amenity": "fuel",
                "operator": "PACELLA ALESSANDRO"
            },
            "geometry": {
                "type": "Point",
                "coordinates": [
                    12.552834897146113,
                    41.85930134712372
                ]
            }
        },
        {
            "type": "Feature",
            "properties": {
                "name": "citrigno francesco e c sas",
                "id": "15612",
                "brand": "Agip Eni",
                "amenity": "fuel",
                "operator": "CITRIGNO FRANCESCO & C. S.A.S."
            },
            "geometry": {
                "type": "Point",
                "coordinates": [
                    12.533802040754379,
                    41.87148007060392
                ]
            }
        },
        {
            "type": "Feature",
            "properties": {
                "name": "GE.MA. SNC",
                "id": "18590",
                "brand": "Agip Eni",
                "amenity": "fuel",
                "operator": "GE.MA. - S.N.C. DI MARFIA CLAUDIO ANTONIO E DI BELLO MATTEO"
            },
            "geometry": {
                "type": "Point",
                "coordinates": [
                    12.572330370745023,
                    41.88977711470683
                ]
            }
        },
        {
            "type": "Feature",
            "properties": {
                "name": "ROMA - SAN LORENZO SCALO",
                "id": "24810",
                "brand": "Api-Ip",
                "amenity": "fuel",
                "operator": "IP SERVICES S.R.L."
            },
            "geometry": {
                "type": "Point",
                "coordinates": [
                    12.515906095504763,
                    41.893444275991605
                ]
            }
        },
        {
            "type": "Feature",
            "properties": {
                "name": "castani",
                "id": "28446",
                "brand": "Api-Ip",
                "amenity": "fuel",
                "operator": "MERIDIONALE PETROLI - SOCIETA A RESPONSABILITA LIMITATA S.M.P."
            },
            "geometry": {
                "type": "Point",
                "coordinates": [
                    12.565959739401137,
                    41.886559773836495
                ]
            }
        },
        {
            "type": "Feature",
            "properties": {
                "name": "PGM GAS SRL",
                "id": "15937",
                "brand": "Agip Eni",
                "amenity": "fuel",
                "operator": "PGM GAS S.R.L."
            },
            "geometry": {
                "type": "Point",
                "coordinates": [
                    12.621214985847475,
                    41.835739937464844
                ]
            }
        },
        {
            "type": "Feature",
            "properties": {
                "name": "LAURENTINA",
                "id": "5970",
                "brand": "Total Erg",
                "amenity": "fuel",
                "operator": "GESTIONI EUROPA S.p.A."
            },
            "geometry": {
                "type": "Point",
                "coordinates": [
                    12.486543588954873,
                    41.81265799912748
                ]
            }
        },
        {
            "type": "Feature",
            "properties": {
                "name": "Distributore carburante Farcomeni S.a.s.",
                "id": "9431",
                "brand": "Agip Eni",
                "amenity": "fuel",
                "operator": "FARCOMENI S.A.S. DI PIETRO E MASSIMO FARCOMENI"
            },
            "geometry": {
                "type": "Point",
                "coordinates": [
                    12.50271499156952,
                    41.85952894630477
                ]
            }
        },
        {
            "type": "Feature",
            "properties": {
                "name": "BURATTINI MARCO",
                "id": "12109",
                "brand": "Agip Eni",
                "amenity": "fuel",
                "operator": "BURATTINI MARCO"
            },
            "geometry": {
                "type": "Point",
                "coordinates": [
                    12.530874182232198,
                    41.89202469725004
                ]
            }
        },
        {
            "type": "Feature",
            "properties": {
                "name": "Fuel Discount",
                "id": "28621",
                "amenity": "fuel",
                "operator": "A.F.G. - PETROLI S.R.L."
            },
            "geometry": {
                "type": "Point",
                "coordinates": [
                    12.598247230052948,
                    41.87274772000971
                ]
            }
        },
        {
            "type": "Feature",
            "properties": {
                "name": "ROMA - LAURENTINA 251",
                "id": "32014",
                "brand": "Api-Ip",
                "amenity": "fuel",
                "operator": "IP SERVICES S.R.L."
            },
            "geometry": {
                "type": "Point",
                "coordinates": [
                    12.480948865413664,
                    41.84053233717802
                ]
            }
        },
        {
            "type": "Feature",
            "properties": {
                "name": "tor tre teste",
                "id": "19508",
                "brand": "Agip Eni",
                "amenity": "fuel",
                "operator": "FEDELGAS S.A.S. DI FEDELI MARCO  E C."
            },
            "geometry": {
                "type": "Point",
                "coordinates": [
                    12.587457137573212,
                    41.87528992385652
                ]
            }
        },
        {
            "type": "Feature",
            "properties": {
                "name": "LAROSA VALENTINA",
                "id": "14126",
                "brand": "Esso",
                "amenity": "fuel",
                "operator": "LAROSA VALENTINA"
            },
            "geometry": {
                "type": "Point",
                "coordinates": [
                    12.48501059570083,
                    41.84574181812309
                ]
            }
        },
        {
            "type": "Feature",
            "properties": {
                "name": "ROMA",
                "id": "5874",
                "brand": "Total Erg",
                "amenity": "fuel",
                "operator": "TotalErg SpA"
            },
            "geometry": {
                "type": "Point",
                "coordinates": [
                    12.591087177909912,
                    41.85707899096226
                ]
            }
        },
        {
            "type": "Feature",
            "properties": {
                "name": "RM TOGLIATTI 581",
                "id": "17703",
                "brand": "Api-Ip",
                "amenity": "fuel",
                "operator": "IP SERVICES S.R.L."
            },
            "geometry": {
                "type": "Point",
                "coordinates": [
                    12.571354084655695,
                    41.876834971235084
                ]
            }
        },
        {
            "type": "Feature",
            "properties": {
                "name": "Ariu franco",
                "id": "18989",
                "brand": "Agip Eni",
                "amenity": "fuel",
                "operator": "ARIU FRANCO"
            },
            "geometry": {
                "type": "Point",
                "coordinates": [
                    12.575485333800316,
                    41.890191325813525
                ]
            }
        },
        {
            "type": "Feature",
            "properties": {
                "name": "ENI ARDEATINA",
                "id": "28938",
                "brand": "Agip Eni",
                "amenity": "fuel",
                "operator": "DI FUSCO TOBIA"
            },
            "geometry": {
                "type": "Point",
                "coordinates": [
                    12.530382453689528,
                    41.80812560871795
                ]
            }
        },
        {
            "type": "Feature",
            "properties": {
                "name": "ENI",
                "id": "9812",
                "brand": "Agip Eni",
                "amenity": "fuel",
                "operator": "DAMA PETROLI DI ANTONIO TIRAVIA E C. S.A.S."
            },
            "geometry": {
                "type": "Point",
                "coordinates": [
                    12.58547176921161,
                    41.859640085773655
                ]
            }
        },
        {
            "type": "Feature",
            "properties": {
                "name": "IMPIANTO DI FRAGIACOMO VINCENZO",
                "id": "9580",
                "brand": "Agip Eni",
                "amenity": "fuel",
                "operator": "FRAGIACOMO VINCENZO"
            },
            "geometry": {
                "type": "Point",
                "coordinates": [
                    12.507999661379811,
                    41.89258717554414
                ]
            }
        },
        {
            "type": "Feature",
            "properties": {
                "name": "eni",
                "id": "9386",
                "brand": "Agip Eni",
                "amenity": "fuel",
                "operator": "M.A.M. S.N.C.DI TEMPERINI MASSIMO, ALESSANDRO E MAURO"
            },
            "geometry": {
                "type": "Point",
                "coordinates": [
                    12.580472230911258,
                    41.810479088350895
                ]
            }
        },
        {
            "type": "Feature",
            "properties": {
                "name": "Q8",
                "id": "19933",
                "brand": "Q8",
                "amenity": "fuel",
                "operator": "GATTUSO DANIELE"
            },
            "geometry": {
                "type": "Point",
                "coordinates": [
                    12.528419719360498,
                    41.875063528212586
                ]
            }
        },
        {
            "type": "Feature",
            "properties": {
                "name": "4608",
                "id": "30469",
                "brand": "Tamoil",
                "amenity": "fuel",
                "operator": "T.D.M. S.R.L."
            },
            "geometry": {
                "type": "Point",
                "coordinates": [
                    12.57069425166037,
                    41.89489024267623
                ]
            }
        },
        {
            "type": "Feature",
            "properties": {
                "name": "DI PALMA FABIO",
                "id": "13990",
                "brand": "Esso",
                "amenity": "fuel",
                "operator": "DI PALMA FABIO"
            },
            "geometry": {
                "type": "Point",
                "coordinates": [
                    12.483839203716684,
                    41.880730510387835
                ]
            }
        },
        {
            "type": "Feature",
            "properties": {
                "name": "Fosso s. Maura",
                "id": "31225",
                "brand": "Shell",
                "amenity": "fuel",
                "operator": "PANTA IMPIANTI DISTRIBUZIONE CARBURANTI E AFFINI  S.R.L."
            },
            "geometry": {
                "type": "Point",
                "coordinates": [
                    12.5955006480217,
                    41.85777737065765
                ]
            }
        },
        {
            "type": "Feature",
            "properties": {
                "name": "NI011915 ACQUA BULLICANTE",
                "id": "29472",
                "brand": "Total Erg",
                "amenity": "fuel",
                "operator": "CORO S.R.L."
            },
            "geometry": {
                "type": "Point",
                "coordinates": [
                    12.542341102957154,
                    41.888491040287754
                ]
            }
        },
        {
            "type": "Feature",
            "properties": {
                "name": "Lucio Sestio",
                "id": "30753",
                "brand": "Api-Ip",
                "amenity": "fuel",
                "operator": "MERIDIONALE PETROLI - SOCIETA A RESPONSABILITA LIMITATA S.M.P."
            },
            "geometry": {
                "type": "Point",
                "coordinates": [
                    12.553127096272759,
                    41.8558315306428
                ]
            }
        },
        {
            "type": "Feature",
            "properties": {
                "name": "ROMA - COLOMBO 38",
                "id": "23676",
                "brand": "Api-Ip",
                "amenity": "fuel",
                "operator": "IP SERVICES S.R.L."
            },
            "geometry": {
                "type": "Point",
                "coordinates": [
                    12.495940991401653,
                    41.870159919981305
                ]
            }
        },
        {
            "type": "Feature",
            "properties": {
                "name": "FALASCA BENITO - CASILINA",
                "id": "15731",
                "brand": "Api-Ip",
                "amenity": "fuel",
                "operator": "FALASCA BENITO"
            },
            "geometry": {
                "type": "Point",
                "coordinates": [
                    12.537210881710052,
                    41.88172326334217
                ]
            }
        },
        {
            "type": "Feature",
            "properties": {
                "name": "Tamoil Via MERULANA 189",
                "id": "21227",
                "brand": "Tamoil",
                "amenity": "fuel",
                "operator": "TROTTA EMILIO DANIEL"
            },
            "geometry": {
                "type": "Point",
                "coordinates": [
                    12.502334706027572,
                    41.89114044513972
                ]
            }
        },
        {
            "type": "Feature",
            "properties": {
                "name": "ARDEATINA",
                "id": "28343",
                "brand": "Total Erg",
                "amenity": "fuel",
                "operator": "GESTIONI EUROPA - SOCIETA' PER AZIONI"
            },
            "geometry": {
                "type": "Point",
                "coordinates": [
                    12.529193088412281,
                    41.809390117147665
                ]
            }
        },
        {
            "type": "Feature",
            "properties": {
                "name": "ROMANINA CARBURANTI SAS",
                "id": "17993",
                "brand": "Api-Ip",
                "amenity": "fuel",
                "operator": "ROMANINA CARBURANTI S.A.S. DI MARCIANO STEFANO & C."
            },
            "geometry": {
                "type": "Point",
                "coordinates": [
                    12.596235779762308,
                    41.83839145309878
                ]
            }
        },
        {
            "type": "Feature",
            "properties": {
                "name": "ANGELILLI LUCIANO",
                "id": "9103",
                "brand": "Agip Eni",
                "amenity": "fuel",
                "operator": "ANGELILLI LUCIANO"
            },
            "geometry": {
                "type": "Point",
                "coordinates": [
                    12.650003403359735,
                    41.89204350979473
                ]
            }
        },
        {
            "type": "Feature",
            "properties": {
                "name": "DI.PO. SNC",
                "id": "13991",
                "brand": "Total Erg",
                "amenity": "fuel",
                "operator": "DI.PO. SNC DI POLICANO M. E DI  PALMA G. STAZIONE DI SERVIZIO ERG"
            },
            "geometry": {
                "type": "Point",
                "coordinates": [
                    12.600938541664163,
                    41.81014890317756
                ]
            }
        },
        {
            "type": "Feature",
            "properties": {
                "name": "API CARBURANTE MARAKECH",
                "id": "29080",
                "brand": "Api-Ip",
                "amenity": "fuel",
                "operator": "ELHIDANE ABDERRAHMANE"
            },
            "geometry": {
                "type": "Point",
                "coordinates": [
                    12.537529225841467,
                    41.88400078481022
                ]
            }
        },
        {
            "type": "Feature",
            "properties": {
                "name": "Q8",
                "id": "6995",
                "brand": "Q8",
                "amenity": "fuel",
                "operator": "BILLI SANDRO"
            },
            "geometry": {
                "type": "Point",
                "coordinates": [
                    12.582247853279114,
                    41.80197534594109
                ]
            }
        },
        {
            "type": "Feature",
            "properties": {
                "name": "ROMA V.TODI/V.MONTEFALCO",
                "id": "6630",
                "brand": "Q8",
                "amenity": "fuel",
                "operator": "SERVIZI & GESTIONI ITALIA srl"
            },
            "geometry": {
                "type": "Point",
                "coordinates": [
                    12.528769185921306,
                    41.879866560683695
                ]
            }
        },
        {
            "type": "Feature",
            "properties": {
                "name": "giust. imperatore",
                "id": "25010",
                "brand": "Api-Ip",
                "amenity": "fuel",
                "operator": "COLOMBO OIL SAS DI MATTEI VENANZO E PASSARIELLO GIANLUCA"
            },
            "geometry": {
                "type": "Point",
                "coordinates": [
                    12.483411611358179,
                    41.85597089640209
                ]
            }
        },
        {
            "type": "Feature",
            "properties": {
                "name": "picchioni",
                "id": "19352",
                "brand": "Api-Ip",
                "amenity": "fuel",
                "operator": "PICCHIONI DOMENICO"
            },
            "geometry": {
                "type": "Point",
                "coordinates": [
                    12.48873513231547,
                    41.893460340961624
                ]
            }
        },
        {
            "type": "Feature",
            "properties": {
                "name": "STALTARI FRANCESCO",
                "id": "14754",
                "brand": "Esso",
                "amenity": "fuel",
                "operator": "STALTARI FRANCESCO"
            },
            "geometry": {
                "type": "Point",
                "coordinates": [
                    12.569680698215961,
                    41.87441560247667
                ]
            }
        },
        {
            "type": "Feature",
            "properties": {
                "name": "citrigno francesco e c sas",
                "id": "15610",
                "brand": "Agip Eni",
                "amenity": "fuel",
                "operator": "CITRIGNO FRANCESCO & C. S.A.S."
            },
            "geometry": {
                "type": "Point",
                "coordinates": [
                    12.533802040754379,
                    41.87148007060392
                ]
            }
        },
        {
            "type": "Feature",
            "properties": {
                "name": "GE.MA. SNC",
                "id": "18577",
                "brand": "Agip Eni",
                "amenity": "fuel",
                "operator": "GE.MA. - S.N.C. DI MARFIA CLAUDIO ANTONIO E DI BELLO MATTEO"
            },
            "geometry": {
                "type": "Point",
                "coordinates": [
                    12.561636897553281,
                    41.888292042593406
                ]
            }
        },
        {
            "type": "Feature",
            "properties": {
                "name": "ROMA PALMIRO TOGLIATTI 560",
                "id": "21654",
                "brand": "Q8",
                "amenity": "fuel",
                "operator": "SERVIZI & GESTIONI ITALIA S.R.L."
            },
            "geometry": {
                "type": "Point",
                "coordinates": [
                    12.571427766193667,
                    41.87581107928985
                ]
            }
        },
        {
            "type": "Feature",
            "properties": {
                "name": "Roma Annia",
                "id": "20780",
                "brand": "Total Erg",
                "amenity": "fuel",
                "operator": "GESTIONI EUROPA - SOCIETA' PER AZIONI"
            },
            "geometry": {
                "type": "Point",
                "coordinates": [
                    12.549168287785161,
                    41.84499888749685
                ]
            }
        },
        {
            "type": "Feature",
            "properties": {
                "name": "BUGCHI RATON",
                "id": "13823",
                "brand": "Api-Ip",
                "amenity": "fuel",
                "operator": "BUGCHI RATON"
            },
            "geometry": {
                "type": "Point",
                "coordinates": [
                    12.512787878889412,
                    41.874757290637454
                ]
            }
        },
        {
            "type": "Feature",
            "properties": {
                "name": "FATTINNANZI MASSIMO",
                "id": "25233",
                "brand": "Agip Eni",
                "amenity": "fuel",
                "operator": "FATTINNANZI MASSIMO"
            },
            "geometry": {
                "type": "Point",
                "coordinates": [
                    12.558740329430405,
                    41.85568429978294
                ]
            }
        },
        {
            "type": "Feature",
            "properties": {
                "name": "ROMA",
                "id": "5873",
                "brand": "Total Erg",
                "amenity": "fuel",
                "operator": "TotalErg SpA"
            },
            "geometry": {
                "type": "Point",
                "coordinates": [
                    12.496926635581985,
                    41.833547995426244
                ]
            }
        },
        {
            "type": "Feature",
            "properties": {
                "name": "ROMA-VIA PRENESTINA KM.7+050",
                "id": "11816",
                "brand": "Q8",
                "amenity": "fuel",
                "operator": "SERVIZI & GESTIONI ITALIA S.R.L."
            },
            "geometry": {
                "type": "Point",
                "coordinates": [
                    12.56899463558193,
                    41.89483177314265
                ]
            }
        },
        {
            "type": "Feature",
            "properties": {
                "name": "eni s.p.a",
                "id": "22541",
                "brand": "Agip Eni",
                "amenity": "fuel",
                "operator": "D'AMARIO GIANCARLO"
            },
            "geometry": {
                "type": "Point",
                "coordinates": [
                    12.568565163404626,
                    41.85433877566619
                ]
            }
        },
        {
            "type": "Feature",
            "properties": {
                "name": "MARZOCCA GIUSEPPE",
                "id": "12975",
                "brand": "Api-Ip",
                "amenity": "fuel",
                "operator": "MARZOCCA GIUSEPPE"
            },
            "geometry": {
                "type": "Point",
                "coordinates": [
                    12.535080000725431,
                    41.886918890854446
                ]
            }
        },
        {
            "type": "Feature",
            "properties": {
                "name": "IP",
                "id": "28013",
                "brand": "Api-Ip",
                "amenity": "fuel",
                "operator": "HOSSAIN SHEIKH JABBER"
            },
            "geometry": {
                "type": "Point",
                "coordinates": [
                    12.507024050697964,
                    41.88378952373413
                ]
            }
        },
        {
            "type": "Feature",
            "properties": {
                "name": "I.P.",
                "id": "24009",
                "brand": "Api-Ip",
                "amenity": "fuel",
                "operator": "PUMA DI PULIATTI LUIGI"
            },
            "geometry": {
                "type": "Point",
                "coordinates": [
                    12.53694164907381,
                    41.86953838556935
                ]
            }
        },
        {
            "type": "Feature",
            "properties": {
                "name": "DISTRIBUTORE Q8",
                "id": "8952",
                "brand": "Q8",
                "amenity": "fuel",
                "operator": "MACRI' VINCENZO E MASSIMO & C. - S.A.S. DI MASSIMO MACRI'"
            },
            "geometry": {
                "type": "Point",
                "coordinates": [
                    12.616848349571228,
                    41.78779620067791
                ]
            }
        },
        {
            "type": "Feature",
            "properties": {
                "name": "Roma Via Appia Nuova",
                "id": "22148",
                "brand": "Total Erg",
                "amenity": "fuel",
                "operator": "GESTIONI EUROPA - SOCIETA' PER AZIONI"
            },
            "geometry": {
                "type": "Point",
                "coordinates": [
                    12.529720813035965,
                    41.868177447063125
                ]
            }
        },
        {
            "type": "Feature",
            "properties": {
                "name": "ZANGRILLI MARIA PIA",
                "id": "12037",
                "brand": "Total Erg",
                "amenity": "fuel",
                "operator": "PETROL POINT 90 DI ZANGRILLI MARIA PIA E C. - S.A.S."
            },
            "geometry": {
                "type": "Point",
                "coordinates": [
                    12.48740137192044,
                    41.84688445189646
                ]
            }
        },
        {
            "type": "Feature",
            "properties": {
                "name": "ENERPETROLI - ROMANINA",
                "id": "31459",
                "brand": "Enerpetroli",
                "amenity": "fuel",
                "operator": "ENERPETROLI S.R.L."
            },
            "geometry": {
                "type": "Point",
                "coordinates": [
                    12.592729330062868,
                    41.84693764127483
                ]
            }
        },
        {
            "type": "Feature",
            "properties": {
                "name": "Hossain Amzad",
                "id": "25174",
                "brand": "Api-Ip",
                "amenity": "fuel",
                "operator": "HOSSAIN AMZAD"
            },
            "geometry": {
                "type": "Point",
                "coordinates": [
                    12.534567439782561,
                    41.88973754163755
                ]
            }
        },
        {
            "type": "Feature",
            "properties": {
                "name": "agip",
                "id": "28509",
                "brand": "Agip Eni",
                "amenity": "fuel",
                "operator": "GALANDRINI MARIA PIA"
            },
            "geometry": {
                "type": "Point",
                "coordinates": [
                    12.631748020648958,
                    41.80640939665474
                ]
            }
        },
        {
            "type": "Feature",
            "properties": {
                "name": "GE.MA. SNC",
                "id": "18592",
                "brand": "Agip Eni",
                "amenity": "fuel",
                "operator": "GE.MA. - S.N.C. DI MARFIA CLAUDIO ANTONIO E DI BELLO MATTEO"
            },
            "geometry": {
                "type": "Point",
                "coordinates": [
                    12.561563327908516,
                    41.88801534469973
                ]
            }
        },
        {
            "type": "Feature",
            "properties": {
                "name": "27076 COLOMBO ROMA",
                "id": "26087",
                "brand": "Agip Eni",
                "amenity": "fuel",
                "operator": "ENI RETE OIL&NONOIL S.P.A."
            },
            "geometry": {
                "type": "Point",
                "coordinates": [
                    12.496130168437958,
                    41.87194841523252
                ]
            }
        },
        {
            "type": "Feature",
            "properties": {
                "name": "FALASCA BENITO",
                "id": "31963",
                "brand": "Api-Ip",
                "amenity": "fuel",
                "operator": "FALASCA BENITO"
            },
            "geometry": {
                "type": "Point",
                "coordinates": [
                    12.581323832273483,
                    41.80301925583166
                ]
            }
        },
        {
            "type": "Feature",
            "properties": {
                "name": "ROMA - ODESCALCHI",
                "id": "28045",
                "brand": "Api-Ip",
                "amenity": "fuel",
                "operator": "IP SERVICES S.R.L."
            },
            "geometry": {
                "type": "Point",
                "coordinates": [
                    12.498186501240754,
                    41.853768979519224
                ]
            }
        },
        {
            "type": "Feature",
            "properties": {
                "name": "TORRENOVA CARB. SAS - TORRENOVA",
                "id": "19314",
                "brand": "Api-Ip",
                "amenity": "fuel",
                "operator": "TORRENOVA CARBURANTI S.A.S. DI SBRICCOLI MARCO & C."
            },
            "geometry": {
                "type": "Point",
                "coordinates": [
                    12.617706744030215,
                    41.88000254937843
                ]
            }
        },
        {
            "type": "Feature",
            "properties": {
                "name": "Aventino",
                "id": "7538",
                "brand": "Tamoil",
                "amenity": "fuel",
                "operator": "GESTIONI RIUNITE G.R. S.R.L."
            },
            "geometry": {
                "type": "Point",
                "coordinates": [
                    12.48670220375061,
                    41.88210130524376
                ]
            }
        },
        {
            "type": "Feature",
            "properties": {
                "name": "tamoil 8521 via etruria ang via imera",
                "id": "15223",
                "brand": "Tamoil",
                "amenity": "fuel",
                "operator": "CIRULLI ANNA TERESA"
            },
            "geometry": {
                "type": "Point",
                "coordinates": [
                    12.511402666568756,
                    41.879218884808225
                ]
            }
        },
        {
            "type": "Feature",
            "properties": {
                "name": "IP-VIA APPIA",
                "id": "30639",
                "brand": "Api-Ip",
                "amenity": "fuel",
                "operator": "GLOBOGEST S.R.L."
            },
            "geometry": {
                "type": "Point",
                "coordinates": [
                    12.53151588141918,
                    41.86393953624045
                ]
            }
        },
        {
            "type": "Feature",
            "properties": {
                "name": "ROMA",
                "id": "5431",
                "brand": "Agip Eni",
                "amenity": "fuel",
                "operator": "enirete oil&nonoil S.p.A."
            },
            "geometry": {
                "type": "Point",
                "coordinates": [
                    12.481070514555086,
                    41.83226334817885
                ]
            }
        },
        {
            "type": "Feature",
            "properties": {
                "name": "stazione servizio q8",
                "id": "16089",
                "brand": "Q8",
                "amenity": "fuel",
                "operator": "TAPPI FILIPPO"
            },
            "geometry": {
                "type": "Point",
                "coordinates": [
                    12.528459578752518,
                    41.89169545420657
                ]
            }
        },
        {
            "type": "Feature",
            "properties": {
                "name": "ANGELONI FABIO",
                "id": "14472",
                "brand": "Agip Eni",
                "amenity": "fuel",
                "operator": "ANGELONI FABIO"
            },
            "geometry": {
                "type": "Point",
                "coordinates": [
                    12.499603629112242,
                    41.82607890938835
                ]
            }
        },
        {
            "type": "Feature",
            "properties": {
                "name": "AGIP",
                "id": "20378",
                "brand": "Agip Eni",
                "amenity": "fuel",
                "operator": "TEMPERINI S.R.L."
            },
            "geometry": {
                "type": "Point",
                "coordinates": [
                    12.594709396362305,
                    41.811125224960165
                ]
            }
        },
        {
            "type": "Feature",
            "properties": {
                "name": "impianto Ip Fragiacomo Giuseppe via Genocchi",
                "id": "30480",
                "brand": "Api-Ip",
                "amenity": "fuel",
                "operator": "FRAGIACOMO GIUSEPPE"
            },
            "geometry": {
                "type": "Point",
                "coordinates": [
                    12.495021703011389,
                    41.85977981880882
                ]
            }
        },
        {
            "type": "Feature",
            "properties": {
                "name": "FRASCATI",
                "id": "5864",
                "brand": "Total Erg",
                "amenity": "fuel",
                "operator": "TotalErg SpA"
            },
            "geometry": {
                "type": "Point",
                "coordinates": [
                    12.646757860118896,
                    41.82589898393147
                ]
            }
        },
        {
            "type": "Feature",
            "properties": {
                "name": "albania",
                "id": "28514",
                "brand": "Api-Ip",
                "amenity": "fuel",
                "operator": "MJ CARBURANTI DI MACCHIONI STEFANO E C. SAS"
            },
            "geometry": {
                "type": "Point",
                "coordinates": [
                    12.484382529123195,
                    41.881040278279585
                ]
            }
        },
        {
            "type": "Feature",
            "properties": {
                "name": "EFFEGI   SRLS",
                "id": "29774",
                "brand": "Api-Ip",
                "amenity": "fuel",
                "operator": "EFFEGI SOCIETA' A RESPONSABILITA' LIMITATA SEMPLIFICATA"
            },
            "geometry": {
                "type": "Point",
                "coordinates": [
                    12.605245220901452,
                    41.82448052006395
                ]
            }
        },
        {
            "type": "Feature",
            "properties": {
                "name": "A.G.I. ROMA SUD S.R.L.",
                "id": "16954",
                "amenity": "fuel",
                "operator": "A.G.I. ROMA SUD S.R.L."
            },
            "geometry": {
                "type": "Point",
                "coordinates": [
                    12.555142119526865,
                    41.87632130115975
                ]
            }
        },
        {
            "type": "Feature",
            "properties": {
                "name": "distributore eni",
                "id": "16381",
                "brand": "Agip Eni",
                "amenity": "fuel",
                "operator": "LACOPO ANTONIO"
            },
            "geometry": {
                "type": "Point",
                "coordinates": [
                    12.586429417133331,
                    41.87296022714162
                ]
            }
        },
        {
            "type": "Feature",
            "properties": {
                "name": "citrigno gaetano",
                "id": "15344",
                "brand": "Agip Eni",
                "amenity": "fuel",
                "operator": "CITRIGNO GAETANO"
            },
            "geometry": {
                "type": "Point",
                "coordinates": [
                    12.55790306515803,
                    41.859060740758494
                ]
            }
        },
        {
            "type": "Feature",
            "properties": {
                "name": "PRENESTINA CARBURANTI SAS",
                "id": "20471",
                "brand": "Api-Ip",
                "amenity": "fuel",
                "operator": "PRENESTINA CARBURANTI - SOCIETA' IN ACCOMANDITA SEMPLICE DI DE NUZZO CLAUDIO & C."
            },
            "geometry": {
                "type": "Point",
                "coordinates": [
                    12.578703314065933,
                    41.894357443930055
                ]
            }
        },
        {
            "type": "Feature",
            "properties": {
                "name": "ROMA LAURENTINA",
                "id": "29875",
                "brand": "Total Erg",
                "amenity": "fuel",
                "operator": "TOTALERG S.P.A."
            },
            "geometry": {
                "type": "Point",
                "coordinates": [
                    12.481659650802609,
                    41.78432427472855
                ]
            }
        },
        {
            "type": "Feature",
            "properties": {
                "name": "laurentinacarburanti",
                "id": "18533",
                "brand": "Agip Eni",
                "amenity": "fuel",
                "operator": "LAURENTINA CARBURANTI DI CHIMENTO ANDREA - SOCIETA' IN ACCOMANDIT"
            },
            "geometry": {
                "type": "Point",
                "coordinates": [
                    12.481567114591599,
                    41.80274253436331
                ]
            }
        },
        {
            "type": "Feature",
            "properties": {
                "name": "ROMA - MANTEGNA",
                "id": "30990",
                "brand": "Api-Ip",
                "amenity": "fuel",
                "operator": "IP SERVICES S.R.L."
            },
            "geometry": {
                "type": "Point",
                "coordinates": [
                    12.495005422115925,
                    41.85270405080059
                ]
            }
        },
        {
            "type": "Feature",
            "properties": {
                "name": "FARCOMENI ALESSANDRO",
                "id": "14709",
                "brand": "Total Erg",
                "amenity": "fuel",
                "operator": "FARCOMENI ALESSANDRO"
            },
            "geometry": {
                "type": "Point",
                "coordinates": [
                    12.585999593138695,
                    41.86548390491121
                ]
            }
        },
        {
            "type": "Feature",
            "properties": {
                "name": "ROMA",
                "id": "5876",
                "brand": "Total Erg",
                "amenity": "fuel",
                "operator": "TotalErg SpA"
            },
            "geometry": {
                "type": "Point",
                "coordinates": [
                    12.583381000000031,
                    41.85110100414581
                ]
            }
        },
        {
            "type": "Feature",
            "properties": {
                "name": "IP via PALMIRO TOGLIATTI 801",
                "id": "28503",
                "brand": "Api-Ip",
                "amenity": "fuel",
                "operator": "TROTTA EMILIO DANIEL"
            },
            "geometry": {
                "type": "Point",
                "coordinates": [
                    12.573007062565578,
                    41.88495434375087
                ]
            }
        },
        {
            "type": "Feature",
            "properties": {
                "name": "RIGAMONTI",
                "id": "5971",
                "brand": "Total Erg",
                "amenity": "fuel",
                "operator": "GESTIONI EUROPA S.p.A."
            },
            "geometry": {
                "type": "Point",
                "coordinates": [
                    12.50041799999997,
                    41.83729400164168
                ]
            }
        },
        {
            "type": "Feature",
            "properties": {
                "name": "TIBURTINO",
                "id": "3485",
                "brand": "Q8",
                "amenity": "fuel",
                "operator": "SERVIZI & GESTIONI ITALIA S.R.L."
            },
            "geometry": {
                "type": "Point",
                "coordinates": [
                    12.549898976196348,
                    41.90095167783872
                ]
            }
        },
        {
            "type": "Feature",
            "properties": {
                "name": "ARDEATINA ESTERNA",
                "id": "3728",
                "brand": "Agip Eni",
                "amenity": "fuel",
                "operator": "ARDEATINA CARBURANTI - SOCIETA' A RESPONSABILITA' LIMITATA"
            },
            "geometry": {
                "type": "Point",
                "coordinates": [
                    12.51845955848694,
                    41.7941795737751
                ]
            }
        },
        {
            "type": "Feature",
            "properties": {
                "name": "MARLIA FRANCESCO",
                "id": "26146",
                "brand": "Esso",
                "amenity": "fuel",
                "operator": "MARLIA FRANCESCO"
            },
            "geometry": {
                "type": "Point",
                "coordinates": [
                    12.591726779937742,
                    41.89541888693443
                ]
            }
        },
        {
            "type": "Feature",
            "properties": {
                "name": "STEMAR",
                "id": "23993",
                "brand": "Total Erg",
                "amenity": "fuel",
                "operator": "STEMAR CARBURANTI S.A.S. DI DI SALVATORE MARIO E C."
            },
            "geometry": {
                "type": "Point",
                "coordinates": [
                    12.568077743053436,
                    41.85328993763281
                ]
            }
        },
        {
            "type": "Feature",
            "properties": {
                "name": "ROMA VIA DI VIGNA MURATA SNC",
                "id": "6626",
                "brand": "Q8",
                "amenity": "fuel",
                "operator": "SERVIZI & GESTIONI ITALIA srl"
            },
            "geometry": {
                "type": "Point",
                "coordinates": [
                    12.493483764556911,
                    41.8262444935213
                ]
            }
        },
        {
            "type": "Feature",
            "properties": {
                "name": "ANNIBALDI PAOLO",
                "id": "14508",
                "brand": "Api-Ip",
                "amenity": "fuel",
                "operator": "ANNIBALDI PAOLO"
            },
            "geometry": {
                "type": "Point",
                "coordinates": [
                    12.578000047597019,
                    41.86730546459214
                ]
            }
        },
        {
            "type": "Feature",
            "properties": {
                "name": "ENI",
                "id": "14249",
                "brand": "Agip Eni",
                "amenity": "fuel",
                "operator": "AMADIO GIUSEPPE"
            },
            "geometry": {
                "type": "Point",
                "coordinates": [
                    12.52105376071313,
                    41.888231261850024
                ]
            }
        },
        {
            "type": "Feature",
            "properties": {
                "name": "IP",
                "id": "9573",
                "brand": "Api-Ip",
                "amenity": "fuel",
                "operator": "PIZZUTI LEONARDO"
            },
            "geometry": {
                "type": "Point",
                "coordinates": [
                    12.58982442319393,
                    41.79797250023361
                ]
            }
        },
        {
            "type": "Feature",
            "properties": {
                "name": "riccierg",
                "id": "28540",
                "brand": "Total Erg",
                "amenity": "fuel",
                "operator": "RICCI PACIFICI GIUSEPPE"
            },
            "geometry": {
                "type": "Point",
                "coordinates": [
                    12.612280184669542,
                    41.83263676470798
                ]
            }
        },
        {
            "type": "Feature",
            "properties": {
                "name": "Onorati Claudio",
                "id": "17418",
                "brand": "Total Erg",
                "amenity": "fuel",
                "operator": "ONORATI CLAUDIO"
            },
            "geometry": {
                "type": "Point",
                "coordinates": [
                    12.65178099755326,
                    41.77134969168927
                ]
            }
        },
        {
            "type": "Feature",
            "properties": {
                "name": "Stazione di Servizio Auchan",
                "id": "4323",
                "brand": "Auchan",
                "amenity": "fuel",
                "operator": "AUCHAN S.P.A."
            },
            "geometry": {
                "type": "Point",
                "coordinates": [
                    12.570173522753976,
                    41.90215150674966
                ]
            }
        },
        {
            "type": "Feature",
            "properties": {
                "name": "INNOCENZI MIRKO",
                "id": "9700",
                "brand": "Q8",
                "amenity": "fuel",
                "operator": "INNOCENZI MIRKO"
            },
            "geometry": {
                "type": "Point",
                "coordinates": [
                    12.530705183744429,
                    41.87375272873238
                ]
            }
        },
        {
            "type": "Feature",
            "properties": {
                "name": "ROMA VIA ACQUA BULLICANTE  256",
                "id": "6629",
                "brand": "Q8",
                "amenity": "fuel",
                "operator": "SERVIZI & GESTIONI ITALIA srl"
            },
            "geometry": {
                "type": "Point",
                "coordinates": [
                    12.54246324073051,
                    41.88925026068948
                ]
            }
        },
        {
            "type": "Feature",
            "properties": {
                "name": "Pico della Mirandola",
                "id": "14144",
                "brand": "Q8",
                "amenity": "fuel",
                "operator": "CROMAPETROLI - SOCIETA' A RESPONSABILITA' LIMITATA"
            },
            "geometry": {
                "type": "Point",
                "coordinates": [
                    12.487278168385727,
                    41.847400591823664
                ]
            }
        },
        {
            "type": "Feature",
            "properties": {
                "name": "Roma Cecchignola",
                "id": "10149",
                "brand": "Total Erg",
                "amenity": "fuel",
                "operator": "GESTIONI EUROPA - SOCIETA' PER AZIONI"
            },
            "geometry": {
                "type": "Point",
                "coordinates": [
                    12.511689662933351,
                    41.81035513811383
                ]
            }
        },
        {
            "type": "Feature",
            "properties": {
                "name": "DILETTI STEFANO",
                "id": "12066",
                "brand": "Agip Eni",
                "amenity": "fuel",
                "operator": "DILETTI STEFANO"
            },
            "geometry": {
                "type": "Point",
                "coordinates": [
                    12.574150442852783,
                    41.880958087977895
                ]
            }
        },
        {
            "type": "Feature",
            "properties": {
                "name": "FIN SNC",
                "id": "14008",
                "brand": "Tamoil",
                "amenity": "fuel",
                "operator": "F.I.N. SNC DI IRENE NUZZO & C."
            },
            "geometry": {
                "type": "Point",
                "coordinates": [
                    12.500052076559314,
                    41.85953851073863
                ]
            }
        },
        {
            "type": "Feature",
            "properties": {
                "name": "LEONORI FABIO",
                "id": "12424",
                "brand": "Api-Ip",
                "amenity": "fuel",
                "operator": "LEONORI FABIO"
            },
            "geometry": {
                "type": "Point",
                "coordinates": [
                    12.617837587259826,
                    41.815946197569815
                ]
            }
        },
        {
            "type": "Feature",
            "properties": {
                "name": "TUSCOLANA EST",
                "id": "29258",
                "brand": "Agip Eni",
                "amenity": "fuel",
                "operator": "LA FENICE S.R.L."
            },
            "geometry": {
                "type": "Point",
                "coordinates": [
                    12.606591582298279,
                    41.85017639850826
                ]
            }
        },
        {
            "type": "Feature",
            "properties": {
                "name": "COLOMBO",
                "id": "5969",
                "brand": "Total Erg",
                "amenity": "fuel",
                "operator": "GESTIONI EUROPA S.p.A."
            },
            "geometry": {
                "type": "Point",
                "coordinates": [
                    12.49107385354807,
                    41.855129994971364
                ]
            }
        },
        {
            "type": "Feature",
            "properties": {
                "name": "CAPASSO GIUSEPPE",
                "id": "15519",
                "brand": "Api-Ip",
                "amenity": "fuel",
                "operator": "CAPASSO GIUSEPPE"
            },
            "geometry": {
                "type": "Point",
                "coordinates": [
                    12.53512359265983,
                    41.86588706592393
                ]
            }
        },
        {
            "type": "Feature",
            "properties": {
                "name": "F.LLI BATTISTONI SAS",
                "id": "27581",
                "brand": "Agip Eni",
                "amenity": "fuel",
                "operator": "FRATELLI BATTISTONI S.A.S. DI BATTISTONI DANIELE"
            },
            "geometry": {
                "type": "Point",
                "coordinates": [
                    12.490154206752777,
                    41.82649463934743
                ]
            }
        },
        {
            "type": "Feature",
            "properties": {
                "name": "PAGLIA SAS DI PAGLIA PINO",
                "id": "29248",
                "brand": "Esso",
                "amenity": "fuel",
                "operator": "PAGLIA S.A.S. DI PAGLIA PINO"
            },
            "geometry": {
                "type": "Point",
                "coordinates": [
                    12.578423023223879,
                    41.89410434990221
                ]
            }
        },
        {
            "type": "Feature",
            "properties": {
                "name": "L & S CARB S.A.S. DI RANALDI LORENZO E STEFANO",
                "id": "15832",
                "brand": "Esso",
                "amenity": "fuel",
                "operator": "L & S CARB S.A.S. DI RANALDI LORENZO E STEFANO"
            },
            "geometry": {
                "type": "Point",
                "coordinates": [
                    12.543383361376984,
                    41.88676436494546
                ]
            }
        },
        {
            "type": "Feature",
            "properties": {
                "name": "STAZIONE IP FAZZARI FRANCESCO",
                "id": "15846",
                "brand": "Api-Ip",
                "amenity": "fuel",
                "operator": "FAZZARI FRANCESCO"
            },
            "geometry": {
                "type": "Point",
                "coordinates": [
                    12.500108091693962,
                    41.8811891119969
                ]
            }
        },
        {
            "type": "Feature",
            "properties": {
                "name": "ANGELO SANTOSUOSSO",
                "id": "10017",
                "brand": "Api-Ip",
                "amenity": "fuel",
                "operator": "SANTOSUOSSO ANGELO"
            },
            "geometry": {
                "type": "Point",
                "coordinates": [
                    12.55122423313526,
                    41.83726236076933
                ]
            }
        },
        {
            "type": "Feature",
            "properties": {
                "name": "ENI spa",
                "id": "6876",
                "brand": "Agip Eni",
                "amenity": "fuel",
                "operator": "CHIUMERA PEDULLA' E FIGLIA - SOCIETA IN NOME COLLETTIVO"
            },
            "geometry": {
                "type": "Point",
                "coordinates": [
                    12.577474191784859,
                    41.88015749080328
                ]
            }
        },
        {
            "type": "Feature",
            "properties": {
                "name": "IP  G. Chiovenda",
                "id": "12422",
                "brand": "Api-Ip",
                "amenity": "fuel",
                "operator": "MATTEI MARIA CRISTINA"
            },
            "geometry": {
                "type": "Point",
                "coordinates": [
                    12.571244989921295,
                    41.85938683926141
                ]
            }
        },
        {
            "type": "Feature",
            "properties": {
                "name": "3C SERVICE",
                "id": "27146",
                "brand": "Repsol",
                "amenity": "fuel",
                "operator": "3C SERVICE DI CECCHETTI FABRIZIO & C. S.N.C."
            },
            "geometry": {
                "type": "Point",
                "coordinates": [
                    12.59879317287755,
                    41.808873845538756
                ]
            }
        },
        {
            "type": "Feature",
            "properties": {
                "name": "eni",
                "id": "17139",
                "brand": "Agip Eni",
                "amenity": "fuel",
                "operator": "BORTOLOTTI GUGLIELMO"
            },
            "geometry": {
                "type": "Point",
                "coordinates": [
                    12.582102417945864,
                    41.844360095568526
                ]
            }
        },
        {
            "type": "Feature",
            "properties": {
                "name": "LAURI FERNANDA",
                "id": "14344",
                "amenity": "fuel",
                "operator": "LAURI FERNANDA"
            },
            "geometry": {
                "type": "Point",
                "coordinates": [
                    12.597087802947726,
                    41.80386529231274
                ]
            }
        },
        {
            "type": "Feature",
            "properties": {
                "name": "Prenstina 325",
                "id": "28447",
                "brand": "Api-Ip",
                "amenity": "fuel",
                "operator": "MERIDIONALE PETROLI - SOCIETA A RESPONSABILITA LIMITATA S.M.P."
            },
            "geometry": {
                "type": "Point",
                "coordinates": [
                    12.55061661642662,
                    41.893889074681994
                ]
            }
        },
        {
            "type": "Feature",
            "properties": {
                "name": "FRASCATI",
                "id": "24394",
                "brand": "Agip Eni",
                "amenity": "fuel",
                "operator": "TIBER OIL S.R.L."
            },
            "geometry": {
                "type": "Point",
                "coordinates": [
                    12.640906423330307,
                    41.8212902244331
                ]
            }
        },
        {
            "type": "Feature",
            "properties": {
                "name": "ROMA SANTA MARIA DEL BUONCONSIGLIO",
                "id": "6644",
                "brand": "Q8",
                "amenity": "fuel",
                "operator": "SERVIZI & GESTIONI ITALIA srl"
            },
            "geometry": {
                "type": "Point",
                "coordinates": [
                    12.550465296958922,
                    41.864199727828655
                ]
            }
        },
        {
            "type": "Feature",
            "properties": {
                "name": "ROMA CASILINA",
                "id": "28843",
                "brand": "Esso",
                "amenity": "fuel",
                "operator": "PENTA PETROLI SRL"
            },
            "geometry": {
                "type": "Point",
                "coordinates": [
                    12.546169798147616,
                    41.87836640240135
                ]
            }
        },
        {
            "type": "Feature",
            "properties": {
                "name": "citrigno gaetano",
                "id": "15341",
                "brand": "Agip Eni",
                "amenity": "fuel",
                "operator": "CITRIGNO GAETANO"
            },
            "geometry": {
                "type": "Point",
                "coordinates": [
                    12.569034364991923,
                    41.83240468011702
                ]
            }
        },
        {
            "type": "Feature",
            "properties": {
                "name": "prenestina carburanti",
                "id": "15809",
                "brand": "Total Erg",
                "amenity": "fuel",
                "operator": "PRENESTINA CARBURANTI DI MICALI VINCENZO & C. - S.N.C."
            },
            "geometry": {
                "type": "Point",
                "coordinates": [
                    12.579498853381324,
                    41.893839568860976
                ]
            }
        },
        {
            "type": "Feature",
            "properties": {
                "name": "Roma Prenestina",
                "id": "10333",
                "brand": "Total Erg",
                "amenity": "fuel",
                "operator": "GESTIONI EUROPA - SOCIETA' PER AZIONI"
            },
            "geometry": {
                "type": "Point",
                "coordinates": [
                    12.558045444774734,
                    41.894885023709804
                ]
            }
        },
        {
            "type": "Feature",
            "properties": {
                "name": "CASILINA INTERNA",
                "id": "3711",
                "brand": "Agip Eni",
                "amenity": "fuel",
                "operator": "CASILINA INTERNA S.R.L."
            },
            "geometry": {
                "type": "Point",
                "coordinates": [
                    12.606688141822817,
                    41.87555503802507
                ]
            }
        },
        {
            "type": "Feature",
            "properties": {
                "name": "PETROLI ITALIA",
                "id": "28536",
                "amenity": "fuel",
                "operator": "ISLAM SHAHIDUL"
            },
            "geometry": {
                "type": "Point",
                "coordinates": [
                    12.484688401561243,
                    41.85056956775001
                ]
            }
        },
        {
            "type": "Feature",
            "properties": {
                "name": "NORM CARBURANTI",
                "id": "19696",
                "brand": "Total Erg",
                "amenity": "fuel",
                "operator": "N.O.R.M. CARBURANTI S.N.C. DI BATTISTA NADIO, IMPERIALE RAFFAELE & C."
            },
            "geometry": {
                "type": "Point",
                "coordinates": [
                    12.560296654701235,
                    41.892379278569216
                ]
            }
        },
        {
            "type": "Feature",
            "properties": {
                "name": "TINTORETTO",
                "id": "5972",
                "brand": "Total Erg",
                "amenity": "fuel",
                "operator": "GESTIONI EUROPA S.p.A."
            },
            "geometry": {
                "type": "Point",
                "coordinates": [
                    12.500189999999977,
                    41.83320099545875
                ]
            }
        },
        {
            "type": "Feature",
            "properties": {
                "name": "CAR WASH 2000 SRL",
                "id": "18996",
                "brand": "Total Erg",
                "amenity": "fuel",
                "operator": "CAR WASH 2000 S.R.L."
            },
            "geometry": {
                "type": "Point",
                "coordinates": [
                    12.627320229876208,
                    41.87721221876522
                ]
            }
        },
        {
            "type": "Feature",
            "properties": {
                "name": "FELICI AMEDEO",
                "id": "13407",
                "brand": "Q8",
                "amenity": "fuel",
                "operator": "FELICI AMEDEO"
            },
            "geometry": {
                "type": "Point",
                "coordinates": [
                    12.549267678747922,
                    41.86375860509742
                ]
            }
        },
        {
            "type": "Feature",
            "properties": {
                "name": "BERNARDINI LUCA",
                "id": "9600",
                "brand": "Q8",
                "amenity": "fuel",
                "operator": "BERNARDINI LUCA"
            },
            "geometry": {
                "type": "Point",
                "coordinates": [
                    12.521653295106491,
                    41.88564127130447
                ]
            }
        },
        {
            "type": "Feature",
            "properties": {
                "name": "MALPASSI ANDREA",
                "id": "12753",
                "brand": "Total Erg",
                "amenity": "fuel",
                "operator": "MALPASSI ANDREA"
            },
            "geometry": {
                "type": "Point",
                "coordinates": [
                    12.488534174204231,
                    41.867118361089574
                ]
            }
        },
        {
            "type": "Feature",
            "properties": {
                "name": "MASSAROTTI GIOVANNI",
                "id": "18552",
                "brand": "Agip Eni",
                "amenity": "fuel",
                "operator": "MASSAROTTI GIOVANNI"
            },
            "geometry": {
                "type": "Point",
                "coordinates": [
                    12.616444515938612,
                    41.86874293377895
                ]
            }
        },
        {
            "type": "Feature",
            "properties": {
                "name": "ip",
                "id": "29092",
                "brand": "Api-Ip",
                "amenity": "fuel",
                "operator": "FRUSTACI ANTONIETTA"
            },
            "geometry": {
                "type": "Point",
                "coordinates": [
                    12.567082246009024,
                    41.88483638833838
                ]
            }
        },
        {
            "type": "Feature",
            "properties": {
                "name": "SUPERGAS ITALIANA SRL",
                "id": "18638",
                "brand": "Total Erg",
                "amenity": "fuel",
                "operator": "SUPERGAS ITALIANA S.R.L."
            },
            "geometry": {
                "type": "Point",
                "coordinates": [
                    12.604997009038925,
                    41.84726011556489
                ]
            }
        },
        {
            "type": "Feature",
            "properties": {
                "name": "S.T.L. Petroli S.r.l. Via Aosta",
                "id": "32180",
                "amenity": "fuel",
                "operator": "S.T.L. PETROLI S.R.L."
            },
            "geometry": {
                "type": "Point",
                "coordinates": [
                    12.514762700412803,
                    41.88407178037491
                ]
            }
        },
        {
            "type": "Feature",
            "properties": {
                "name": "ANGELONI ROBERTO",
                "id": "13778",
                "brand": "Api-Ip",
                "amenity": "fuel",
                "operator": "ANGELONI ROBERTO"
            },
            "geometry": {
                "type": "Point",
                "coordinates": [
                    12.496392323122109,
                    41.86605496651468
                ]
            }
        },
        {
            "type": "Feature",
            "properties": {
                "name": "IMP.Tamoil 3923 di Alessandro Tenzi",
                "id": "18746",
                "brand": "Tamoil",
                "amenity": "fuel",
                "operator": "TENZI ALESSANDRO"
            },
            "geometry": {
                "type": "Point",
                "coordinates": [
                    12.534378650123701,
                    41.88295884130498
                ]
            }
        },
        {
            "type": "Feature",
            "properties": {
                "name": "Impianto IP - Ciampino",
                "id": "31633",
                "brand": "Api-Ip",
                "amenity": "fuel",
                "operator": "IPNA PETROLI SOCIETA' A RESPONSABILITA' LIMITATA"
            },
            "geometry": {
                "type": "Point",
                "coordinates": [
                    12.596601694822311,
                    41.80427102960921
                ]
            }
        },
        {
            "type": "Feature",
            "properties": {
                "name": "AGIP VIA DI TORRENOVA",
                "id": "19190",
                "brand": "Agip Eni",
                "amenity": "fuel",
                "operator": "PETROL SERVICE - SOCIETA' A RESPONSABILITA' LIMITATA"
            },
            "geometry": {
                "type": "Point",
                "coordinates": [
                    12.6184268920307,
                    41.87817870179844
                ]
            }
        },
        {
            "type": "Feature",
            "properties": {
                "name": "Impianto Q8 di Ficarra Valentina",
                "id": "18890",
                "brand": "Q8",
                "amenity": "fuel",
                "operator": "FICARRA VALENTINA"
            },
            "geometry": {
                "type": "Point",
                "coordinates": [
                    12.489887718566365,
                    41.86710918513273
                ]
            }
        },
        {
            "type": "Feature",
            "properties": {
                "name": "TUSCOLANA OVEST",
                "id": "3932",
                "brand": "Agip Eni",
                "amenity": "fuel",
                "operator": "EUROGEST S.A.S. DI BIANCHI MAURO E C."
            },
            "geometry": {
                "type": "Point",
                "coordinates": [
                    12.607099999999999,
                    41.8493
                ]
            }
        },
        {
            "type": "Feature",
            "properties": {
                "name": "serenissima",
                "id": "22764",
                "brand": "Agip Eni",
                "amenity": "fuel",
                "operator": "MERIDIONALE PETROLI - SOCIETA A RESPONSABILITA LIMITATA S.M.P."
            },
            "geometry": {
                "type": "Point",
                "coordinates": [
                    12.558563383768844,
                    41.89644201505801
                ]
            }
        },
        {
            "type": "Feature",
            "properties": {
                "name": "FRASCATI",
                "id": "5866",
                "brand": "Total Erg",
                "amenity": "fuel",
                "operator": "TotalErg SpA"
            },
            "geometry": {
                "type": "Point",
                "coordinates": [
                    12.65561668220903,
                    41.8392289846839
                ]
            }
        },
        {
            "type": "Feature",
            "properties": {
                "name": "ROMA VIA CASILINA  777",
                "id": "6645",
                "brand": "Q8",
                "amenity": "fuel",
                "operator": "SERVIZI & GESTIONI ITALIA srl"
            },
            "geometry": {
                "type": "Point",
                "coordinates": [
                    12.5583220994057,
                    41.875609206386805
                ]
            }
        },
        {
            "type": "Feature",
            "properties": {
                "name": "55307 CASILINA ROMA",
                "id": "26091",
                "brand": "Agip Eni",
                "amenity": "fuel",
                "operator": "ENI RETE OIL&NONOIL S.P.A."
            },
            "geometry": {
                "type": "Point",
                "coordinates": [
                    12.571615576744081,
                    41.873371162877454
                ]
            }
        },
        {
            "type": "Feature",
            "properties": {
                "name": "chessa stefano",
                "id": "18450",
                "brand": "Agip Eni",
                "amenity": "fuel",
                "operator": "CHESSA STEFANO"
            },
            "geometry": {
                "type": "Point",
                "coordinates": [
                    12.551703380765616,
                    41.86234990474738
                ]
            }
        },
        {
            "type": "Feature",
            "properties": {
                "name": "Vema Carburanti sas",
                "id": "23515",
                "brand": "Q8",
                "amenity": "fuel",
                "operator": "VE.MA CARBURANTI S.A.S. DI LUCA VENANZI"
            },
            "geometry": {
                "type": "Point",
                "coordinates": [
                    12.488934095073317,
                    41.86744029132292
                ]
            }
        },
        {
            "type": "Feature",
            "properties": {
                "name": "ROMA - PRENESTINA 492",
                "id": "31279",
                "brand": "Api-Ip",
                "amenity": "fuel",
                "operator": "IP SERVICES S.R.L."
            },
            "geometry": {
                "type": "Point",
                "coordinates": [
                    12.571730127016508,
                    41.89486729004753
                ]
            }
        },
        {
            "type": "Feature",
            "properties": {
                "name": "VIA FRASCATI N. 12",
                "id": "20135",
                "brand": "Total Erg",
                "amenity": "fuel",
                "operator": "GESTIONE CARBURANTI - SOCIETA' IN ACCOMANDITA SEMPLICE DI MARCELL O GRASSETTI"
            },
            "geometry": {
                "type": "Point",
                "coordinates": [
                    12.541402198509104,
                    41.86621417529943
                ]
            }
        },
        {
            "type": "Feature",
            "properties": {
                "name": "DI PAOLO ERRICO",
                "id": "16607",
                "amenity": "fuel",
                "operator": "DI PAOLO ERRICO"
            },
            "geometry": {
                "type": "Point",
                "coordinates": [
                    12.543652939974324,
                    41.88543221954867
                ]
            }
        },
        {
            "type": "Feature",
            "properties": {
                "name": "FITAV TOTALERG1",
                "id": "24217",
                "brand": "Total Erg",
                "amenity": "fuel",
                "operator": "FITAV SRL"
            },
            "geometry": {
                "type": "Point",
                "coordinates": [
                    12.57141304832896,
                    41.859277954708816
                ]
            }
        },
        {
            "type": "Feature",
            "properties": {
                "name": "TRAFFANO PIERO",
                "id": "6976",
                "brand": "Tamoil",
                "amenity": "fuel",
                "operator": "TRAFFANO PIERO"
            },
            "geometry": {
                "type": "Point",
                "coordinates": [
                    12.608607788360583,
                    41.893746391060326
                ]
            }
        },
        {
            "type": "Feature",
            "properties": {
                "name": "ISLAM MD SHAHIDUL",
                "id": "14023",
                "brand": "Total Erg",
                "amenity": "fuel",
                "operator": "ISLAM SHAHIDUL"
            },
            "geometry": {
                "type": "Point",
                "coordinates": [
                    12.559302151312975,
                    41.86116677677205
                ]
            }
        },
        {
            "type": "Feature",
            "properties": {
                "name": "Baggiani Barbara",
                "id": "23473",
                "brand": "Q8",
                "amenity": "fuel",
                "operator": "BAGGIANI BARBARA"
            },
            "geometry": {
                "type": "Point",
                "coordinates": [
                    12.566388749378687,
                    41.87975437671806
                ]
            }
        },
        {
            "type": "Feature",
            "properties": {
                "name": "Tamoil Grotta Perfetta",
                "id": "23628",
                "brand": "Tamoil",
                "amenity": "fuel",
                "operator": "FGS GAS S.A.S. DI CIVITELLA GIORGIO"
            },
            "geometry": {
                "type": "Point",
                "coordinates": [
                    12.4871047908656,
                    41.84791559161471
                ]
            }
        },
        {
            "type": "Feature",
            "properties": {
                "name": "SAVINI LILIANA",
                "id": "30860",
                "brand": "Q8",
                "amenity": "fuel",
                "operator": "SAVINI LILIANA"
            },
            "geometry": {
                "type": "Point",
                "coordinates": [
                    12.517623648972062,
                    41.90008830828463
                ]
            }
        },
        {
            "type": "Feature",
            "properties": {
                "name": "ipcecchignola",
                "id": "5231",
                "brand": "Api-Ip",
                "amenity": "fuel",
                "operator": "RAIMONDI MAURO"
            },
            "geometry": {
                "type": "Point",
                "coordinates": [
                    12.508428096771242,
                    41.805949550842364
                ]
            }
        },
        {
            "type": "Feature",
            "properties": {
                "name": "Ariu franco",
                "id": "18988",
                "brand": "Agip Eni",
                "amenity": "fuel",
                "operator": "ARIU FRANCO"
            },
            "geometry": {
                "type": "Point",
                "coordinates": [
                    12.575485333800316,
                    41.890191325813525
                ]
            }
        },
        {
            "type": "Feature",
            "properties": {
                "name": "ip",
                "id": "31275",
                "brand": "Api-Ip",
                "amenity": "fuel",
                "operator": "CARBURANTI DURANTINI DI CIRULLI SERGIO"
            },
            "geometry": {
                "type": "Point",
                "coordinates": [
                    12.558186426758766,
                    41.890342875604254
                ]
            }
        },
        {
            "type": "Feature",
            "properties": {
                "name": "Autoservizi Ciampino sas di Poggiaroni Giovanni",
                "id": "14207",
                "brand": "Repsol",
                "amenity": "fuel",
                "operator": "AUTOSERVIZI CIAMPINO S.A.S. DI POGGIARONI GIOVANNI"
            },
            "geometry": {
                "type": "Point",
                "coordinates": [
                    12.625361680984497,
                    41.78137699004025
                ]
            }
        },
        {
            "type": "Feature",
            "properties": {
                "name": "impianto agip di Fragiacomo Giuseppe",
                "id": "30479",
                "brand": "Agip Eni",
                "amenity": "fuel",
                "operator": "FRAGIACOMO GIUSEPPE"
            },
            "geometry": {
                "type": "Point",
                "coordinates": [
                    12.513008300314025,
                    41.871207494073495
                ]
            }
        },
        {
            "type": "Feature",
            "properties": {
                "name": "IP Mattei Maria Cristina",
                "id": "10878",
                "brand": "Api-Ip",
                "amenity": "fuel",
                "operator": "MATTEI MARIA CRISTINA"
            },
            "geometry": {
                "type": "Point",
                "coordinates": [
                    12.608104348182675,
                    41.7883359722649
                ]
            }
        },
        {
            "type": "Feature",
            "properties": {
                "name": "stazione di servizio q8 di Pelagaggi Gabriele",
                "id": "8881",
                "brand": "Q8",
                "amenity": "fuel",
                "operator": "PELAGAGGI GABRIELE"
            },
            "geometry": {
                "type": "Point",
                "coordinates": [
                    12.568088471889496,
                    41.886884495814364
                ]
            }
        },
        {
            "type": "Feature",
            "properties": {
                "name": "giustiniano",
                "id": "29570",
                "brand": "Api-Ip",
                "amenity": "fuel",
                "operator": "MATTEI VENANZO"
            },
            "geometry": {
                "type": "Point",
                "coordinates": [
                    12.482088362496144,
                    41.856422461298735
                ]
            }
        },
        {
            "type": "Feature",
            "properties": {
                "name": "SPACCINI ALCESTE",
                "id": "11993",
                "brand": "Q8",
                "amenity": "fuel",
                "operator": "SPACCINI ALCESTE"
            },
            "geometry": {
                "type": "Point",
                "coordinates": [
                    12.551159766864771,
                    41.86437693815487
                ]
            }
        },
        {
            "type": "Feature",
            "properties": {
                "name": "VERDE GIAMPIERO",
                "id": "10656",
                "brand": "Api-Ip",
                "amenity": "fuel",
                "operator": "VERDE GIAMPIERO"
            },
            "geometry": {
                "type": "Point",
                "coordinates": [
                    12.540759318581536,
                    41.86714636445297
                ]
            }
        },
        {
            "type": "Feature",
            "properties": {
                "name": "CASILINA ESTERNA",
                "id": "3566",
                "brand": "Esso",
                "amenity": "fuel",
                "operator": "NUOVA SIDAP  S.R.L."
            },
            "geometry": {
                "type": "Point",
                "coordinates": [
                    12.607369422912598,
                    41.874728163225235
                ]
            }
        },
        {
            "type": "Feature",
            "properties": {
                "name": "O.G.O. SERVICE SNC",
                "id": "7076",
                "brand": "Esso",
                "amenity": "fuel",
                "operator": "O.G.O. SERVICE  DI ORLANDO MICHELE , GRATTERI SAVERIO FRANCESCO E ORLANDO DOMENICO - S.N.C."
            },
            "geometry": {
                "type": "Point",
                "coordinates": [
                    12.571637452236928,
                    41.850779520570235
                ]
            }
        },
        {
            "type": "Feature",
            "properties": {
                "name": "MAGIP",
                "id": "28367",
                "amenity": "fuel",
                "operator": "CHERUBINI ANTONIO"
            },
            "geometry": {
                "type": "Point",
                "coordinates": [
                    12.601964771747593,
                    41.82697749919775
                ]
            }
        },
        {
            "type": "Feature",
            "properties": {
                "name": "CAPPELLARI ALESSANDRO",
                "id": "12216",
                "brand": "Q8",
                "amenity": "fuel",
                "operator": "CAPPELLARI ALESSANDRO"
            },
            "geometry": {
                "type": "Point",
                "coordinates": [
                    12.482051305038453,
                    41.87215280417992
                ]
            }
        },
        {
            "type": "Feature",
            "properties": {
                "name": "SARAM sas",
                "id": "17467",
                "brand": "Total Erg",
                "amenity": "fuel",
                "operator": "SARAM DI MARANDOLA C. E C. SOCIETA IN ACCOMANDITA SEMPLICE"
            },
            "geometry": {
                "type": "Point",
                "coordinates": [
                    12.64097347855568,
                    41.86272512880066
                ]
            }
        },
        {
            "type": "Feature",
            "properties": {
                "name": "ROMA-VIA CASILINA 1002 SS. 6 KM.9+300",
                "id": "11802",
                "brand": "Q8",
                "amenity": "fuel",
                "operator": "SERVIZI & GESTIONI ITALIA S.R.L."
            },
            "geometry": {
                "type": "Point",
                "coordinates": [
                    12.581806530094127,
                    41.870100266948285
                ]
            }
        },
        {
            "type": "Feature",
            "properties": {
                "name": "Area di Servizio Q8",
                "id": "4260",
                "brand": "Q8",
                "amenity": "fuel",
                "operator": "SO.GI.C SOCIETA' IN NOME COLLETTIVO DI ADRIANO CELLI E C."
            },
            "geometry": {
                "type": "Point",
                "coordinates": [
                    12.487367659741722,
                    41.85174580723323
                ]
            }
        },
        {
            "type": "Feature",
            "properties": {
                "name": "ROMA",
                "id": "5543",
                "brand": "Total Erg",
                "amenity": "fuel",
                "operator": "GESTIONI EUROPA S.p.A."
            },
            "geometry": {
                "type": "Point",
                "coordinates": [
                    12.570038868717232,
                    41.87493802254222
                ]
            }
        },
        {
            "type": "Feature",
            "properties": {
                "name": "ANTINUCCI DOMENICO",
                "id": "14745",
                "brand": "Api-Ip",
                "amenity": "fuel",
                "operator": "ANTINUCCI DOMENICO"
            },
            "geometry": {
                "type": "Point",
                "coordinates": [
                    12.572453561610471,
                    41.879060155067876
                ]
            }
        },
        {
            "type": "Feature",
            "properties": {
                "name": "ESSEGI DI IAFRATI G.",
                "id": "29198",
                "brand": "Esso",
                "amenity": "fuel",
                "operator": "ESSEGI DI IAFRATI GIORGIO"
            },
            "geometry": {
                "type": "Point",
                "coordinates": [
                    12.515186995073238,
                    41.850309832323624
                ]
            }
        },
        {
            "type": "Feature",
            "properties": {
                "name": "CIAMPINO-VIA DI MORENA 191",
                "id": "11818",
                "brand": "Q8",
                "amenity": "fuel",
                "operator": "SERVIZI & GESTIONI ITALIA S.R.L."
            },
            "geometry": {
                "type": "Point",
                "coordinates": [
                    12.609802099370995,
                    41.80813395113797
                ]
            }
        },
        {
            "type": "Feature",
            "properties": {
                "name": "REPSOL",
                "id": "18502",
                "brand": "Total Erg",
                "amenity": "fuel",
                "operator": "COLETTA MICHELE"
            },
            "geometry": {
                "type": "Point",
                "coordinates": [
                    12.547695904904687,
                    41.87794781722316
                ]
            }
        },
        {
            "type": "Feature",
            "properties": {
                "name": "PVQ8",
                "id": "13105",
                "brand": "Q8",
                "amenity": "fuel",
                "operator": "LOMBARDI DAVIDE"
            },
            "geometry": {
                "type": "Point",
                "coordinates": [
                    12.563372079292776,
                    41.85322021127887
                ]
            }
        },
        {
            "type": "Feature",
            "properties": {
                "name": "ROMA VIA APPIA PIGNATELLI IMP. Q8",
                "id": "6623",
                "brand": "Q8",
                "amenity": "fuel",
                "operator": "SERVIZI & GESTIONI ITALIA srl"
            },
            "geometry": {
                "type": "Point",
                "coordinates": [
                    12.548965174205025,
                    41.837637099254
                ]
            }
        },
        {
            "type": "Feature",
            "properties": {
                "name": "ALLEGRUCCI SERGIO",
                "id": "18000",
                "brand": "Tamoil",
                "amenity": "fuel",
                "operator": "ALLEGRUCCI SERGIO"
            },
            "geometry": {
                "type": "Point",
                "coordinates": [
                    12.570227871115321,
                    41.851920866118256
                ]
            }
        },
        {
            "type": "Feature",
            "properties": {
                "name": "ENERPETROLI - CASTEL DI LEVA",
                "id": "23326",
                "brand": "Enerpetroli",
                "amenity": "fuel",
                "operator": "ENERPETROLI S.R.L."
            },
            "geometry": {
                "type": "Point",
                "coordinates": [
                    12.50057928264141,
                    41.78601886206562
                ]
            }
        },
        {
            "type": "Feature",
            "properties": {
                "name": "DISTRIBUTORE IP",
                "id": "23340",
                "brand": "Api-Ip",
                "amenity": "fuel",
                "operator": "NIGRIS FABRIZIO"
            },
            "geometry": {
                "type": "Point",
                "coordinates": [
                    12.569126486778258,
                    41.855418420995505
                ]
            }
        },
        {
            "type": "Feature",
            "properties": {
                "name": "ROMA - PRENESTINA 1078",
                "id": "27929",
                "brand": "Api-Ip",
                "amenity": "fuel",
                "operator": "IP SERVICES S.R.L."
            },
            "geometry": {
                "type": "Point",
                "coordinates": [
                    12.616674402446733,
                    41.89311587298765
                ]
            }
        },
        {
            "type": "Feature",
            "properties": {
                "name": "ROMA TOR PAGNOTTA",
                "id": "10107",
                "brand": "Total Erg",
                "amenity": "fuel",
                "operator": "GESTIONI EUROPA - SOCIETA' PER AZIONI"
            },
            "geometry": {
                "type": "Point",
                "coordinates": [
                    12.51124441574598,
                    41.80369985781412
                ]
            }
        },
        {
            "type": "Feature",
            "properties": {
                "name": "VIA PRENESTINA N. 920",
                "id": "20132",
                "brand": "Total Erg",
                "amenity": "fuel",
                "operator": "GESTIONE CARBURANTI - SOCIETA' IN ACCOMANDITA SEMPLICE DI MARCELL O GRASSETTI"
            },
            "geometry": {
                "type": "Point",
                "coordinates": [
                    12.594937384128567,
                    41.893536519057925
                ]
            }
        },
        {
            "type": "Feature",
            "properties": {
                "name": "FIORANELLO",
                "id": "30008",
                "brand": "Repsol",
                "amenity": "fuel",
                "operator": "T. PETROL S.R.L."
            },
            "geometry": {
                "type": "Point",
                "coordinates": [
                    12.550410222168011,
                    41.78873191214875
                ]
            }
        },
        {
            "type": "Feature",
            "properties": {
                "name": "LO TORTO CLAUDIO",
                "id": "14320",
                "brand": "Api-Ip",
                "amenity": "fuel",
                "operator": "LO TORTO CLAUDIO"
            },
            "geometry": {
                "type": "Point",
                "coordinates": [
                    12.61268798067317,
                    41.86307400217635
                ]
            }
        },
        {
            "type": "Feature",
            "properties": {
                "name": "BRUNETTINI MASSIMO",
                "id": "13555",
                "brand": "Api-Ip",
                "amenity": "fuel",
                "operator": "BRUNETTINI MASSIMO"
            },
            "geometry": {
                "type": "Point",
                "coordinates": [
                    12.535701133313408,
                    41.88256108713419
                ]
            }
        },
        {
            "type": "Feature",
            "properties": {
                "name": "ROMA - PORTONACCIO",
                "id": "22890",
                "brand": "Api-Ip",
                "amenity": "fuel",
                "operator": "IP SERVICES S.R.L."
            },
            "geometry": {
                "type": "Point",
                "coordinates": [
                    12.540365159511568,
                    41.89694782077436
                ]
            }
        },
        {
            "type": "Feature",
            "properties": {
                "name": "DEL SIGNORE & ALFIERI SAS",
                "id": "13750",
                "brand": "Agip Eni",
                "amenity": "fuel",
                "operator": "DEL SIGNORE FEDERICO E ALFIERI ANTONINO S.A.S. DI FEDERICO DEL SIGNORE & C."
            },
            "geometry": {
                "type": "Point",
                "coordinates": [
                    12.497801184654236,
                    41.85921770953493
                ]
            }
        },
        {
            "type": "Feature",
            "properties": {
                "name": "lana lucia",
                "id": "18204",
                "brand": "Api-Ip",
                "amenity": "fuel",
                "operator": "LANA LUCIA"
            },
            "geometry": {
                "type": "Point",
                "coordinates": [
                    12.504908438577447,
                    41.901231243325576
                ]
            }
        },
        {
            "type": "Feature",
            "properties": {
                "name": "Roma",
                "id": "9360",
                "amenity": "fuel",
                "operator": "I.C.M. SOCIETA' IN NOME COLLETTIVO DI BRUNO, CRISTIANO E FABRIZIO MAGGI"
            },
            "geometry": {
                "type": "Point",
                "coordinates": [
                    12.500893771648407,
                    41.85719403412851
                ]
            }
        },
        {
            "type": "Feature",
            "properties": {
                "name": "Tamoil Furio Camillo",
                "id": "23630",
                "brand": "Tamoil",
                "amenity": "fuel",
                "operator": "FGS GAS S.A.S. DI CIVITELLA GIORGIO"
            },
            "geometry": {
                "type": "Point",
                "coordinates": [
                    12.524875670605978,
                    41.87605488222576
                ]
            }
        },
        {
            "type": "Feature",
            "properties": {
                "name": "APPIA CARBURANTI SNC",
                "id": "32060",
                "brand": "Total Erg",
                "amenity": "fuel",
                "operator": "APPIA CARBURANTI DI DEGNI CRISTIANO SOCIETA' IN NOME COLLETTIVO"
            },
            "geometry": {
                "type": "Point",
                "coordinates": [
                    12.519139881359592,
                    41.87731861600835
                ]
            }
        },
        {
            "type": "Feature",
            "properties": {
                "name": "MARCO POLO PETROLI SNC",
                "id": "16854",
                "brand": "Agip Eni",
                "amenity": "fuel",
                "operator": "MARCO POLO PETROLI DI MINNITI FORTUNATO E CO- S.N.C."
            },
            "geometry": {
                "type": "Point",
                "coordinates": [
                    12.492830597024522,
                    41.871508361405965
                ]
            }
        },
        {
            "type": "Feature",
            "properties": {
                "name": "RM LAURENTINA",
                "id": "17699",
                "brand": "Api-Ip",
                "amenity": "fuel",
                "operator": "IP SERVICES S.R.L."
            },
            "geometry": {
                "type": "Point",
                "coordinates": [
                    12.481380701065063,
                    41.80049032904393
                ]
            }
        },
        {
            "type": "Feature",
            "properties": {
                "name": "stazione q8 via dei gordiani",
                "id": "11228",
                "brand": "Q8",
                "amenity": "fuel",
                "operator": "DI MATTEI SABRINA"
            },
            "geometry": {
                "type": "Point",
                "coordinates": [
                    12.554068565368652,
                    41.88904621258922
                ]
            }
        },
        {
            "type": "Feature",
            "properties": {
                "name": "eredi di santosuosso carmine snc",
                "id": "19719",
                "brand": "Agip Eni",
                "amenity": "fuel",
                "operator": "EREDI DI SANTOSUOSSO CARMINE S.N.C."
            },
            "geometry": {
                "type": "Point",
                "coordinates": [
                    12.596612423658371,
                    41.830974358820235
                ]
            }
        },
        {
            "type": "Feature",
            "properties": {
                "name": "amadio pasquale",
                "id": "9376",
                "brand": "Q8",
                "amenity": "fuel",
                "operator": "AMADIO PASQUALE"
            },
            "geometry": {
                "type": "Point",
                "coordinates": [
                    12.611111104488373,
                    41.80857982428591
                ]
            }
        },
        {
            "type": "Feature",
            "properties": {
                "name": "T.B.M. Petroli srl",
                "id": "20281",
                "brand": "Agip Eni",
                "amenity": "fuel",
                "operator": "T.B.M. PETROLI - S.R.L."
            },
            "geometry": {
                "type": "Point",
                "coordinates": [
                    12.6268081637902,
                    41.87692518361304
                ]
            }
        },
        {
            "type": "Feature",
            "properties": {
                "name": "Aosta Gamberale",
                "id": "28712",
                "amenity": "fuel",
                "operator": "GAMBERALE ROBERTA"
            },
            "geometry": {
                "type": "Point",
                "coordinates": [
                    12.514736888134507,
                    41.88409570961641
                ]
            }
        },
        {
            "type": "Feature",
            "properties": {
                "name": "Eni",
                "id": "19955",
                "brand": "Agip Eni",
                "amenity": "fuel",
                "operator": "TROTTA ANDREA"
            },
            "geometry": {
                "type": "Point",
                "coordinates": [
                    12.4880944266132,
                    41.89331134482049
                ]
            }
        },
        {
            "type": "Feature",
            "properties": {
                "name": "IMP.Tamoil 8129 di Alessandro Tenzi",
                "id": "18748",
                "brand": "Tamoil",
                "amenity": "fuel",
                "operator": "TENZI ALESSANDRO"
            },
            "geometry": {
                "type": "Point",
                "coordinates": [
                    12.522936850492444,
                    41.880272529019905
                ]
            }
        },
        {
            "type": "Feature",
            "properties": {
                "name": "alessandrino carburanti",
                "id": "29118",
                "brand": "Esso",
                "amenity": "fuel",
                "operator": "ALESSANDRINO CARBURANTI S.N.C. DI BELLOCCO DEMETRIO E CIURLEO GIO RGIO"
            },
            "geometry": {
                "type": "Point",
                "coordinates": [
                    12.579989825725534,
                    41.87310143273585
                ]
            }
        },
        {
            "type": "Feature",
            "properties": {
                "name": "GIANNI MARCO",
                "id": "4029",
                "amenity": "fuel",
                "operator": "GIANNI MARCO"
            },
            "geometry": {
                "type": "Point",
                "coordinates": [
                    12.554742719537103,
                    41.838708203242106
                ]
            }
        },
        {
            "type": "Feature",
            "properties": {
                "name": "Q8 bettini Mario",
                "id": "21700",
                "brand": "Q8",
                "amenity": "fuel",
                "operator": "BETTINI MARIO"
            },
            "geometry": {
                "type": "Point",
                "coordinates": [
                    12.626774899311389,
                    41.86765787327838
                ]
            }
        },
        {
            "type": "Feature",
            "properties": {
                "name": "7sette Appia Nuova",
                "id": "32059",
                "amenity": "fuel",
                "operator": "APPIA CARBURANTI DI DEGNI CRISTIANO SOCIETA' IN NOME COLLETTIVO"
            },
            "geometry": {
                "type": "Point",
                "coordinates": [
                    12.53112650540379,
                    41.86489708135851
                ]
            }
        },
        {
            "type": "Feature",
            "properties": {
                "name": "Enerpetroli - PV Roma Ardeatina",
                "id": "28364",
                "brand": "Esso",
                "amenity": "fuel",
                "operator": "ENERPETROLI S.R.L."
            },
            "geometry": {
                "type": "Point",
                "coordinates": [
                    12.528769299387928,
                    41.81017580949284
                ]
            }
        },
        {
            "type": "Feature",
            "properties": {
                "name": "CIARMA PIERO",
                "id": "10216",
                "brand": "Api-Ip",
                "amenity": "fuel",
                "operator": "CIARMA PIERO"
            },
            "geometry": {
                "type": "Point",
                "coordinates": [
                    12.578059583902357,
                    41.86731936095197
                ]
            }
        },
        {
            "type": "Feature",
            "properties": {
                "name": "DISTRIB. Retitalia VIA TOR SAPIENZA",
                "id": "30304",
                "brand": "Retitalia",
                "amenity": "fuel",
                "operator": "PETROLIFERA ADRIATICA S.P.A."
            },
            "geometry": {
                "type": "Point",
                "coordinates": [
                    12.592319548130037,
                    41.89447411611067
                ]
            }
        },
        {
            "type": "Feature",
            "properties": {
                "name": "COLTELLA ROBERTINO",
                "id": "13953",
                "brand": "Q8",
                "amenity": "fuel",
                "operator": "COLTELLA ROBERTINO"
            },
            "geometry": {
                "type": "Point",
                "coordinates": [
                    12.569105732101663,
                    41.89527933458068
                ]
            }
        },
        {
            "type": "Feature",
            "properties": {
                "name": "Carboni",
                "id": "28752",
                "brand": "Esso",
                "amenity": "fuel",
                "operator": "CARBONI GIAMPIERO"
            },
            "geometry": {
                "type": "Point",
                "coordinates": [
                    12.572471201419832,
                    41.87732825005255
                ]
            }
        },
        {
            "type": "Feature",
            "properties": {
                "name": "mereu valter",
                "id": "15467",
                "brand": "Api-Ip",
                "amenity": "fuel",
                "operator": "MEREU VALTER"
            },
            "geometry": {
                "type": "Point",
                "coordinates": [
                    12.551611092030726,
                    41.89370471878766
                ]
            }
        },
        {
            "type": "Feature",
            "properties": {
                "name": "ROMA",
                "id": "5869",
                "brand": "Total Erg",
                "amenity": "fuel",
                "operator": "TotalErg SpA"
            },
            "geometry": {
                "type": "Point",
                "coordinates": [
                    12.64118441104506,
                    41.86500602382122
                ]
            }
        },
        {
            "type": "Feature",
            "properties": {
                "name": "myOil Decemviri",
                "id": "14678",
                "brand": "MyOil",
                "amenity": "fuel",
                "operator": "PETROL SOCIETY- SOCIETA A RESPONSABILITA LIMITATA"
            },
            "geometry": {
                "type": "Point",
                "coordinates": [
                    12.567624726351822,
                    41.85904622235637
                ]
            }
        },
        {
            "type": "Feature",
            "properties": {
                "name": "IP MONSELICE",
                "id": "31295",
                "brand": "Api-Ip",
                "amenity": "fuel",
                "operator": "MD. ABU HANIF"
            },
            "geometry": {
                "type": "Point",
                "coordinates": [
                    12.52243863056958,
                    41.87980095378501
                ]
            }
        },
        {
            "type": "Feature",
            "properties": {
                "name": "Tamoil L.GO E. TALAMO 39",
                "id": "21226",
                "brand": "Tamoil",
                "amenity": "fuel",
                "operator": "TROTTA EMILIO DANIEL"
            },
            "geometry": {
                "type": "Point",
                "coordinates": [
                    12.517073801290508,
                    41.89457737771055
                ]
            }
        },
        {
            "type": "Feature",
            "properties": {
                "name": "ardeatina",
                "id": "9094",
                "brand": "Q8",
                "amenity": "fuel",
                "operator": "ROMANI ANTONELLO"
            },
            "geometry": {
                "type": "Point",
                "coordinates": [
                    12.534825056791306,
                    41.79495605425156
                ]
            }
        },
        {
            "type": "Feature",
            "properties": {
                "name": "S.T.L. Petroli S.r.l. Via Tuscolana",
                "id": "32181",
                "amenity": "fuel",
                "operator": "S.T.L. PETROLI S.R.L."
            },
            "geometry": {
                "type": "Point",
                "coordinates": [
                    12.522386785625146,
                    41.87887533621273
                ]
            }
        },
        {
            "type": "Feature",
            "properties": {
                "name": "anonima italiana petroli s.p.a",
                "id": "18412",
                "brand": "Api-Ip",
                "amenity": "fuel",
                "operator": "BARTOMIOLI A. - LA TORRE L. DI BARTOMIOLI ALFONSO E C. - SOCIETA' IN NOME COLLETTIVO"
            },
            "geometry": {
                "type": "Point",
                "coordinates": [
                    12.573563735581956,
                    41.88138629011508
                ]
            }
        },
        {
            "type": "Feature",
            "properties": {
                "name": "Erg",
                "id": "19667",
                "brand": "Total Erg",
                "amenity": "fuel",
                "operator": "NICODEMO FRANCESCO"
            },
            "geometry": {
                "type": "Point",
                "coordinates": [
                    12.508110847135868,
                    41.879457307397914
                ]
            }
        },
        {
            "type": "Feature",
            "properties": {
                "name": "CIAMPINO 36980",
                "id": "24151",
                "brand": "Agip Eni",
                "amenity": "fuel",
                "operator": "CORO S.R.L."
            },
            "geometry": {
                "type": "Point",
                "coordinates": [
                    12.615943126983664,
                    41.79052885081214
                ]
            }
        },
        {
            "type": "Feature",
            "properties": {
                "name": "agip-eni",
                "id": "28684",
                "brand": "Agip Eni",
                "amenity": "fuel",
                "operator": "LA TORRE STEFANO"
            },
            "geometry": {
                "type": "Point",
                "coordinates": [
                    12.57184624671936,
                    41.87796272880072
                ]
            }
        },
        {
            "type": "Feature",
            "properties": {
                "name": "iorio massimo",
                "id": "22867",
                "brand": "Api-Ip",
                "amenity": "fuel",
                "operator": "IORIO MASSIMO"
            },
            "geometry": {
                "type": "Point",
                "coordinates": [
                    12.494704574346542,
                    41.857752998430925
                ]
            }
        },
        {
            "type": "Feature",
            "properties": {
                "name": "PVQ8",
                "id": "12770",
                "brand": "Q8",
                "amenity": "fuel",
                "operator": "LOMBARDI SALVATORE"
            },
            "geometry": {
                "type": "Point",
                "coordinates": [
                    12.531733966822685,
                    41.86894831384195
                ]
            }
        },
        {
            "type": "Feature",
            "properties": {
                "name": "Roma Tuscolana",
                "id": "28423",
                "brand": "Total Erg",
                "amenity": "fuel",
                "operator": "GESTIONI EUROPA - SOCIETA' PER AZIONI"
            },
            "geometry": {
                "type": "Point",
                "coordinates": [
                    12.538199919921226,
                    41.86876884835964
                ]
            }
        },
        {
            "type": "Feature",
            "properties": {
                "name": "ALIDAR",
                "id": "14293",
                "brand": "Q8",
                "amenity": "fuel",
                "operator": "ALIDAR S.R.L."
            },
            "geometry": {
                "type": "Point",
                "coordinates": [
                    12.520162857926948,
                    41.88069673028292
                ]
            }
        },
        {
            "type": "Feature",
            "properties": {
                "name": "GS OIL TotalErg Laurentina",
                "id": "32146",
                "brand": "Total Erg",
                "amenity": "fuel",
                "operator": "GLOBAL SERVICES OIL DI MARIO TIROCCHI & C. S.A.S."
            },
            "geometry": {
                "type": "Point",
                "coordinates": [
                    12.481632912836405,
                    41.78434729247173
                ]
            }
        },
        {
            "type": "Feature",
            "properties": {
                "name": "Roma Ciamarra 2",
                "id": "29455",
                "brand": "Total Erg",
                "amenity": "fuel",
                "operator": "TOTALERG S.P.A."
            },
            "geometry": {
                "type": "Point",
                "coordinates": [
                    12.590448707342144,
                    41.857293521443594
                ]
            }
        },
        {
            "type": "Feature",
            "properties": {
                "name": "A & Ti carburanti snc",
                "id": "15403",
                "brand": "Esso",
                "amenity": "fuel",
                "operator": "A & TI CARBURANTI S.N.C. DI TICANI E DI DI GIANNANTONIO"
            },
            "geometry": {
                "type": "Point",
                "coordinates": [
                    12.537356082139583,
                    41.89270331432449
                ]
            }
        },
        {
            "type": "Feature",
            "properties": {
                "name": "Collatina",
                "id": "7535",
                "brand": "Agip Eni",
                "amenity": "fuel",
                "operator": "GESTIONI RIUNITE G.R. S.R.L."
            },
            "geometry": {
                "type": "Point",
                "coordinates": [
                    12.570718377828598,
                    41.902120450320744
                ]
            }
        },
        {
            "type": "Feature",
            "properties": {
                "name": "ROMA - SERAFICO",
                "id": "23815",
                "brand": "Api-Ip",
                "amenity": "fuel",
                "operator": "IP SERVICES S.R.L."
            },
            "geometry": {
                "type": "Point",
                "coordinates": [
                    12.484089300524943,
                    41.82982820281723
                ]
            }
        },
        {
            "type": "Feature",
            "properties": {
                "name": "VIA PRENESTINA",
                "id": "30675",
                "brand": "Api-Ip",
                "amenity": "fuel",
                "operator": "CARBURANTI DURANTINI DI CIRULLI SERGIO"
            },
            "geometry": {
                "type": "Point",
                "coordinates": [
                    12.562835122684422,
                    41.89472215786544
                ]
            }
        },
        {
            "type": "Feature",
            "properties": {
                "name": "lidicarburanti",
                "id": "14321",
                "brand": "Esso",
                "amenity": "fuel",
                "operator": "LIDI CARBURANTI  S.A.S.  DI  LIUNI ANTONIO E C."
            },
            "geometry": {
                "type": "Point",
                "coordinates": [
                    12.568750977516174,
                    41.90164140699303
                ]
            }
        },
        {
            "type": "Feature",
            "properties": {
                "name": "BRITANNIA",
                "id": "28537",
                "amenity": "fuel",
                "operator": "RO.KA. SOCIETA' IN NOME COLLETTIVO DI KASHEM ABUL E C."
            },
            "geometry": {
                "type": "Point",
                "coordinates": [
                    12.50838847949774,
                    41.87912607242181
                ]
            }
        },
        {
            "type": "Feature",
            "properties": {
                "name": "F.lli Giallo B.V.G. snc",
                "id": "29073",
                "brand": "Api-Ip",
                "amenity": "fuel",
                "operator": "F.LLI GIALLO BARTOLOMEO,VINCENZA E GASPARE - SOCIETA IN NOME COLL ETTIVO"
            },
            "geometry": {
                "type": "Point",
                "coordinates": [
                    12.488151500782237,
                    41.85626418714226
                ]
            }
        },
        {
            "type": "Feature",
            "properties": {
                "name": "ROMA - LOC. MORENA VIA ANAGNINA KM.2+650",
                "id": "6835",
                "brand": "Q8",
                "amenity": "fuel",
                "operator": "SERVIZI & GESTIONI ITALIA srl"
            },
            "geometry": {
                "type": "Point",
                "coordinates": [
                    12.607689635582002,
                    41.82250237327007
                ]
            }
        },
        {
            "type": "Feature",
            "properties": {
                "name": "mg petroli",
                "id": "18301",
                "amenity": "fuel",
                "operator": "FONTE DELLE MATTINATE 33 - S.R.L."
            },
            "geometry": {
                "type": "Point",
                "coordinates": [
                    12.540831863880157,
                    41.871918056607385
                ]
            }
        },
        {
            "type": "Feature",
            "properties": {
                "name": "lacopo antonio via prenestina km 10+300 rm",
                "id": "21164",
                "brand": "Agip Eni",
                "amenity": "fuel",
                "operator": "LACOPO ANTONIO"
            },
            "geometry": {
                "type": "Point",
                "coordinates": [
                    12.608424872159958,
                    41.89354949696437
                ]
            }
        },
        {
            "type": "Feature",
            "properties": {
                "name": "Roma",
                "id": "20207",
                "brand": "Total Erg",
                "amenity": "fuel",
                "operator": "GESTIONI EUROPA - SOCIETA' PER AZIONI"
            },
            "geometry": {
                "type": "Point",
                "coordinates": [
                    12.579498588954948,
                    41.89384903579347
                ]
            }
        }
    ]
}