{
    "type": "FeatureCollection",
    "features": [
        {
            "type": "Feature",
            "properties": {
                "name": "IP-FOSSIGNANO",
                "id": "30640",
                "brand": "Api-Ip",
                "amenity": "fuel",
                "operator": "GLOBOGEST S.R.L."
            },
            "geometry": {
                "type": "Point",
                "coordinates": [
                    12.563641369342808,
                    41.58965701086262
                ]
            }
        },
        {
            "type": "Feature",
            "properties": {
                "name": "APRILIA",
                "id": "5951",
                "brand": "Total Erg",
                "amenity": "fuel",
                "operator": "GESTIONI EUROPA S.p.A."
            },
            "geometry": {
                "type": "Point",
                "coordinates": [
                    12.635408023313513,
                    41.54993309133143
                ]
            }
        },
        {
            "type": "Feature",
            "properties": {
                "name": "Ardea",
                "id": "10131",
                "brand": "Total Erg",
                "amenity": "fuel",
                "operator": "GESTIONI EUROPA - SOCIETA' PER AZIONI"
            },
            "geometry": {
                "type": "Point",
                "coordinates": [
                    12.548889219760895,
                    41.55114860623684
                ]
            }
        },
        {
            "type": "Feature",
            "properties": {
                "name": "DGS Aprilia",
                "id": "28564",
                "amenity": "fuel",
                "operator": "DGS MOTOR PROJECT DI DI GAETANO FABIO"
            },
            "geometry": {
                "type": "Point",
                "coordinates": [
                    12.649261504446374,
                    41.602256523394566
                ]
            }
        },
        {
            "type": "Feature",
            "properties": {
                "name": "eni",
                "id": "14740",
                "brand": "Agip Eni",
                "amenity": "fuel",
                "operator": "F.LLI RUGGIERO SALVATORE E LUCIA - SOCIETA' IN NOME COLLETTIVO"
            },
            "geometry": {
                "type": "Point",
                "coordinates": [
                    12.629637122154238,
                    41.512093840752904
                ]
            }
        },
        {
            "type": "Feature",
            "properties": {
                "name": "ESSO",
                "id": "20636",
                "brand": "Esso",
                "amenity": "fuel",
                "operator": "A.R.I.A. S.A.S. DI BRINA AGOSTINO"
            },
            "geometry": {
                "type": "Point",
                "coordinates": [
                    12.482646703720095,
                    41.63843025987482
                ]
            }
        },
        {
            "type": "Feature",
            "properties": {
                "name": "Ardea Via Laurentina",
                "id": "23634",
                "brand": "Tamoil",
                "amenity": "fuel",
                "operator": "FGS GAS S.A.S. DI CIVITELLA GIORGIO"
            },
            "geometry": {
                "type": "Point",
                "coordinates": [
                    12.538088232213342,
                    41.632625807045905
                ]
            }
        },
        {
            "type": "Feature",
            "properties": {
                "name": "LANUVIO",
                "id": "5862",
                "brand": "Total Erg",
                "amenity": "fuel",
                "operator": "TotalErg SpA"
            },
            "geometry": {
                "type": "Point",
                "coordinates": [
                    12.653677271163927,
                    41.63628706934531
                ]
            }
        },
        {
            "type": "Feature",
            "properties": {
                "name": "NETTUNO - NETTUNENSE KM 28,913",
                "id": "28191",
                "brand": "Api-Ip",
                "amenity": "fuel",
                "operator": "IP SERVICES S.R.L."
            },
            "geometry": {
                "type": "Point",
                "coordinates": [
                    12.634023725547761,
                    41.52700594966592
                ]
            }
        },
        {
            "type": "Feature",
            "properties": {
                "name": "marco goddi e c. sas",
                "id": "14580",
                "brand": "Total Erg",
                "amenity": "fuel",
                "operator": "GODDI MARCO E C. SAS"
            },
            "geometry": {
                "type": "Point",
                "coordinates": [
                    12.636901885305747,
                    41.57209206250807
                ]
            }
        },
        {
            "type": "Feature",
            "properties": {
                "name": "ARDEA SP LAURENTINA KM 30+287",
                "id": "6834",
                "brand": "Q8",
                "amenity": "fuel",
                "operator": "SERVIZI & GESTIONI ITALIA srl"
            },
            "geometry": {
                "type": "Point",
                "coordinates": [
                    12.536842077970507,
                    41.62802777998611
                ]
            }
        },
        {
            "type": "Feature",
            "properties": {
                "name": "ENI Lido dei Pini di Ciarla Giancarlo",
                "id": "4478",
                "brand": "Agip Eni",
                "amenity": "fuel",
                "operator": "CIARLA GIANCARLO"
            },
            "geometry": {
                "type": "Point",
                "coordinates": [
                    12.565700918032576,
                    41.53332385176609
                ]
            }
        },
        {
            "type": "Feature",
            "properties": {
                "name": "PV6",
                "id": "23717",
                "brand": "D Amico",
                "amenity": "fuel",
                "operator": "GRUPPO D'AMICO DUE S.R.L."
            },
            "geometry": {
                "type": "Point",
                "coordinates": [
                    12.654411265081762,
                    41.59621647534046
                ]
            }
        },
        {
            "type": "Feature",
            "properties": {
                "name": "58356",
                "id": "7403",
                "brand": "Agip Eni",
                "amenity": "fuel",
                "operator": "COMITO DOMENICO & COMITO ANTONIO S.N.C. (IN SIGLA ABBREVITA: \"COM ITO D. & A. SNC\")"
            },
            "geometry": {
                "type": "Point",
                "coordinates": [
                    12.637394070625303,
                    41.581668738381936
                ]
            }
        },
        {
            "type": "Feature",
            "properties": {
                "name": "Fincato Simona",
                "id": "17641",
                "brand": "Agip Eni",
                "amenity": "fuel",
                "operator": "FINCATO SIMONA &.C. S.A.S."
            },
            "geometry": {
                "type": "Point",
                "coordinates": [
                    12.501490563154222,
                    41.60802801157701
                ]
            }
        },
        {
            "type": "Feature",
            "properties": {
                "name": "F.LLI REALI RUGGERO E BERARDINO S.N.C.",
                "id": "21152",
                "amenity": "fuel",
                "operator": "F.LLI REALI RUGGERO E BERARDINO S.N.C."
            },
            "geometry": {
                "type": "Point",
                "coordinates": [
                    12.652917355298992,
                    41.59252703460362
                ]
            }
        },
        {
            "type": "Feature",
            "properties": {
                "name": "Eni Greci",
                "id": "29100",
                "brand": "Agip Eni",
                "amenity": "fuel",
                "operator": "GRECI CARBURANTI S.A.S. DI GRECI PIETRO PAOLO E.C."
            },
            "geometry": {
                "type": "Point",
                "coordinates": [
                    12.643415629863739,
                    41.594261986010686
                ]
            }
        },
        {
            "type": "Feature",
            "properties": {
                "name": "Stazione di servizio ESSO",
                "id": "29878",
                "brand": "Esso",
                "amenity": "fuel",
                "operator": "COMITO ANTONIO"
            },
            "geometry": {
                "type": "Point",
                "coordinates": [
                    12.644801460678538,
                    41.59214252790027
                ]
            }
        },
        {
            "type": "Feature",
            "properties": {
                "name": "TOR SAN LORENZO - ARDEA LAURENTINA KM 38+800",
                "id": "6638",
                "brand": "Q8",
                "amenity": "fuel",
                "operator": "SERVIZI & GESTIONI ITALIA srl"
            },
            "geometry": {
                "type": "Point",
                "coordinates": [
                    12.537825430619023,
                    41.566344541902
                ]
            }
        },
        {
            "type": "Feature",
            "properties": {
                "name": "esso",
                "id": "12771",
                "brand": "Esso",
                "amenity": "fuel",
                "operator": "AG INVEST - SOCIETA' A RESPONSABILITÃ€ LIMITATA"
            },
            "geometry": {
                "type": "Point",
                "coordinates": [
                    12.578959465026855,
                    41.62442531199731
                ]
            }
        },
        {
            "type": "Feature",
            "properties": {
                "name": "TOTALERG",
                "id": "5075",
                "brand": "Total Erg",
                "amenity": "fuel",
                "operator": "CENTRO SERVIZI E ASSISTENZA DI PAOLO BONO & C. S.N.C. STAZIONE DI SERVIZIO TOTALERG"
            },
            "geometry": {
                "type": "Point",
                "coordinates": [
                    12.512708231806757,
                    41.59724132374633
                ]
            }
        },
        {
            "type": "Feature",
            "properties": {
                "name": "VE.DE. SNC DI VETRANO E DELLA COLETTA",
                "id": "22074",
                "brand": "Esso",
                "amenity": "fuel",
                "operator": "VETRANO VINCENZO & DELLA COLETTA NELLO S.N.C."
            },
            "geometry": {
                "type": "Point",
                "coordinates": [
                    12.644829154014587,
                    41.592199055545485
                ]
            }
        },
        {
            "type": "Feature",
            "properties": {
                "name": "TOR SAN LORENZO",
                "id": "4044",
                "brand": "Fiamma 2000",
                "amenity": "fuel",
                "operator": "FIAMMA 2000 - SOCIETA' PER AZIONI"
            },
            "geometry": {
                "type": "Point",
                "coordinates": [
                    12.54162445664406,
                    41.56127849588453
                ]
            }
        },
        {
            "type": "Feature",
            "properties": {
                "name": "IP-LT- CAMPO DI CARNE",
                "id": "19367",
                "brand": "Api-Ip",
                "amenity": "fuel",
                "operator": "MONDONAUTICA S.R.L."
            },
            "geometry": {
                "type": "Point",
                "coordinates": [
                    12.640687823295593,
                    41.55285355750466
                ]
            }
        },
        {
            "type": "Feature",
            "properties": {
                "name": "APRILIA-VIA DELLA RISERVA NUOVA CC APRILIA",
                "id": "11631",
                "brand": "Q8",
                "amenity": "fuel",
                "operator": "SERVIZI & GESTIONI ITALIA S.R.L."
            },
            "geometry": {
                "type": "Point",
                "coordinates": [
                    12.630875101852439,
                    41.59193610803514
                ]
            }
        },
        {
            "type": "Feature",
            "properties": {
                "name": "TOR SAN LORENZO - ARDEA VIA LITORANEA- LUNGOMARE ARDEATINI",
                "id": "6637",
                "brand": "Q8",
                "amenity": "fuel",
                "operator": "SERVIZI & GESTIONI ITALIA srl"
            },
            "geometry": {
                "type": "Point",
                "coordinates": [
                    12.506057024002075,
                    41.58133448453727
                ]
            }
        },
        {
            "type": "Feature",
            "properties": {
                "name": "La Sosta srl",
                "id": "7104",
                "brand": "Q8",
                "amenity": "fuel",
                "operator": "LA SOSTA S.R.L."
            },
            "geometry": {
                "type": "Point",
                "coordinates": [
                    12.585917115211489,
                    41.62494660766527
                ]
            }
        },
        {
            "type": "Feature",
            "properties": {
                "name": "Aprilia",
                "id": "4656",
                "brand": "Esso",
                "amenity": "fuel",
                "operator": "NUOVA SIDAP  S.R.L."
            },
            "geometry": {
                "type": "Point",
                "coordinates": [
                    12.612728476524351,
                    41.60198154310772
                ]
            }
        },
        {
            "type": "Feature",
            "properties": {
                "name": "ARDEA - NUOVA FLORIDA",
                "id": "29699",
                "brand": "Api-Ip",
                "amenity": "fuel",
                "operator": "IP SERVICES S.R.L."
            },
            "geometry": {
                "type": "Point",
                "coordinates": [
                    12.520581224536954,
                    41.61274612317166
                ]
            }
        }
    ]
}