{
    "type": "FeatureCollection",
    "features": [
        {
            "type": "Feature",
            "properties": {
                "name": "IP DALLA PRIA GIUSEPPE",
                "id": "10929",
                "brand": "Api-Ip",
                "amenity": "fuel",
                "operator": "DALLA PRIA GIUSEPPE"
            },
            "geometry": {
                "type": "Point",
                "coordinates": [
                    12.640253644180348,
                    45.52394996697288
                ]
            }
        },
        {
            "type": "Feature",
            "properties": {
                "name": "03737 ENI",
                "id": "21180",
                "brand": "Agip Eni",
                "amenity": "fuel",
                "operator": "MARCHETTI MARCO"
            },
            "geometry": {
                "type": "Point",
                "coordinates": [
                    12.646415889024412,
                    45.53645210829636
                ]
            }
        },
        {
            "type": "Feature",
            "properties": {
                "name": "JESOLO VIA AQUILEIA  196",
                "id": "6477",
                "brand": "Q8",
                "amenity": "fuel",
                "operator": "SERVIZI & GESTIONI ITALIA srl"
            },
            "geometry": {
                "type": "Point",
                "coordinates": [
                    12.620494232540862,
                    45.49903807960371
                ]
            }
        },
        {
            "type": "Feature",
            "properties": {
                "name": "q8",
                "id": "10566",
                "brand": "Q8",
                "amenity": "fuel",
                "operator": "LAZZARINI FRANCO"
            },
            "geometry": {
                "type": "Point",
                "coordinates": [
                    12.550259654631077,
                    45.48022404524275
                ]
            }
        },
        {
            "type": "Feature",
            "properties": {
                "name": "area servizio cella",
                "id": "15872",
                "brand": "Esso",
                "amenity": "fuel",
                "operator": "AREA SERVIZIO CELLA DI CELLA ROBERTO & C. S.A.S."
            },
            "geometry": {
                "type": "Point",
                "coordinates": [
                    12.65617314166411,
                    45.51106112812523
                ]
            }
        },
        {
            "type": "Feature",
            "properties": {
                "name": "Stazione di Servizio F.lli Trazzera",
                "id": "16658",
                "brand": "Costantin",
                "amenity": "fuel",
                "operator": "STAZ.SERVIZIO F.LLI TRAZZERA DI CARTINI  ANGELA"
            },
            "geometry": {
                "type": "Point",
                "coordinates": [
                    12.635541334748266,
                    45.517579117009504
                ]
            }
        },
        {
            "type": "Feature",
            "properties": {
                "name": "SMP JESOLO",
                "id": "5243",
                "brand": "San Marco Petroli",
                "amenity": "fuel",
                "operator": "SAN MARCO PETROLI DISTRIBUZIONE S.R.L."
            },
            "geometry": {
                "type": "Point",
                "coordinates": [
                    12.601903080940247,
                    45.548324619504626
                ]
            }
        },
        {
            "type": "Feature",
            "properties": {
                "name": "OIL ITALIA",
                "id": "16832",
                "amenity": "fuel",
                "operator": "ROSSI DIEGO"
            },
            "geometry": {
                "type": "Point",
                "coordinates": [
                    12.53552385169519,
                    45.469251038597825
                ]
            }
        },
        {
            "type": "Feature",
            "properties": {
                "name": "MYEN / UNIONE GAS AUTO SPA",
                "id": "31873",
                "amenity": "fuel",
                "operator": "UNIONE GAS AUTO S.P.A."
            },
            "geometry": {
                "type": "Point",
                "coordinates": [
                    12.651261761784555,
                    45.544013029368706
                ]
            }
        },
        {
            "type": "Feature",
            "properties": {
                "name": "Sia Fuel Cavallino",
                "id": "26158",
                "brand": "Sia fuel",
                "amenity": "fuel",
                "operator": "S.I.A. ENGINEERING CONSTRUCTION S.R.L."
            },
            "geometry": {
                "type": "Point",
                "coordinates": [
                    12.515963762998581,
                    45.46530100950309
                ]
            }
        },
        {
            "type": "Feature",
            "properties": {
                "name": "Tamoil",
                "id": "16207",
                "brand": "Tamoil",
                "amenity": "fuel",
                "operator": "COLLA CARLO"
            },
            "geometry": {
                "type": "Point",
                "coordinates": [
                    12.614597628247113,
                    45.50117696190098
                ]
            }
        },
        {
            "type": "Feature",
            "properties": {
                "name": "FUEL MIX SNC",
                "id": "21922",
                "brand": "Total Erg",
                "amenity": "fuel",
                "operator": "FUEL MIX S.N.C. DI GOTTARDO ORIANO & DENIS"
            },
            "geometry": {
                "type": "Point",
                "coordinates": [
                    12.626107335090637,
                    45.505148344910666
                ]
            }
        },
        {
            "type": "Feature",
            "properties": {
                "name": "Q8   Munerotto Paolo",
                "id": "10620",
                "brand": "Q8",
                "amenity": "fuel",
                "operator": "MUNEROTTO PAOLO E C. S.A.S."
            },
            "geometry": {
                "type": "Point",
                "coordinates": [
                    12.57663868367672,
                    45.487367203906594
                ]
            }
        },
        {
            "type": "Feature",
            "properties": {
                "name": "STAZIONE DI SERVIZIO GIADA DI DONÈ MASSIMO",
                "id": "22588",
                "brand": "Api-Ip",
                "amenity": "fuel",
                "operator": "STAZIONE DI SERVIZIO GIADA DI DONÈ MASSIMO"
            },
            "geometry": {
                "type": "Point",
                "coordinates": [
                    12.639194541876575,
                    45.520704412687614
                ]
            }
        },
        {
            "type": "Feature",
            "properties": {
                "name": "esso",
                "id": "22821",
                "brand": "Esso",
                "amenity": "fuel",
                "operator": "PIOVESAN FRANCO - VANIN PIERGIORGIO & C. S.N.C."
            },
            "geometry": {
                "type": "Point",
                "coordinates": [
                    12.606513798236845,
                    45.49857613428723
                ]
            }
        },
        {
            "type": "Feature",
            "properties": {
                "name": "S.DONA' DI PIAVE VIA CAPOSILE 37",
                "id": "6478",
                "brand": "Q8",
                "amenity": "fuel",
                "operator": "SERVIZI & GESTIONI ITALIA srl"
            },
            "geometry": {
                "type": "Point",
                "coordinates": [
                    12.576136871163953,
                    45.55839957582311
                ]
            }
        },
        {
            "type": "Feature",
            "properties": {
                "name": "JESOLO-VIA MAMELI 44",
                "id": "11940",
                "brand": "Q8",
                "amenity": "fuel",
                "operator": "SERVIZI & GESTIONI ITALIA S.R.L."
            },
            "geometry": {
                "type": "Point",
                "coordinates": [
                    12.644187347221303,
                    45.50947368464296
                ]
            }
        }
    ]
}