{
    "type": "FeatureCollection",
    "features": [
        {
            "type": "Feature",
            "properties": {
                "name": "eni",
                "id": "25251",
                "brand": "Agip Eni",
                "amenity": "fuel",
                "operator": "BASSO ANTONIO"
            },
            "geometry": {
                "type": "Point",
                "coordinates": [
                    12.648761482803364,
                    45.936577036334704
                ]
            }
        },
        {
            "type": "Feature",
            "properties": {
                "name": "PORTOBUFFOLE NI007714",
                "id": "27331",
                "brand": "Total Erg",
                "amenity": "fuel",
                "operator": "CORO S.R.L."
            },
            "geometry": {
                "type": "Point",
                "coordinates": [
                    12.547207474708557,
                    45.86057323218708
                ]
            }
        },
        {
            "type": "Feature",
            "properties": {
                "name": "DISTRIBUTORE BAR LAVAGGIO ENI DI PIGNAT MANUELE",
                "id": "27777",
                "brand": "Agip Eni",
                "amenity": "fuel",
                "operator": "PIGNAT MANUELE"
            },
            "geometry": {
                "type": "Point",
                "coordinates": [
                    12.595630550464078,
                    45.942090874681
                ]
            }
        },
        {
            "type": "Feature",
            "properties": {
                "name": "Q8",
                "id": "24883",
                "brand": "Q8",
                "amenity": "fuel",
                "operator": "SANSON ALESSANDRO"
            },
            "geometry": {
                "type": "Point",
                "coordinates": [
                    12.497373988050983,
                    45.93870155114002
                ]
            }
        },
        {
            "type": "Feature",
            "properties": {
                "name": "BERTOLO S.A.S. DI BERTOLO NELLO & C.",
                "id": "13195",
                "brand": "Api-Ip",
                "amenity": "fuel",
                "operator": "BERTOLO S.A.S. DI BERTOLO NELLO & C."
            },
            "geometry": {
                "type": "Point",
                "coordinates": [
                    12.553662014385964,
                    45.8880652727547
                ]
            }
        },
        {
            "type": "Feature",
            "properties": {
                "name": "AGIP",
                "id": "21299",
                "brand": "Agip Eni",
                "amenity": "fuel",
                "operator": "KASEMAJ EDUART"
            },
            "geometry": {
                "type": "Point",
                "coordinates": [
                    12.593739748001102,
                    45.89378178065941
                ]
            }
        },
        {
            "type": "Feature",
            "properties": {
                "name": "Rotundo Giorgio",
                "id": "20739",
                "brand": "Agip Eni",
                "amenity": "fuel",
                "operator": "AGIP ALLA CROSE - ROTUNDO GIORGIO"
            },
            "geometry": {
                "type": "Point",
                "coordinates": [
                    12.617889676721234,
                    45.94181368155949
                ]
            }
        },
        {
            "type": "Feature",
            "properties": {
                "name": "BRUGNERA VIA I.SANTAROSSA 2-LOC.MARON",
                "id": "22355",
                "brand": "Q8",
                "amenity": "fuel",
                "operator": "SERVIZI & GESTIONI ITALIA S.R.L."
            },
            "geometry": {
                "type": "Point",
                "coordinates": [
                    12.556470809262125,
                    45.894151269179346
                ]
            }
        },
        {
            "type": "Feature",
            "properties": {
                "name": "SMP PRATA DI PORDENONE",
                "id": "5226",
                "brand": "San Marco Petroli",
                "amenity": "fuel",
                "operator": "SAN MARCO PETROLI DISTRIBUZIONE S.R.L."
            },
            "geometry": {
                "type": "Point",
                "coordinates": [
                    12.586847051589984,
                    45.890409820321395
                ]
            }
        },
        {
            "type": "Feature",
            "properties": {
                "name": "Stazione di Servizio Populin",
                "id": "25021",
                "amenity": "fuel",
                "operator": "POPULIN ALFIO FRANCO MASSIMO"
            },
            "geometry": {
                "type": "Point",
                "coordinates": [
                    12.627658661376927,
                    45.850129987895265
                ]
            }
        },
        {
            "type": "Feature",
            "properties": {
                "name": "welna snc",
                "id": "6871",
                "brand": "Total Erg",
                "amenity": "fuel",
                "operator": "WELNA S.N.C. DI NATALE SANTAROSSA & C."
            },
            "geometry": {
                "type": "Point",
                "coordinates": [
                    12.645041181059238,
                    45.930082031679405
                ]
            }
        },
        {
            "type": "Feature",
            "properties": {
                "name": "BRUGNERA SUD",
                "id": "3481",
                "brand": "Total Erg",
                "amenity": "fuel",
                "operator": "CARLO DELLE VEDOVE S.R.L."
            },
            "geometry": {
                "type": "Point",
                "coordinates": [
                    12.560741901397705,
                    45.94082484201706
                ]
            }
        },
        {
            "type": "Feature",
            "properties": {
                "name": "Imp. Som-Agip di Bertolo Mauro & C. snc",
                "id": "13109",
                "brand": "Agip Eni",
                "amenity": "fuel",
                "operator": "BERTOLO MAURO & C. S.N.C."
            },
            "geometry": {
                "type": "Point",
                "coordinates": [
                    12.57674745109557,
                    45.89917327579681
                ]
            }
        },
        {
            "type": "Feature",
            "properties": {
                "name": "eni",
                "id": "21065",
                "brand": "Agip Eni",
                "amenity": "fuel",
                "operator": "HOXHA BLEDAR"
            },
            "geometry": {
                "type": "Point",
                "coordinates": [
                    12.637737793115207,
                    45.922259847810736
                ]
            }
        },
        {
            "type": "Feature",
            "properties": {
                "name": "Energyca Pasiano",
                "id": "12047",
                "brand": "Energyca",
                "amenity": "fuel",
                "operator": "CIMA SERVIZI S.R.L."
            },
            "geometry": {
                "type": "Point",
                "coordinates": [
                    12.624415855017105,
                    45.86697705326656
                ]
            }
        },
        {
            "type": "Feature",
            "properties": {
                "name": "DA OIL - Portobuffol√®",
                "id": "14452",
                "amenity": "fuel",
                "operator": "DELL'ANTONIA S.A.S. DI DELL'ANTONIA MAURO & C."
            },
            "geometry": {
                "type": "Point",
                "coordinates": [
                    12.535971701145172,
                    45.85364360655539
                ]
            }
        },
        {
            "type": "Feature",
            "properties": {
                "name": "Energyca",
                "id": "16833",
                "brand": "Energyca",
                "amenity": "fuel",
                "operator": "BUORO MAURO"
            },
            "geometry": {
                "type": "Point",
                "coordinates": [
                    12.510398601188628,
                    45.905810198330585
                ]
            }
        },
        {
            "type": "Feature",
            "properties": {
                "name": "PREALPI",
                "id": "17950",
                "amenity": "fuel",
                "operator": "PREALPI S.R.L."
            },
            "geometry": {
                "type": "Point",
                "coordinates": [
                    12.552385554381319,
                    45.92641549029123
                ]
            }
        },
        {
            "type": "Feature",
            "properties": {
                "name": "Q8",
                "id": "30161",
                "brand": "Q8",
                "amenity": "fuel",
                "operator": "DINICOLA FABRIZIO"
            },
            "geometry": {
                "type": "Point",
                "coordinates": [
                    12.650908380746841,
                    45.93902264619739
                ]
            }
        },
        {
            "type": "Feature",
            "properties": {
                "name": "Franco's snc",
                "id": "10767",
                "brand": "Api-Ip",
                "amenity": "fuel",
                "operator": "FRANCO'S DI CASAGRANDE PAOLO & C. SNC"
            },
            "geometry": {
                "type": "Point",
                "coordinates": [
                    12.487461268901825,
                    45.88243877808343
                ]
            }
        },
        {
            "type": "Feature",
            "properties": {
                "name": "eni",
                "id": "21064",
                "brand": "Agip Eni",
                "amenity": "fuel",
                "operator": "HOXHA BLEDAR"
            },
            "geometry": {
                "type": "Point",
                "coordinates": [
                    12.543267309665676,
                    45.90921767722438
                ]
            }
        },
        {
            "type": "Feature",
            "properties": {
                "name": "STAZIONE DI SERVIZIO F.LLI ROSOLEN GIORGIO E PRIMO SNC",
                "id": "25039",
                "brand": "Total Erg",
                "amenity": "fuel",
                "operator": "F.LLI ROSOLEN GIORGIO E PRIMO SOCIETA' IN NOME COLLETTIVO"
            },
            "geometry": {
                "type": "Point",
                "coordinates": [
                    12.563461661338806,
                    45.870880890283786
                ]
            }
        },
        {
            "type": "Feature",
            "properties": {
                "name": "PORCIA NORD",
                "id": "3479",
                "brand": "Total Erg",
                "amenity": "fuel",
                "operator": "CARLO DELLE VEDOVE S.R.L."
            },
            "geometry": {
                "type": "Point",
                "coordinates": [
                    12.56211519241333,
                    45.942346833022434
                ]
            }
        }
    ]
}