{
    "type": "FeatureCollection",
    "features": [
        {
            "type": "Feature",
            "properties": {
                "name": "AP coccinella",
                "id": "30268",
                "amenity": "fuel",
                "operator": "SPALLA SEBASTIANO SALVATORE"
            },
            "geometry": {
                "type": "Point",
                "coordinates": [
                    12.490842193365097,
                    37.82920234454688
                ]
            }
        },
        {
            "type": "Feature",
            "properties": {
                "name": "STAZIONE DI SERVIZIO Q8 DI ANSELMI ANDREA",
                "id": "21571",
                "brand": "Q8",
                "amenity": "fuel",
                "operator": "ANSELMI ANDREA SALVATORE ROBERTO"
            },
            "geometry": {
                "type": "Point",
                "coordinates": [
                    12.522631711755366,
                    37.719169110259564
                ]
            }
        },
        {
            "type": "Feature",
            "properties": {
                "name": "55278",
                "id": "28705",
                "brand": "Agip Eni",
                "amenity": "fuel",
                "operator": "CURATOLO ANTONINO & C. S.N.C."
            },
            "geometry": {
                "type": "Point",
                "coordinates": [
                    12.509875148534777,
                    37.728414817327
                ]
            }
        },
        {
            "type": "Feature",
            "properties": {
                "name": "Q8",
                "id": "28741",
                "brand": "Q8",
                "amenity": "fuel",
                "operator": "LOMBARDO ROSA"
            },
            "geometry": {
                "type": "Point",
                "coordinates": [
                    12.527446299791336,
                    37.81627419830047
                ]
            }
        },
        {
            "type": "Feature",
            "properties": {
                "name": "FM Energy - Str",
                "id": "13776",
                "amenity": "fuel",
                "operator": "MARTINICO RAG. FRANCESCO & C. S.A.S"
            },
            "geometry": {
                "type": "Point",
                "coordinates": [
                    12.516020066533654,
                    37.730065247036656
                ]
            }
        },
        {
            "type": "Feature",
            "properties": {
                "name": "Q8 di cammareri marco",
                "id": "30790",
                "brand": "Q8",
                "amenity": "fuel",
                "operator": "CAMMARERI MARCO"
            },
            "geometry": {
                "type": "Point",
                "coordinates": [
                    12.485222965478899,
                    37.79489782199959
                ]
            }
        },
        {
            "type": "Feature",
            "properties": {
                "name": "( Q8 )",
                "id": "29106",
                "brand": "Q8",
                "amenity": "fuel",
                "operator": "PIZZO  GIUSEPPE EROS"
            },
            "geometry": {
                "type": "Point",
                "coordinates": [
                    12.49393343925476,
                    37.74027384015072
                ]
            }
        },
        {
            "type": "Feature",
            "properties": {
                "name": "Q8",
                "id": "28289",
                "brand": "Q8",
                "amenity": "fuel",
                "operator": "PANTALEO VITO"
            },
            "geometry": {
                "type": "Point",
                "coordinates": [
                    12.526810616254807,
                    37.77973331096304
                ]
            }
        },
        {
            "type": "Feature",
            "properties": {
                "name": "FM Energy - SP",
                "id": "13805",
                "amenity": "fuel",
                "operator": "MARTINICO RAG. FRANCESCO & C. S.A.S"
            },
            "geometry": {
                "type": "Point",
                "coordinates": [
                    12.526013977323144,
                    37.743651349063335
                ]
            }
        },
        {
            "type": "Feature",
            "properties": {
                "name": "Q8",
                "id": "19953",
                "amenity": "fuel",
                "operator": "ANGILERI GIACOMO"
            },
            "geometry": {
                "type": "Point",
                "coordinates": [
                    12.507576670230488,
                    37.846500355557886
                ]
            }
        },
        {
            "type": "Feature",
            "properties": {
                "name": "AP",
                "id": "16678",
                "amenity": "fuel",
                "operator": "RUBINO NICOLO' EMANUELE NATALE"
            },
            "geometry": {
                "type": "Point",
                "coordinates": [
                    12.5102674216032,
                    37.8381770791461
                ]
            }
        },
        {
            "type": "Feature",
            "properties": {
                "name": "AOIL",
                "id": "29926",
                "amenity": "fuel",
                "operator": "ADAMO IDROCARBURI S.R.L."
            },
            "geometry": {
                "type": "Point",
                "coordinates": [
                    12.517924457788467,
                    37.73295577513512
                ]
            }
        },
        {
            "type": "Feature",
            "properties": {
                "name": "Q8 RAGONA",
                "id": "28744",
                "brand": "Q8",
                "amenity": "fuel",
                "operator": "RAGONA ANTONIO"
            },
            "geometry": {
                "type": "Point",
                "coordinates": [
                    12.553387993192471,
                    37.77663790797567
                ]
            }
        },
        {
            "type": "Feature",
            "properties": {
                "name": "IDC C/DA STURIANO",
                "id": "28680",
                "amenity": "fuel",
                "operator": "ADAMO IDROCARBURI S.R.L."
            },
            "geometry": {
                "type": "Point",
                "coordinates": [
                    12.500921934843065,
                    37.81856023748517
                ]
            }
        },
        {
            "type": "Feature",
            "properties": {
                "name": "di BENEDETTO ALFONSO srl",
                "id": "29008",
                "brand": "Esso",
                "amenity": "fuel",
                "operator": "LAMIA GIACOMA"
            },
            "geometry": {
                "type": "Point",
                "coordinates": [
                    12.52383277335605,
                    37.742241059520516
                ]
            }
        },
        {
            "type": "Feature",
            "properties": {
                "name": "TP113",
                "id": "16222",
                "brand": "Esso",
                "amenity": "fuel",
                "operator": "ADAMO IGNAZIO E FIGLI S.R.L."
            },
            "geometry": {
                "type": "Point",
                "coordinates": [
                    12.513832747936249,
                    37.82565500485015
                ]
            }
        },
        {
            "type": "Feature",
            "properties": {
                "name": "ERG DI CHIRCO FRANCESCO",
                "id": "24214",
                "brand": "Q8",
                "amenity": "fuel",
                "operator": "CHIRCO FRANCESCO"
            },
            "geometry": {
                "type": "Point",
                "coordinates": [
                    12.500942051410675,
                    37.81853650657903
                ]
            }
        }
    ]
}