{
    "type": "FeatureCollection",
    "features": [
        {
            "type": "Feature",
            "properties": {
                "name": "MOVE 2 CESSALTO",
                "id": "24491",
                "brand": "MOVE 2",
                "amenity": "fuel",
                "operator": "MOVE 2 FACTORY S.R.L."
            },
            "geometry": {
                "type": "Point",
                "coordinates": [
                    12.604120585614053,
                    45.71099597108853
                ]
            }
        },
        {
            "type": "Feature",
            "properties": {
                "name": "autofficinamb snc",
                "id": "16271",
                "brand": "Agip Eni",
                "amenity": "fuel",
                "operator": "AUTOFFICINA MB S.N.C DI MAZZER A. E BERGAMO G."
            },
            "geometry": {
                "type": "Point",
                "coordinates": [
                    12.48468317091465,
                    45.76268875394008
                ]
            }
        },
        {
            "type": "Feature",
            "properties": {
                "name": "MANSUE' - STRADA PROV PER ODERZO",
                "id": "7281",
                "brand": "Q8",
                "amenity": "fuel",
                "operator": "SERVIZI & GESTIONI ITALIA S.R.L."
            },
            "geometry": {
                "type": "Point",
                "coordinates": [
                    12.526066046627081,
                    45.813192912003345
                ]
            }
        },
        {
            "type": "Feature",
            "properties": {
                "name": "ENI",
                "id": "17802",
                "brand": "Agip Eni",
                "amenity": "fuel",
                "operator": "TUMIOTTO FRANCESCO & C. S.N.C."
            },
            "geometry": {
                "type": "Point",
                "coordinates": [
                    12.528346369866997,
                    45.79128814754829
                ]
            }
        },
        {
            "type": "Feature",
            "properties": {
                "name": "VEGA GORGO AL MONTICANO",
                "id": "31530",
                "brand": "Vega",
                "amenity": "fuel",
                "operator": "VEGA CARBURANTI S.P.A."
            },
            "geometry": {
                "type": "Point",
                "coordinates": [
                    12.57197231054306,
                    45.78349554747121
                ]
            }
        },
        {
            "type": "Feature",
            "properties": {
                "name": "RWM SNC",
                "id": "15091",
                "brand": "Agip Eni",
                "amenity": "fuel",
                "operator": "RWM DI SERAFIN RENZO, VIDONI WALTER & C. - SOCIETA' IN NOME COLLE TTIVO"
            },
            "geometry": {
                "type": "Point",
                "coordinates": [
                    12.488507330417633,
                    45.7708832347366
                ]
            }
        },
        {
            "type": "Feature",
            "properties": {
                "name": "Energyca Oderzo_Piavon",
                "id": "24269",
                "brand": "Energyca",
                "amenity": "fuel",
                "operator": "CIMA SERVIZI S.R.L."
            },
            "geometry": {
                "type": "Point",
                "coordinates": [
                    12.511829595245331,
                    45.76728349366197
                ]
            }
        },
        {
            "type": "Feature",
            "properties": {
                "name": "ODERZO VERDI 33",
                "id": "6492",
                "brand": "Q8",
                "amenity": "fuel",
                "operator": "SERVIZI & GESTIONI ITALIA srl"
            },
            "geometry": {
                "type": "Point",
                "coordinates": [
                    12.501064373016332,
                    45.78858410573366
                ]
            }
        },
        {
            "type": "Feature",
            "properties": {
                "name": "NOALOIL PV3",
                "id": "4488",
                "brand": "Noaloil",
                "amenity": "fuel",
                "operator": "NOALOIL S.P.A."
            },
            "geometry": {
                "type": "Point",
                "coordinates": [
                    12.574258949737553,
                    45.73135599130195
                ]
            }
        },
        {
            "type": "Feature",
            "properties": {
                "name": "AGIP MEDUNA",
                "id": "24231",
                "brand": "Agip Eni",
                "amenity": "fuel",
                "operator": "TAPPAFISSA SNC DI TAPPARELLO EMANUELA & C."
            },
            "geometry": {
                "type": "Point",
                "coordinates": [
                    12.60118693113327,
                    45.81919113978386
                ]
            }
        },
        {
            "type": "Feature",
            "properties": {
                "name": "_SMP ODERZO",
                "id": "30815",
                "brand": "San Marco Petroli",
                "amenity": "fuel",
                "operator": "SAN MARCO PETROLI DISTRIBUZIONE S.R.L."
            },
            "geometry": {
                "type": "Point",
                "coordinates": [
                    12.501424849033356,
                    45.785657425213806
                ]
            }
        },
        {
            "type": "Feature",
            "properties": {
                "name": "VEGA MOTTA DI LIVENZA",
                "id": "31526",
                "brand": "Vega",
                "amenity": "fuel",
                "operator": "VEGA CARBURANTI S.P.A."
            },
            "geometry": {
                "type": "Point",
                "coordinates": [
                    12.61091262102127,
                    45.76648265858281
                ]
            }
        },
        {
            "type": "Feature",
            "properties": {
                "name": "Energyca Mansu√®",
                "id": "12052",
                "brand": "Energyca",
                "amenity": "fuel",
                "operator": "CIMA SERVIZI S.R.L."
            },
            "geometry": {
                "type": "Point",
                "coordinates": [
                    12.537657715760814,
                    45.828399731595475
                ]
            }
        },
        {
            "type": "Feature",
            "properties": {
                "name": "stazione di servizio esso",
                "id": "12812",
                "brand": "Esso",
                "amenity": "fuel",
                "operator": "QUERIN ANGELO E GIUSEPPE S.A.S."
            },
            "geometry": {
                "type": "Point",
                "coordinates": [
                    12.485165297985077,
                    45.763042782792645
                ]
            }
        },
        {
            "type": "Feature",
            "properties": {
                "name": "MOTTA DI LIVENZA S.S. 53 POSTUMIA KM 94+707",
                "id": "6485",
                "brand": "Q8",
                "amenity": "fuel",
                "operator": "SERVIZI & GESTIONI ITALIA srl"
            },
            "geometry": {
                "type": "Point",
                "coordinates": [
                    12.583916228697262,
                    45.78236617679567
                ]
            }
        },
        {
            "type": "Feature",
            "properties": {
                "name": "_SMP ODERZO VIA CONCORDIA",
                "id": "31290",
                "brand": "San Marco Petroli",
                "amenity": "fuel",
                "operator": "SAN MARCO PETROLI DISTRIBUZIONE S.R.L."
            },
            "geometry": {
                "type": "Point",
                "coordinates": [
                    12.515932917594908,
                    45.79486513521055
                ]
            }
        },
        {
            "type": "Feature",
            "properties": {
                "name": "Costantin Oderzo",
                "id": "22484",
                "brand": "Costantin",
                "amenity": "fuel",
                "operator": "ENERGAS ITALIA S.R.L."
            },
            "geometry": {
                "type": "Point",
                "coordinates": [
                    12.526470609786884,
                    45.76225401552996
                ]
            }
        }
    ]
}