{
    "type": "FeatureCollection",
    "features": [
        {
            "type": "Feature",
            "properties": {
                "name": "stazione di servizio IP",
                "id": "9068",
                "brand": "Api-Ip",
                "amenity": "fuel",
                "operator": "STAZIONE DI SERVIZIO I.P. DI BERNACCHIA MAURIZIO"
            },
            "geometry": {
                "type": "Point",
                "coordinates": [
                    12.627153396606445,
                    42.49652456602799
                ]
            }
        },
        {
            "type": "Feature",
            "properties": {
                "name": "nunzi luca",
                "id": "7547",
                "brand": "Api-Ip",
                "amenity": "fuel",
                "operator": "LUCA NUNZI"
            },
            "geometry": {
                "type": "Point",
                "coordinates": [
                    12.480492889881132,
                    42.452034553627655
                ]
            }
        },
        {
            "type": "Feature",
            "properties": {
                "name": "Stazione IP MCR Snc",
                "id": "16662",
                "brand": "Api-Ip",
                "amenity": "fuel",
                "operator": "M.C.R. DI MARSINI MARIA CARMINA & C. S.N.C. IN SIGLA M.C.R. S.N.C ."
            },
            "geometry": {
                "type": "Point",
                "coordinates": [
                    12.626669069853278,
                    42.55086549940671
                ]
            }
        },
        {
            "type": "Feature",
            "properties": {
                "name": "FLAMINIA CARBURANTI SNC",
                "id": "4531",
                "amenity": "fuel",
                "operator": "FLAMINIA CARBURANTI DI MARTA A. E UNGARI S. S.N.C."
            },
            "geometry": {
                "type": "Point",
                "coordinates": [
                    12.615501880645754,
                    42.546717720205855
                ]
            }
        },
        {
            "type": "Feature",
            "properties": {
                "name": "ENERPETROLI",
                "id": "15824",
                "amenity": "fuel",
                "operator": "C.B.F. DI BUSSOLETTI ANGELO E FANI LUCIANO S.N.C."
            },
            "geometry": {
                "type": "Point",
                "coordinates": [
                    12.524247765541073,
                    42.5199925939359
                ]
            }
        },
        {
            "type": "Feature",
            "properties": {
                "name": "TOMASSINI AVIO STAZ. SERVIZIO REPSOL",
                "id": "13099",
                "brand": "Repsol",
                "amenity": "fuel",
                "operator": "TOMASSINI AVIO"
            },
            "geometry": {
                "type": "Point",
                "coordinates": [
                    12.654204366934207,
                    42.55164350399675
                ]
            }
        },
        {
            "type": "Feature",
            "properties": {
                "name": "SABBIONE SERVIZI",
                "id": "28116",
                "brand": "Api-Ip",
                "amenity": "fuel",
                "operator": "SABBIONE SERVIZI S.N.C. DI VALLERIGNANI FABIO E MARIANI MASSIMILIANO"
            },
            "geometry": {
                "type": "Point",
                "coordinates": [
                    12.600004076957704,
                    42.552250425464834
                ]
            }
        },
        {
            "type": "Feature",
            "properties": {
                "name": "IP VENTURI GIULIO",
                "id": "15694",
                "brand": "Api-Ip",
                "amenity": "fuel",
                "operator": "VENTURI GIULIO"
            },
            "geometry": {
                "type": "Point",
                "coordinates": [
                    12.642315972337768,
                    42.544997999783014
                ]
            }
        },
        {
            "type": "Feature",
            "properties": {
                "name": "stazione di servizio IP",
                "id": "5707",
                "brand": "Api-Ip",
                "amenity": "fuel",
                "operator": "PM CARBURANTI S.N.C. DI PASTURA FABIO E MENGHINI UGO"
            },
            "geometry": {
                "type": "Point",
                "coordinates": [
                    12.515558753129994,
                    42.530658708320765
                ]
            }
        },
        {
            "type": "Feature",
            "properties": {
                "name": "autofficina e distributore di moricone",
                "id": "12957",
                "brand": "Repsol",
                "amenity": "fuel",
                "operator": "AUTOFFICINA E DISTRIBUTORE DI MORICONE DI PROIETTI MAURO E ALFIO S.N.C."
            },
            "geometry": {
                "type": "Point",
                "coordinates": [
                    12.524867355823517,
                    42.45783368800223
                ]
            }
        },
        {
            "type": "Feature",
            "properties": {
                "name": "BALLESI SANDRO",
                "id": "19045",
                "brand": "Esso",
                "amenity": "fuel",
                "operator": "BALLESI SANDRO"
            },
            "geometry": {
                "type": "Point",
                "coordinates": [
                    12.655767202377318,
                    42.51159099710708
                ]
            }
        },
        {
            "type": "Feature",
            "properties": {
                "name": "Stazione di rifornimento ESSO",
                "id": "9800",
                "brand": "Esso",
                "amenity": "fuel",
                "operator": "STELLA ANDREA"
            },
            "geometry": {
                "type": "Point",
                "coordinates": [
                    12.518143057823181,
                    42.53255729426935
                ]
            }
        },
        {
            "type": "Feature",
            "properties": {
                "name": "eni",
                "id": "7590",
                "brand": "Agip Eni",
                "amenity": "fuel",
                "operator": "PACI VALERIO & C. S.N.C."
            },
            "geometry": {
                "type": "Point",
                "coordinates": [
                    12.520268208003927,
                    42.53584273727828
                ]
            }
        },
        {
            "type": "Feature",
            "properties": {
                "name": "METANO TERNI SNC",
                "id": "4337",
                "amenity": "fuel",
                "operator": "METANO TERNI S.N.C. DI ROMANELLI BRUNO & C."
            },
            "geometry": {
                "type": "Point",
                "coordinates": [
                    12.601718289434189,
                    42.54368445390769
                ]
            }
        },
        {
            "type": "Feature",
            "properties": {
                "name": "B.b.carburanti snc",
                "id": "19581",
                "brand": "Q8",
                "amenity": "fuel",
                "operator": "BB CARBURANTI S.N.C. DI BRUNOTTI ALESSANDRO E BRUNOTTI LEONARDO"
            },
            "geometry": {
                "type": "Point",
                "coordinates": [
                    12.591673135757443,
                    42.54350655029654
                ]
            }
        },
        {
            "type": "Feature",
            "properties": {
                "name": "impianto alfagasauto",
                "id": "4866",
                "brand": "Agip Eni",
                "amenity": "fuel",
                "operator": "BERTOLDO ETTORE"
            },
            "geometry": {
                "type": "Point",
                "coordinates": [
                    12.556841969490053,
                    42.53338346672881
                ]
            }
        },
        {
            "type": "Feature",
            "properties": {
                "name": "STAZIONE DI SERVIZIO ENI CARAPACCHI & C. SNC",
                "id": "28609",
                "brand": "Agip Eni",
                "amenity": "fuel",
                "operator": "CARAPACCHI & C. S.N.C. DI CARAPACCHI GIAMPIERO"
            },
            "geometry": {
                "type": "Point",
                "coordinates": [
                    12.64941299014356,
                    42.54832522428268
                ]
            }
        },
        {
            "type": "Feature",
            "properties": {
                "name": "ENERPETROLI",
                "id": "15829",
                "amenity": "fuel",
                "operator": "C.B.F. DI BUSSOLETTI ANGELO E FANI LUCIANO S.N.C."
            },
            "geometry": {
                "type": "Point",
                "coordinates": [
                    12.519714832305908,
                    42.512341524437915
                ]
            }
        },
        {
            "type": "Feature",
            "properties": {
                "name": "TERNI VIA G. DI VITTORIO  111",
                "id": "6617",
                "brand": "Q8",
                "amenity": "fuel",
                "operator": "SERVIZI & GESTIONI ITALIA srl"
            },
            "geometry": {
                "type": "Point",
                "coordinates": [
                    12.64098844477462,
                    42.552484406519035
                ]
            }
        },
        {
            "type": "Feature",
            "properties": {
                "name": "ESSO CESARINI & CASTALDINI SNC",
                "id": "19080",
                "brand": "Esso",
                "amenity": "fuel",
                "operator": "CESARINI & CASTALDINI S.N.C. - DI CESARINI ANNALISA & C."
            },
            "geometry": {
                "type": "Point",
                "coordinates": [
                    12.63042441980815,
                    42.55152966909855
                ]
            }
        },
        {
            "type": "Feature",
            "properties": {
                "name": "NARNI",
                "id": "24188",
                "amenity": "fuel",
                "operator": "TIBER S.R.L."
            },
            "geometry": {
                "type": "Point",
                "coordinates": [
                    12.530754804611206,
                    42.55287638063931
                ]
            }
        },
        {
            "type": "Feature",
            "properties": {
                "name": "TERNI VIA NARNI KM 95,750",
                "id": "6927",
                "brand": "Q8",
                "amenity": "fuel",
                "operator": "SERVIZI & GESTIONI ITALIA S.R.L."
            },
            "geometry": {
                "type": "Point",
                "coordinates": [
                    12.619839067459113,
                    42.54788897155803
                ]
            }
        }
    ]
}