{
    "type": "FeatureCollection",
    "features": [
        {
            "type": "Feature",
            "properties": {
                "name": "IP v.le Jonio",
                "id": "13948",
                "brand": "Api-Ip",
                "amenity": "fuel",
                "operator": "DI MARIO STEFANO"
            },
            "geometry": {
                "type": "Point",
                "coordinates": [
                    12.546573132276533,
                    41.94402564061127
                ]
            }
        },
        {
            "type": "Feature",
            "properties": {
                "name": "stazione di servizio eni",
                "id": "28112",
                "brand": "Agip Eni",
                "amenity": "fuel",
                "operator": "MARCATTILI GIOVANNI"
            },
            "geometry": {
                "type": "Point",
                "coordinates": [
                    12.523401285644466,
                    41.946319145210886
                ]
            }
        },
        {
            "type": "Feature",
            "properties": {
                "name": "AGOMERI GIANLUCA",
                "id": "13668",
                "brand": "Esso",
                "amenity": "fuel",
                "operator": "AGOMERI GIANLUCA"
            },
            "geometry": {
                "type": "Point",
                "coordinates": [
                    12.504021257619003,
                    41.93899797003205
                ]
            }
        },
        {
            "type": "Feature",
            "properties": {
                "name": "Q8 - PV 5746 / Forlizzi srl",
                "id": "28232",
                "brand": "Q8",
                "amenity": "fuel",
                "operator": "CRISTADORO MARCO"
            },
            "geometry": {
                "type": "Point",
                "coordinates": [
                    12.48086528463523,
                    41.92267222149891
                ]
            }
        },
        {
            "type": "Feature",
            "properties": {
                "name": "SETTEBAGNI INTERNA",
                "id": "22080",
                "brand": "Agip Eni",
                "amenity": "fuel",
                "operator": "IT.ER SOCIETA' A RESPONSABILITA' LIMITATA"
            },
            "geometry": {
                "type": "Point",
                "coordinates": [
                    12.546021938323976,
                    41.97353807715856
                ]
            }
        },
        {
            "type": "Feature",
            "properties": {
                "name": "6966 ROMA PORTONACCIO",
                "id": "5472",
                "brand": "Agip Eni",
                "amenity": "fuel",
                "operator": "enirete oil&nonoil S.p.A."
            },
            "geometry": {
                "type": "Point",
                "coordinates": [
                    12.535676239252096,
                    41.90493003755311
                ]
            }
        },
        {
            "type": "Feature",
            "properties": {
                "name": "ENERPETROLI - MARCO SIMONE",
                "id": "23325",
                "brand": "Enerpetroli",
                "amenity": "fuel",
                "operator": "ENERPETROLI S.R.L."
            },
            "geometry": {
                "type": "Point",
                "coordinates": [
                    12.631418108940125,
                    41.95780030385955
                ]
            }
        },
        {
            "type": "Feature",
            "properties": {
                "name": "HEDEGO TAHA MOHAMMED HADISH",
                "id": "18190",
                "brand": "Q8",
                "amenity": "fuel",
                "operator": "HEDEGO TAHA MOHAMMED HADISH"
            },
            "geometry": {
                "type": "Point",
                "coordinates": [
                    12.519158155582318,
                    41.92850819363516
                ]
            }
        },
        {
            "type": "Feature",
            "properties": {
                "name": "ponchielli carburanti snc",
                "id": "18143",
                "brand": "Agip Eni",
                "amenity": "fuel",
                "operator": "PONCHIELLI CARBURANTI DI  GIOVANNINI FELICE E FERRO DOMENICO SNC"
            },
            "geometry": {
                "type": "Point",
                "coordinates": [
                    12.4958525502625,
                    41.91681740175782
                ]
            }
        },
        {
            "type": "Feature",
            "properties": {
                "name": "ROMA DE FILIPPO",
                "id": "29760",
                "brand": "Total Erg",
                "amenity": "fuel",
                "operator": "GESTIONI EUROPA - SOCIETA' PER AZIONI"
            },
            "geometry": {
                "type": "Point",
                "coordinates": [
                    12.517213288360605,
                    41.96885732237916
                ]
            }
        },
        {
            "type": "Feature",
            "properties": {
                "name": "carburanti bacci",
                "id": "31909",
                "brand": "Total Erg",
                "amenity": "fuel",
                "operator": "CARBURANTI BACCI SOCIETA' IN NOME COLLETTIVO DI BACCI GIORGIO & C ."
            },
            "geometry": {
                "type": "Point",
                "coordinates": [
                    12.486659288406372,
                    41.9586701079825
                ]
            }
        },
        {
            "type": "Feature",
            "properties": {
                "name": "pasqualini valter",
                "id": "16879",
                "brand": "Total Erg",
                "amenity": "fuel",
                "operator": "PASQUALINI VALTER"
            },
            "geometry": {
                "type": "Point",
                "coordinates": [
                    12.56391633914791,
                    41.949399988639264
                ]
            }
        },
        {
            "type": "Feature",
            "properties": {
                "name": "ROMA - TIBURTINA 512",
                "id": "30098",
                "brand": "Api-Ip",
                "amenity": "fuel",
                "operator": "IP SERVICES S.R.L."
            },
            "geometry": {
                "type": "Point",
                "coordinates": [
                    12.541698101380007,
                    41.908442779944664
                ]
            }
        },
        {
            "type": "Feature",
            "properties": {
                "name": "Centro Servizi 2 Ponti",
                "id": "18745",
                "brand": "Esso",
                "amenity": "fuel",
                "operator": "CENTRO SERVIZI 2 PONTI S.R.L. UNIPERSONALE"
            },
            "geometry": {
                "type": "Point",
                "coordinates": [
                    12.48490411788225,
                    41.95505957695103
                ]
            }
        },
        {
            "type": "Feature",
            "properties": {
                "name": "Lodoletti Stefania",
                "id": "22669",
                "brand": "Agip Eni",
                "amenity": "fuel",
                "operator": "LODOLETTI STEFANIA"
            },
            "geometry": {
                "type": "Point",
                "coordinates": [
                    12.485646294442745,
                    41.94824955203702
                ]
            }
        },
        {
            "type": "Feature",
            "properties": {
                "name": "ROMA - DURANTINI",
                "id": "32016",
                "brand": "Api-Ip",
                "amenity": "fuel",
                "operator": "IP SERVICES S.R.L."
            },
            "geometry": {
                "type": "Point",
                "coordinates": [
                    12.545682895294021,
                    41.91968210488683
                ]
            }
        },
        {
            "type": "Feature",
            "properties": {
                "name": "d.m. carburanti s.n.c.",
                "id": "19050",
                "brand": "Esso",
                "amenity": "fuel",
                "operator": "D.M. CARBURANTI S.N.C. DI DANIELE CARNEVALI"
            },
            "geometry": {
                "type": "Point",
                "coordinates": [
                    12.527663677909914,
                    41.938318729603445
                ]
            }
        },
        {
            "type": "Feature",
            "properties": {
                "name": "Keropetrol",
                "id": "30358",
                "amenity": "fuel",
                "operator": "CATALDO GIANNI"
            },
            "geometry": {
                "type": "Point",
                "coordinates": [
                    12.541290004893426,
                    41.917496865597734
                ]
            }
        },
        {
            "type": "Feature",
            "properties": {
                "name": "TOTALERG",
                "id": "10436",
                "brand": "Total Erg",
                "amenity": "fuel",
                "operator": "PELLEGRINO ROBERTO"
            },
            "geometry": {
                "type": "Point",
                "coordinates": [
                    12.54553645849228,
                    41.91372455609898
                ]
            }
        },
        {
            "type": "Feature",
            "properties": {
                "name": "IP",
                "id": "20374",
                "brand": "Api-Ip",
                "amenity": "fuel",
                "operator": "CODEFERI FEDERICO"
            },
            "geometry": {
                "type": "Point",
                "coordinates": [
                    12.516989047454214,
                    41.930836940927264
                ]
            }
        },
        {
            "type": "Feature",
            "properties": {
                "name": "ANGELINI FRANCESCO",
                "id": "16446",
                "brand": "Esso",
                "amenity": "fuel",
                "operator": "ANGELINI FRANCESCO"
            },
            "geometry": {
                "type": "Point",
                "coordinates": [
                    12.495570257306099,
                    41.91657593518023
                ]
            }
        },
        {
            "type": "Feature",
            "properties": {
                "name": "stazione di servizio",
                "id": "15542",
                "brand": "Q8",
                "amenity": "fuel",
                "operator": "STAZIONE DI SERVIZIO RAMELLI F. & MOSCA G. S.N.C."
            },
            "geometry": {
                "type": "Point",
                "coordinates": [
                    12.514085282191672,
                    41.93452387980209
                ]
            }
        },
        {
            "type": "Feature",
            "properties": {
                "name": "AGIP-ENI",
                "id": "5119",
                "brand": "Agip Eni",
                "amenity": "fuel",
                "operator": "ROMANA CARBURANTI 90 SOCIETA' A RESPONSABILITA' LIMITATA"
            },
            "geometry": {
                "type": "Point",
                "coordinates": [
                    12.530403256459977,
                    41.9605992803352
                ]
            }
        },
        {
            "type": "Feature",
            "properties": {
                "name": "ENI",
                "id": "22545",
                "brand": "Agip Eni",
                "amenity": "fuel",
                "operator": "F.LLI SALANOVA SOCIETA IN NOME COLLETTIVO DI SALANOVA GIUSEPPE E SALANOVA SALVATORE"
            },
            "geometry": {
                "type": "Point",
                "coordinates": [
                    12.54641897879503,
                    41.92358448700461
                ]
            }
        },
        {
            "type": "Feature",
            "properties": {
                "name": "Piazza Euclide",
                "id": "14139",
                "brand": "Q8",
                "amenity": "fuel",
                "operator": "CROMAPETROLI - SOCIETA' A RESPONSABILITA' LIMITATA"
            },
            "geometry": {
                "type": "Point",
                "coordinates": [
                    12.481066535242462,
                    41.92661657451281
                ]
            }
        },
        {
            "type": "Feature",
            "properties": {
                "name": "ROMA CASAL BOCCONE",
                "id": "31217",
                "brand": "Total Erg",
                "amenity": "fuel",
                "operator": "TOTALERG S.P.A."
            },
            "geometry": {
                "type": "Point",
                "coordinates": [
                    12.563931047916412,
                    41.94938297249346
                ]
            }
        },
        {
            "type": "Feature",
            "properties": {
                "name": "PORTALEONE E MELIS SNC",
                "id": "19088",
                "brand": "Esso",
                "amenity": "fuel",
                "operator": "PORTALEONE MASSIMILIANO E MELIS MAURO LUIGI - SOCIETA' IN NOME CO LLETTIVO"
            },
            "geometry": {
                "type": "Point",
                "coordinates": [
                    12.518200728974875,
                    41.946111639333544
                ]
            }
        },
        {
            "type": "Feature",
            "properties": {
                "name": "DI MARIO ERNESTO",
                "id": "12456",
                "brand": "Agip Eni",
                "amenity": "fuel",
                "operator": "DI MARIO ERNESTO"
            },
            "geometry": {
                "type": "Point",
                "coordinates": [
                    12.506894166864752,
                    41.90405324243952
                ]
            }
        },
        {
            "type": "Feature",
            "properties": {
                "name": "D.S.Carburanti snc",
                "id": "4228",
                "brand": "Q8",
                "amenity": "fuel",
                "operator": "D.S. CARBURANTI SNC DI SACCOCCI LUCIANO & C. - SOCIETA' IN NOME C OLLETTIVO"
            },
            "geometry": {
                "type": "Point",
                "coordinates": [
                    12.54991909657588,
                    41.910693837266344
                ]
            }
        },
        {
            "type": "Feature",
            "properties": {
                "name": "FERRI SOCIETA' IN NOME COLLETTIVO DI FERRI CLAUDIO E C.",
                "id": "16746",
                "brand": "Total Erg",
                "amenity": "fuel",
                "operator": "FERRI SOCIETA IN NOME COLLETTIVO DI FERRI CLAUDIO E C."
            },
            "geometry": {
                "type": "Point",
                "coordinates": [
                    12.559312283992769,
                    41.931882904168894
                ]
            }
        },
        {
            "type": "Feature",
            "properties": {
                "name": "Metano Salaria",
                "id": "4750",
                "brand": "Agip Eni",
                "amenity": "fuel",
                "operator": "METANO SALARIA DI TIBUZZI MANUELA"
            },
            "geometry": {
                "type": "Point",
                "coordinates": [
                    12.513506681198123,
                    42.00804734699807
                ]
            }
        },
        {
            "type": "Feature",
            "properties": {
                "name": "TAMOIL",
                "id": "17045",
                "brand": "Tamoil",
                "amenity": "fuel",
                "operator": "UBERTINI GIUSEPPE"
            },
            "geometry": {
                "type": "Point",
                "coordinates": [
                    12.488385844195134,
                    41.939266066442684
                ]
            }
        },
        {
            "type": "Feature",
            "properties": {
                "name": "SECLA SAS",
                "id": "17106",
                "brand": "Api-Ip",
                "amenity": "fuel",
                "operator": "SECLA S.A.S. DI SERGIO NERI E C."
            },
            "geometry": {
                "type": "Point",
                "coordinates": [
                    12.555625929551411,
                    41.91626248682894
                ]
            }
        },
        {
            "type": "Feature",
            "properties": {
                "name": "BERARDO & ADDUCCHIO",
                "id": "20190",
                "brand": "Total Erg",
                "amenity": "fuel",
                "operator": "BERARDO EMILIO E ADDUCCHIO MICHELE S.N.C."
            },
            "geometry": {
                "type": "Point",
                "coordinates": [
                    12.531087666766329,
                    41.945928555574746
                ]
            }
        },
        {
            "type": "Feature",
            "properties": {
                "name": "ROMA-VIA TIBURTINA ANG.VIA DELLA MORTELL",
                "id": "11814",
                "brand": "Q8",
                "amenity": "fuel",
                "operator": "SERVIZI & GESTIONI ITALIA S.R.L."
            },
            "geometry": {
                "type": "Point",
                "coordinates": [
                    12.548979073762897,
                    41.91079640093877
                ]
            }
        },
        {
            "type": "Feature",
            "properties": {
                "name": "Q8 VIALE PARIOLI 61/A",
                "id": "15822",
                "brand": "Q8",
                "amenity": "fuel",
                "operator": "CAMA PETROLI DI MAZZONE STEFANO & C. - SOCIETA' IN ACCOMANDITA SE MPLICE"
            },
            "geometry": {
                "type": "Point",
                "coordinates": [
                    12.487698423109123,
                    41.925644636935594
                ]
            }
        },
        {
            "type": "Feature",
            "properties": {
                "name": "MENTANA VIA NOMENTANA KM 17 380",
                "id": "6655",
                "brand": "Q8",
                "amenity": "fuel",
                "operator": "SERVIZI & GESTIONI ITALIA srl"
            },
            "geometry": {
                "type": "Point",
                "coordinates": [
                    12.619189247488976,
                    41.9939053327555
                ]
            }
        },
        {
            "type": "Feature",
            "properties": {
                "name": "Full Discount",
                "id": "30902",
                "amenity": "fuel",
                "operator": "A.M. ANGELETTI S.N.C. DI ANDREA E MARCO ANGELETTI"
            },
            "geometry": {
                "type": "Point",
                "coordinates": [
                    12.620146125555038,
                    41.96473033310062
                ]
            }
        },
        {
            "type": "Feature",
            "properties": {
                "name": "drp2010sas",
                "id": "10556",
                "brand": "Api-Ip",
                "amenity": "fuel",
                "operator": "D.R.P. 2010 S.A.S. DI DI RENZO MARINA E PANARINFO FRANCESCO"
            },
            "geometry": {
                "type": "Point",
                "coordinates": [
                    12.536700591444967,
                    41.93532348319387
                ]
            }
        },
        {
            "type": "Feature",
            "properties": {
                "name": "ZARA FABIO",
                "id": "9171",
                "brand": "Agip Eni",
                "amenity": "fuel",
                "operator": "ZARA FABIO"
            },
            "geometry": {
                "type": "Point",
                "coordinates": [
                    12.499871850013735,
                    42.00513430325612
                ]
            }
        },
        {
            "type": "Feature",
            "properties": {
                "name": "3S Petrol Service Srl",
                "id": "17436",
                "brand": "Q8",
                "amenity": "fuel",
                "operator": "3S PETROL SERVICE S.R.L."
            },
            "geometry": {
                "type": "Point",
                "coordinates": [
                    12.54119716953403,
                    41.950034667365394
                ]
            }
        },
        {
            "type": "Feature",
            "properties": {
                "name": "TotalErg",
                "id": "18709",
                "brand": "Total Erg",
                "amenity": "fuel",
                "operator": "SA.GI. SERVICE S.R.L."
            },
            "geometry": {
                "type": "Point",
                "coordinates": [
                    12.584069150262396,
                    41.93379649878526
                ]
            }
        },
        {
            "type": "Feature",
            "properties": {
                "name": "SAMAR CARBURANTI",
                "id": "15655",
                "brand": "Q8",
                "amenity": "fuel",
                "operator": "SAMAR CARBURANTI DI MITTICA GIUSEPPE & C. SOCIETA' IN NOME COLLET TIVO"
            },
            "geometry": {
                "type": "Point",
                "coordinates": [
                    12.525598644058505,
                    41.92108564859359
                ]
            }
        },
        {
            "type": "Feature",
            "properties": {
                "name": "Basyony",
                "id": "19336",
                "brand": "Total Erg",
                "amenity": "fuel",
                "operator": "BASYONY MADHT EBRAHIM"
            },
            "geometry": {
                "type": "Point",
                "coordinates": [
                    12.51138044389154,
                    41.922551621576076
                ]
            }
        },
        {
            "type": "Feature",
            "properties": {
                "name": "NATALI CADIA",
                "id": "14357",
                "brand": "Esso",
                "amenity": "fuel",
                "operator": "NATALI CADIA"
            },
            "geometry": {
                "type": "Point",
                "coordinates": [
                    12.488117841451075,
                    41.925529841873136
                ]
            }
        },
        {
            "type": "Feature",
            "properties": {
                "name": "ROMA - COLLATINA",
                "id": "30660",
                "brand": "Api-Ip",
                "amenity": "fuel",
                "operator": "IP SERVICES S.R.L."
            },
            "geometry": {
                "type": "Point",
                "coordinates": [
                    12.597050964832308,
                    41.90491972518903
                ]
            }
        },
        {
            "type": "Feature",
            "properties": {
                "name": "IP",
                "id": "20370",
                "brand": "Api-Ip",
                "amenity": "fuel",
                "operator": "PANFEO PETROLI 1997 - SOCIETA' A RESPONSABILITA' LIMITATA"
            },
            "geometry": {
                "type": "Point",
                "coordinates": [
                    12.525004148483276,
                    41.961112635089094
                ]
            }
        },
        {
            "type": "Feature",
            "properties": {
                "name": "ESSO",
                "id": "29301",
                "brand": "Esso",
                "amenity": "fuel",
                "operator": "SALARIA SERVICES DI PASQUALE PALLOTTA E C. S.A.S."
            },
            "geometry": {
                "type": "Point",
                "coordinates": [
                    12.506486177444456,
                    41.94653824648669
                ]
            }
        },
        {
            "type": "Feature",
            "properties": {
                "name": "Eco Gasauto srl",
                "id": "30429",
                "brand": "Agip Eni",
                "amenity": "fuel",
                "operator": "ECO GASAUTO SRL SOCIO UNICO"
            },
            "geometry": {
                "type": "Point",
                "coordinates": [
                    12.545810150262467,
                    41.93748917993652
                ]
            }
        },
        {
            "type": "Feature",
            "properties": {
                "name": "VIA DEI DURANTINI 277",
                "id": "24288",
                "brand": "Agip Eni",
                "amenity": "fuel",
                "operator": "CARBURANTI DURANTINI DI CIRULLI SERGIO"
            },
            "geometry": {
                "type": "Point",
                "coordinates": [
                    12.54612188702481,
                    41.920170337680496
                ]
            }
        },
        {
            "type": "Feature",
            "properties": {
                "name": "PETROL OIL",
                "id": "24122",
                "brand": "Repsol",
                "amenity": "fuel",
                "operator": "PETROL OIL  S.R.L. SEMPLIFICATA"
            },
            "geometry": {
                "type": "Point",
                "coordinates": [
                    12.569039314985275,
                    41.94789040484907
                ]
            }
        },
        {
            "type": "Feature",
            "properties": {
                "name": "TotalErg",
                "id": "19432",
                "brand": "Total Erg",
                "amenity": "fuel",
                "operator": "MONTERIU' ALESSANDRO"
            },
            "geometry": {
                "type": "Point",
                "coordinates": [
                    12.524181902566738,
                    41.94587028252825
                ]
            }
        },
        {
            "type": "Feature",
            "properties": {
                "name": "DISTRIBUTORE CARBURANTI IP",
                "id": "28494",
                "brand": "Api-Ip",
                "amenity": "fuel",
                "operator": "UDDIN GIAS"
            },
            "geometry": {
                "type": "Point",
                "coordinates": [
                    12.517021961314185,
                    41.94612459775102
                ]
            }
        },
        {
            "type": "Feature",
            "properties": {
                "name": "OLIMPICK CARBURANTI SNC",
                "id": "15345",
                "brand": "Q8",
                "amenity": "fuel",
                "operator": "OLIMPIK CARBURANTI S.N.C. DI FREDELLA GIUSEPPE & MANCINI PATRIZIA"
            },
            "geometry": {
                "type": "Point",
                "coordinates": [
                    12.50255415463107,
                    41.93971399861297
                ]
            }
        },
        {
            "type": "Feature",
            "properties": {
                "name": "TOR SAN GIOVANNI 35",
                "id": "24291",
                "brand": "Agip Eni",
                "amenity": "fuel",
                "operator": "CIRULLI CARBURANTI & MULTISERVIZI S.R.L."
            },
            "geometry": {
                "type": "Point",
                "coordinates": [
                    12.553419470787047,
                    41.97604181789564
                ]
            }
        },
        {
            "type": "Feature",
            "properties": {
                "name": "D.O.C.C.A. S.r.l. Via Collatina",
                "id": "24329",
                "brand": "Agip Eni",
                "amenity": "fuel",
                "operator": "D.O.C.C.A. DISTRIBUZIONE OLII COMBUSTIBILI CARBURANTI AFFINI S.R. L. IN SIGLA D.O.C.C.A. S.R.L."
            },
            "geometry": {
                "type": "Point",
                "coordinates": [
                    12.584547779098557,
                    41.9035132342398
                ]
            }
        },
        {
            "type": "Feature",
            "properties": {
                "name": "Autoservizi GIA.DA.- Grotta di Gregna",
                "id": "27200",
                "brand": "Agip Eni",
                "amenity": "fuel",
                "operator": "AUTOSERVIZI GIA.DA. S.N.C. DI PIZZUTI DAMIANO E GIANLUCA"
            },
            "geometry": {
                "type": "Point",
                "coordinates": [
                    12.564848363399506,
                    41.91306189064805
                ]
            }
        },
        {
            "type": "Feature",
            "properties": {
                "name": "Sant'Alessandro",
                "id": "23627",
                "brand": "Tamoil",
                "amenity": "fuel",
                "operator": "FGS GAS S.A.S. DI CIVITELLA GIORGIO"
            },
            "geometry": {
                "type": "Point",
                "coordinates": [
                    12.585290550923673,
                    41.956998074130176
                ]
            }
        },
        {
            "type": "Feature",
            "properties": {
                "name": "BATTISTONI STAZIONE DI SERVIZIO AGIP DI CARNEVALE MASSIMO S.A.S",
                "id": "11106",
                "brand": "Agip Eni",
                "amenity": "fuel",
                "operator": "BATTISTONI STAZIONE DI SERVIZIO AGIP DI CARNEVALE MASSIMO S.A.S."
            },
            "geometry": {
                "type": "Point",
                "coordinates": [
                    12.480529927908263,
                    42.005193256398776
                ]
            }
        },
        {
            "type": "Feature",
            "properties": {
                "name": "IP via TIBURTINA 1108",
                "id": "27033",
                "brand": "Api-Ip",
                "amenity": "fuel",
                "operator": "TROTTA EMILIO DANIEL"
            },
            "geometry": {
                "type": "Point",
                "coordinates": [
                    12.589738068481667,
                    41.93285148687586
                ]
            }
        },
        {
            "type": "Feature",
            "properties": {
                "name": "RILOGIO SNC",
                "id": "19143",
                "brand": "Esso",
                "amenity": "fuel",
                "operator": "RILOGIO S.N.C. DI RIDOLFI FELICE & C."
            },
            "geometry": {
                "type": "Point",
                "coordinates": [
                    12.525216603041146,
                    41.9513290833102
                ]
            }
        },
        {
            "type": "Feature",
            "properties": {
                "name": "Q8 TIMPANI ANTONIO",
                "id": "9246",
                "brand": "Q8",
                "amenity": "fuel",
                "operator": "TIMPANI ANTONIO"
            },
            "geometry": {
                "type": "Point",
                "coordinates": [
                    12.592651210450752,
                    41.933172788698975
                ]
            }
        },
        {
            "type": "Feature",
            "properties": {
                "name": "Ciurleo Vincenzo",
                "id": "12198",
                "brand": "Esso",
                "amenity": "fuel",
                "operator": "CIURLEO VINCENZO"
            },
            "geometry": {
                "type": "Point",
                "coordinates": [
                    12.647983037078802,
                    42.027134452517664
                ]
            }
        },
        {
            "type": "Feature",
            "properties": {
                "name": "STAZIONE DI SERVIZIO ESSO",
                "id": "28915",
                "brand": "Esso",
                "amenity": "fuel",
                "operator": "DESIDERI PAOLO"
            },
            "geometry": {
                "type": "Point",
                "coordinates": [
                    12.58939343743441,
                    41.91999150340799
                ]
            }
        },
        {
            "type": "Feature",
            "properties": {
                "name": "ROMA VIA RADICOFANI 203",
                "id": "6634",
                "brand": "Q8",
                "amenity": "fuel",
                "operator": "SERVIZI & GESTIONI ITALIA srl"
            },
            "geometry": {
                "type": "Point",
                "coordinates": [
                    12.515102640475448,
                    41.97316615315896
                ]
            }
        },
        {
            "type": "Feature",
            "properties": {
                "name": "3S Petrol Service Srl",
                "id": "17724",
                "brand": "Q8",
                "amenity": "fuel",
                "operator": "3S PETROL SERVICE S.R.L."
            },
            "geometry": {
                "type": "Point",
                "coordinates": [
                    12.549592616949438,
                    41.96568212183801
                ]
            }
        },
        {
            "type": "Feature",
            "properties": {
                "name": "PIEMME CARBURANTI SNC",
                "id": "18879",
                "brand": "Api-Ip",
                "amenity": "fuel",
                "operator": "PIEMME CARBURANTI S.N.C. DI MAURELLI ALBERTO & C."
            },
            "geometry": {
                "type": "Point",
                "coordinates": [
                    12.488295435905457,
                    41.939591873612265
                ]
            }
        },
        {
            "type": "Feature",
            "properties": {
                "name": "Dammando Mauro",
                "id": "26392",
                "brand": "Total Erg",
                "amenity": "fuel",
                "operator": "DAMMANDO MAURO"
            },
            "geometry": {
                "type": "Point",
                "coordinates": [
                    12.623782530426979,
                    41.99870540502781
                ]
            }
        },
        {
            "type": "Feature",
            "properties": {
                "name": "VALLE SCRIVIA",
                "id": "14147",
                "brand": "Q8",
                "amenity": "fuel",
                "operator": "CROMAPETROLI - SOCIETA' A RESPONSABILITA' LIMITATA"
            },
            "geometry": {
                "type": "Point",
                "coordinates": [
                    12.527446258064172,
                    41.94429960344703
                ]
            }
        },
        {
            "type": "Feature",
            "properties": {
                "name": "pedulla guiseppe",
                "id": "17278",
                "brand": "Agip Eni",
                "amenity": "fuel",
                "operator": "PEDULLA' GIUSEPPE"
            },
            "geometry": {
                "type": "Point",
                "coordinates": [
                    12.542063266476701,
                    41.90878434627661
                ]
            }
        },
        {
            "type": "Feature",
            "properties": {
                "name": "totalerg",
                "id": "15567",
                "brand": "Total Erg",
                "amenity": "fuel",
                "operator": "DI STEFANO MAURO"
            },
            "geometry": {
                "type": "Point",
                "coordinates": [
                    12.583148273575944,
                    41.93456140876588
                ]
            }
        },
        {
            "type": "Feature",
            "properties": {
                "name": "DI MARIO STEFANO - 2",
                "id": "24529",
                "brand": "Api-Ip",
                "amenity": "fuel",
                "operator": "DI MARIO STEFANO"
            },
            "geometry": {
                "type": "Point",
                "coordinates": [
                    12.54609807841234,
                    41.943988435026554
                ]
            }
        },
        {
            "type": "Feature",
            "properties": {
                "name": "SALARIA OVEST",
                "id": "3642",
                "brand": "Agip Eni",
                "amenity": "fuel",
                "operator": "ALBA SRL"
            },
            "geometry": {
                "type": "Point",
                "coordinates": [
                    12.527964373016404,
                    42.003445218183806
                ]
            }
        },
        {
            "type": "Feature",
            "properties": {
                "name": "ip conidi",
                "id": "28984",
                "brand": "Api-Ip",
                "amenity": "fuel",
                "operator": "CONIDI S.A.S.DI CONIDI BRUNO & C."
            },
            "geometry": {
                "type": "Point",
                "coordinates": [
                    12.546988486498888,
                    41.92057546355616
                ]
            }
        },
        {
            "type": "Feature",
            "properties": {
                "name": "ETIOPIA",
                "id": "21351",
                "brand": "Api-Ip",
                "amenity": "fuel",
                "operator": "SHEIKH  JASIM  UDDIN"
            },
            "geometry": {
                "type": "Point",
                "coordinates": [
                    12.523991250076392,
                    41.93106831467523
                ]
            }
        },
        {
            "type": "Feature",
            "properties": {
                "name": "eni_catena e coppola",
                "id": "7337",
                "brand": "Agip Eni",
                "amenity": "fuel",
                "operator": "CATENA E COPPOLA DI CATENA S. E COPPOLA G. S.A.S."
            },
            "geometry": {
                "type": "Point",
                "coordinates": [
                    12.5071419775486,
                    41.946304837666126
                ]
            }
        },
        {
            "type": "Feature",
            "properties": {
                "name": "Q8 VIALE PARIOLI 72",
                "id": "15825",
                "brand": "Q8",
                "amenity": "fuel",
                "operator": "CAMA PETROLI DI MAZZONE STEFANO & C. - SOCIETA' IN ACCOMANDITA SE MPLICE"
            },
            "geometry": {
                "type": "Point",
                "coordinates": [
                    12.488038129945949,
                    41.92571569723428
                ]
            }
        },
        {
            "type": "Feature",
            "properties": {
                "name": "Eni",
                "id": "23907",
                "brand": "Agip Eni",
                "amenity": "fuel",
                "operator": "PIT STOP DI  LACOPO STEFANO SNC"
            },
            "geometry": {
                "type": "Point",
                "coordinates": [
                    12.52647107909854,
                    41.94572034526066
                ]
            }
        },
        {
            "type": "Feature",
            "properties": {
                "name": "PV 16941",
                "id": "26912",
                "brand": "Agip Eni",
                "amenity": "fuel",
                "operator": "GESTIONI INNOVATIVE ITALIA S.R.L."
            },
            "geometry": {
                "type": "Point",
                "coordinates": [
                    12.646294981241224,
                    42.0217646230078
                ]
            }
        },
        {
            "type": "Feature",
            "properties": {
                "name": "fonte nuova carburanti",
                "id": "14632",
                "amenity": "fuel",
                "operator": "FONTE NUOVA CARBURANTI S.R.L."
            },
            "geometry": {
                "type": "Point",
                "coordinates": [
                    12.635737806558607,
                    41.99624242308399
                ]
            }
        },
        {
            "type": "Feature",
            "properties": {
                "name": "carburanti piccolo di piccolo antonio",
                "id": "28927",
                "brand": "Api-Ip",
                "amenity": "fuel",
                "operator": "CARBURANTI PICCOLO DI PICCOLO ANTONIO"
            },
            "geometry": {
                "type": "Point",
                "coordinates": [
                    12.505191097422767,
                    41.91623504211933
                ]
            }
        },
        {
            "type": "Feature",
            "properties": {
                "name": "ROMA - VIALE IONIO 45",
                "id": "26498",
                "brand": "Api-Ip",
                "amenity": "fuel",
                "operator": "IP SERVICES S.R.L."
            },
            "geometry": {
                "type": "Point",
                "coordinates": [
                    12.543076260118823,
                    41.94360369007084
                ]
            }
        },
        {
            "type": "Feature",
            "properties": {
                "name": "tirreno",
                "id": "22765",
                "brand": "Agip Eni",
                "amenity": "fuel",
                "operator": "MERIDIONALE PETROLI - SOCIETA A RESPONSABILITA LIMITATA S.M.P."
            },
            "geometry": {
                "type": "Point",
                "coordinates": [
                    12.532643988149859,
                    41.936079413902974
                ]
            }
        },
        {
            "type": "Feature",
            "properties": {
                "name": "LA RUSTICA",
                "id": "3484",
                "brand": "Q8",
                "amenity": "fuel",
                "operator": "SERVIZI & GESTIONI ITALIA S.R.L."
            },
            "geometry": {
                "type": "Point",
                "coordinates": [
                    12.602871319573978,
                    41.916220489162825
                ]
            }
        },
        {
            "type": "Feature",
            "properties": {
                "name": "San Basilio",
                "id": "31791",
                "amenity": "fuel",
                "operator": "I.C.M. SOCIETA' IN NOME COLLETTIVO DI BRUNO, CRISTIANO E FABRIZIO MAGGI"
            },
            "geometry": {
                "type": "Point",
                "coordinates": [
                    12.570694908499718,
                    41.94353578577317
                ]
            }
        },
        {
            "type": "Feature",
            "properties": {
                "name": "ROMA-V.LE ADRIATICO 171",
                "id": "11811",
                "brand": "Q8",
                "amenity": "fuel",
                "operator": "SERVIZI & GESTIONI ITALIA S.R.L."
            },
            "geometry": {
                "type": "Point",
                "coordinates": [
                    12.537278971019761,
                    41.94349941421647
                ]
            }
        },
        {
            "type": "Feature",
            "properties": {
                "name": "HP PROJECT s.a.s",
                "id": "19035",
                "brand": "Esso",
                "amenity": "fuel",
                "operator": "HP PROJECT S.A.S. DI PERINI STEFANO E C."
            },
            "geometry": {
                "type": "Point",
                "coordinates": [
                    12.533393956483451,
                    41.920488194696134
                ]
            }
        },
        {
            "type": "Feature",
            "properties": {
                "name": "ROMA-SETTECAMINI SS.5 TIBURTINA KM.12+40",
                "id": "11803",
                "brand": "Q8",
                "amenity": "fuel",
                "operator": "SERVIZI & GESTIONI ITALIA S.R.L."
            },
            "geometry": {
                "type": "Point",
                "coordinates": [
                    12.605758601188654,
                    41.93386830769934
                ]
            }
        },
        {
            "type": "Feature",
            "properties": {
                "name": "AWAL ABDUL",
                "id": "9965",
                "brand": "Api-Ip",
                "amenity": "fuel",
                "operator": "AWAL ABDUL"
            },
            "geometry": {
                "type": "Point",
                "coordinates": [
                    12.631924199999997,
                    42.0007542
                ]
            }
        },
        {
            "type": "Feature",
            "properties": {
                "name": "AGA Sas",
                "id": "7954",
                "brand": "Agip Eni",
                "amenity": "fuel",
                "operator": "AGA DI ANTONIELLA GIULIANO S.A.S."
            },
            "geometry": {
                "type": "Point",
                "coordinates": [
                    12.508866449073821,
                    41.93439398129452
                ]
            }
        },
        {
            "type": "Feature",
            "properties": {
                "name": "VALENTE LUCA",
                "id": "18344",
                "brand": "Api-Ip",
                "amenity": "fuel",
                "operator": "VALENTE LUCA"
            },
            "geometry": {
                "type": "Point",
                "coordinates": [
                    12.507556736063863,
                    41.90308392408399
                ]
            }
        },
        {
            "type": "Feature",
            "properties": {
                "name": "CENTRO SERVIZI SNC",
                "id": "14017",
                "brand": "Api-Ip",
                "amenity": "fuel",
                "operator": "CENTRO SERVIZI DI BONO PAOLO E C. S.N.C."
            },
            "geometry": {
                "type": "Point",
                "coordinates": [
                    12.492737844586372,
                    41.90893225184649
                ]
            }
        },
        {
            "type": "Feature",
            "properties": {
                "name": "ROMA - MONTE ROCCHETA",
                "id": "32124",
                "brand": "Api-Ip",
                "amenity": "fuel",
                "operator": "IP SERVICES S.R.L."
            },
            "geometry": {
                "type": "Point",
                "coordinates": [
                    12.531381148743097,
                    41.946624071296554
                ]
            }
        },
        {
            "type": "Feature",
            "properties": {
                "name": "MODAFFERI SANTINO",
                "id": "20185",
                "brand": "Esso",
                "amenity": "fuel",
                "operator": "MODAFFERI SANTINO"
            },
            "geometry": {
                "type": "Point",
                "coordinates": [
                    12.507806382803324,
                    41.974837537318535
                ]
            }
        },
        {
            "type": "Feature",
            "properties": {
                "name": "mangoni alessandro",
                "id": "4864",
                "brand": "Agip Eni",
                "amenity": "fuel",
                "operator": "MANGONI ALESSANDRO"
            },
            "geometry": {
                "type": "Point",
                "coordinates": [
                    12.517746090888975,
                    42.010992976424575
                ]
            }
        },
        {
            "type": "Feature",
            "properties": {
                "name": "IP-RM-SELMI",
                "id": "19318",
                "brand": "Api-Ip",
                "amenity": "fuel",
                "operator": "ITALA PETROLI S.R.L."
            },
            "geometry": {
                "type": "Point",
                "coordinates": [
                    12.570323073610668,
                    41.9269264523082
                ]
            }
        },
        {
            "type": "Feature",
            "properties": {
                "name": "ROKA SNC",
                "id": "14385",
                "amenity": "fuel",
                "operator": "RO.KA. SOCIETA' IN NOME COLLETTIVO DI KASHEM ABUL E C."
            },
            "geometry": {
                "type": "Point",
                "coordinates": [
                    12.521143385111033,
                    41.904976905419886
                ]
            }
        },
        {
            "type": "Feature",
            "properties": {
                "name": "RELATI SAS",
                "id": "19902",
                "brand": "Total Erg",
                "amenity": "fuel",
                "operator": "RELATI S.A.S. DI RELATI SIMONE"
            },
            "geometry": {
                "type": "Point",
                "coordinates": [
                    12.60774627327919,
                    41.91272456732386
                ]
            }
        },
        {
            "type": "Feature",
            "properties": {
                "name": "Stazione di Servizio",
                "id": "19092",
                "brand": "Q8",
                "amenity": "fuel",
                "operator": "FIDELITY S.A.S. DI ORSINO DEBORA E C."
            },
            "geometry": {
                "type": "Point",
                "coordinates": [
                    12.624276727437973,
                    41.934762603468045
                ]
            }
        },
        {
            "type": "Feature",
            "properties": {
                "name": "API1",
                "id": "20385",
                "brand": "Api-Ip",
                "amenity": "fuel",
                "operator": "BISWAS  HARIPADA"
            },
            "geometry": {
                "type": "Point",
                "coordinates": [
                    12.51414754994369,
                    41.91827675568908
                ]
            }
        },
        {
            "type": "Feature",
            "properties": {
                "name": "VIA DELLE VALLI 171, ROMA",
                "id": "19673",
                "brand": "Api-Ip",
                "amenity": "fuel",
                "operator": "D'ANTONIO S.A.S. DI D'ANTONIO NICOLA"
            },
            "geometry": {
                "type": "Point",
                "coordinates": [
                    12.525898915911512,
                    41.937941465190455
                ]
            }
        },
        {
            "type": "Feature",
            "properties": {
                "name": "Giammarioni Marco",
                "id": "23416",
                "brand": "Q8",
                "amenity": "fuel",
                "operator": "GIAMMARIONI MARCO"
            },
            "geometry": {
                "type": "Point",
                "coordinates": [
                    12.49461073603061,
                    41.939715791974734
                ]
            }
        },
        {
            "type": "Feature",
            "properties": {
                "name": "Dionisi Mario",
                "id": "12919",
                "brand": "Q8",
                "amenity": "fuel",
                "operator": "DIONISI MARIO"
            },
            "geometry": {
                "type": "Point",
                "coordinates": [
                    12.539705336093903,
                    41.91122555273382
                ]
            }
        },
        {
            "type": "Feature",
            "properties": {
                "name": "totalerg",
                "id": "9984",
                "brand": "Total Erg",
                "amenity": "fuel",
                "operator": "POWER PETROL S.A.S. DI CLAUDIO RISTUCCI & CO."
            },
            "geometry": {
                "type": "Point",
                "coordinates": [
                    12.540674252114854,
                    41.949197446106744
                ]
            }
        },
        {
            "type": "Feature",
            "properties": {
                "name": "TIBURTINA CARBURANTI SAS",
                "id": "12862",
                "brand": "Esso",
                "amenity": "fuel",
                "operator": "TIBURTINA CARBURANTI SOCIETA' IN ACCOMANDITA SEMPLICE DI PACILLO GIUSEPPE EMILIO & C."
            },
            "geometry": {
                "type": "Point",
                "coordinates": [
                    12.55261480808258,
                    41.91218604390189
                ]
            }
        },
        {
            "type": "Feature",
            "properties": {
                "name": "ROMA-SS.3 FLAMINIA KM.16+200",
                "id": "11815",
                "brand": "Shell",
                "amenity": "fuel",
                "operator": "SERVIZI & GESTIONI ITALIA S.R.L."
            },
            "geometry": {
                "type": "Point",
                "coordinates": [
                    12.486454402446723,
                    42.02447808247288
                ]
            }
        },
        {
            "type": "Feature",
            "properties": {
                "name": "eni",
                "id": "11061",
                "brand": "Agip Eni",
                "amenity": "fuel",
                "operator": "GARGANO DI DI BERNARDO VINCENZO SOCIETA' IN ACCOMANDITA SEMPLICE"
            },
            "geometry": {
                "type": "Point",
                "coordinates": [
                    12.534189974740457,
                    41.936170713117534
                ]
            }
        },
        {
            "type": "Feature",
            "properties": {
                "name": "REPSOL",
                "id": "11098",
                "brand": "Repsol",
                "amenity": "fuel",
                "operator": "FREE S.R.L."
            },
            "geometry": {
                "type": "Point",
                "coordinates": [
                    12.596658386751187,
                    41.91109413829342
                ]
            }
        },
        {
            "type": "Feature",
            "properties": {
                "name": "stazione di servizio agip marcocci sas",
                "id": "12023",
                "brand": "Agip Eni",
                "amenity": "fuel",
                "operator": "MARCOCCI S.A.S. DI PATRIZIA MARCOCCI & C."
            },
            "geometry": {
                "type": "Point",
                "coordinates": [
                    12.490651076721177,
                    42.001810564273185
                ]
            }
        },
        {
            "type": "Feature",
            "properties": {
                "name": "ROMA VIGNE NUOVE ANG. GINO CERVI",
                "id": "23121",
                "brand": "Api-Ip",
                "amenity": "fuel",
                "operator": "IP SERVICES S.R.L."
            },
            "geometry": {
                "type": "Point",
                "coordinates": [
                    12.535760525131192,
                    41.96129401655508
                ]
            }
        },
        {
            "type": "Feature",
            "properties": {
                "name": "Q8",
                "id": "27833",
                "brand": "Q8",
                "amenity": "fuel",
                "operator": "MIAH SOHEL"
            },
            "geometry": {
                "type": "Point",
                "coordinates": [
                    12.524436992504434,
                    41.94041282341114
                ]
            }
        },
        {
            "type": "Feature",
            "properties": {
                "name": "_eni settebagni carburanti",
                "id": "5079",
                "brand": "Agip Eni",
                "amenity": "fuel",
                "operator": "SETTEBAGNI CARBURANTI S.A.S. DI POLIZIANI GIAMPIERO & C."
            },
            "geometry": {
                "type": "Point",
                "coordinates": [
                    12.51839518547058,
                    42.010888547061796
                ]
            }
        },
        {
            "type": "Feature",
            "properties": {
                "name": "gronchi/bufalotta",
                "id": "31226",
                "brand": "Api-Ip",
                "amenity": "fuel",
                "operator": "PANTA IMPIANTI DISTRIBUZIONE CARBURANTI E AFFINI  S.R.L."
            },
            "geometry": {
                "type": "Point",
                "coordinates": [
                    12.544026294470198,
                    41.95393946247826
                ]
            }
        },
        {
            "type": "Feature",
            "properties": {
                "name": "LEONORI FABIO",
                "id": "12423",
                "brand": "Api-Ip",
                "amenity": "fuel",
                "operator": "LEONORI FABIO"
            },
            "geometry": {
                "type": "Point",
                "coordinates": [
                    12.496096666428002,
                    41.90336443698693
                ]
            }
        },
        {
            "type": "Feature",
            "properties": {
                "name": "PADOVANO MAURO",
                "id": "14367",
                "brand": "Tamoil",
                "amenity": "fuel",
                "operator": "PADOVANO MAURO"
            },
            "geometry": {
                "type": "Point",
                "coordinates": [
                    12.49736934900284,
                    42.00206484145844
                ]
            }
        },
        {
            "type": "Feature",
            "properties": {
                "name": "ROMA",
                "id": "5878",
                "brand": "Total Erg",
                "amenity": "fuel",
                "operator": "TotalErg SpA"
            },
            "geometry": {
                "type": "Point",
                "coordinates": [
                    12.597098271163988,
                    41.911659007930936
                ]
            }
        },
        {
            "type": "Feature",
            "properties": {
                "name": "MANCINI ANTONIO CARBURANTI",
                "id": "17695",
                "brand": "Agip Eni",
                "amenity": "fuel",
                "operator": "MANCINI ANTONIO CARBURANTI"
            },
            "geometry": {
                "type": "Point",
                "coordinates": [
                    12.530002103899504,
                    41.933696305631045
                ]
            }
        },
        {
            "type": "Feature",
            "properties": {
                "name": "tagliamento carburanti di mosconi franco & c",
                "id": "6880",
                "brand": "Agip Eni",
                "amenity": "fuel",
                "operator": "TAGLIAMENTO CARBURANTI DI MOSCONI FRANCO & C. SOCIETA' IN ACCOMANDITA SEMPLICE"
            },
            "geometry": {
                "type": "Point",
                "coordinates": [
                    12.503679017196646,
                    41.92070807223179
                ]
            }
        },
        {
            "type": "Feature",
            "properties": {
                "name": "Fuel Discount",
                "id": "14430",
                "amenity": "fuel",
                "operator": "PROJECT OIL S.R.L."
            },
            "geometry": {
                "type": "Point",
                "coordinates": [
                    12.620138093548578,
                    41.96473024713356
                ]
            }
        },
        {
            "type": "Feature",
            "properties": {
                "name": "domizio",
                "id": "24425",
                "brand": "Q8",
                "amenity": "fuel",
                "operator": "DOMIZIO CARBURANTI SNC DI ANTONIO DOMIZIO"
            },
            "geometry": {
                "type": "Point",
                "coordinates": [
                    12.483549937605858,
                    41.93981772550941
                ]
            }
        },
        {
            "type": "Feature",
            "properties": {
                "name": "Roma Via Collatina",
                "id": "26996",
                "brand": "Total Erg",
                "amenity": "fuel",
                "operator": "GESTIONI EUROPA - SOCIETA' PER AZIONI"
            },
            "geometry": {
                "type": "Point",
                "coordinates": [
                    12.603820860385895,
                    41.90474006288757
                ]
            }
        },
        {
            "type": "Feature",
            "properties": {
                "name": "DISTRIBUTORE ENI VIA COLLATINA 435",
                "id": "10249",
                "brand": "Agip Eni",
                "amenity": "fuel",
                "operator": "SOFIA PETROLI S.R.L."
            },
            "geometry": {
                "type": "Point",
                "coordinates": [
                    12.609225511550903,
                    41.905130129148255
                ]
            }
        },
        {
            "type": "Feature",
            "properties": {
                "name": "GALLUZZO MAURO",
                "id": "11393",
                "brand": "Api-Ip",
                "amenity": "fuel",
                "operator": "GALLUZZO MAURO"
            },
            "geometry": {
                "type": "Point",
                "coordinates": [
                    12.494051670136516,
                    41.91599286521699
                ]
            }
        },
        {
            "type": "Feature",
            "properties": {
                "name": "ditta Remo Angeletti",
                "id": "8722",
                "brand": "Esso",
                "amenity": "fuel",
                "operator": "ANGELETTI REMO"
            },
            "geometry": {
                "type": "Point",
                "coordinates": [
                    12.492222189903261,
                    42.007400826333196
                ]
            }
        },
        {
            "type": "Feature",
            "properties": {
                "name": "TotalErg",
                "id": "9853",
                "brand": "Total Erg",
                "amenity": "fuel",
                "operator": "ETA DISTRIBUZIONE CARBURANTI - SOCIETA' A RESPONSABILITA' LIMIT ATA  O PIU' BREVEMENTE  ETA DISTRIBUZIONE CARBURANTI - S.R.L."
            },
            "geometry": {
                "type": "Point",
                "coordinates": [
                    12.636250940675383,
                    41.93423565368142
                ]
            }
        },
        {
            "type": "Feature",
            "properties": {
                "name": "ballabene sas di ballabene roberto",
                "id": "19885",
                "brand": "Agip Eni",
                "amenity": "fuel",
                "operator": "BALLABENE S.A.S. DI BALLABENE ROBERTO & C."
            },
            "geometry": {
                "type": "Point",
                "coordinates": [
                    12.514101242411014,
                    41.93423944372873
                ]
            }
        },
        {
            "type": "Feature",
            "properties": {
                "name": "esso ermini",
                "id": "16524",
                "brand": "Esso",
                "amenity": "fuel",
                "operator": "ERMINI FEDERICO"
            },
            "geometry": {
                "type": "Point",
                "coordinates": [
                    12.543930357147243,
                    41.943972261215514
                ]
            }
        },
        {
            "type": "Feature",
            "properties": {
                "name": "Super Service",
                "id": "29220",
                "amenity": "fuel",
                "operator": "SUPER SERVICE SOCIETA' A RESPONSABILITA' LIMITATA"
            },
            "geometry": {
                "type": "Point",
                "coordinates": [
                    12.57213594841005,
                    41.90618924237438
                ]
            }
        },
        {
            "type": "Feature",
            "properties": {
                "name": "Ecogasauto S.r.l.",
                "id": "12956",
                "brand": "Agip Eni",
                "amenity": "fuel",
                "operator": "ECO GASAUTO SRL SOCIO UNICO"
            },
            "geometry": {
                "type": "Point",
                "coordinates": [
                    12.655627727508545,
                    41.94051921774474
                ]
            }
        },
        {
            "type": "Feature",
            "properties": {
                "name": "VITALETTI SANTE & C. SNC",
                "id": "20697",
                "brand": "Api-Ip",
                "amenity": "fuel",
                "operator": "VITALETTI SANTE & C. S.N.C."
            },
            "geometry": {
                "type": "Point",
                "coordinates": [
                    12.543503685044698,
                    41.92623080587519
                ]
            }
        },
        {
            "type": "Feature",
            "properties": {
                "name": "Paris Daria",
                "id": "19674",
                "brand": "Api-Ip",
                "amenity": "fuel",
                "operator": "PARIS DARIA"
            },
            "geometry": {
                "type": "Point",
                "coordinates": [
                    12.521391551695954,
                    41.90658671887757
                ]
            }
        },
        {
            "type": "Feature",
            "properties": {
                "name": "totalerg",
                "id": "28698",
                "brand": "Total Erg",
                "amenity": "fuel",
                "operator": "SALVATORI DANILO"
            },
            "geometry": {
                "type": "Point",
                "coordinates": [
                    12.521372507223305,
                    41.92480251714579
                ]
            }
        },
        {
            "type": "Feature",
            "properties": {
                "name": "Tor di Quinto",
                "id": "5634",
                "brand": "Agip Eni",
                "amenity": "fuel",
                "operator": "GESTIONI RIUNITE G.R. S.R.L."
            },
            "geometry": {
                "type": "Point",
                "coordinates": [
                    12.484486699104307,
                    41.950928168083685
                ]
            }
        },
        {
            "type": "Feature",
            "properties": {
                "name": "Monti tiburtini petroli di graziani claudio",
                "id": "23070",
                "brand": "Esso",
                "amenity": "fuel",
                "operator": "GRAZIANI CLAUDIO"
            },
            "geometry": {
                "type": "Point",
                "coordinates": [
                    12.53329083323479,
                    41.919699512057235
                ]
            }
        },
        {
            "type": "Feature",
            "properties": {
                "name": "sarrocco massimo",
                "id": "17363",
                "brand": "Agip Eni",
                "amenity": "fuel",
                "operator": "SARROCCO MASSIMO"
            },
            "geometry": {
                "type": "Point",
                "coordinates": [
                    12.574893236160278,
                    41.9542079439808
                ]
            }
        },
        {
            "type": "Feature",
            "properties": {
                "name": "Esso Piazza Verbano",
                "id": "29860",
                "brand": "Esso",
                "amenity": "fuel",
                "operator": "SCARPONE CLAUDIO"
            },
            "geometry": {
                "type": "Point",
                "coordinates": [
                    12.506573464240205,
                    41.92322549804832
                ]
            }
        },
        {
            "type": "Feature",
            "properties": {
                "name": "IP/gruppoAPI",
                "id": "24179",
                "brand": "Api-Ip",
                "amenity": "fuel",
                "operator": "FERRO MASSIMO"
            },
            "geometry": {
                "type": "Point",
                "coordinates": [
                    12.486494046032702,
                    41.92824056867783
                ]
            }
        },
        {
            "type": "Feature",
            "properties": {
                "name": "ROMA-VIA DI TOR CERVARA 289",
                "id": "11821",
                "brand": "Q8",
                "amenity": "fuel",
                "operator": "SERVIZI & GESTIONI ITALIA S.R.L."
            },
            "geometry": {
                "type": "Point",
                "coordinates": [
                    12.589185963091271,
                    41.90683591230595
                ]
            }
        },
        {
            "type": "Feature",
            "properties": {
                "name": "Q8 RO.SA.AUTO",
                "id": "13638",
                "brand": "Q8",
                "amenity": "fuel",
                "operator": "RO.SA. AUTO DI CALCATERRA ROMANO E TROTTA SALVATORE - SOCIETA IN NOME COLLETTIVO"
            },
            "geometry": {
                "type": "Point",
                "coordinates": [
                    12.58160093293145,
                    41.93650947050836
                ]
            }
        },
        {
            "type": "Feature",
            "properties": {
                "name": "ROMA VIA MONTI TIBURTINI 720",
                "id": "6643",
                "brand": "Q8",
                "amenity": "fuel",
                "operator": "SERVIZI & GESTIONI ITALIA srl"
            },
            "geometry": {
                "type": "Point",
                "coordinates": [
                    12.552029231213396,
                    41.913806269540686
                ]
            }
        },
        {
            "type": "Feature",
            "properties": {
                "name": "Sodano Raffaela",
                "id": "9403",
                "brand": "Total Erg",
                "amenity": "fuel",
                "operator": "SODANO RAFFAELA"
            },
            "geometry": {
                "type": "Point",
                "coordinates": [
                    12.604620170595922,
                    41.96863210522243
                ]
            }
        },
        {
            "type": "Feature",
            "properties": {
                "name": "galluzzo antonio",
                "id": "12219",
                "brand": "Api-Ip",
                "amenity": "fuel",
                "operator": "GALLUZZO ANTONIO"
            },
            "geometry": {
                "type": "Point",
                "coordinates": [
                    12.50481572104536,
                    41.925434559630425
                ]
            }
        },
        {
            "type": "Feature",
            "properties": {
                "name": "MILLE LITRI SNC",
                "id": "23271",
                "brand": "Tamoil",
                "amenity": "fuel",
                "operator": "MILLE LITRI S.N.C. DI GIORDANO GIOVANNI & C."
            },
            "geometry": {
                "type": "Point",
                "coordinates": [
                    12.62120100859829,
                    41.99811480656152
                ]
            }
        },
        {
            "type": "Feature",
            "properties": {
                "name": "passarelli snc",
                "id": "20595",
                "brand": "Api-Ip",
                "amenity": "fuel",
                "operator": "PASSARELLI S.N.C. DI PASSARELLI ROSA E C."
            },
            "geometry": {
                "type": "Point",
                "coordinates": [
                    12.568551197658621,
                    41.92826280517173
                ]
            }
        },
        {
            "type": "Feature",
            "properties": {
                "name": "17107 GREGNA ROMA",
                "id": "26086",
                "brand": "Agip Eni",
                "amenity": "fuel",
                "operator": "ENI RETE OIL&NONOIL S.P.A."
            },
            "geometry": {
                "type": "Point",
                "coordinates": [
                    12.566842441069754,
                    41.90230500076748
                ]
            }
        },
        {
            "type": "Feature",
            "properties": {
                "name": "LORUSSO SNC",
                "id": "20164",
                "brand": "Api-Ip",
                "amenity": "fuel",
                "operator": "LORUSSO FRANCESCO"
            },
            "geometry": {
                "type": "Point",
                "coordinates": [
                    12.516415631458472,
                    41.9240826868137
                ]
            }
        },
        {
            "type": "Feature",
            "properties": {
                "name": "ROMA - FORO ITALICO",
                "id": "30625",
                "brand": "Api-Ip",
                "amenity": "fuel",
                "operator": "IP SERVICES S.R.L."
            },
            "geometry": {
                "type": "Point",
                "coordinates": [
                    12.502556741237639,
                    41.93971278035061
                ]
            }
        },
        {
            "type": "Feature",
            "properties": {
                "name": "SALARIA EST",
                "id": "3632",
                "brand": "Agip Eni",
                "amenity": "fuel",
                "operator": "La Perla srl"
            },
            "geometry": {
                "type": "Point",
                "coordinates": [
                    12.52888005886075,
                    42.00455945035358
                ]
            }
        },
        {
            "type": "Feature",
            "properties": {
                "name": "ROMA-V.LE JONIO 131",
                "id": "11812",
                "brand": "Q8",
                "amenity": "fuel",
                "operator": "SERVIZI & GESTIONI ITALIA S.R.L."
            },
            "geometry": {
                "type": "Point",
                "coordinates": [
                    12.53713411045078,
                    41.94366433786907
                ]
            }
        },
        {
            "type": "Feature",
            "properties": {
                "name": "IP aeroporto urbe",
                "id": "9440",
                "brand": "Api-Ip",
                "amenity": "fuel",
                "operator": "SICILIANI MASSIMILIANO"
            },
            "geometry": {
                "type": "Point",
                "coordinates": [
                    12.506612312018206,
                    41.94916936595288
                ]
            }
        },
        {
            "type": "Feature",
            "properties": {
                "name": "Stazione di Servizio CP",
                "id": "23762",
                "amenity": "fuel",
                "operator": "G.M.V. S.N.C. DI LACOPO ANNA MARIA"
            },
            "geometry": {
                "type": "Point",
                "coordinates": [
                    12.547635273988021,
                    41.93909913430512
                ]
            }
        },
        {
            "type": "Feature",
            "properties": {
                "name": "ROMA VIA NOMENTANA  854",
                "id": "6647",
                "brand": "Q8",
                "amenity": "fuel",
                "operator": "SERVIZI & GESTIONI ITALIA srl"
            },
            "geometry": {
                "type": "Point",
                "coordinates": [
                    12.550587888040921,
                    41.940008463770845
                ]
            }
        },
        {
            "type": "Feature",
            "properties": {
                "name": "ENI",
                "id": "22546",
                "brand": "Agip Eni",
                "amenity": "fuel",
                "operator": "F.LLI SALANOVA SOCIETA IN NOME COLLETTIVO DI SALANOVA GIUSEPPE E SALANOVA SALVATORE"
            },
            "geometry": {
                "type": "Point",
                "coordinates": [
                    12.54641897879503,
                    41.92358448700461
                ]
            }
        },
        {
            "type": "Feature",
            "properties": {
                "name": "Service 2005",
                "id": "10907",
                "brand": "Agip Eni",
                "amenity": "fuel",
                "operator": "SERVICE 2005 DI LACOPO VINCENZO & LACOPO SABRINA S.N.C."
            },
            "geometry": {
                "type": "Point",
                "coordinates": [
                    12.568521790876732,
                    41.94712606715145
                ]
            }
        },
        {
            "type": "Feature",
            "properties": {
                "name": "VIALE JONIO 31",
                "id": "24290",
                "brand": "Agip Eni",
                "amenity": "fuel",
                "operator": "CIRULLI CARBURANTI & MULTISERVIZI S.R.L."
            },
            "geometry": {
                "type": "Point",
                "coordinates": [
                    12.544519901275635,
                    41.943670650176514
                ]
            }
        },
        {
            "type": "Feature",
            "properties": {
                "name": "FIN SNC",
                "id": "14003",
                "brand": "Tamoil",
                "amenity": "fuel",
                "operator": "F.I.N. SNC DI IRENE NUZZO & C."
            },
            "geometry": {
                "type": "Point",
                "coordinates": [
                    12.49330677657349,
                    41.92819400759485
                ]
            }
        },
        {
            "type": "Feature",
            "properties": {
                "name": "PIAZZA ANNIBALIANO 9/10",
                "id": "24289",
                "brand": "Agip Eni",
                "amenity": "fuel",
                "operator": "CARBURANTI DURANTINI DI CIRULLI SERGIO"
            },
            "geometry": {
                "type": "Point",
                "coordinates": [
                    12.516489506088643,
                    41.92454772086282
                ]
            }
        },
        {
            "type": "Feature",
            "properties": {
                "name": "DE PETRILLO NINO",
                "id": "14696",
                "brand": "Tamoil",
                "amenity": "fuel",
                "operator": "DE PETRILLO NINO"
            },
            "geometry": {
                "type": "Point",
                "coordinates": [
                    12.522215508079855,
                    41.91872792836853
                ]
            }
        }
    ]
}