{
    "type": "FeatureCollection",
    "features": [
        {
            "type": "Feature",
            "properties": {
                "name": "area di servizio ip",
                "id": "16670",
                "brand": "Api-Ip",
                "amenity": "fuel",
                "operator": "FIORDALISI S.R.L."
            },
            "geometry": {
                "type": "Point",
                "coordinates": [
                    12.590053081512451,
                    42.16049828275191
                ]
            }
        },
        {
            "type": "Feature",
            "properties": {
                "name": "Eni Ruggeri Luigi 06965",
                "id": "23246",
                "brand": "Agip Eni",
                "amenity": "fuel",
                "operator": "RUGGERI LUIGI"
            },
            "geometry": {
                "type": "Point",
                "coordinates": [
                    12.614584565162659,
                    42.14406697106647
                ]
            }
        },
        {
            "type": "Feature",
            "properties": {
                "name": "pompetti carburanti snc",
                "id": "25753",
                "brand": "Agip Eni",
                "amenity": "fuel",
                "operator": "POMPETTI CARBURANTI S.N.C. DI POMPETTI C. & C."
            },
            "geometry": {
                "type": "Point",
                "coordinates": [
                    12.492731809616089,
                    42.13676425523959
                ]
            }
        },
        {
            "type": "Feature",
            "properties": {
                "name": "PV1",
                "id": "14325",
                "brand": "D Amico",
                "amenity": "fuel",
                "operator": "GRUPPO D'AMICO S.R.L."
            },
            "geometry": {
                "type": "Point",
                "coordinates": [
                    12.588937282562254,
                    42.11827398732341
                ]
            }
        },
        {
            "type": "Feature",
            "properties": {
                "name": "PV5",
                "id": "20341",
                "brand": "D Amico",
                "amenity": "fuel",
                "operator": "GRUPPO D'AMICO DUE S.R.L."
            },
            "geometry": {
                "type": "Point",
                "coordinates": [
                    12.646272182464601,
                    42.0996903585949
                ]
            }
        },
        {
            "type": "Feature",
            "properties": {
                "name": "IP MONTEROTONDO",
                "id": "32056",
                "brand": "Api-Ip",
                "amenity": "fuel",
                "operator": "S & P PETROLI S.R.L."
            },
            "geometry": {
                "type": "Point",
                "coordinates": [
                    12.634513378143309,
                    42.054086141445296
                ]
            }
        },
        {
            "type": "Feature",
            "properties": {
                "name": "MARLETTA SALVATORE",
                "id": "24103",
                "brand": "Agip Eni",
                "amenity": "fuel",
                "operator": "MARLETTA SALVATORE"
            },
            "geometry": {
                "type": "Point",
                "coordinates": [
                    12.49991412850386,
                    42.12765600639099
                ]
            }
        },
        {
            "type": "Feature",
            "properties": {
                "name": "FRATELLI MORENA",
                "id": "6003",
                "brand": "Api-Ip",
                "amenity": "fuel",
                "operator": "MORENA & CO.  S.N.C. DI MORENA ANTONIO E E C."
            },
            "geometry": {
                "type": "Point",
                "coordinates": [
                    12.546499371528625,
                    42.078105564470206
                ]
            }
        },
        {
            "type": "Feature",
            "properties": {
                "name": "MONTEROTONDO VIA FILIPPO TURATI  101",
                "id": "6657",
                "brand": "Q8",
                "amenity": "fuel",
                "operator": "SERVIZI & GESTIONI ITALIA srl"
            },
            "geometry": {
                "type": "Point",
                "coordinates": [
                    12.599813640117643,
                    42.06103257306434
                ]
            }
        },
        {
            "type": "Feature",
            "properties": {
                "name": "totalerg  orsi s.n.c.",
                "id": "27026",
                "brand": "Total Erg",
                "amenity": "fuel",
                "operator": "ORSI SOCIETA' IN NOME COLLETTIVO DI ORSI ANNA, ORSI STEFANO E C."
            },
            "geometry": {
                "type": "Point",
                "coordinates": [
                    12.57684051990509,
                    42.097027489821265
                ]
            }
        },
        {
            "type": "Feature",
            "properties": {
                "name": "MASCHERONE OVEST",
                "id": "24142",
                "brand": "Tamoil",
                "amenity": "fuel",
                "operator": "MASCHERONE OVEST S.R.L."
            },
            "geometry": {
                "type": "Point",
                "coordinates": [
                    12.617083144233222,
                    42.12268085435512
                ]
            }
        },
        {
            "type": "Feature",
            "properties": {
                "name": "CARBURANTI CRIMCIP SaS",
                "id": "17019",
                "amenity": "fuel",
                "operator": "CARBURANTI CRI.M.CI.P. SOCIETA' IN ACCOMANDITA SEMPLICE DI CRITELLI ANDREA E C."
            },
            "geometry": {
                "type": "Point",
                "coordinates": [
                    12.567147016525267,
                    42.04518158535678
                ]
            }
        },
        {
            "type": "Feature",
            "properties": {
                "name": "eni monterotondo",
                "id": "22874",
                "brand": "Agip Eni",
                "amenity": "fuel",
                "operator": "GELB ANDREA"
            },
            "geometry": {
                "type": "Point",
                "coordinates": [
                    12.586717754602432,
                    42.06099852084145
                ]
            }
        },
        {
            "type": "Feature",
            "properties": {
                "name": "flaminia carburanti srl",
                "id": "15624",
                "brand": "Agip Eni",
                "amenity": "fuel",
                "operator": "FLAMINIA CARBURANTI S.R.L.."
            },
            "geometry": {
                "type": "Point",
                "coordinates": [
                    12.49905042350292,
                    42.10786792979151
                ]
            }
        },
        {
            "type": "Feature",
            "properties": {
                "name": "Stazione di servizio Esso",
                "id": "31959",
                "brand": "Esso",
                "amenity": "fuel",
                "operator": "D'INNOCENTI DANIELE"
            },
            "geometry": {
                "type": "Point",
                "coordinates": [
                    12.590327455812714,
                    42.11990924975652
                ]
            }
        },
        {
            "type": "Feature",
            "properties": {
                "name": "FIANO CARBURANTI",
                "id": "20502",
                "brand": "Total Erg",
                "amenity": "fuel",
                "operator": "FIANO CARBURANTI - SOCIETA' IN NOME COLLETTIVO DI PIERANGELO PAGLIA E MARCO PARTENZI"
            },
            "geometry": {
                "type": "Point",
                "coordinates": [
                    12.595755457878113,
                    42.14079419838103
                ]
            }
        },
        {
            "type": "Feature",
            "properties": {
                "name": "Monterotondo",
                "id": "9362",
                "amenity": "fuel",
                "operator": "I.C.M. SOCIETA' IN NOME COLLETTIVO DI BRUNO, CRISTIANO E FABRIZIO MAGGI"
            },
            "geometry": {
                "type": "Point",
                "coordinates": [
                    12.626898586750034,
                    42.049495794307624
                ]
            }
        },
        {
            "type": "Feature",
            "properties": {
                "name": "Q8 Bocci Danilo",
                "id": "27234",
                "brand": "Q8",
                "amenity": "fuel",
                "operator": "BOCCI DANILO"
            },
            "geometry": {
                "type": "Point",
                "coordinates": [
                    12.494292259216309,
                    42.12786812745444
                ]
            }
        },
        {
            "type": "Feature",
            "properties": {
                "name": "MASCHERONE EST",
                "id": "3549",
                "brand": "Esso",
                "amenity": "fuel",
                "operator": "Nuova Sidap SRL"
            },
            "geometry": {
                "type": "Point",
                "coordinates": [
                    12.617894635581933,
                    42.12450335067024
                ]
            }
        },
        {
            "type": "Feature",
            "properties": {
                "name": "FERONIA EST",
                "id": "3508",
                "brand": "Q8",
                "amenity": "fuel",
                "operator": "GESAF 04 S.R.L."
            },
            "geometry": {
                "type": "Point",
                "coordinates": [
                    12.603499999999999,
                    42.13570000000001
                ]
            }
        },
        {
            "type": "Feature",
            "properties": {
                "name": "TOTAL ERG",
                "id": "28664",
                "brand": "Total Erg",
                "amenity": "fuel",
                "operator": "SHEIKH  JASIM  UDDIN"
            },
            "geometry": {
                "type": "Point",
                "coordinates": [
                    12.591732814908024,
                    42.063838332830606
                ]
            }
        },
        {
            "type": "Feature",
            "properties": {
                "name": "ELFA DI MARRONARO",
                "id": "13454",
                "amenity": "fuel",
                "operator": "ELFA DI MARRONARO - SOCIETA' A RESPONSABILITA' LIMITATA"
            },
            "geometry": {
                "type": "Point",
                "coordinates": [
                    12.48424530029297,
                    42.03521157468145
                ]
            }
        },
        {
            "type": "Feature",
            "properties": {
                "name": "FIANO ROMANO",
                "id": "5867",
                "brand": "Total Erg",
                "amenity": "fuel",
                "operator": "TotalErg SpA"
            },
            "geometry": {
                "type": "Point",
                "coordinates": [
                    12.626960373016345,
                    42.14935695433844
                ]
            }
        },
        {
            "type": "Feature",
            "properties": {
                "name": "MONTEROTONDO-VIA LEONARDO DA VINCI 25",
                "id": "11823",
                "brand": "Q8",
                "amenity": "fuel",
                "operator": "SERVIZI & GESTIONI ITALIA S.R.L."
            },
            "geometry": {
                "type": "Point",
                "coordinates": [
                    12.596212245368974,
                    42.07473447662624
                ]
            }
        },
        {
            "type": "Feature",
            "properties": {
                "name": "TREVISAN ROBERTO",
                "id": "12917",
                "brand": "Total Erg",
                "amenity": "fuel",
                "operator": "TREVISAN ROBERTO"
            },
            "geometry": {
                "type": "Point",
                "coordinates": [
                    12.590307891368864,
                    42.06312744588049
                ]
            }
        },
        {
            "type": "Feature",
            "properties": {
                "name": "area 310",
                "id": "18076",
                "amenity": "fuel",
                "operator": "ALEX & G.  S.R.L."
            },
            "geometry": {
                "type": "Point",
                "coordinates": [
                    12.648117542266844,
                    42.05135682894202
                ]
            }
        },
        {
            "type": "Feature",
            "properties": {
                "name": "STAZIONE DI SERVIZIO ESSO",
                "id": "23828",
                "brand": "Esso",
                "amenity": "fuel",
                "operator": "STAZIONE DI SERVIZIO ESSO DI NASSO ANTONIO S.A.S."
            },
            "geometry": {
                "type": "Point",
                "coordinates": [
                    12.563840121047182,
                    42.04282783441688
                ]
            }
        },
        {
            "type": "Feature",
            "properties": {
                "name": "DSA",
                "id": "19704",
                "brand": "Total Erg",
                "amenity": "fuel",
                "operator": "D.S.A. - DISTRIBUZIONE SERVIZI AUTOMOBILISTICI DI MARIO LAICO & C . - SOCIETA' IN ACCOMANDITA SEMPLICE"
            },
            "geometry": {
                "type": "Point",
                "coordinates": [
                    12.553495243191719,
                    42.13495863344705
                ]
            }
        },
        {
            "type": "Feature",
            "properties": {
                "name": "CARBURANTI CRIMCIP SaS",
                "id": "17021",
                "brand": "Esso",
                "amenity": "fuel",
                "operator": "CARBURANTI CRI.M.CI.P. SOCIETA' IN ACCOMANDITA SEMPLICE DI CRITELLI ANDREA E C."
            },
            "geometry": {
                "type": "Point",
                "coordinates": [
                    12.567147016525267,
                    42.04518158535678
                ]
            }
        },
        {
            "type": "Feature",
            "properties": {
                "name": "CASTELNUOVO PORTO FLAMINIA KM.26+100",
                "id": "6627",
                "brand": "Q8",
                "amenity": "fuel",
                "operator": "SERVIZI & GESTIONI ITALIA srl"
            },
            "geometry": {
                "type": "Point",
                "coordinates": [
                    12.499455599336217,
                    42.106715740209275
                ]
            }
        },
        {
            "type": "Feature",
            "properties": {
                "name": "PV3",
                "id": "14337",
                "brand": "D Amico",
                "amenity": "fuel",
                "operator": "GRUPPO D'AMICO S.R.L."
            },
            "geometry": {
                "type": "Point",
                "coordinates": [
                    12.611907720565794,
                    42.147561507368465
                ]
            }
        }
    ]
}