{
    "type": "FeatureCollection",
    "features": [
        {
            "type": "Feature",
            "properties": {
                "name": "UmbriaGas S.p.a. - S.Maria degli Angeli",
                "id": "4461",
                "brand": "Agip Eni",
                "amenity": "fuel",
                "operator": "UMBRIA GAS S.P.A."
            },
            "geometry": {
                "type": "Point",
                "coordinates": [
                    12.572325077443448,
                    43.059953408327864
                ]
            }
        },
        {
            "type": "Feature",
            "properties": {
                "name": "il . Aldofri Alfredo",
                "id": "28416",
                "brand": "Api-Ip",
                "amenity": "fuel",
                "operator": "ALDOFRI ALFREDO"
            },
            "geometry": {
                "type": "Point",
                "coordinates": [
                    12.620604112744331,
                    43.066231692018825
                ]
            }
        },
        {
            "type": "Feature",
            "properties": {
                "name": "Stazione di Servizio IP",
                "id": "5211",
                "brand": "Api-Ip",
                "amenity": "fuel",
                "operator": "CACCIAMANI DOMENICO"
            },
            "geometry": {
                "type": "Point",
                "coordinates": [
                    12.569848001003269,
                    42.97701247182238
                ]
            }
        },
        {
            "type": "Feature",
            "properties": {
                "name": "STAZIONE DI SERVIZIO IP DI CLAUDIO GORI",
                "id": "30695",
                "brand": "Api-Ip",
                "amenity": "fuel",
                "operator": "GORI CLAUDIO"
            },
            "geometry": {
                "type": "Point",
                "coordinates": [
                    12.54882534418027,
                    43.06569914446376
                ]
            }
        },
        {
            "type": "Feature",
            "properties": {
                "name": "eni station barabani&costantini snc",
                "id": "7510",
                "brand": "Agip Eni",
                "amenity": "fuel",
                "operator": "BARABANI & COSTANTINI S.N.C. DI BARABANI SILVANA E COSTANTINI GINO IN BREVE BARABANI & COSTANTINI"
            },
            "geometry": {
                "type": "Point",
                "coordinates": [
                    12.637005150318142,
                    43.02707547484501
                ]
            }
        },
        {
            "type": "Feature",
            "properties": {
                "name": "impianto ip di Filippucci Deborah",
                "id": "32158",
                "brand": "Api-Ip",
                "amenity": "fuel",
                "operator": "FILIPPUCCI DEBORAH"
            },
            "geometry": {
                "type": "Point",
                "coordinates": [
                    12.586788692881102,
                    42.99712826385167
                ]
            }
        },
        {
            "type": "Feature",
            "properties": {
                "name": "Multiservice Umbria Srls",
                "id": "31379",
                "brand": "Total Erg",
                "amenity": "fuel",
                "operator": "MULTISERVICE UMBRIA SOCIETA' A RESPONSABILITA' LIMITATA SEMPLIFIC ATA"
            },
            "geometry": {
                "type": "Point",
                "coordinates": [
                    12.62227819293912,
                    43.0407142400024
                ]
            }
        },
        {
            "type": "Feature",
            "properties": {
                "name": "staz.di servizio Totalerg di Cioccoloni G&c snc",
                "id": "4804",
                "brand": "Total Erg",
                "amenity": "fuel",
                "operator": "CIOCCOLONI GIULIO E C. S.N.C."
            },
            "geometry": {
                "type": "Point",
                "coordinates": [
                    12.561986446380617,
                    43.05623983432642
                ]
            }
        },
        {
            "type": "Feature",
            "properties": {
                "name": "SACAT",
                "id": "22472",
                "amenity": "fuel",
                "operator": "M.B. CARBURANTI S.A.S. DI BACCHI E MERCANTINI"
            },
            "geometry": {
                "type": "Point",
                "coordinates": [
                    12.525582164525987,
                    43.06494818798736
                ]
            }
        },
        {
            "type": "Feature",
            "properties": {
                "name": "STAZIONE DI SERVIZIO IP",
                "id": "31931",
                "brand": "Api-Ip",
                "amenity": "fuel",
                "operator": "STAZIONE DI SERVIZIO GAMBACORTA DI CICOGNOLA ORNELLA"
            },
            "geometry": {
                "type": "Point",
                "coordinates": [
                    12.56657838821411,
                    43.06297937772269
                ]
            }
        },
        {
            "type": "Feature",
            "properties": {
                "name": "TOTALERG BRUNORI",
                "id": "14634",
                "brand": "Total Erg",
                "amenity": "fuel",
                "operator": "BRUNORI S.N.C. DI BRUNORI FABIO"
            },
            "geometry": {
                "type": "Point",
                "coordinates": [
                    12.55453795194626,
                    43.066736268305775
                ]
            }
        },
        {
            "type": "Feature",
            "properties": {
                "name": "STAZIONE IP PETRINI",
                "id": "31287",
                "brand": "Api-Ip",
                "amenity": "fuel",
                "operator": "PETRINI RENZO E C. S.N.C."
            },
            "geometry": {
                "type": "Point",
                "coordinates": [
                    12.582842893254108,
                    42.993078750388655
                ]
            }
        },
        {
            "type": "Feature",
            "properties": {
                "name": "Stazione di servizio Totalerg di Pettinelli Marcello",
                "id": "31195",
                "brand": "Total Erg",
                "amenity": "fuel",
                "operator": "PETTINELLI MARCELLO"
            },
            "geometry": {
                "type": "Point",
                "coordinates": [
                    12.579093575477604,
                    43.05524461593928
                ]
            }
        },
        {
            "type": "Feature",
            "properties": {
                "name": "Stazione di Servizio IP di Bazzucchi Mirco",
                "id": "25222",
                "brand": "Api-Ip",
                "amenity": "fuel",
                "operator": "BAZZUCCHI MIRCO S.N.C."
            },
            "geometry": {
                "type": "Point",
                "coordinates": [
                    12.571942806243896,
                    43.05452925600319
                ]
            }
        },
        {
            "type": "Feature",
            "properties": {
                "name": "migno paolo",
                "id": "14030",
                "brand": "Total Erg",
                "amenity": "fuel",
                "operator": "MIGNO PAOLO"
            },
            "geometry": {
                "type": "Point",
                "coordinates": [
                    12.498068064451216,
                    43.02195586383809
                ]
            }
        }
    ]
}