{
    "type": "FeatureCollection",
    "features": [
        {
            "type": "Feature",
            "properties": {
                "name": "SAN DONA' DI PIAVE-VIA VIZZOTTO 42",
                "id": "11943",
                "brand": "Q8",
                "amenity": "fuel",
                "operator": "SERVIZI & GESTIONI ITALIA S.R.L."
            },
            "geometry": {
                "type": "Point",
                "coordinates": [
                    12.578718017196707,
                    45.63049624875402
                ]
            }
        },
        {
            "type": "Feature",
            "properties": {
                "name": "Distributore Agip di Pontrandolfo Pietro",
                "id": "10477",
                "brand": "Agip Eni",
                "amenity": "fuel",
                "operator": "DISTRIBUTORE AGIP DI PONTRANDOLFO PIETRO"
            },
            "geometry": {
                "type": "Point",
                "coordinates": [
                    12.534380321426395,
                    45.6668337678284
                ]
            }
        },
        {
            "type": "Feature",
            "properties": {
                "name": "Agip",
                "id": "28010",
                "brand": "Agip Eni",
                "amenity": "fuel",
                "operator": "GARRUZZO GROUP DI RASO MARIA VINCENZA & C. SNC"
            },
            "geometry": {
                "type": "Point",
                "coordinates": [
                    12.588031338964358,
                    45.647710618643124
                ]
            }
        },
        {
            "type": "Feature",
            "properties": {
                "name": "NOVENTA DI PIAVE - VIA ROMA 68",
                "id": "31184",
                "brand": "Q8",
                "amenity": "fuel",
                "operator": "SERVIZI & GESTIONI ITALIA S.R.L."
            },
            "geometry": {
                "type": "Point",
                "coordinates": [
                    12.531731128692627,
                    45.65888628310397
                ]
            }
        },
        {
            "type": "Feature",
            "properties": {
                "name": "Buffet SAS Q8",
                "id": "9681",
                "brand": "Q8",
                "amenity": "fuel",
                "operator": "BUFFET S.A.S. DI GARRUZZO GIOVANNI & C."
            },
            "geometry": {
                "type": "Point",
                "coordinates": [
                    12.611553668975828,
                    45.701330772216515
                ]
            }
        },
        {
            "type": "Feature",
            "properties": {
                "name": "gioia service",
                "id": "32204",
                "brand": "Agip Eni",
                "amenity": "fuel",
                "operator": "GIOIA SERVICE SRL"
            },
            "geometry": {
                "type": "Point",
                "coordinates": [
                    12.492306998672461,
                    45.64376124253337
                ]
            }
        },
        {
            "type": "Feature",
            "properties": {
                "name": "Vega San Dona' di piave",
                "id": "4469",
                "brand": "Vega",
                "amenity": "fuel",
                "operator": "PARVO S.R.L."
            },
            "geometry": {
                "type": "Point",
                "coordinates": [
                    12.600288391113283,
                    45.64023468264888
                ]
            }
        },
        {
            "type": "Feature",
            "properties": {
                "name": "Tap",
                "id": "29207",
                "amenity": "fuel",
                "operator": "NICASTRO FORTUNATA"
            },
            "geometry": {
                "type": "Point",
                "coordinates": [
                    12.52070419839481,
                    45.603302893330955
                ]
            }
        },
        {
            "type": "Feature",
            "properties": {
                "name": "CALSTORTA SUD",
                "id": "3867",
                "brand": "Shell",
                "amenity": "fuel",
                "operator": "CHEF EXPRESS S.P.A."
            },
            "geometry": {
                "type": "Point",
                "coordinates": [
                    12.60426878929138,
                    45.70346099296441
                ]
            }
        },
        {
            "type": "Feature",
            "properties": {
                "name": "TRIVENGAS",
                "id": "8669",
                "brand": "Trivengas",
                "amenity": "fuel",
                "operator": "GAS - AUTO S.N.C. DI PERIN PAOLO & C."
            },
            "geometry": {
                "type": "Point",
                "coordinates": [
                    12.59195492123001,
                    45.642033056742015
                ]
            }
        },
        {
            "type": "Feature",
            "properties": {
                "name": "_eni",
                "id": "6352",
                "brand": "Agip Eni",
                "amenity": "fuel",
                "operator": "FUEL & SERVICE DI GAIOTTO ALESSIO E C. SNC"
            },
            "geometry": {
                "type": "Point",
                "coordinates": [
                    12.6302618915405,
                    45.67888592883957
                ]
            }
        },
        {
            "type": "Feature",
            "properties": {
                "name": "VEGA MUSILE DI PIAVE",
                "id": "31540",
                "brand": "Vega",
                "amenity": "fuel",
                "operator": "VEGA CARBURANTI S.P.A."
            },
            "geometry": {
                "type": "Point",
                "coordinates": [
                    12.549825358197042,
                    45.622546880264004
                ]
            }
        },
        {
            "type": "Feature",
            "properties": {
                "name": "ENI",
                "id": "31670",
                "brand": "Agip Eni",
                "amenity": "fuel",
                "operator": "GNES FRANCO"
            },
            "geometry": {
                "type": "Point",
                "coordinates": [
                    12.545965611934658,
                    45.65586347915801
                ]
            }
        },
        {
            "type": "Feature",
            "properties": {
                "name": "NOALOIL PV4",
                "id": "4485",
                "brand": "Noaloil",
                "amenity": "fuel",
                "operator": "NOALOIL S.P.A."
            },
            "geometry": {
                "type": "Point",
                "coordinates": [
                    12.587787079513644,
                    45.64848234225117
                ]
            }
        },
        {
            "type": "Feature",
            "properties": {
                "name": "eni",
                "id": "22468",
                "brand": "Agip Eni",
                "amenity": "fuel",
                "operator": "FUEL & SERVICE DI GAIOTTO ALESSIO E C. SNC"
            },
            "geometry": {
                "type": "Point",
                "coordinates": [
                    12.543502002954487,
                    45.6501502264105
                ]
            }
        },
        {
            "type": "Feature",
            "properties": {
                "name": "esso",
                "id": "18279",
                "brand": "Esso",
                "amenity": "fuel",
                "operator": "CASAGRANDE M. & C. S.A.S. DI CASAGRANDE MATTEO"
            },
            "geometry": {
                "type": "Point",
                "coordinates": [
                    12.5802643597126,
                    45.63061939705855
                ]
            }
        },
        {
            "type": "Feature",
            "properties": {
                "name": "4G CARBURANTI",
                "id": "13944",
                "amenity": "fuel",
                "operator": "IMMOBILIARE 4G S.A.S. DI VARO ANNAMARIA & C."
            },
            "geometry": {
                "type": "Point",
                "coordinates": [
                    12.535885870456696,
                    45.70314404990424
                ]
            }
        },
        {
            "type": "Feature",
            "properties": {
                "name": "S.DONA' DI PIAVE VIA NOVENTA N.88",
                "id": "24230",
                "brand": "Q8",
                "amenity": "fuel",
                "operator": "SERVIZI & GESTIONI ITALIA S.R.L."
            },
            "geometry": {
                "type": "Point",
                "coordinates": [
                    12.550498195700811,
                    45.64451612178345
                ]
            }
        },
        {
            "type": "Feature",
            "properties": {
                "name": "NOALOIL SERAFIN VALTER",
                "id": "30209",
                "brand": "Noaloil",
                "amenity": "fuel",
                "operator": "SERAFIN VALTER"
            },
            "geometry": {
                "type": "Point",
                "coordinates": [
                    12.493337489561554,
                    45.67698169242683
                ]
            }
        },
        {
            "type": "Feature",
            "properties": {
                "name": "TOTALERG",
                "id": "21422",
                "brand": "Total Erg",
                "amenity": "fuel",
                "operator": "F.LLI VISENTIN S.N.C. DI VISENTIN ANDREA E VISENTIN IVAN"
            },
            "geometry": {
                "type": "Point",
                "coordinates": [
                    12.59261182817227,
                    45.63211442737934
                ]
            }
        },
        {
            "type": "Feature",
            "properties": {
                "name": "Noventa di Piave",
                "id": "20117",
                "brand": "Total Erg",
                "amenity": "fuel",
                "operator": "GESTIONI EUROPA - SOCIETA' PER AZIONI"
            },
            "geometry": {
                "type": "Point",
                "coordinates": [
                    12.535303831100466,
                    45.6561131984595
                ]
            }
        },
        {
            "type": "Feature",
            "properties": {
                "name": "CALSTORTA NORD",
                "id": "3523",
                "brand": "Tamoil",
                "amenity": "fuel",
                "operator": "ZAMBON S.A.S. DI ZAMBON SONIA & C."
            },
            "geometry": {
                "type": "Point",
                "coordinates": [
                    12.603351473808289,
                    45.70424023022207
                ]
            }
        }
    ]
}