{
    "type": "FeatureCollection",
    "features": [
        {
            "type": "Feature",
            "properties": {
                "name": "SELF CENTER 2000",
                "id": "17398",
                "brand": "Agip Eni",
                "amenity": "fuel",
                "operator": "SELF CENTER 2000 DI FALCINELLI LUCA E LANARI C. S.N.C."
            },
            "geometry": {
                "type": "Point",
                "coordinates": [
                    12.690646648406982,
                    42.95902543937857
                ]
            }
        },
        {
            "type": "Feature",
            "properties": {
                "name": "Foligno Nord",
                "id": "9358",
                "amenity": "fuel",
                "operator": "I.C.M. SOCIETA' IN NOME COLLETTIVO DI BRUNO, CRISTIANO E FABRIZIO MAGGI"
            },
            "geometry": {
                "type": "Point",
                "coordinates": [
                    12.690995335578917,
                    42.97314921461132
                ]
            }
        },
        {
            "type": "Feature",
            "properties": {
                "name": "stazione di servizio sce.do. ESSO",
                "id": "16520",
                "brand": "Esso",
                "amenity": "fuel",
                "operator": "SCE.DO. DI DONATI, SCERNA & C. S.A.S."
            },
            "geometry": {
                "type": "Point",
                "coordinates": [
                    12.716476321220398,
                    42.94107359590365
                ]
            }
        },
        {
            "type": "Feature",
            "properties": {
                "name": "Imp. IP Favetta Roberto & C Snc",
                "id": "17060",
                "brand": "Api-Ip",
                "amenity": "fuel",
                "operator": "FAVETTA ROBERTO & C. - S.N.C."
            },
            "geometry": {
                "type": "Point",
                "coordinates": [
                    12.682734131813048,
                    42.97697734524163
                ]
            }
        },
        {
            "type": "Feature",
            "properties": {
                "name": "stazione servizio eni di cacciamani giovanni",
                "id": "15377",
                "brand": "Agip Eni",
                "amenity": "fuel",
                "operator": "CACCIAMANI GIOVANNI"
            },
            "geometry": {
                "type": "Point",
                "coordinates": [
                    12.70802389814753,
                    42.951236019275974
                ]
            }
        },
        {
            "type": "Feature",
            "properties": {
                "name": "CoenDamaschiPetroli  s.r.l.",
                "id": "23811",
                "amenity": "fuel",
                "operator": "GEMELLARO MARCO"
            },
            "geometry": {
                "type": "Point",
                "coordinates": [
                    12.667724385952738,
                    42.98857122675915
                ]
            }
        },
        {
            "type": "Feature",
            "properties": {
                "name": "FOLIGNO - FIRENZE",
                "id": "24511",
                "brand": "Api-Ip",
                "amenity": "fuel",
                "operator": "IP SERVICES S.R.L."
            },
            "geometry": {
                "type": "Point",
                "coordinates": [
                    12.693770495700846,
                    42.96746663441748
                ]
            }
        },
        {
            "type": "Feature",
            "properties": {
                "name": "VIA CESARE BATTISTI - FOLIGNO",
                "id": "29807",
                "brand": "Q8",
                "amenity": "fuel",
                "operator": "SERVIZI & GESTIONI ITALIA S.R.L."
            },
            "geometry": {
                "type": "Point",
                "coordinates": [
                    12.709501492625009,
                    42.957606119908064
                ]
            }
        },
        {
            "type": "Feature",
            "properties": {
                "name": "STAROIL",
                "id": "26069",
                "amenity": "fuel",
                "operator": "PICCHIARELLI ILENIA"
            },
            "geometry": {
                "type": "Point",
                "coordinates": [
                    12.754251478240803,
                    43.05949646103525
                ]
            }
        },
        {
            "type": "Feature",
            "properties": {
                "name": "CENTRALE METANO FOLIGNO SRL",
                "id": "4004",
                "brand": "Agip Eni",
                "amenity": "fuel",
                "operator": "CENTRALE METANO FOLIGNO S.R.L. - IN SIGLA C.M.F. - S.R.L."
            },
            "geometry": {
                "type": "Point",
                "coordinates": [
                    12.713966653214356,
                    42.97563608164358
                ]
            }
        },
        {
            "type": "Feature",
            "properties": {
                "name": "Tamoil 8300",
                "id": "7985",
                "brand": "Tamoil",
                "amenity": "fuel",
                "operator": "BENEDETTI GIOVANNI"
            },
            "geometry": {
                "type": "Point",
                "coordinates": [
                    12.739210724830631,
                    43.00433721078408
                ]
            }
        },
        {
            "type": "Feature",
            "properties": {
                "name": "FOLIGNO",
                "id": "22102",
                "brand": "Total Erg",
                "amenity": "fuel",
                "operator": "GESTIONI EUROPA - SOCIETA' PER AZIONI"
            },
            "geometry": {
                "type": "Point",
                "coordinates": [
                    12.709480758266407,
                    42.956813741153624
                ]
            }
        },
        {
            "type": "Feature",
            "properties": {
                "name": "Tamoil Foligno 1",
                "id": "7989",
                "brand": "Tamoil",
                "amenity": "fuel",
                "operator": "BENEDETTI GIOVANNI"
            },
            "geometry": {
                "type": "Point",
                "coordinates": [
                    12.688586711883547,
                    42.94466595438871
                ]
            }
        },
        {
            "type": "Feature",
            "properties": {
                "name": "Stazione servizio IP Foligno",
                "id": "4912",
                "brand": "Api-Ip",
                "amenity": "fuel",
                "operator": "GUGLIELMI GIULIO"
            },
            "geometry": {
                "type": "Point",
                "coordinates": [
                    12.717696726322174,
                    42.976589774322264
                ]
            }
        }
    ]
}