{
    "type": "FeatureCollection",
    "features": [
        {
            "type": "Feature",
            "properties": {
                "name": "Donadel Carburanti & C. S.N.C.",
                "id": "4560",
                "brand": "Agip Eni",
                "amenity": "fuel",
                "operator": "DONADEL CARBURANTI DI DONADEL ERMANNO & C. S.N.C."
            },
            "geometry": {
                "type": "Point",
                "coordinates": [
                    12.720024865081767,
                    45.88026317918446
                ]
            }
        },
        {
            "type": "Feature",
            "properties": {
                "name": "NOALOIL PV8",
                "id": "4490",
                "brand": "Noaloil",
                "amenity": "fuel",
                "operator": "NOALOIL S.P.A."
            },
            "geometry": {
                "type": "Point",
                "coordinates": [
                    12.752754296383046,
                    45.94958720154408
                ]
            }
        },
        {
            "type": "Feature",
            "properties": {
                "name": "ESSO GAZZOLA",
                "id": "25419",
                "brand": "Esso",
                "amenity": "fuel",
                "operator": "GAZZOLA MARIO"
            },
            "geometry": {
                "type": "Point",
                "coordinates": [
                    12.661617047287452,
                    45.95083979773882
                ]
            }
        },
        {
            "type": "Feature",
            "properties": {
                "name": "AUTOLAVAGGI B.M. di Borean Tiberio & C. s.n.c.",
                "id": "26161",
                "amenity": "fuel",
                "operator": "AUTOLAVAGGI B.M. DI BOREAN TIBERIO & C. S.N.C."
            },
            "geometry": {
                "type": "Point",
                "coordinates": [
                    12.734707295894625,
                    45.92977385994317
                ]
            }
        },
        {
            "type": "Feature",
            "properties": {
                "name": "TAMOIL  AZZANO  X",
                "id": "17515",
                "brand": "Tamoil",
                "amenity": "fuel",
                "operator": "PORRICELLI EMILIO"
            },
            "geometry": {
                "type": "Point",
                "coordinates": [
                    12.733572952639747,
                    45.86581205881335
                ]
            }
        },
        {
            "type": "Feature",
            "properties": {
                "name": "Totalerg",
                "id": "23232",
                "brand": "Total Erg",
                "amenity": "fuel",
                "operator": "CARLI ALESSANDRA"
            },
            "geometry": {
                "type": "Point",
                "coordinates": [
                    12.732189599999998,
                    45.92743610000001
                ]
            }
        },
        {
            "type": "Feature",
            "properties": {
                "name": "COSTANTIN POINCICCO di ZOPPOLA",
                "id": "31001",
                "brand": "Costantin",
                "amenity": "fuel",
                "operator": "COMMERCIO PETROLI S.R.L."
            },
            "geometry": {
                "type": "Point",
                "coordinates": [
                    12.745328843593596,
                    45.94838551737949
                ]
            }
        },
        {
            "type": "Feature",
            "properties": {
                "name": "SMP PORDENONE, Via Nuova di Corva",
                "id": "5225",
                "brand": "San Marco Petroli",
                "amenity": "fuel",
                "operator": "SAN MARCO PETROLI DISTRIBUZIONE S.R.L."
            },
            "geometry": {
                "type": "Point",
                "coordinates": [
                    12.657717168331146,
                    45.93158307224227
                ]
            }
        },
        {
            "type": "Feature",
            "properties": {
                "name": "FIORENERGY SRL",
                "id": "6023",
                "brand": "Tamoil",
                "amenity": "fuel",
                "operator": "FIORENERGY SRL"
            },
            "geometry": {
                "type": "Point",
                "coordinates": [
                    12.768559042420748,
                    45.86110017918073
                ]
            }
        },
        {
            "type": "Feature",
            "properties": {
                "name": "Bressan Edi & Enzo s.n.c",
                "id": "18565",
                "brand": "Esso",
                "amenity": "fuel",
                "operator": "BRESSAN EDI & ENZO S.N.C."
            },
            "geometry": {
                "type": "Point",
                "coordinates": [
                    12.723163757147177,
                    45.83917275754391
                ]
            }
        },
        {
            "type": "Feature",
            "properties": {
                "name": "som agip 14273",
                "id": "12660",
                "brand": "Agip Eni",
                "amenity": "fuel",
                "operator": "SOTTIL GIOVANNI"
            },
            "geometry": {
                "type": "Point",
                "coordinates": [
                    12.779243371672013,
                    45.87816873129785
                ]
            }
        },
        {
            "type": "Feature",
            "properties": {
                "name": "CONAD SUPERSTORE AZZANO",
                "id": "22076",
                "brand": "CONAD",
                "amenity": "fuel",
                "operator": "CONAD GRIGOLETTI S.R.L."
            },
            "geometry": {
                "type": "Point",
                "coordinates": [
                    12.696917122338846,
                    45.89170327979402
                ]
            }
        },
        {
            "type": "Feature",
            "properties": {
                "name": "TOTALERG di Falconi Annalisa",
                "id": "21140",
                "brand": "Total Erg",
                "amenity": "fuel",
                "operator": "FALCONI ANNALISA"
            },
            "geometry": {
                "type": "Point",
                "coordinates": [
                    12.822833955287933,
                    45.89764184106372
                ]
            }
        },
        {
            "type": "Feature",
            "properties": {
                "name": "PORDENONE-VIA MESTRE",
                "id": "11775",
                "brand": "Q8",
                "amenity": "fuel",
                "operator": "SERVIZI & GESTIONI ITALIA S.R.L."
            },
            "geometry": {
                "type": "Point",
                "coordinates": [
                    12.665000731889906,
                    45.95038718786618
                ]
            }
        },
        {
            "type": "Feature",
            "properties": {
                "name": "STAZIONE ESSO",
                "id": "28424",
                "brand": "Esso",
                "amenity": "fuel",
                "operator": "DEL COL S.R.L."
            },
            "geometry": {
                "type": "Point",
                "coordinates": [
                    12.733045829885894,
                    45.89913385990672
                ]
            }
        },
        {
            "type": "Feature",
            "properties": {
                "name": "DELLE VEDOVE PETROLI",
                "id": "21544",
                "amenity": "fuel",
                "operator": "VAL.GRE.CA. S.R.L."
            },
            "geometry": {
                "type": "Point",
                "coordinates": [
                    12.695501446723938,
                    45.95046042898029
                ]
            }
        },
        {
            "type": "Feature",
            "properties": {
                "name": "ENI",
                "id": "9740",
                "brand": "Agip Eni",
                "amenity": "fuel",
                "operator": "S.A. S.N.C. DI MONTICO SANDRO & C."
            },
            "geometry": {
                "type": "Point",
                "coordinates": [
                    12.707702097279363,
                    45.92599046936822
                ]
            }
        },
        {
            "type": "Feature",
            "properties": {
                "name": "ENI",
                "id": "29551",
                "brand": "Agip Eni",
                "amenity": "fuel",
                "operator": "ZANETTI S.N.C. DI ZANETTI NICOLA E C."
            },
            "geometry": {
                "type": "Point",
                "coordinates": [
                    12.683377861976622,
                    45.94755709758189
                ]
            }
        },
        {
            "type": "Feature",
            "properties": {
                "name": "OFFICINA CALLEGHER & C. SNC",
                "id": "14088",
                "brand": "Api-Ip",
                "amenity": "fuel",
                "operator": "OFFICINA CALLEGHER DI CALLEGHER IVAN & C. S.N.C."
            },
            "geometry": {
                "type": "Point",
                "coordinates": [
                    12.671770586508162,
                    45.899561347056874
                ]
            }
        },
        {
            "type": "Feature",
            "properties": {
                "name": "ENI SESTO AL REGHENA",
                "id": "30481",
                "brand": "Agip Eni",
                "amenity": "fuel",
                "operator": "SOM S.P.A."
            },
            "geometry": {
                "type": "Point",
                "coordinates": [
                    12.812460511922836,
                    45.841844295046386
                ]
            }
        },
        {
            "type": "Feature",
            "properties": {
                "name": "TOTALERG",
                "id": "4763",
                "brand": "Total Erg",
                "amenity": "fuel",
                "operator": "CARROZZERIA AZZANESE-SOCIETA' IN NOME COLLETTIVO DI MAGGIOLO E C"
            },
            "geometry": {
                "type": "Point",
                "coordinates": [
                    12.695828138892809,
                    45.89403633217017
                ]
            }
        },
        {
            "type": "Feature",
            "properties": {
                "name": "Totalerg",
                "id": "32118",
                "brand": "Total Erg",
                "amenity": "fuel",
                "operator": "MEMA XHEVAHIR"
            },
            "geometry": {
                "type": "Point",
                "coordinates": [
                    12.708569131282843,
                    45.92603661403971
                ]
            }
        }
    ]
}