{
    "type": "FeatureCollection",
    "features": [
        {
            "type": "Feature",
            "properties": {
                "name": "Sia Fuel San Stino",
                "id": "26159",
                "brand": "Sia fuel",
                "amenity": "fuel",
                "operator": "S.I.A. ENGINEERING CONSTRUCTION S.R.L."
            },
            "geometry": {
                "type": "Point",
                "coordinates": [
                    12.802808582782747,
                    45.66144852719081
                ]
            }
        },
        {
            "type": "Feature",
            "properties": {
                "name": "Sia Fuel Eraclea",
                "id": "31090",
                "brand": "Sia fuel",
                "amenity": "fuel",
                "operator": "S.I.A. ENGINEERING CONSTRUCTION S.R.L."
            },
            "geometry": {
                "type": "Point",
                "coordinates": [
                    12.688468694686891,
                    45.590094201401854
                ]
            }
        },
        {
            "type": "Feature",
            "properties": {
                "name": "stazione di servizio Saltarel s.n.c. di Saltarel Michele & c.",
                "id": "10826",
                "brand": "Agip Eni",
                "amenity": "fuel",
                "operator": "STAZIONE DI SERVIZIO SALTAREL S.N.C. DI SALTAREL MICHELE & C."
            },
            "geometry": {
                "type": "Point",
                "coordinates": [
                    12.794631982803368,
                    45.64798449266233
                ]
            }
        },
        {
            "type": "Feature",
            "properties": {
                "name": "XOil",
                "id": "24365",
                "brand": "Xoil",
                "amenity": "fuel",
                "operator": "SOLDA' ALFEO E C. - S.N.C."
            },
            "geometry": {
                "type": "Point",
                "coordinates": [
                    12.680970191540496,
                    45.636721273697034
                ]
            }
        },
        {
            "type": "Feature",
            "properties": {
                "name": "TRIVENGAS",
                "id": "12561",
                "brand": "Trivengas",
                "amenity": "fuel",
                "operator": "TESO LORENA"
            },
            "geometry": {
                "type": "Point",
                "coordinates": [
                    12.681986794967656,
                    45.58377432509861
                ]
            }
        }
    ]
}