{
    "type": "FeatureCollection",
    "features": [
        {
            "type": "Feature",
            "properties": {
                "name": "TOTALERG di Pazzaglia Monica",
                "id": "15379",
                "brand": "Total Erg",
                "amenity": "fuel",
                "operator": "PAZZAGLIA MONICA"
            },
            "geometry": {
                "type": "Point",
                "coordinates": [
                    12.768157711639335,
                    43.85980432055289
                ]
            }
        },
        {
            "type": "Feature",
            "properties": {
                "name": "B.S.petroli \"di battisti simone\"",
                "id": "28805",
                "amenity": "fuel",
                "operator": "BATTISTI SIMONE"
            },
            "geometry": {
                "type": "Point",
                "coordinates": [
                    12.728018654586775,
                    43.84933660088557
                ]
            }
        },
        {
            "type": "Feature",
            "properties": {
                "name": "Torsani Claudio & C. S.N.C.",
                "id": "18891",
                "brand": "Total Erg",
                "amenity": "fuel",
                "operator": "TORSANI CLAUDIO & C. S.N.C."
            },
            "geometry": {
                "type": "Point",
                "coordinates": [
                    12.720821652917492,
                    43.94675061497896
                ]
            }
        },
        {
            "type": "Feature",
            "properties": {
                "name": "Tamoil Gabicce",
                "id": "13841",
                "brand": "Tamoil",
                "amenity": "fuel",
                "operator": "SCIRE' SCAPPUZZO FRANCO"
            },
            "geometry": {
                "type": "Point",
                "coordinates": [
                    12.762079238891603,
                    43.95773075727854
                ]
            }
        },
        {
            "type": "Feature",
            "properties": {
                "name": "PESARO - STRADA DI MONTEFELTRO 155",
                "id": "30316",
                "brand": "Q8",
                "amenity": "fuel",
                "operator": "SERVIZI & GESTIONI ITALIA S.R.L."
            },
            "geometry": {
                "type": "Point",
                "coordinates": [
                    12.819910989688086,
                    43.8801725339045
                ]
            }
        },
        {
            "type": "Feature",
            "properties": {
                "name": "metano service",
                "id": "10034",
                "amenity": "fuel",
                "operator": "METANO SERVICE S.A.S. DI BELIGOTTI DAVIDE E FELICI PALMIRO & C."
            },
            "geometry": {
                "type": "Point",
                "coordinates": [
                    12.66818046569824,
                    43.942660159883836
                ]
            }
        },
        {
            "type": "Feature",
            "properties": {
                "name": "totalerg",
                "id": "30827",
                "brand": "Total Erg",
                "amenity": "fuel",
                "operator": "PICCARI PIERLUIGI"
            },
            "geometry": {
                "type": "Point",
                "coordinates": [
                    12.672378122806547,
                    43.884845373192356
                ]
            }
        },
        {
            "type": "Feature",
            "properties": {
                "name": "GEP CELLI GIULIANO SRL PV Cattolica",
                "id": "22581",
                "brand": "Gep carburanti",
                "amenity": "fuel",
                "operator": "CELLI GIULIANO S.R.L."
            },
            "geometry": {
                "type": "Point",
                "coordinates": [
                    12.731497639936379,
                    43.952561887341105
                ]
            }
        },
        {
            "type": "Feature",
            "properties": {
                "name": "CATTOLICA - GARIBALDI",
                "id": "24257",
                "brand": "Api-Ip",
                "amenity": "fuel",
                "operator": "IP SERVICES S.R.L."
            },
            "geometry": {
                "type": "Point",
                "coordinates": [
                    12.750169737434366,
                    43.959992277119504
                ]
            }
        },
        {
            "type": "Feature",
            "properties": {
                "name": "MERLI GIORGIO",
                "id": "12455",
                "brand": "Tamoil",
                "amenity": "fuel",
                "operator": "MERLI GIORGIO"
            },
            "geometry": {
                "type": "Point",
                "coordinates": [
                    12.676076889038086,
                    43.85853234253815
                ]
            }
        },
        {
            "type": "Feature",
            "properties": {
                "name": "DISTRIBUTORE CARBAGIPBERGAMINI",
                "id": "15715",
                "brand": "Agip Eni",
                "amenity": "fuel",
                "operator": "DISTRIBUTORE CARBURANTI AGIP DI BERGAMINI LUCIANO & C. S.N.C."
            },
            "geometry": {
                "type": "Point",
                "coordinates": [
                    12.748139798641201,
                    43.83472335680592
                ]
            }
        },
        {
            "type": "Feature",
            "properties": {
                "name": "BENEDETTI & CAPELLINI SNC",
                "id": "8553",
                "brand": "Api-Ip",
                "amenity": "fuel",
                "operator": "BENEDETTI DANILO E CAPELLINI SABRINA S.N.C."
            },
            "geometry": {
                "type": "Point",
                "coordinates": [
                    12.705510090232677,
                    43.93730560522658
                ]
            }
        },
        {
            "type": "Feature",
            "properties": {
                "name": "METANAUTO S.R.L.",
                "id": "15498",
                "brand": "Agip Eni",
                "amenity": "fuel",
                "operator": "METANAUTO S.R.L."
            },
            "geometry": {
                "type": "Point",
                "coordinates": [
                    12.748138457536696,
                    43.834717939427534
                ]
            }
        },
        {
            "type": "Feature",
            "properties": {
                "name": "ENI 6128",
                "id": "16994",
                "brand": "Agip Eni",
                "amenity": "fuel",
                "operator": "PIERSANTI FRANCESCO"
            },
            "geometry": {
                "type": "Point",
                "coordinates": [
                    12.828431251196323,
                    43.86645448657763
                ]
            }
        },
        {
            "type": "Feature",
            "properties": {
                "name": "S. GIOVANNI IN MARIGNANO VARIANTE S.P. 17 KM 4+700",
                "id": "22335",
                "brand": "Q8",
                "amenity": "fuel",
                "operator": "SERVIZI & GESTIONI ITALIA S.R.L."
            },
            "geometry": {
                "type": "Point",
                "coordinates": [
                    12.690112888813019,
                    43.9347301677841
                ]
            }
        },
        {
            "type": "Feature",
            "properties": {
                "name": "OIL ONE MONTELABBATE",
                "id": "24115",
                "amenity": "fuel",
                "operator": "ACEMA S.P.A."
            },
            "geometry": {
                "type": "Point",
                "coordinates": [
                    12.803385257720949,
                    43.853947392156954
                ]
            }
        },
        {
            "type": "Feature",
            "properties": {
                "name": "stazione di servizio erg di storari andrea & c.s.n.c.",
                "id": "13274",
                "brand": "Total Erg",
                "amenity": "fuel",
                "operator": "STAZIONE DI SERVIZIO ERG DI STORARI ANDREA & C. S.N.C."
            },
            "geometry": {
                "type": "Point",
                "coordinates": [
                    12.758197688795235,
                    43.95936465715116
                ]
            }
        },
        {
            "type": "Feature",
            "properties": {
                "name": "CARBURANTI DISCOUNT",
                "id": "5112",
                "amenity": "fuel",
                "operator": "BOCCALINI AGOSTINO"
            },
            "geometry": {
                "type": "Point",
                "coordinates": [
                    12.777720540761948,
                    43.95207828287002
                ]
            }
        },
        {
            "type": "Feature",
            "properties": {
                "name": "IP -  Montecchio",
                "id": "13646",
                "brand": "Api-Ip",
                "amenity": "fuel",
                "operator": "ACEMA S.P.A."
            },
            "geometry": {
                "type": "Point",
                "coordinates": [
                    12.782501578330992,
                    43.85512683303845
                ]
            }
        },
        {
            "type": "Feature",
            "properties": {
                "name": "Pompa Bianca di Pelosi Teresa",
                "id": "23080",
                "amenity": "fuel",
                "operator": "PELOSI TERESA"
            },
            "geometry": {
                "type": "Point",
                "coordinates": [
                    12.727121457672181,
                    43.91811545664645
                ]
            }
        },
        {
            "type": "Feature",
            "properties": {
                "name": "stazione di servizio agip",
                "id": "18702",
                "brand": "Agip Eni",
                "amenity": "fuel",
                "operator": "STAZIONE SERVIZIO AGIP MASINI MATTEO E MERLUZZO S.N.C."
            },
            "geometry": {
                "type": "Point",
                "coordinates": [
                    12.75184244907382,
                    43.959779969826066
                ]
            }
        },
        {
            "type": "Feature",
            "properties": {
                "name": "ENERGIA FLUIDA GABICCE",
                "id": "27939",
                "brand": "Energia Fluida",
                "amenity": "fuel",
                "operator": "GIAMPAOLI KATIA & C. S.N.C."
            },
            "geometry": {
                "type": "Point",
                "coordinates": [
                    12.76032909750938,
                    43.958201675993465
                ]
            }
        },
        {
            "type": "Feature",
            "properties": {
                "name": "Agip di Prioli Eraldo & C. Sas",
                "id": "7838",
                "brand": "Agip Eni",
                "amenity": "fuel",
                "operator": "AGIP DI PRIOLI ERALDO E C. - S.A.S."
            },
            "geometry": {
                "type": "Point",
                "coordinates": [
                    12.750464677810667,
                    43.953705699256
                ]
            }
        }
    ]
}