{
    "type": "FeatureCollection",
    "features": [
        {
            "type": "Feature",
            "properties": {
                "name": "Costantin Zoppola",
                "id": "25563",
                "brand": "Costantin",
                "amenity": "fuel",
                "operator": "D'ALES GIOVAN BATTISTA"
            },
            "geometry": {
                "type": "Point",
                "coordinates": [
                    12.768087387084963,
                    45.962398146357074
                ]
            }
        },
        {
            "type": "Feature",
            "properties": {
                "name": "agip",
                "id": "22509",
                "brand": "Agip Eni",
                "amenity": "fuel",
                "operator": "Z.M. SERVICE SNC DI ZANUSSO ALESSANDRO E C."
            },
            "geometry": {
                "type": "Point",
                "coordinates": [
                    12.676414234254482,
                    46.03397888609985
                ]
            }
        },
        {
            "type": "Feature",
            "properties": {
                "name": "Forte M.& Bozzetto R. s.n.c.",
                "id": "9985",
                "brand": "Esso",
                "amenity": "fuel",
                "operator": "FORTE MAURIZIO E BOZZETTO RAUL S.N.C."
            },
            "geometry": {
                "type": "Point",
                "coordinates": [
                    12.794824289470057,
                    45.95299340292785
                ]
            }
        },
        {
            "type": "Feature",
            "properties": {
                "name": "PORDENONE - VIALE LIBERTA' 60",
                "id": "7261",
                "brand": "Q8",
                "amenity": "fuel",
                "operator": "SERVIZI & GESTIONI ITALIA S.R.L."
            },
            "geometry": {
                "type": "Point",
                "coordinates": [
                    12.672900661376957,
                    45.96428747293343
                ]
            }
        },
        {
            "type": "Feature",
            "properties": {
                "name": "A.F. PETROLI SPA",
                "id": "27689",
                "brand": "AF Petroli",
                "amenity": "fuel",
                "operator": "A.F.B. PETROLI SRL"
            },
            "geometry": {
                "type": "Point",
                "coordinates": [
                    12.698172926902771,
                    45.951799401297926
                ]
            }
        },
        {
            "type": "Feature",
            "properties": {
                "name": "Sellan Pietro",
                "id": "20182",
                "brand": "Api-Ip",
                "amenity": "fuel",
                "operator": "SELLAN PIETRO"
            },
            "geometry": {
                "type": "Point",
                "coordinates": [
                    12.801271192789725,
                    45.97940101637346
                ]
            }
        },
        {
            "type": "Feature",
            "properties": {
                "name": "De Carlo Snc",
                "id": "30014",
                "brand": "Tamoil",
                "amenity": "fuel",
                "operator": "DE CARLO CARLO DI DE CARLO VANIA & C. S.N.C."
            },
            "geometry": {
                "type": "Point",
                "coordinates": [
                    12.682276118874709,
                    45.97235728673788
                ]
            }
        },
        {
            "type": "Feature",
            "properties": {
                "name": "colussi auto di colussi eraldo",
                "id": "8894",
                "amenity": "fuel",
                "operator": "COLUSSI ERALDO"
            },
            "geometry": {
                "type": "Point",
                "coordinates": [
                    12.821187078952791,
                    45.95664703097577
                ]
            }
        },
        {
            "type": "Feature",
            "properties": {
                "name": "f.lli favaro",
                "id": "4569",
                "brand": "Agip Eni",
                "amenity": "fuel",
                "operator": "FRATELLI FAVARO S.N.C. DI FAVARO CLAUDIO E FAVARO MARCO"
            },
            "geometry": {
                "type": "Point",
                "coordinates": [
                    12.688541837272167,
                    45.97580114484058
                ]
            }
        },
        {
            "type": "Feature",
            "properties": {
                "name": "Costantin",
                "id": "6370",
                "brand": "Costantin",
                "amenity": "fuel",
                "operator": "MARTINEL FRANCO"
            },
            "geometry": {
                "type": "Point",
                "coordinates": [
                    12.65805777755429,
                    46.04892222383609
                ]
            }
        },
        {
            "type": "Feature",
            "properties": {
                "name": "AGIP 4320",
                "id": "4344",
                "brand": "Agip Eni",
                "amenity": "fuel",
                "operator": "PERON MASSIMO"
            },
            "geometry": {
                "type": "Point",
                "coordinates": [
                    12.68794547619632,
                    45.98671862897874
                ]
            }
        },
        {
            "type": "Feature",
            "properties": {
                "name": "PORDENONE-VIA PIAVE 8/A",
                "id": "11776",
                "brand": "Q8",
                "amenity": "fuel",
                "operator": "SERVIZI & GESTIONI ITALIA S.R.L."
            },
            "geometry": {
                "type": "Point",
                "coordinates": [
                    12.672473585319493,
                    45.969098135740744
                ]
            }
        },
        {
            "type": "Feature",
            "properties": {
                "name": "Stazione di servizio di Colledan Luca",
                "id": "26885",
                "brand": "Agip Eni",
                "amenity": "fuel",
                "operator": "COLLEDAN LUCA"
            },
            "geometry": {
                "type": "Point",
                "coordinates": [
                    12.799236233848546,
                    46.03225857927892
                ]
            }
        },
        {
            "type": "Feature",
            "properties": {
                "name": "IP",
                "id": "5681",
                "brand": "Api-Ip",
                "amenity": "fuel",
                "operator": "DELLA ZOTTA GIANCARLO"
            },
            "geometry": {
                "type": "Point",
                "coordinates": [
                    12.693384275319318,
                    45.97853574551794
                ]
            }
        }
    ]
}