{
    "type": "FeatureCollection",
    "features": [
        {
            "type": "Feature",
            "properties": {
                "name": "Portogruaro",
                "id": "8622",
                "brand": "Total Erg",
                "amenity": "fuel",
                "operator": "GESTIONI EUROPA - SOCIETA' PER AZIONI"
            },
            "geometry": {
                "type": "Point",
                "coordinates": [
                    12.848509728836008,
                    45.77494274156674
                ]
            }
        },
        {
            "type": "Feature",
            "properties": {
                "name": "SMP RONCHIS",
                "id": "23352",
                "brand": "San Marco Petroli",
                "amenity": "fuel",
                "operator": "SAN MARCO PETROLI DISTRIBUZIONE S.R.L."
            },
            "geometry": {
                "type": "Point",
                "coordinates": [
                    12.993709444999697,
                    45.797798894161765
                ]
            }
        },
        {
            "type": "Feature",
            "properties": {
                "name": "F.LLI FERRAZZO",
                "id": "4007",
                "brand": "Agip Eni",
                "amenity": "fuel",
                "operator": "PORTOGAS VENEZIANO S.R.L."
            },
            "geometry": {
                "type": "Point",
                "coordinates": [
                    12.879675328731535,
                    45.77543836341487
                ]
            }
        },
        {
            "type": "Feature",
            "properties": {
                "name": "IP - PORTOGRUARO",
                "id": "28747",
                "brand": "Api-Ip",
                "amenity": "fuel",
                "operator": "EUROPAM S.P.A."
            },
            "geometry": {
                "type": "Point",
                "coordinates": [
                    12.876407395970089,
                    45.78010578062292
                ]
            }
        },
        {
            "type": "Feature",
            "properties": {
                "name": "FRATTA NORD",
                "id": "3909",
                "brand": "Agip Eni",
                "amenity": "fuel",
                "operator": "MINARI S.R.L."
            },
            "geometry": {
                "type": "Point",
                "coordinates": [
                    12.880589962005612,
                    45.804592997382336
                ]
            }
        },
        {
            "type": "Feature",
            "properties": {
                "name": "PV 3730",
                "id": "25902",
                "brand": "Agip Eni",
                "amenity": "fuel",
                "operator": "GESTIONI INNOVATIVE ITALIA S.R.L."
            },
            "geometry": {
                "type": "Point",
                "coordinates": [
                    12.834132932540909,
                    45.768092191443884
                ]
            }
        },
        {
            "type": "Feature",
            "properties": {
                "name": "FRATTA SUD",
                "id": "3831",
                "brand": "Esso",
                "amenity": "fuel",
                "operator": "SOC. FRATELLI FATTORI S.A.S. DI FATTORI BRUNO & C."
            },
            "geometry": {
                "type": "Point",
                "coordinates": [
                    12.888188660144808,
                    45.80446473002624
                ]
            }
        },
        {
            "type": "Feature",
            "properties": {
                "name": "esso",
                "id": "22869",
                "brand": "Esso",
                "amenity": "fuel",
                "operator": "PIGHIN ATTILIO"
            },
            "geometry": {
                "type": "Point",
                "coordinates": [
                    12.997819930315018,
                    45.77164806137768
                ]
            }
        },
        {
            "type": "Feature",
            "properties": {
                "name": "PORTOGRUARO-VIALE TRIESTE 27",
                "id": "11939",
                "brand": "Q8",
                "amenity": "fuel",
                "operator": "SERVIZI & GESTIONI ITALIA S.R.L."
            },
            "geometry": {
                "type": "Point",
                "coordinates": [
                    12.84533218650813,
                    45.77513367399414
                ]
            }
        },
        {
            "type": "Feature",
            "properties": {
                "name": "STAZIONE DI SERVIZIO FALCOMER ALESSANDRO",
                "id": "21554",
                "brand": "Total Erg",
                "amenity": "fuel",
                "operator": "STAZIONE DI SERVIZIO ERG DI FALCOMER ALESSANDRO"
            },
            "geometry": {
                "type": "Point",
                "coordinates": [
                    12.886339277029037,
                    45.81373289502277
                ]
            }
        },
        {
            "type": "Feature",
            "properties": {
                "name": "VEGA FOSSALTA DI PORTOGRUARO",
                "id": "31520",
                "brand": "Vega",
                "amenity": "fuel",
                "operator": "VEGA CARBURANTI S.P.A."
            },
            "geometry": {
                "type": "Point",
                "coordinates": [
                    12.890622809509296,
                    45.78103994694939
                ]
            }
        },
        {
            "type": "Feature",
            "properties": {
                "name": "PETROL S DI CECCO GIANCARLO",
                "id": "22840",
                "amenity": "fuel",
                "operator": "CECCO GIANCARLO & C. SAS"
            },
            "geometry": {
                "type": "Point",
                "coordinates": [
                    12.967215925455093,
                    45.77221531349179
                ]
            }
        },
        {
            "type": "Feature",
            "properties": {
                "name": "IP",
                "id": "27995",
                "brand": "Api-Ip",
                "amenity": "fuel",
                "operator": "DE PAOLI SILVIO & C. S.N.C."
            },
            "geometry": {
                "type": "Point",
                "coordinates": [
                    13.005398511886597,
                    45.81145918511778
                ]
            }
        },
        {
            "type": "Feature",
            "properties": {
                "name": "Fossalta di Portogruaro",
                "id": "25845",
                "brand": "Total Erg",
                "amenity": "fuel",
                "operator": "GESTIONI EUROPA - SOCIETA' PER AZIONI"
            },
            "geometry": {
                "type": "Point",
                "coordinates": [
                    12.944158271163925,
                    45.77455789912691
                ]
            }
        },
        {
            "type": "Feature",
            "properties": {
                "name": "SAN M AL TAGLIAMENTO -CASE BRUCIATE",
                "id": "7284",
                "brand": "Q8",
                "amenity": "fuel",
                "operator": "SERVIZI & GESTIONI ITALIA S.R.L."
            },
            "geometry": {
                "type": "Point",
                "coordinates": [
                    12.990383271163976,
                    45.745739743525554
                ]
            }
        },
        {
            "type": "Feature",
            "properties": {
                "name": "IP - FOSSALTA DI PORTOGRUARO",
                "id": "28748",
                "brand": "Api-Ip",
                "amenity": "fuel",
                "operator": "EUROPAM S.P.A."
            },
            "geometry": {
                "type": "Point",
                "coordinates": [
                    12.896455228328707,
                    45.76697624387182
                ]
            }
        },
        {
            "type": "Feature",
            "properties": {
                "name": "TOTAL LATISANA",
                "id": "29406",
                "brand": "Total Erg",
                "amenity": "fuel",
                "operator": "SOM S.P.A."
            },
            "geometry": {
                "type": "Point",
                "coordinates": [
                    12.997264713048937,
                    45.77285327814493
                ]
            }
        },
        {
            "type": "Feature",
            "properties": {
                "name": "BI.GI.SERVICE ESSO",
                "id": "21760",
                "brand": "Esso",
                "amenity": "fuel",
                "operator": "BI.GI. SERVICE DI BONURA GIUSEPPE"
            },
            "geometry": {
                "type": "Point",
                "coordinates": [
                    12.863211691787683,
                    45.776900512390824
                ]
            }
        },
        {
            "type": "Feature",
            "properties": {
                "name": "Pit Stop s.n.c.",
                "id": "16231",
                "brand": "Agip Eni",
                "amenity": "fuel",
                "operator": "PIT STOP S.N.C. DI VITALE ANNA E CESARE"
            },
            "geometry": {
                "type": "Point",
                "coordinates": [
                    13.002651534671031,
                    45.774045380186855
                ]
            }
        },
        {
            "type": "Feature",
            "properties": {
                "name": "Venezia - Portogruaro",
                "id": "17630",
                "amenity": "fuel",
                "operator": "BEYFIN S.P.A."
            },
            "geometry": {
                "type": "Point",
                "coordinates": [
                    12.83316721163942,
                    45.76813956518764
                ]
            }
        }
    ]
}