{
    "type": "FeatureCollection",
    "features": [
        {
            "type": "Feature",
            "properties": {
                "name": "TOTALERG di Marinacci Renato",
                "id": "6807",
                "brand": "Total Erg",
                "amenity": "fuel",
                "operator": "MARINACCI RENATO"
            },
            "geometry": {
                "type": "Point",
                "coordinates": [
                    12.83577707050017,
                    45.944253080337695
                ]
            }
        },
        {
            "type": "Feature",
            "properties": {
                "name": "eni pilosio silvio",
                "id": "22248",
                "brand": "Agip Eni",
                "amenity": "fuel",
                "operator": "PILOSIO SILVIO"
            },
            "geometry": {
                "type": "Point",
                "coordinates": [
                    12.92810395359993,
                    45.859538774615466
                ]
            }
        },
        {
            "type": "Feature",
            "properties": {
                "name": "COASSIN ALESSANDRO & C. S.N.C.",
                "id": "9693",
                "brand": "Agip Eni",
                "amenity": "fuel",
                "operator": "COASSIN ALESSANDRO & C. S.N.C."
            },
            "geometry": {
                "type": "Point",
                "coordinates": [
                    12.85867094993591,
                    45.91787389915827
                ]
            }
        },
        {
            "type": "Feature",
            "properties": {
                "name": "Pagotto",
                "id": "14066",
                "brand": "Api-Ip",
                "amenity": "fuel",
                "operator": "PAGOTTO CLAUDIO"
            },
            "geometry": {
                "type": "Point",
                "coordinates": [
                    12.943051702446722,
                    45.92399232965421
                ]
            }
        },
        {
            "type": "Feature",
            "properties": {
                "name": "SAN VITO AL TAGLIAM -SS463 KM45 719",
                "id": "7262",
                "brand": "Q8",
                "amenity": "fuel",
                "operator": "SERVIZI & GESTIONI ITALIA S.R.L."
            },
            "geometry": {
                "type": "Point",
                "coordinates": [
                    12.871631093254107,
                    45.931305865530895
                ]
            }
        },
        {
            "type": "Feature",
            "properties": {
                "name": "GAZZIOLA CELIO DIEGO",
                "id": "15835",
                "brand": "Api-Ip",
                "amenity": "fuel",
                "operator": "GAZZIOLA CELIO DIEGO"
            },
            "geometry": {
                "type": "Point",
                "coordinates": [
                    12.865533381700516,
                    45.906232305565204
                ]
            }
        },
        {
            "type": "Feature",
            "properties": {
                "name": "Eni",
                "id": "10113",
                "brand": "Agip Eni",
                "amenity": "fuel",
                "operator": "ALBINI LUCA"
            },
            "geometry": {
                "type": "Point",
                "coordinates": [
                    13.00014406442642,
                    45.87404146271462
                ]
            }
        },
        {
            "type": "Feature",
            "properties": {
                "name": "SAN VITO AL TAGLIAMENTO-V.LE MADONNA DI ROSA 18",
                "id": "11772",
                "brand": "Q8",
                "amenity": "fuel",
                "operator": "SERVIZI & GESTIONI ITALIA S.R.L."
            },
            "geometry": {
                "type": "Point",
                "coordinates": [
                    12.866032186508164,
                    45.917861154686065
                ]
            }
        },
        {
            "type": "Feature",
            "properties": {
                "name": "SAN VITO AL TAGLIAMENTO - PONTEROSSO",
                "id": "25825",
                "brand": "Api-Ip",
                "amenity": "fuel",
                "operator": "IP SERVICES S.R.L."
            },
            "geometry": {
                "type": "Point",
                "coordinates": [
                    12.882351720237692,
                    45.949803729817255
                ]
            }
        },
        {
            "type": "Feature",
            "properties": {
                "name": "TOTALERG",
                "id": "18022",
                "brand": "Total Erg",
                "amenity": "fuel",
                "operator": "LUCHIN ALVARIO"
            },
            "geometry": {
                "type": "Point",
                "coordinates": [
                    12.873779474868796,
                    45.92474342515573
                ]
            }
        },
        {
            "type": "Feature",
            "properties": {
                "name": "_f.lli favaro",
                "id": "4570",
                "brand": "Agip Eni",
                "amenity": "fuel",
                "operator": "FRATELLI FAVARO S.N.C. DI FAVARO CLAUDIO E FAVARO MARCO"
            },
            "geometry": {
                "type": "Point",
                "coordinates": [
                    12.881971299648285,
                    45.85032307296966
                ]
            }
        },
        {
            "type": "Feature",
            "properties": {
                "name": "Agip",
                "id": "13689",
                "brand": "Agip Eni",
                "amenity": "fuel",
                "operator": "PITUELLO STEFANO"
            },
            "geometry": {
                "type": "Point",
                "coordinates": [
                    12.976701557636261,
                    45.946009139170044
                ]
            }
        },
        {
            "type": "Feature",
            "properties": {
                "name": "totalerg",
                "id": "16412",
                "brand": "Total Erg",
                "amenity": "fuel",
                "operator": "B. & B. DI BRUN GIANFRANCO E STEFANO S.A.S."
            },
            "geometry": {
                "type": "Point",
                "coordinates": [
                    12.973291128873822,
                    45.95039776869089
                ]
            }
        }
    ]
}