{
    "type": "FeatureCollection",
    "features": [
        {
            "type": "Feature",
            "properties": {
                "name": "DISTRIBUTORE IP DI COMINOTTO GIOVANNI E C. SNC.",
                "id": "22709",
                "brand": "Api-Ip",
                "amenity": "fuel",
                "operator": "DISTRIBUTORE MAMUSA DI COMINOTTO GIOVANNI  E C. SNC"
            },
            "geometry": {
                "type": "Point",
                "coordinates": [
                    12.899160485012546,
                    46.115891009029646
                ]
            }
        },
        {
            "type": "Feature",
            "properties": {
                "name": "distributore s.m.p.",
                "id": "25580",
                "amenity": "fuel",
                "operator": "LIVA GIANNI"
            },
            "geometry": {
                "type": "Point",
                "coordinates": [
                    12.887039737434407,
                    46.159116608469766
                ]
            }
        },
        {
            "type": "Feature",
            "properties": {
                "name": "EniCaf√® & Shop di MorosoP. & c. sas",
                "id": "4238",
                "brand": "Agip Eni",
                "amenity": "fuel",
                "operator": "BUTTAZZONI ALEARDO DI MOROSO PAOLO & C. S.A.S"
            },
            "geometry": {
                "type": "Point",
                "coordinates": [
                    12.988908290863035,
                    46.14869569568544
                ]
            }
        },
        {
            "type": "Feature",
            "properties": {
                "name": "powerservice snc",
                "id": "10355",
                "brand": "Agip Eni",
                "amenity": "fuel",
                "operator": "POWERSERVICE SNC AREA DI SERVIZI CARBURANTI DI MARZIO DANIEL & TAMBOSSO STEFANO"
            },
            "geometry": {
                "type": "Point",
                "coordinates": [
                    12.888599038124081,
                    46.10918797306597
                ]
            }
        },
        {
            "type": "Feature",
            "properties": {
                "name": "TotalErg di Zanet Marietto & C. snc",
                "id": "19082",
                "brand": "Total Erg",
                "amenity": "fuel",
                "operator": "ZANET MARIETTO & C. S.N.C."
            },
            "geometry": {
                "type": "Point",
                "coordinates": [
                    12.868789280967688,
                    46.13240265616383
                ]
            }
        },
        {
            "type": "Feature",
            "properties": {
                "name": "F.lli Coassin di Coassin Giorgio e C.Snc",
                "id": "8539",
                "brand": "Agip Eni",
                "amenity": "fuel",
                "operator": "F.LLI COASSIN DI COASSIN GIORGIO & C. S.N.C."
            },
            "geometry": {
                "type": "Point",
                "coordinates": [
                    12.899269898147624,
                    46.11743738530623
                ]
            }
        },
        {
            "type": "Feature",
            "properties": {
                "name": "Gaspardo Silvano & Serafini snc",
                "id": "26915",
                "brand": "Total Erg",
                "amenity": "fuel",
                "operator": "GASPARDO SILVANO & SERAFINI S.N.C."
            },
            "geometry": {
                "type": "Point",
                "coordinates": [
                    12.956503182649612,
                    46.08551393891267
                ]
            }
        },
        {
            "type": "Feature",
            "properties": {
                "name": "SPILIMBERGO-VIA REPUBBLICA 4",
                "id": "11774",
                "brand": "Q8",
                "amenity": "fuel",
                "operator": "SERVIZI & GESTIONI ITALIA S.R.L."
            },
            "geometry": {
                "type": "Point",
                "coordinates": [
                    12.89961533498763,
                    46.106627474670056
                ]
            }
        },
        {
            "type": "Feature",
            "properties": {
                "name": "DISTRIBUTORE IP",
                "id": "26924",
                "brand": "Api-Ip",
                "amenity": "fuel",
                "operator": "UDACIA DI RUSTANOVICI VALENTINA  &  C. S.N.C."
            },
            "geometry": {
                "type": "Point",
                "coordinates": [
                    13.000844120979309,
                    46.12108922321144
                ]
            }
        },
        {
            "type": "Feature",
            "properties": {
                "name": "bezzutti paolo",
                "id": "13020",
                "brand": "Tamoil",
                "amenity": "fuel",
                "operator": "BEZZUTTI PAOLO"
            },
            "geometry": {
                "type": "Point",
                "coordinates": [
                    12.95758008956909,
                    46.11457219030199
                ]
            }
        },
        {
            "type": "Feature",
            "properties": {
                "name": "ESSO di T.B.P. SAS",
                "id": "25586",
                "brand": "Esso",
                "amenity": "fuel",
                "operator": "T.B.P. S.A.S. DI BERTOLI TIZIANO"
            },
            "geometry": {
                "type": "Point",
                "coordinates": [
                    12.877814070901648,
                    46.18244082186343
                ]
            }
        },
        {
            "type": "Feature",
            "properties": {
                "name": "Eni di Alpha Bootis sas",
                "id": "25052",
                "brand": "Agip Eni",
                "amenity": "fuel",
                "operator": "ALPHA BOOTIS DI BERTIN PAOLA & C. SAS"
            },
            "geometry": {
                "type": "Point",
                "coordinates": [
                    12.89042713201593,
                    46.11663421392864
                ]
            }
        },
        {
            "type": "Feature",
            "properties": {
                "name": "fioretto mario",
                "id": "9834",
                "brand": "Esso",
                "amenity": "fuel",
                "operator": "FIORETTO MARIO"
            },
            "geometry": {
                "type": "Point",
                "coordinates": [
                    13.003302365526453,
                    46.16067359947359
                ]
            }
        }
    ]
}