{
    "type": "FeatureCollection",
    "features": [
        {
            "type": "Feature",
            "properties": {
                "name": "CI.DIS.DI CITRIGNO CARLO&C.",
                "id": "22776",
                "brand": "Agip Eni",
                "amenity": "fuel",
                "operator": "CI.DIS. DI CITRIGNO CARLO & C. - SOCIETA' IN ACCOMANDITA SEMPLICE"
            },
            "geometry": {
                "type": "Point",
                "coordinates": [
                    12.996944157516511,
                    41.7454182293488
                ]
            }
        },
        {
            "type": "Feature",
            "properties": {
                "name": "autoservizi molle sas",
                "id": "27463",
                "brand": "Q8",
                "amenity": "fuel",
                "operator": "AUTOSERVIZI MOLLE -SOCIETA IN ACCOMANDATA SEMPLICE DI MOLLE ANTON IO & C."
            },
            "geometry": {
                "type": "Point",
                "coordinates": [
                    13.005024271163963,
                    41.72418315183579
                ]
            }
        },
        {
            "type": "Feature",
            "properties": {
                "name": "CDS PETROLI",
                "id": "27613",
                "brand": "Agip Eni",
                "amenity": "fuel",
                "operator": "CDS PETROLI SOCIETA' IN NOME COLLETTIVO DI SACCO STEFANO E C."
            },
            "geometry": {
                "type": "Point",
                "coordinates": [
                    13.000955432653429,
                    41.74410683902005
                ]
            }
        },
        {
            "type": "Feature",
            "properties": {
                "name": "IP - Giulianello",
                "id": "12894",
                "brand": "Api-Ip",
                "amenity": "fuel",
                "operator": "NATALIZIA PETROLI S.R.L."
            },
            "geometry": {
                "type": "Point",
                "coordinates": [
                    12.864758223295215,
                    41.69270118524802
                ]
            }
        },
        {
            "type": "Feature",
            "properties": {
                "name": "ARTENA",
                "id": "5880",
                "brand": "Total Erg",
                "amenity": "fuel",
                "operator": "TotalErg SpA"
            },
            "geometry": {
                "type": "Point",
                "coordinates": [
                    12.900446271163899,
                    41.747382980231336
                ]
            }
        },
        {
            "type": "Feature",
            "properties": {
                "name": "COLLEFERRO S.S. 600 ARIANA KM. 3",
                "id": "21996",
                "brand": "Q8",
                "amenity": "fuel",
                "operator": "SERVIZI & GESTIONI ITALIA S.R.L."
            },
            "geometry": {
                "type": "Point",
                "coordinates": [
                    12.95924194054487,
                    41.735810437281025
                ]
            }
        },
        {
            "type": "Feature",
            "properties": {
                "name": "ARTENA - SS 600 VIA ARIANA KM8 353.",
                "id": "7264",
                "brand": "Q8",
                "amenity": "fuel",
                "operator": "SERVIZI & GESTIONI ITALIA S.R.L."
            },
            "geometry": {
                "type": "Point",
                "coordinates": [
                    12.870885271163957,
                    41.74995199350125
                ]
            }
        },
        {
            "type": "Feature",
            "properties": {
                "name": "Gpl - Metano",
                "id": "25211",
                "amenity": "fuel",
                "operator": "MARINI - SOCIETA A RESPONSABILITA LIMITATA"
            },
            "geometry": {
                "type": "Point",
                "coordinates": [
                    12.942255288362505,
                    41.76601535620827
                ]
            }
        },
        {
            "type": "Feature",
            "properties": {
                "name": "Schina Umberto Distributore",
                "id": "27455",
                "brand": "Esso",
                "amenity": "fuel",
                "operator": "SCHINA UMBERTO"
            },
            "geometry": {
                "type": "Point",
                "coordinates": [
                    12.998546808958054,
                    41.744288353539034
                ]
            }
        },
        {
            "type": "Feature",
            "properties": {
                "name": "Colleferro",
                "id": "31131",
                "brand": "Total Erg",
                "amenity": "fuel",
                "operator": "GESTIONI EUROPA - SOCIETA' PER AZIONI"
            },
            "geometry": {
                "type": "Point",
                "coordinates": [
                    13.00234079360962,
                    41.74145050411443
                ]
            }
        },
        {
            "type": "Feature",
            "properties": {
                "name": "Stazione Di Servizio Chialastri",
                "id": "4498",
                "amenity": "fuel",
                "operator": "CHIALASTRI S.R.L."
            },
            "geometry": {
                "type": "Point",
                "coordinates": [
                    12.91840276983635,
                    41.765329986619356
                ]
            }
        },
        {
            "type": "Feature",
            "properties": {
                "name": "ARTENA",
                "id": "13979",
                "brand": "Total Erg",
                "amenity": "fuel",
                "operator": "PALONE MASSIMILIANO"
            },
            "geometry": {
                "type": "Point",
                "coordinates": [
                    12.910889536142347,
                    41.742817010444476
                ]
            }
        },
        {
            "type": "Feature",
            "properties": {
                "name": "54121 Colleferro",
                "id": "26854",
                "brand": "Agip Eni",
                "amenity": "fuel",
                "operator": "ENI RETE OIL&NONOIL S.P.A."
            },
            "geometry": {
                "type": "Point",
                "coordinates": [
                    13.004713719335088,
                    41.741834197501326
                ]
            }
        },
        {
            "type": "Feature",
            "properties": {
                "name": "Eni 06740 Abbafati Fabrizio",
                "id": "12467",
                "brand": "Agip Eni",
                "amenity": "fuel",
                "operator": "ABBAFATI FABRIZIO"
            },
            "geometry": {
                "type": "Point",
                "coordinates": [
                    12.876362800598145,
                    41.68120522410551
                ]
            }
        },
        {
            "type": "Feature",
            "properties": {
                "name": "TotalErg - Artena",
                "id": "28873",
                "brand": "Total Erg",
                "amenity": "fuel",
                "operator": "MARINI - SOCIETA A RESPONSABILITA LIMITATA"
            },
            "geometry": {
                "type": "Point",
                "coordinates": [
                    12.915470078587532,
                    41.74896372666943
                ]
            }
        },
        {
            "type": "Feature",
            "properties": {
                "name": "TAMOIL",
                "id": "28012",
                "brand": "Tamoil",
                "amenity": "fuel",
                "operator": "HOSSAIN SHEIKH JABBER"
            },
            "geometry": {
                "type": "Point",
                "coordinates": [
                    13.000507503747942,
                    41.7438877000423
                ]
            }
        },
        {
            "type": "Feature",
            "properties": {
                "name": "imp. nÂ°54021 ENI",
                "id": "26889",
                "brand": "Agip Eni",
                "amenity": "fuel",
                "operator": "MANCINI GIORGIO"
            },
            "geometry": {
                "type": "Point",
                "coordinates": [
                    12.909912541508673,
                    41.64308983195218
                ]
            }
        },
        {
            "type": "Feature",
            "properties": {
                "name": "La stazione dei desideri s.n.c",
                "id": "26983",
                "brand": "Api-Ip",
                "amenity": "fuel",
                "operator": "LA STAZIONE DEI DESIDERI DI CANNONE E PELLEGRINI - SOCIETA' IN NO ME COLLETTIVO"
            },
            "geometry": {
                "type": "Point",
                "coordinates": [
                    12.917424738407135,
                    41.741401471306645
                ]
            }
        },
        {
            "type": "Feature",
            "properties": {
                "name": "TOTALERG GESTORE CELLETTI GABRIELE",
                "id": "27668",
                "brand": "Total Erg",
                "amenity": "fuel",
                "operator": "CELLETTI GABRIELE"
            },
            "geometry": {
                "type": "Point",
                "coordinates": [
                    13.005962062499636,
                    41.723416956864554
                ]
            }
        },
        {
            "type": "Feature",
            "properties": {
                "name": "MANCIOCCHI E ROBERTI",
                "id": "19613",
                "brand": "Api-Ip",
                "amenity": "fuel",
                "operator": "STAZIONE DI SERVIZIO DI MANCIOCCHI FRANCA E ROBERTI GIORGIO & C."
            },
            "geometry": {
                "type": "Point",
                "coordinates": [
                    12.843590711639424,
                    41.73245480825417
                ]
            }
        }
    ]
}