{
    "type": "FeatureCollection",
    "features": [
        {
            "type": "Feature",
            "properties": {
                "name": "PESARO - L.GO TRE MARTIRI",
                "id": "22296",
                "brand": "Api-Ip",
                "amenity": "fuel",
                "operator": "IP SERVICES S.R.L."
            },
            "geometry": {
                "type": "Point",
                "coordinates": [
                    12.900685830688415,
                    43.91124589552372
                ]
            }
        },
        {
            "type": "Feature",
            "properties": {
                "name": "Tamoil Pesaro Strada Interquartieri",
                "id": "21496",
                "brand": "Tamoil",
                "amenity": "fuel",
                "operator": "INTERCAR SERVICE DI BERRONI ROBERTO & FRATELLI - S.N.C."
            },
            "geometry": {
                "type": "Point",
                "coordinates": [
                    12.885750532150267,
                    43.8925191396989
                ]
            }
        },
        {
            "type": "Feature",
            "properties": {
                "name": "EREDI ANDREANI-DISTRIBUTORE CARBURANTI",
                "id": "29446",
                "amenity": "fuel",
                "operator": "EREDI ANDREANI S.R.L."
            },
            "geometry": {
                "type": "Point",
                "coordinates": [
                    12.912419736385344,
                    43.902220791945076
                ]
            }
        },
        {
            "type": "Feature",
            "properties": {
                "name": "PESARO - URBINATE",
                "id": "25069",
                "brand": "Api-Ip",
                "amenity": "fuel",
                "operator": "IP SERVICES S.R.L."
            },
            "geometry": {
                "type": "Point",
                "coordinates": [
                    12.841974198818205,
                    43.90007789023714
                ]
            }
        },
        {
            "type": "Feature",
            "properties": {
                "name": "VIALE CILADINI - PESARO",
                "id": "27155",
                "brand": "Q8",
                "amenity": "fuel",
                "operator": "SERVIZI & GESTIONI ITALIA S.R.L."
            },
            "geometry": {
                "type": "Point",
                "coordinates": [
                    12.917152586370547,
                    43.90710887345354
                ]
            }
        },
        {
            "type": "Feature",
            "properties": {
                "name": "Pesaro",
                "id": "23000",
                "brand": "Total Erg",
                "amenity": "fuel",
                "operator": "GESTIONI EUROPA - SOCIETA' PER AZIONI"
            },
            "geometry": {
                "type": "Point",
                "coordinates": [
                    12.896094856483499,
                    43.90079106942847
                ]
            }
        },
        {
            "type": "Feature",
            "properties": {
                "name": "STRADA DELLE REGIONI KM 2+260 - PESARO",
                "id": "27346",
                "brand": "Q8",
                "amenity": "fuel",
                "operator": "SERVIZI & GESTIONI ITALIA S.R.L."
            },
            "geometry": {
                "type": "Point",
                "coordinates": [
                    12.871573872422001,
                    43.88947191642649
                ]
            }
        },
        {
            "type": "Feature",
            "properties": {
                "name": "FOGLIA OVEST",
                "id": "3892",
                "brand": "Api-Ip",
                "amenity": "fuel",
                "operator": "Foglia Ovest di Cionna"
            },
            "geometry": {
                "type": "Point",
                "coordinates": [
                    12.879600000000002,
                    43.8939
                ]
            }
        },
        {
            "type": "Feature",
            "properties": {
                "name": "agip service di montanari mara ec. s.n.c.",
                "id": "11203",
                "brand": "Agip Eni",
                "amenity": "fuel",
                "operator": "AGIP SERVICE DI MONTANARI MARA E C. S.N.C."
            },
            "geometry": {
                "type": "Point",
                "coordinates": [
                    12.91779218465581,
                    43.90315723441739
                ]
            }
        },
        {
            "type": "Feature",
            "properties": {
                "name": "TOTALERG di Bailetti Alessandro e Tazzieri Raimondo",
                "id": "11322",
                "brand": "Total Erg",
                "amenity": "fuel",
                "operator": "STAZIONE ERG DI BAILETTI ALESSANDRO E TAZZIERI RAIMONDO SNC"
            },
            "geometry": {
                "type": "Point",
                "coordinates": [
                    12.91179487116392,
                    43.89573307562566
                ]
            }
        },
        {
            "type": "Feature",
            "properties": {
                "name": "IP -  Pesaro Gagarin 6",
                "id": "13635",
                "brand": "Api-Ip",
                "amenity": "fuel",
                "operator": "ACEMA S.P.A."
            },
            "geometry": {
                "type": "Point",
                "coordinates": [
                    12.88931564296024,
                    43.905867603956196
                ]
            }
        },
        {
            "type": "Feature",
            "properties": {
                "name": "Distributore del Porto",
                "id": "29687",
                "amenity": "fuel",
                "operator": "GRUPPO ARES SOCIETA' A RESPONSABILITA' LIMITATA O ANCHE IN FORMA ABBREVIATA \"GRUPPO ARES S.R.L.\""
            },
            "geometry": {
                "type": "Point",
                "coordinates": [
                    12.90485993027687,
                    43.92058999345247
                ]
            }
        },
        {
            "type": "Feature",
            "properties": {
                "name": "SELF AREA AGIP DI FRANCOLINI FABIO & MORETTI GIANFRANCO S.N.C.",
                "id": "14415",
                "brand": "Agip Eni",
                "amenity": "fuel",
                "operator": "SELF AREA AGIP DI FRANCOLINI FABIO & MORETTI GIANFRANCO S.N.C."
            },
            "geometry": {
                "type": "Point",
                "coordinates": [
                    12.904782876057425,
                    43.896589967799294
                ]
            }
        },
        {
            "type": "Feature",
            "properties": {
                "name": "FOGLIA EST",
                "id": "3707",
                "brand": "Agip Eni",
                "amenity": "fuel",
                "operator": "Schincaglia A. & C. s.n.c."
            },
            "geometry": {
                "type": "Point",
                "coordinates": [
                    12.879700000000001,
                    43.8947
                ]
            }
        },
        {
            "type": "Feature",
            "properties": {
                "name": "IP -  Fano S.N.A.N. 16",
                "id": "13629",
                "brand": "Api-Ip",
                "amenity": "fuel",
                "operator": "ACEMA S.P.A."
            },
            "geometry": {
                "type": "Point",
                "coordinates": [
                    12.989773476399252,
                    43.86261609823385
                ]
            }
        },
        {
            "type": "Feature",
            "properties": {
                "name": "PESARO-S.S.16 ADRIATICA N.38 KM237",
                "id": "11784",
                "brand": "Q8",
                "amenity": "fuel",
                "operator": "SERVIZI & GESTIONI ITALIA S.R.L."
            },
            "geometry": {
                "type": "Point",
                "coordinates": [
                    12.89639890193939,
                    43.910802448297005
                ]
            }
        },
        {
            "type": "Feature",
            "properties": {
                "name": "6081 PESARO URBINO PONCHIELLI",
                "id": "26132",
                "brand": "Agip Eni",
                "amenity": "fuel",
                "operator": "ENI RETE OIL&NONOIL S.P.A."
            },
            "geometry": {
                "type": "Point",
                "coordinates": [
                    12.894661457672099,
                    43.90183838306743
                ]
            }
        },
        {
            "type": "Feature",
            "properties": {
                "name": "Gennari Tamoil Pesaro",
                "id": "27426",
                "brand": "Tamoil",
                "amenity": "fuel",
                "operator": "GENNARI FABIO & C. S.A.S."
            },
            "geometry": {
                "type": "Point",
                "coordinates": [
                    12.910900679459019,
                    43.89598940849251
                ]
            }
        },
        {
            "type": "Feature",
            "properties": {
                "name": "Toccacieli paolo",
                "id": "30556",
                "amenity": "fuel",
                "operator": "TOCCACIELI PAOLO"
            },
            "geometry": {
                "type": "Point",
                "coordinates": [
                    12.97052174806595,
                    43.87498466523175
                ]
            }
        },
        {
            "type": "Feature",
            "properties": {
                "name": "BARTOLUCCI VITTORIO & C SNC",
                "id": "5106",
                "brand": "Api-Ip",
                "amenity": "fuel",
                "operator": "BARTOLUCCI VITTORIO & C. S.N.C."
            },
            "geometry": {
                "type": "Point",
                "coordinates": [
                    12.841952741146088,
                    43.9001161569912
                ]
            }
        },
        {
            "type": "Feature",
            "properties": {
                "name": "PV 59251",
                "id": "24941",
                "brand": "Agip Eni",
                "amenity": "fuel",
                "operator": "GESTIONI INNOVATIVE ITALIA S.R.L."
            },
            "geometry": {
                "type": "Point",
                "coordinates": [
                    12.904579103015974,
                    43.89691502289466
                ]
            }
        },
        {
            "type": "Feature",
            "properties": {
                "name": "PESARO VIA J. GAGARIN 50",
                "id": "23238",
                "brand": "Q8",
                "amenity": "fuel",
                "operator": "SERVIZI & GESTIONI ITALIA S.R.L."
            },
            "geometry": {
                "type": "Point",
                "coordinates": [
                    12.885281145572664,
                    43.90662540312776
                ]
            }
        },
        {
            "type": "Feature",
            "properties": {
                "name": "OIL ONE - Pesaro Panoramica",
                "id": "13621",
                "amenity": "fuel",
                "operator": "ACEMA S.P.A."
            },
            "geometry": {
                "type": "Point",
                "coordinates": [
                    12.902668366270518,
                    43.916358556994325
                ]
            }
        },
        {
            "type": "Feature",
            "properties": {
                "name": "Stazione di Servizio Albertini",
                "id": "21692",
                "amenity": "fuel",
                "operator": "STAZIONE DI SERVIZIO ALBERTINI SRL"
            },
            "geometry": {
                "type": "Point",
                "coordinates": [
                    12.887113094329836,
                    43.845073952944794
                ]
            }
        },
        {
            "type": "Feature",
            "properties": {
                "name": "OIL ONE PESARO VIA GAGARIN 90",
                "id": "31117",
                "amenity": "fuel",
                "operator": "ACEMA S.P.A."
            },
            "geometry": {
                "type": "Point",
                "coordinates": [
                    12.875763455294761,
                    43.90874846834655
                ]
            }
        },
        {
            "type": "Feature",
            "properties": {
                "name": "stazione di servizio totalerg di serafini mirko",
                "id": "13737",
                "brand": "Total Erg",
                "amenity": "fuel",
                "operator": "STAZIONE DI SERVIZIO ERG DI SERAFINI MIRKO"
            },
            "geometry": {
                "type": "Point",
                "coordinates": [
                    12.864956015344202,
                    43.88226639324126
                ]
            }
        },
        {
            "type": "Feature",
            "properties": {
                "name": "Metano Ferrgas",
                "id": "4091",
                "amenity": "fuel",
                "operator": "FERRGAS DI FERRETTI ROBERTO"
            },
            "geometry": {
                "type": "Point",
                "coordinates": [
                    12.851916551589962,
                    43.87954674217164
                ]
            }
        },
        {
            "type": "Feature",
            "properties": {
                "name": "ENI",
                "id": "7310",
                "brand": "Agip Eni",
                "amenity": "fuel",
                "operator": "D & D SELFAREA S.N.C. DI DE ANGELIS STEFANO & DESIMONI RICCARDO"
            },
            "geometry": {
                "type": "Point",
                "coordinates": [
                    12.898496389389036,
                    43.91085500734702
                ]
            }
        },
        {
            "type": "Feature",
            "properties": {
                "name": "SPADONI PAOLO",
                "id": "17445",
                "brand": "Agip Eni",
                "amenity": "fuel",
                "operator": "SPADONI PAOLO"
            },
            "geometry": {
                "type": "Point",
                "coordinates": [
                    12.85459667444229,
                    43.90324505933083
                ]
            }
        },
        {
            "type": "Feature",
            "properties": {
                "name": "Fano",
                "id": "10097",
                "brand": "Total Erg",
                "amenity": "fuel",
                "operator": "GESTIONI EUROPA - SOCIETA' PER AZIONI"
            },
            "geometry": {
                "type": "Point",
                "coordinates": [
                    13.002386391162872,
                    43.854675793429244
                ]
            }
        },
        {
            "type": "Feature",
            "properties": {
                "name": "Oil One Pesaro Interquartieri",
                "id": "24944",
                "amenity": "fuel",
                "operator": "ACEMA S.P.A."
            },
            "geometry": {
                "type": "Point",
                "coordinates": [
                    12.889623641967772,
                    43.89105784067485
                ]
            }
        },
        {
            "type": "Feature",
            "properties": {
                "name": "Stazione di Servizio TOTALERG di Gulini Elena",
                "id": "31620",
                "brand": "Total Erg",
                "amenity": "fuel",
                "operator": "GULINI ELENA"
            },
            "geometry": {
                "type": "Point",
                "coordinates": [
                    12.856847047805784,
                    43.92217228066515
                ]
            }
        },
        {
            "type": "Feature",
            "properties": {
                "name": "F.lli Sabattini s.n.c.",
                "id": "21337",
                "brand": "Esso",
                "amenity": "fuel",
                "operator": "F.LLI SABATTINI S.N.C. DI SABATTINI RENATO E SIMONE"
            },
            "geometry": {
                "type": "Point",
                "coordinates": [
                    12.89030626416206,
                    43.91031241054088
                ]
            }
        },
        {
            "type": "Feature",
            "properties": {
                "name": "Stazione di Servizio IP Mencoboni Nicoletta",
                "id": "10521",
                "brand": "Api-Ip",
                "amenity": "fuel",
                "operator": "MENCOBONI  NICOLETTA"
            },
            "geometry": {
                "type": "Point",
                "coordinates": [
                    12.968697314155634,
                    43.841278412068526
                ]
            }
        }
    ]
}