{
    "type": "FeatureCollection",
    "features": [
        {
            "type": "Feature",
            "properties": {
                "name": "Q8",
                "id": "31654",
                "brand": "Q8",
                "amenity": "fuel",
                "operator": "G.A.M. S.R.L."
            },
            "geometry": {
                "type": "Point",
                "coordinates": [
                    12.879126816987993,
                    41.49364130886161
                ]
            }
        },
        {
            "type": "Feature",
            "properties": {
                "name": "TOTAL ERG",
                "id": "24058",
                "brand": "Total Erg",
                "amenity": "fuel",
                "operator": "REGEST S.R.L."
            },
            "geometry": {
                "type": "Point",
                "coordinates": [
                    12.952038645744324,
                    41.44760559443156
                ]
            }
        },
        {
            "type": "Feature",
            "properties": {
                "name": "PV 57150",
                "id": "25866",
                "brand": "Agip Eni",
                "amenity": "fuel",
                "operator": "GESTIONI INNOVATIVE ITALIA S.R.L."
            },
            "geometry": {
                "type": "Point",
                "coordinates": [
                    12.925753323995423,
                    41.45849169698159
                ]
            }
        },
        {
            "type": "Feature",
            "properties": {
                "name": "Eni Lido",
                "id": "31392",
                "brand": "Agip Eni",
                "amenity": "fuel",
                "operator": "AL-GEDI S.R.L."
            },
            "geometry": {
                "type": "Point",
                "coordinates": [
                    12.876690030097965,
                    41.41673175226738
                ]
            }
        },
        {
            "type": "Feature",
            "properties": {
                "name": "tamoil",
                "id": "16660",
                "brand": "Tamoil",
                "amenity": "fuel",
                "operator": "MEDIANA CARBURANTI S.R.L."
            },
            "geometry": {
                "type": "Point",
                "coordinates": [
                    12.981290817260742,
                    41.41021662369088
                ]
            }
        },
        {
            "type": "Feature",
            "properties": {
                "name": "Latina",
                "id": "23074",
                "brand": "Total Erg",
                "amenity": "fuel",
                "operator": "GESTIONI EUROPA - SOCIETA' PER AZIONI"
            },
            "geometry": {
                "type": "Point",
                "coordinates": [
                    12.889949135512552,
                    41.472462022400066
                ]
            }
        },
        {
            "type": "Feature",
            "properties": {
                "name": "Don Morosini",
                "id": "27425",
                "brand": "Total Erg",
                "amenity": "fuel",
                "operator": "CATULESCU ION"
            },
            "geometry": {
                "type": "Point",
                "coordinates": [
                    12.906967015188568,
                    41.46979664895358
                ]
            }
        },
        {
            "type": "Feature",
            "properties": {
                "name": "Impianto ACI-IP",
                "id": "15167",
                "brand": "Api-Ip",
                "amenity": "fuel",
                "operator": "MARTELLATO REUCCIO"
            },
            "geometry": {
                "type": "Point",
                "coordinates": [
                    12.91477739810944,
                    41.46264907746262
                ]
            }
        },
        {
            "type": "Feature",
            "properties": {
                "name": "Robi (Roma Bitumi)",
                "id": "17832",
                "amenity": "fuel",
                "operator": "FOGGIA MASSIMO"
            },
            "geometry": {
                "type": "Point",
                "coordinates": [
                    12.933586388826372,
                    41.45495740341957
                ]
            }
        },
        {
            "type": "Feature",
            "properties": {
                "name": "tamoil 7823",
                "id": "12270",
                "brand": "Tamoil",
                "amenity": "fuel",
                "operator": "C.M.V. OIL S.R.L."
            },
            "geometry": {
                "type": "Point",
                "coordinates": [
                    12.903415560722348,
                    41.49769062934395
                ]
            }
        },
        {
            "type": "Feature",
            "properties": {
                "name": "eni kabir",
                "id": "29107",
                "brand": "Agip Eni",
                "amenity": "fuel",
                "operator": "KABIR & FATEMA SOCIETA' IN ACCOMANDITA SEMPLICE DI SARDER KABIRUL ALAM IN SIGLA: \"KABIR & FATEMA  S.A.S. DI SARDER KABIRUL ALAM"
            },
            "geometry": {
                "type": "Point",
                "coordinates": [
                    12.853361517190933,
                    41.46846037042759
                ]
            }
        },
        {
            "type": "Feature",
            "properties": {
                "name": "MEDIANA SERVIZI - AGIP",
                "id": "18896",
                "brand": "Agip Eni",
                "amenity": "fuel",
                "operator": "MEDIANA SERVIZI E C. S.N.C. DI LA ROSA ANTONELLA"
            },
            "geometry": {
                "type": "Point",
                "coordinates": [
                    13.00144035535891,
                    41.39663696603494
                ]
            }
        },
        {
            "type": "Feature",
            "properties": {
                "name": "LATINA",
                "id": "5814",
                "brand": "Total Erg",
                "amenity": "fuel",
                "operator": "TotalErg SpA"
            },
            "geometry": {
                "type": "Point",
                "coordinates": [
                    12.88579072883613,
                    41.4423609042182
                ]
            }
        },
        {
            "type": "Feature",
            "properties": {
                "name": "BORGO SAN MICHELE S.S.PONTINA KM 78+265",
                "id": "6670",
                "brand": "Q8",
                "amenity": "fuel",
                "operator": "SERVIZI & GESTIONI ITALIA srl"
            },
            "geometry": {
                "type": "Point",
                "coordinates": [
                    12.960868477821352,
                    41.423062641491626
                ]
            }
        },
        {
            "type": "Feature",
            "properties": {
                "name": "Esso",
                "id": "12527",
                "brand": "Esso",
                "amenity": "fuel",
                "operator": "BERTIPAGLIA ALBERTO ED ENNIO E C. S.N.C."
            },
            "geometry": {
                "type": "Point",
                "coordinates": [
                    12.923381924629213,
                    41.45997690982405
                ]
            }
        },
        {
            "type": "Feature",
            "properties": {
                "name": "totalerg ritirossi",
                "id": "21489",
                "brand": "Total Erg",
                "amenity": "fuel",
                "operator": "RITIROSSI BUSINESS FAMILY SNC DI RITIROSSI STELLA & C."
            },
            "geometry": {
                "type": "Point",
                "coordinates": [
                    12.92470693588257,
                    41.49931462620333
                ]
            }
        },
        {
            "type": "Feature",
            "properties": {
                "name": "Total erg",
                "id": "27690",
                "brand": "Total Erg",
                "amenity": "fuel",
                "operator": "EFFER DI VIRGINIO FERROTTI E C. S.A.S."
            },
            "geometry": {
                "type": "Point",
                "coordinates": [
                    12.969707587799121,
                    41.41751028045128
                ]
            }
        },
        {
            "type": "Feature",
            "properties": {
                "name": "Latina Nord",
                "id": "30510",
                "brand": "Agip Eni",
                "amenity": "fuel",
                "operator": "AL-GEDI S.R.L."
            },
            "geometry": {
                "type": "Point",
                "coordinates": [
                    12.87371143698692,
                    41.46435917480092
                ]
            }
        },
        {
            "type": "Feature",
            "properties": {
                "name": "edra oil",
                "id": "29442",
                "amenity": "fuel",
                "operator": "NI.VA. SNC DI BATTISTA NICOLA E VALENTINA"
            },
            "geometry": {
                "type": "Point",
                "coordinates": [
                    12.896433100104332,
                    41.45975298466716
                ]
            }
        },
        {
            "type": "Feature",
            "properties": {
                "name": "CAMPOLI MASSIMO",
                "id": "21631",
                "brand": "Repsol",
                "amenity": "fuel",
                "operator": "CAMPOLI MASSIMO"
            },
            "geometry": {
                "type": "Point",
                "coordinates": [
                    12.963537275791172,
                    41.379347703683024
                ]
            }
        },
        {
            "type": "Feature",
            "properties": {
                "name": "s.g.s. snc di ponzi e c.",
                "id": "13007",
                "brand": "Agip Eni",
                "amenity": "fuel",
                "operator": "S.G.S.  S.N.C. DI PONZI MAURO E  C."
            },
            "geometry": {
                "type": "Point",
                "coordinates": [
                    12.894619256258013,
                    41.47083454365814
                ]
            }
        },
        {
            "type": "Feature",
            "properties": {
                "name": "IP-LT-VESPUCCI",
                "id": "29853",
                "brand": "Api-Ip",
                "amenity": "fuel",
                "operator": "MONDONAUTICA S.R.L."
            },
            "geometry": {
                "type": "Point",
                "coordinates": [
                    12.87936218082905,
                    41.47278217301446
                ]
            }
        },
        {
            "type": "Feature",
            "properties": {
                "name": "BORGO PIAVE VIA ACQUE ALTE KM 0 200",
                "id": "6669",
                "brand": "Q8",
                "amenity": "fuel",
                "operator": "SERVIZI & GESTIONI ITALIA srl"
            },
            "geometry": {
                "type": "Point",
                "coordinates": [
                    12.863461375236511,
                    41.4838765753174
                ]
            }
        },
        {
            "type": "Feature",
            "properties": {
                "name": "IP-LT- ISONZO",
                "id": "29854",
                "brand": "Api-Ip",
                "amenity": "fuel",
                "operator": "MONDONAUTICA S.R.L."
            },
            "geometry": {
                "type": "Point",
                "coordinates": [
                    12.908395624606328,
                    41.444428065338435
                ]
            }
        },
        {
            "type": "Feature",
            "properties": {
                "name": "Total Erg",
                "id": "22078",
                "brand": "Total Erg",
                "amenity": "fuel",
                "operator": "DIAN ADRIANO"
            },
            "geometry": {
                "type": "Point",
                "coordinates": [
                    12.897734642028809,
                    41.46948316678081
                ]
            }
        },
        {
            "type": "Feature",
            "properties": {
                "name": "LT CORBUSIER",
                "id": "24204",
                "brand": "Agip Eni",
                "amenity": "fuel",
                "operator": "TIBER OIL S.R.L."
            },
            "geometry": {
                "type": "Point",
                "coordinates": [
                    12.8914837539196,
                    41.468917204021906
                ]
            }
        },
        {
            "type": "Feature",
            "properties": {
                "name": "BORGO SAN MICHELE SS 148 PONTINA KM 77 624",
                "id": "6671",
                "brand": "Q8",
                "amenity": "fuel",
                "operator": "SERVIZI & GESTIONI ITALIA srl"
            },
            "geometry": {
                "type": "Point",
                "coordinates": [
                    12.954509447607391,
                    41.426354736753076
                ]
            }
        },
        {
            "type": "Feature",
            "properties": {
                "name": "IP-LT-FOGLIANO",
                "id": "19373",
                "brand": "Api-Ip",
                "amenity": "fuel",
                "operator": "MONDONAUTICA S.R.L."
            },
            "geometry": {
                "type": "Point",
                "coordinates": [
                    12.91799068450928,
                    41.40695302057423
                ]
            }
        },
        {
            "type": "Feature",
            "properties": {
                "name": "Ma.ma petroli",
                "id": "30324",
                "amenity": "fuel",
                "operator": "MA.MA. PETROLI S.R.L."
            },
            "geometry": {
                "type": "Point",
                "coordinates": [
                    12.893593311309813,
                    41.486588345265204
                ]
            }
        },
        {
            "type": "Feature",
            "properties": {
                "name": "TRIPONTIUM MULTISERVICE",
                "id": "4918",
                "amenity": "fuel",
                "operator": "TRIPONTIUM MULTISERVICE S.R.L."
            },
            "geometry": {
                "type": "Point",
                "coordinates": [
                    12.946907579898838,
                    41.50585560118896
                ]
            }
        },
        {
            "type": "Feature",
            "properties": {
                "name": "SEZZE1",
                "id": "4053",
                "brand": "Fiamma 2000",
                "amenity": "fuel",
                "operator": "FIAMMA 2000 - SOCIETA' PER AZIONI"
            },
            "geometry": {
                "type": "Point",
                "coordinates": [
                    12.979273796081541,
                    41.48143958271551
                ]
            }
        },
        {
            "type": "Feature",
            "properties": {
                "name": "STAZIONE ENI DI PEZZELLA GIOVANNI BATTISTA",
                "id": "15324",
                "brand": "Agip Eni",
                "amenity": "fuel",
                "operator": "PEZZELLA GIOVANNI BATTISTA"
            },
            "geometry": {
                "type": "Point",
                "coordinates": [
                    12.89918793809818,
                    41.46978896199336
                ]
            }
        },
        {
            "type": "Feature",
            "properties": {
                "name": "LATINA VIA DEL MARE KM 1+500",
                "id": "23504",
                "brand": "Q8",
                "amenity": "fuel",
                "operator": "SERVIZI & GESTIONI ITALIA S.R.L."
            },
            "geometry": {
                "type": "Point",
                "coordinates": [
                    12.890463173389435,
                    41.45023524923112
                ]
            }
        },
        {
            "type": "Feature",
            "properties": {
                "name": "Eni Borgo Piave foce Verde",
                "id": "31391",
                "brand": "Agip Eni",
                "amenity": "fuel",
                "operator": "AL-GEDI S.R.L."
            },
            "geometry": {
                "type": "Point",
                "coordinates": [
                    12.853354811668394,
                    41.46847544417954
                ]
            }
        },
        {
            "type": "Feature",
            "properties": {
                "name": "stazione di servizio betti angelo",
                "id": "13671",
                "brand": "Agip Eni",
                "amenity": "fuel",
                "operator": "BETTI ANGELO"
            },
            "geometry": {
                "type": "Point",
                "coordinates": [
                    12.91754610836506,
                    41.457702646466046
                ]
            }
        },
        {
            "type": "Feature",
            "properties": {
                "name": "LATINA",
                "id": "5810",
                "brand": "Total Erg",
                "amenity": "fuel",
                "operator": "TotalErg SpA"
            },
            "geometry": {
                "type": "Point",
                "coordinates": [
                    12.974815588954925,
                    41.413765919302406
                ]
            }
        },
        {
            "type": "Feature",
            "properties": {
                "name": "LT EPITAFFIO",
                "id": "24205",
                "brand": "Agip Eni",
                "amenity": "fuel",
                "operator": "TIBER OIL S.R.L."
            },
            "geometry": {
                "type": "Point",
                "coordinates": [
                    12.910697489231099,
                    41.47795084152499
                ]
            }
        },
        {
            "type": "Feature",
            "properties": {
                "name": "eni isonzo",
                "id": "11235",
                "brand": "Agip Eni",
                "amenity": "fuel",
                "operator": "CARBURANTI ISONZO DI ZARAMELLA STEFANO S.N.C."
            },
            "geometry": {
                "type": "Point",
                "coordinates": [
                    12.905522945368945,
                    41.45662844483167
                ]
            }
        },
        {
            "type": "Feature",
            "properties": {
                "name": "totalergmarco",
                "id": "13421",
                "brand": "Total Erg",
                "amenity": "fuel",
                "operator": "ABATE MARCO"
            },
            "geometry": {
                "type": "Point",
                "coordinates": [
                    12.887866795063022,
                    41.44454315870514
                ]
            }
        },
        {
            "type": "Feature",
            "properties": {
                "name": "LATINA",
                "id": "5813",
                "brand": "Total Erg",
                "amenity": "fuel",
                "operator": "TotalErg SpA"
            },
            "geometry": {
                "type": "Point",
                "coordinates": [
                    12.875472285879143,
                    41.47725248856263
                ]
            }
        },
        {
            "type": "Feature",
            "properties": {
                "name": "REPSOL",
                "id": "31263",
                "brand": "Repsol",
                "amenity": "fuel",
                "operator": "KHAN KAMAL"
            },
            "geometry": {
                "type": "Point",
                "coordinates": [
                    12.862356305122377,
                    41.45814005738824
                ]
            }
        },
        {
            "type": "Feature",
            "properties": {
                "name": "LATINA",
                "id": "5809",
                "brand": "Total Erg",
                "amenity": "fuel",
                "operator": "TotalErg SpA"
            },
            "geometry": {
                "type": "Point",
                "coordinates": [
                    12.907191728836098,
                    41.45017398959943
                ]
            }
        },
        {
            "type": "Feature",
            "properties": {
                "name": "PV 59294",
                "id": "29326",
                "brand": "Agip Eni",
                "amenity": "fuel",
                "operator": "GESTIONI INNOVATIVE ITALIA S.R.L."
            },
            "geometry": {
                "type": "Point",
                "coordinates": [
                    12.992065250873564,
                    41.45880903307272
                ]
            }
        },
        {
            "type": "Feature",
            "properties": {
                "name": "Eni Capone",
                "id": "23043",
                "brand": "Agip Eni",
                "amenity": "fuel",
                "operator": "CAPONE STEFANIA"
            },
            "geometry": {
                "type": "Point",
                "coordinates": [
                    12.876588106155396,
                    41.416753475693106
                ]
            }
        },
        {
            "type": "Feature",
            "properties": {
                "name": "TAMOIL",
                "id": "24413",
                "brand": "Tamoil",
                "amenity": "fuel",
                "operator": "DEL BROCCO NUNZIO"
            },
            "geometry": {
                "type": "Point",
                "coordinates": [
                    12.883708665853876,
                    41.46526113877888
                ]
            }
        },
        {
            "type": "Feature",
            "properties": {
                "name": "LATINA",
                "id": "5812",
                "brand": "Total Erg",
                "amenity": "fuel",
                "operator": "TotalErg SpA"
            },
            "geometry": {
                "type": "Point",
                "coordinates": [
                    12.928141822090083,
                    41.46864007862803
                ]
            }
        },
        {
            "type": "Feature",
            "properties": {
                "name": "8115",
                "id": "30526",
                "brand": "Tamoil",
                "amenity": "fuel",
                "operator": "T.D.M. S.R.L."
            },
            "geometry": {
                "type": "Point",
                "coordinates": [
                    12.909213155508043,
                    41.475500978673075
                ]
            }
        }
    ]
}