{
    "type": "FeatureCollection",
    "features": [
        {
            "type": "Feature",
            "properties": {
                "name": "14303",
                "id": "13049",
                "brand": "Agip Eni",
                "amenity": "fuel",
                "operator": "CIOFFI ANTONINO"
            },
            "geometry": {
                "type": "Point",
                "coordinates": [
                    13.051162736492868,
                    45.95004799606438
                ]
            }
        },
        {
            "type": "Feature",
            "properties": {
                "name": "area servizio purassanta",
                "id": "25885",
                "brand": "Agip Eni",
                "amenity": "fuel",
                "operator": "ZANINI  MILVIA"
            },
            "geometry": {
                "type": "Point",
                "coordinates": [
                    13.097140789031982,
                    45.84145451676482
                ]
            }
        },
        {
            "type": "Feature",
            "properties": {
                "name": "PASCUT GABRIELE",
                "id": "16952",
                "brand": "Total Erg",
                "amenity": "fuel",
                "operator": "PASCUT GABRIELE"
            },
            "geometry": {
                "type": "Point",
                "coordinates": [
                    13.167934288360584,
                    45.941922437992496
                ]
            }
        },
        {
            "type": "Feature",
            "properties": {
                "name": "CASSIN S.N.C DI CASSIN T. & C.",
                "id": "12598",
                "brand": "Api-Ip",
                "amenity": "fuel",
                "operator": "CASSIN S.N.C. DI CASSIN TEODORO & C."
            },
            "geometry": {
                "type": "Point",
                "coordinates": [
                    13.059155975532578,
                    45.942377775588994
                ]
            }
        },
        {
            "type": "Feature",
            "properties": {
                "name": "Marco Specogna & C. S.A.S.",
                "id": "19925",
                "brand": "Api-Ip",
                "amenity": "fuel",
                "operator": "MARCO SPECOGNA & C. S.A.S."
            },
            "geometry": {
                "type": "Point",
                "coordinates": [
                    13.100484162569046,
                    45.94309289178443
                ]
            }
        },
        {
            "type": "Feature",
            "properties": {
                "name": "Stazione di servizio KV",
                "id": "24015",
                "amenity": "fuel",
                "operator": "SCHIFF MASSIMO"
            },
            "geometry": {
                "type": "Point",
                "coordinates": [
                    13.175404965877535,
                    45.935777203154785
                ]
            }
        },
        {
            "type": "Feature",
            "properties": {
                "name": "Esso",
                "id": "31152",
                "brand": "Esso",
                "amenity": "fuel",
                "operator": "GATTESCO F.LLI DI GATTESCO FERRUCCIO E FIORENZO SNC"
            },
            "geometry": {
                "type": "Point",
                "coordinates": [
                    13.177100121974949,
                    45.94455140766462
                ]
            }
        },
        {
            "type": "Feature",
            "properties": {
                "name": "Blason Luca & c sas",
                "id": "9655",
                "brand": "Q8",
                "amenity": "fuel",
                "operator": "BLASON LUCA & C. S.A.S."
            },
            "geometry": {
                "type": "Point",
                "coordinates": [
                    13.078518211841583,
                    45.9402712447532
                ]
            }
        },
        {
            "type": "Feature",
            "properties": {
                "name": "DEGANO CESARE",
                "id": "27651",
                "brand": "Api-Ip",
                "amenity": "fuel",
                "operator": "DEGANO CESARE"
            },
            "geometry": {
                "type": "Point",
                "coordinates": [
                    13.034751936878934,
                    45.89020906811974
                ]
            }
        },
        {
            "type": "Feature",
            "properties": {
                "name": "REPSOL MORTEGLIANO",
                "id": "10688",
                "brand": "Repsol",
                "amenity": "fuel",
                "operator": "RO.MA SNC DI ADAMI ROBERTO & C."
            },
            "geometry": {
                "type": "Point",
                "coordinates": [
                    13.146504163742062,
                    45.932049450665346
                ]
            }
        }
    ]
}