{
    "type": "FeatureCollection",
    "features": [
        {
            "type": "Feature",
            "properties": {
                "name": "Oilbenz di Starace Federico",
                "id": "29753",
                "brand": "Esso",
                "amenity": "fuel",
                "operator": "OILBENZ DI STARACE FEDERICO"
            },
            "geometry": {
                "type": "Point",
                "coordinates": [
                    13.093032008103934,
                    41.24908461170449
                ]
            }
        },
        {
            "type": "Feature",
            "properties": {
                "name": "DISTRIBUTORE IP",
                "id": "28856",
                "brand": "Api-Ip",
                "amenity": "fuel",
                "operator": "MATTIA FRANCO LUCIANO"
            },
            "geometry": {
                "type": "Point",
                "coordinates": [
                    13.097564578056335,
                    41.30995351910494
                ]
            }
        },
        {
            "type": "Feature",
            "properties": {
                "name": "TERRACINA",
                "id": "10116",
                "brand": "Total Erg",
                "amenity": "fuel",
                "operator": "GESTIONI EUROPA - SOCIETA' PER AZIONI"
            },
            "geometry": {
                "type": "Point",
                "coordinates": [
                    13.141296654939653,
                    41.28445784572166
                ]
            }
        },
        {
            "type": "Feature",
            "properties": {
                "name": "TOTALERG aldo&pierluigi crivellaro",
                "id": "15161",
                "brand": "Total Erg",
                "amenity": "fuel",
                "operator": "CRIVELLARO ALDO & PIERLUIGI S.N.C."
            },
            "geometry": {
                "type": "Point",
                "coordinates": [
                    13.103992299347514,
                    41.33777773253952
                ]
            }
        },
        {
            "type": "Feature",
            "properties": {
                "name": "NAUTICA GRAZIANO",
                "id": "27884",
                "brand": "Esso",
                "amenity": "fuel",
                "operator": "NAUTICA GRAZIANO  DI PROSPERO GRAZIANO"
            },
            "geometry": {
                "type": "Point",
                "coordinates": [
                    13.128955922090201,
                    41.260237560361794
                ]
            }
        },
        {
            "type": "Feature",
            "properties": {
                "name": "TotalErg",
                "id": "28366",
                "brand": "Total Erg",
                "amenity": "fuel",
                "operator": "ALBRANCO S.R.L."
            },
            "geometry": {
                "type": "Point",
                "coordinates": [
                    13.169348537921907,
                    41.31098828124016
                ]
            }
        },
        {
            "type": "Feature",
            "properties": {
                "name": "eni bergamini &c snc",
                "id": "4018",
                "brand": "Agip Eni",
                "amenity": "fuel",
                "operator": "BERGAMINI E C. S.N.C."
            },
            "geometry": {
                "type": "Point",
                "coordinates": [
                    13.141888082027432,
                    41.290692582367726
                ]
            }
        },
        {
            "type": "Feature",
            "properties": {
                "name": "gestioniep",
                "id": "22877",
                "brand": "Agip Eni",
                "amenity": "fuel",
                "operator": "GESTIONI EP S.N.C. DI TRULLI EMANUELE E PACIONI GRAZIELLA"
            },
            "geometry": {
                "type": "Point",
                "coordinates": [
                    13.062017261981964,
                    41.35492310990932
                ]
            }
        },
        {
            "type": "Feature",
            "properties": {
                "name": "Il Traguardo Bombardieri Fiorella",
                "id": "6049",
                "brand": "Agip Eni",
                "amenity": "fuel",
                "operator": "BOMBARDIERI FIORELLA"
            },
            "geometry": {
                "type": "Point",
                "coordinates": [
                    13.09434324502945,
                    41.3171997326956
                ]
            }
        },
        {
            "type": "Feature",
            "properties": {
                "name": "ENI_16695",
                "id": "4013",
                "brand": "Agip Eni",
                "amenity": "fuel",
                "operator": "VE.DI. DI VENTORUZZO FEDERICA E C. S.A.S."
            },
            "geometry": {
                "type": "Point",
                "coordinates": [
                    13.179838778632302,
                    41.283210465585604
                ]
            }
        },
        {
            "type": "Feature",
            "properties": {
                "name": "roberto zannoni",
                "id": "6969",
                "brand": "Api-Ip",
                "amenity": "fuel",
                "operator": "ZANNONI ROBERTO"
            },
            "geometry": {
                "type": "Point",
                "coordinates": [
                    13.0140620470047,
                    41.34347822510331
                ]
            }
        },
        {
            "type": "Feature",
            "properties": {
                "name": "TOTALERG",
                "id": "29944",
                "brand": "Total Erg",
                "amenity": "fuel",
                "operator": "GRADA DI MAGNARELLI GRAZIELLA S.A.S."
            },
            "geometry": {
                "type": "Point",
                "coordinates": [
                    13.034425377845764,
                    41.30615441497443
                ]
            }
        },
        {
            "type": "Feature",
            "properties": {
                "name": "petrolsaba snc",
                "id": "25212",
                "brand": "Agip Eni",
                "amenity": "fuel",
                "operator": "PETROLSABA DI CECCARELLI MASSIMO E C. S.N.C."
            },
            "geometry": {
                "type": "Point",
                "coordinates": [
                    13.03904950618744,
                    41.30967467846171
                ]
            }
        },
        {
            "type": "Feature",
            "properties": {
                "name": "SABAUDIA",
                "id": "5811",
                "brand": "Total Erg",
                "amenity": "fuel",
                "operator": "TotalErg SpA"
            },
            "geometry": {
                "type": "Point",
                "coordinates": [
                    13.085993177909813,
                    41.33276009491291
                ]
            }
        },
        {
            "type": "Feature",
            "properties": {
                "name": "TERRACINA - LA NESPOLA",
                "id": "31061",
                "brand": "Api-Ip",
                "amenity": "fuel",
                "operator": "IP SERVICES S.R.L."
            },
            "geometry": {
                "type": "Point",
                "coordinates": [
                    13.097570495700893,
                    41.30995842747795
                ]
            }
        },
        {
            "type": "Feature",
            "properties": {
                "name": "TotalErg Sabaudia - Marini",
                "id": "20916",
                "brand": "Total Erg",
                "amenity": "fuel",
                "operator": "MARINI - SOCIETA A RESPONSABILITA LIMITATA"
            },
            "geometry": {
                "type": "Point",
                "coordinates": [
                    13.028732836219206,
                    41.302631744826236
                ]
            }
        }
    ]
}