{
    "type": "FeatureCollection",
    "features": [
        {
            "type": "Feature",
            "properties": {
                "name": "SP Energia Siciliana",
                "id": "14928",
                "brand": "SP Energia Siciliana",
                "amenity": "fuel",
                "operator": "LO BAIDO DOMENICO"
            },
            "geometry": {
                "type": "Point",
                "coordinates": [
                    13.152252137660977,
                    38.06765354987086
                ]
            }
        },
        {
            "type": "Feature",
            "properties": {
                "name": "Distributore IP Finazzo Vito",
                "id": "18469",
                "brand": "Api-Ip",
                "amenity": "fuel",
                "operator": "FINAZZO VITO"
            },
            "geometry": {
                "type": "Point",
                "coordinates": [
                    13.183041214942932,
                    38.13394770748831
                ]
            }
        },
        {
            "type": "Feature",
            "properties": {
                "name": "Esso",
                "id": "17859",
                "brand": "Esso",
                "amenity": "fuel",
                "operator": "BONOMO VINCENZO"
            },
            "geometry": {
                "type": "Point",
                "coordinates": [
                    13.013611435890198,
                    38.03612223509811
                ]
            }
        },
        {
            "type": "Feature",
            "properties": {
                "name": "L.B.SERVICE DI LO BAIDO ANTONIO & C.  S.A.S.",
                "id": "24091",
                "brand": "Agip Eni",
                "amenity": "fuel",
                "operator": "L.B. SERVICE DI LO BAIDO ANTONIO & C. SOCIETA' IN ACCOMANDITA SE MPLICE"
            },
            "geometry": {
                "type": "Point",
                "coordinates": [
                    13.102553486824036,
                    38.036672345801655
                ]
            }
        },
        {
            "type": "Feature",
            "properties": {
                "name": "severo lorenzo",
                "id": "25437",
                "brand": "Q8",
                "amenity": "fuel",
                "operator": "SEVERO LORENZO"
            },
            "geometry": {
                "type": "Point",
                "coordinates": [
                    13.175863623619081,
                    38.08920491444062
                ]
            }
        },
        {
            "type": "Feature",
            "properties": {
                "name": "ORTOLEVA GIUSEPPE",
                "id": "30139",
                "brand": "Q8",
                "amenity": "fuel",
                "operator": "ORTOLEVA GIUSEPPE"
            },
            "geometry": {
                "type": "Point",
                "coordinates": [
                    13.148723063229342,
                    38.05049070895244
                ]
            }
        },
        {
            "type": "Feature",
            "properties": {
                "name": "DISTRIBUTORE CARBURANTE Q8 DI IMPERIALE GIUSEPPE",
                "id": "27910",
                "brand": "Q8",
                "amenity": "fuel",
                "operator": "IMPERIALE GIUSEPPE"
            },
            "geometry": {
                "type": "Point",
                "coordinates": [
                    13.128419369459152,
                    38.042442343451015
                ]
            }
        },
        {
            "type": "Feature",
            "properties": {
                "name": "AGIP",
                "id": "19091",
                "brand": "Agip Eni",
                "amenity": "fuel",
                "operator": "PELLITTERI SRL"
            },
            "geometry": {
                "type": "Point",
                "coordinates": [
                    13.127505719316106,
                    38.04469390948496
                ]
            }
        },
        {
            "type": "Feature",
            "properties": {
                "name": "Giuliano carburanti",
                "id": "25301",
                "amenity": "fuel",
                "operator": "RITICELLA GAETANO"
            },
            "geometry": {
                "type": "Point",
                "coordinates": [
                    13.0988010764122,
                    38.068580561955166
                ]
            }
        },
        {
            "type": "Feature",
            "properties": {
                "name": "IP",
                "id": "20612",
                "brand": "Api-Ip",
                "amenity": "fuel",
                "operator": "GAGLIO CESARE MARIO"
            },
            "geometry": {
                "type": "Point",
                "coordinates": [
                    13.179228454828262,
                    38.09116181861331
                ]
            }
        },
        {
            "type": "Feature",
            "properties": {
                "name": "AREA DI SERVIZIO CEMIP",
                "id": "21914",
                "brand": "Agip Eni",
                "amenity": "fuel",
                "operator": "C.E.M.I.P. DI LO CASCIO FEDELE & C. S.N.C."
            },
            "geometry": {
                "type": "Point",
                "coordinates": [
                    13.107759654521942,
                    38.02452543117859
                ]
            }
        },
        {
            "type": "Feature",
            "properties": {
                "name": "ESSO DI SALVIA PETROLI",
                "id": "20265",
                "brand": "Esso",
                "amenity": "fuel",
                "operator": "SALVIA PETROLI S.A.S. DI SALVIA ANGELINA E C."
            },
            "geometry": {
                "type": "Point",
                "coordinates": [
                    13.04362604137293,
                    38.06925956033082
                ]
            }
        },
        {
            "type": "Feature",
            "properties": {
                "name": "Stazione di Servizio Q8",
                "id": "28025",
                "brand": "Q8",
                "amenity": "fuel",
                "operator": "TITOLI & CO. SOCIETA' IN ACCOMANDITA SEMPLICE DI TITOLI FRANCESCO"
            },
            "geometry": {
                "type": "Point",
                "coordinates": [
                    13.114188448062917,
                    38.054262532284156
                ]
            }
        },
        {
            "type": "Feature",
            "properties": {
                "name": "Tamoil di Cucinella Mario",
                "id": "29690",
                "brand": "Tamoil",
                "amenity": "fuel",
                "operator": "CUCINELLA MARIO"
            },
            "geometry": {
                "type": "Point",
                "coordinates": [
                    13.151446804404259,
                    38.08607460325804
                ]
            }
        },
        {
            "type": "Feature",
            "properties": {
                "name": "API - G.I.T. SRL",
                "id": "27706",
                "brand": "Api-Ip",
                "amenity": "fuel",
                "operator": "G. I. T. - GESTIONE IMPIANTI TURISTICI - S.R.L."
            },
            "geometry": {
                "type": "Point",
                "coordinates": [
                    13.130317032337189,
                    38.056141572977744
                ]
            }
        },
        {
            "type": "Feature",
            "properties": {
                "name": "RIFORNIMENTO GAGLIO DI SAPUTO MARGHERITA S.A.S",
                "id": "16265",
                "brand": "Esso",
                "amenity": "fuel",
                "operator": "RIFORNIMENTO GAGLIO DI SAPUTO MARGHERITA S.A.S."
            },
            "geometry": {
                "type": "Point",
                "coordinates": [
                    13.11982959508896,
                    38.04966761360157
                ]
            }
        },
        {
            "type": "Feature",
            "properties": {
                "name": "CATALANO ANGELA DISTRIBUTORE Q8",
                "id": "30416",
                "brand": "Q8",
                "amenity": "fuel",
                "operator": "CATALANO ANGELA"
            },
            "geometry": {
                "type": "Point",
                "coordinates": [
                    13.112846541069759,
                    38.036715725195435
                ]
            }
        },
        {
            "type": "Feature",
            "properties": {
                "name": "DISTRIBUTORE CARBURANTE Q8 DI CATALANO TOMMASO E FIGLI S.N.C.",
                "id": "24080",
                "brand": "Q8",
                "amenity": "fuel",
                "operator": "CATALANO TOMMASO"
            },
            "geometry": {
                "type": "Point",
                "coordinates": [
                    13.111974745988846,
                    38.04073889576663
                ]
            }
        },
        {
            "type": "Feature",
            "properties": {
                "name": "Brugnano Energia",
                "id": "26212",
                "amenity": "fuel",
                "operator": "110 SOCIETA' A RESPONSABILITA' LIMITATA"
            },
            "geometry": {
                "type": "Point",
                "coordinates": [
                    13.093068599700928,
                    38.07095738768555
                ]
            }
        },
        {
            "type": "Feature",
            "properties": {
                "name": "RP PETROLI",
                "id": "25406",
                "amenity": "fuel",
                "operator": "RUSSO PIETRO"
            },
            "geometry": {
                "type": "Point",
                "coordinates": [
                    13.009960949420929,
                    38.05183425295842
                ]
            }
        },
        {
            "type": "Feature",
            "properties": {
                "name": "Cottone Mariano & C. S.a.s.",
                "id": "23833",
                "brand": "Agip Eni",
                "amenity": "fuel",
                "operator": "COTTONE MARIANO E C. S.A.S."
            },
            "geometry": {
                "type": "Point",
                "coordinates": [
                    13.013188987970352,
                    38.03743117057253
                ]
            }
        }
    ]
}