{
    "type": "FeatureCollection",
    "features": [
        {
            "type": "Feature",
            "properties": {
                "name": "q8",
                "id": "24392",
                "brand": "Q8",
                "amenity": "fuel",
                "operator": "COPPOLA VINCENZO"
            },
            "geometry": {
                "type": "Point",
                "coordinates": [
                    13.082797367664059,
                    38.154514909698136
                ]
            }
        },
        {
            "type": "Feature",
            "properties": {
                "name": "DISTRIBUTORE IP",
                "id": "15689",
                "brand": "Api-Ip",
                "amenity": "fuel",
                "operator": "VIOLA PIETRO"
            },
            "geometry": {
                "type": "Point",
                "coordinates": [
                    13.106164410710337,
                    38.16467386628349
                ]
            }
        },
        {
            "type": "Feature",
            "properties": {
                "name": "aneli armando",
                "id": "30563",
                "brand": "Esso",
                "amenity": "fuel",
                "operator": "ANELI ARMANDO"
            },
            "geometry": {
                "type": "Point",
                "coordinates": [
                    13.1101655960083,
                    38.1722948688605
                ]
            }
        },
        {
            "type": "Feature",
            "properties": {
                "name": "Q8",
                "id": "29893",
                "brand": "Q8",
                "amenity": "fuel",
                "operator": "CULTRERA CARMELO"
            },
            "geometry": {
                "type": "Point",
                "coordinates": [
                    13.13094936311245,
                    38.176171700696976
                ]
            }
        },
        {
            "type": "Feature",
            "properties": {
                "name": "carb oil s.r.l.",
                "id": "22878",
                "brand": "SP Energia Siciliana",
                "amenity": "fuel",
                "operator": "CARB. OIL S.R.L."
            },
            "geometry": {
                "type": "Point",
                "coordinates": [
                    13.083295896649359,
                    38.14120053905989
                ]
            }
        },
        {
            "type": "Feature",
            "properties": {
                "name": "Distributore Q8 di Marco Purpura",
                "id": "9460",
                "brand": "Q8",
                "amenity": "fuel",
                "operator": "PURPURA MARCO"
            },
            "geometry": {
                "type": "Point",
                "coordinates": [
                    13.103371521222245,
                    38.16074979958852
                ]
            }
        },
        {
            "type": "Feature",
            "properties": {
                "name": "TROIA GIUSEPPE",
                "id": "29275",
                "brand": "Q8",
                "amenity": "fuel",
                "operator": "TROIA GIUSEPPE MARIA"
            },
            "geometry": {
                "type": "Point",
                "coordinates": [
                    13.17029267549515,
                    38.15902297103855
                ]
            }
        },
        {
            "type": "Feature",
            "properties": {
                "name": "monticciolo marco",
                "id": "30500",
                "brand": "Q8",
                "amenity": "fuel",
                "operator": "MONTICCIOLO MARCO"
            },
            "geometry": {
                "type": "Point",
                "coordinates": [
                    13.087533912407254,
                    38.152939847920344
                ]
            }
        },
        {
            "type": "Feature",
            "properties": {
                "name": "carb oil s.r.l.",
                "id": "22879",
                "brand": "Agip Eni",
                "amenity": "fuel",
                "operator": "CARB. OIL S.R.L."
            },
            "geometry": {
                "type": "Point",
                "coordinates": [
                    13.083295896649359,
                    38.14120053905989
                ]
            }
        },
        {
            "type": "Feature",
            "properties": {
                "name": "STAZIONE DI SERVIZIO Q8",
                "id": "15546",
                "brand": "Q8",
                "amenity": "fuel",
                "operator": "SERRADELLA ROSARIA."
            },
            "geometry": {
                "type": "Point",
                "coordinates": [
                    13.141086101531979,
                    38.17988133982036
                ]
            }
        },
        {
            "type": "Feature",
            "properties": {
                "name": "GE.I.CA S.R.L.",
                "id": "22880",
                "amenity": "fuel",
                "operator": "GE.I.CA. S.R.L. (GESTIONE IMPIANTI CARBURANTI)"
            },
            "geometry": {
                "type": "Point",
                "coordinates": [
                    13.080844357609745,
                    38.157964236225915
                ]
            }
        }
    ]
}