{
    "type": "FeatureCollection",
    "features": [
        {
            "type": "Feature",
            "properties": {
                "name": "TOTALERG POZZUOLO DEL FRIULI",
                "id": "29874",
                "brand": "Total Erg",
                "amenity": "fuel",
                "operator": "BEST SERVICE S.R.L."
            },
            "geometry": {
                "type": "Point",
                "coordinates": [
                    13.198370039463045,
                    45.976986937083005
                ]
            }
        },
        {
            "type": "Feature",
            "properties": {
                "name": "Stazione di Servizio IP Bacinello Alfio e Mauro S.n.c.",
                "id": "9917",
                "brand": "Api-Ip",
                "amenity": "fuel",
                "operator": "STAZIONE DI SERVIZIO IP DI BACINELLO ALFIO E MAURO S.N.C."
            },
            "geometry": {
                "type": "Point",
                "coordinates": [
                    13.19664001464844,
                    46.07057713012269
                ]
            }
        },
        {
            "type": "Feature",
            "properties": {
                "name": "FRANZIL GIANLUCA",
                "id": "27588",
                "brand": "Agip Eni",
                "amenity": "fuel",
                "operator": "FRANZIL GIANLUCA"
            },
            "geometry": {
                "type": "Point",
                "coordinates": [
                    13.213946314680468,
                    46.07282802319909
                ]
            }
        },
        {
            "type": "Feature",
            "properties": {
                "name": "auto metano udine",
                "id": "17020",
                "amenity": "fuel",
                "operator": "AUTO METANO UDINE DI ROSSO CRISTIAN & C. SAS"
            },
            "geometry": {
                "type": "Point",
                "coordinates": [
                    13.266498148441315,
                    46.034057218950544
                ]
            }
        },
        {
            "type": "Feature",
            "properties": {
                "name": "ZUGLIANO",
                "id": "3579",
                "brand": "Total Erg",
                "amenity": "fuel",
                "operator": "CELOTTO NANCY & C. S.A.S."
            },
            "geometry": {
                "type": "Point",
                "coordinates": [
                    13.218419551849365,
                    46.014773592418685
                ]
            }
        },
        {
            "type": "Feature",
            "properties": {
                "name": "stazione di servizio IP",
                "id": "17483",
                "brand": "Api-Ip",
                "amenity": "fuel",
                "operator": "PICCINI LEONARDO"
            },
            "geometry": {
                "type": "Point",
                "coordinates": [
                    13.206783533096313,
                    46.00153663862107
                ]
            }
        },
        {
            "type": "Feature",
            "properties": {
                "name": "STAZIONE DI SERVIZIO IP",
                "id": "18673",
                "brand": "Api-Ip",
                "amenity": "fuel",
                "operator": "PADOANO E BLASONI SNC DI PADOANO EROS  E  C."
            },
            "geometry": {
                "type": "Point",
                "coordinates": [
                    13.246173146557565,
                    46.03367933762296
                ]
            }
        },
        {
            "type": "Feature",
            "properties": {
                "name": "Rodaro Enzo & C.s.n.c.",
                "id": "10440",
                "brand": "Shell",
                "amenity": "fuel",
                "operator": "RODARO ENZO & C. S.N.C."
            },
            "geometry": {
                "type": "Point",
                "coordinates": [
                    13.196215334987643,
                    46.046096276667996
                ]
            }
        },
        {
            "type": "Feature",
            "properties": {
                "name": "UDINE-VIA ADENAUER AREA Z.A.U.",
                "id": "11914",
                "brand": "Q8",
                "amenity": "fuel",
                "operator": "SERVIZI & GESTIONI ITALIA S.R.L."
            },
            "geometry": {
                "type": "Point",
                "coordinates": [
                    13.246912245369007,
                    46.03760317856702
                ]
            }
        },
        {
            "type": "Feature",
            "properties": {
                "name": "14302",
                "id": "14665",
                "brand": "Agip Eni",
                "amenity": "fuel",
                "operator": "BIDOLI DEVIS"
            },
            "geometry": {
                "type": "Point",
                "coordinates": [
                    13.192329704761503,
                    45.96487487250062
                ]
            }
        },
        {
            "type": "Feature",
            "properties": {
                "name": "stazione di servizio agip di rigotto nerio",
                "id": "10301",
                "brand": "Agip Eni",
                "amenity": "fuel",
                "operator": "RIGOTTO NERIO"
            },
            "geometry": {
                "type": "Point",
                "coordinates": [
                    13.221528898147652,
                    46.04198125146535
                ]
            }
        },
        {
            "type": "Feature",
            "properties": {
                "name": "Covacich snc",
                "id": "15815",
                "brand": "Total Erg",
                "amenity": "fuel",
                "operator": "COVACICH LUCIANO SNC DI COVACICH L. & C."
            },
            "geometry": {
                "type": "Point",
                "coordinates": [
                    13.238290697336197,
                    46.052188587980844
                ]
            }
        },
        {
            "type": "Feature",
            "properties": {
                "name": "ZUGLIANO",
                "id": "3507",
                "brand": "Q8",
                "amenity": "fuel",
                "operator": "CELOTTO ROSA BEATRIZ"
            },
            "geometry": {
                "type": "Point",
                "coordinates": [
                    13.219079375267029,
                    46.01574964992432
                ]
            }
        },
        {
            "type": "Feature",
            "properties": {
                "name": "PV 4293",
                "id": "31897",
                "brand": "Agip Eni",
                "amenity": "fuel",
                "operator": "GESTIONI INNOVATIVE ITALIA S.R.L."
            },
            "geometry": {
                "type": "Point",
                "coordinates": [
                    13.247844532402041,
                    46.05060179546237
                ]
            }
        },
        {
            "type": "Feature",
            "properties": {
                "name": "ESSO",
                "id": "10954",
                "brand": "Esso",
                "amenity": "fuel",
                "operator": "BN DI BRESSAN GIANNI & C. S.A.S."
            },
            "geometry": {
                "type": "Point",
                "coordinates": [
                    13.248566086508163,
                    46.04918359558623
                ]
            }
        },
        {
            "type": "Feature",
            "properties": {
                "name": "Stazione di Servizio TOTALERG",
                "id": "14073",
                "brand": "Total Erg",
                "amenity": "fuel",
                "operator": "GARIUP EMANUELA"
            },
            "geometry": {
                "type": "Point",
                "coordinates": [
                    13.330809318197343,
                    46.008872383769344
                ]
            }
        },
        {
            "type": "Feature",
            "properties": {
                "name": "Stazione ENI di Meneghin Antonino & c. snc",
                "id": "16463",
                "brand": "Agip Eni",
                "amenity": "fuel",
                "operator": "MENEGHIN ANTONINO & C. SNC"
            },
            "geometry": {
                "type": "Point",
                "coordinates": [
                    13.248379322298435,
                    46.05945947718437
                ]
            }
        },
        {
            "type": "Feature",
            "properties": {
                "name": "SS ENI",
                "id": "26418",
                "brand": "Agip Eni",
                "amenity": "fuel",
                "operator": "IANNIS IVANO"
            },
            "geometry": {
                "type": "Point",
                "coordinates": [
                    13.323535902491699,
                    45.974667439170496
                ]
            }
        },
        {
            "type": "Feature",
            "properties": {
                "name": "UDINE OIL ITALIA",
                "id": "26566",
                "brand": "Oil Italia",
                "amenity": "fuel",
                "operator": "OIL ITALIA SRL"
            },
            "geometry": {
                "type": "Point",
                "coordinates": [
                    13.20390075445175,
                    46.049589555386284
                ]
            }
        },
        {
            "type": "Feature",
            "properties": {
                "name": "COSTANTIN - Udine",
                "id": "32082",
                "brand": "Costantin",
                "amenity": "fuel",
                "operator": "GRAVINO SAS DI GRAVINO RENATA & C."
            },
            "geometry": {
                "type": "Point",
                "coordinates": [
                    13.239788711071014,
                    46.02207311582591
                ]
            }
        },
        {
            "type": "Feature",
            "properties": {
                "name": "Distributore Eni di Policella Daniele",
                "id": "30322",
                "brand": "Agip Eni",
                "amenity": "fuel",
                "operator": "POLICELLA DANIELE"
            },
            "geometry": {
                "type": "Point",
                "coordinates": [
                    13.301620847885147,
                    46.033107206347935
                ]
            }
        },
        {
            "type": "Feature",
            "properties": {
                "name": "TOTAL DIPOLICELLA ROBERTO",
                "id": "24662",
                "brand": "Total Erg",
                "amenity": "fuel",
                "operator": "POLICELLA ROBERTO"
            },
            "geometry": {
                "type": "Point",
                "coordinates": [
                    13.237129638098168,
                    46.071138515706814
                ]
            }
        },
        {
            "type": "Feature",
            "properties": {
                "name": "Polli Valter Staz.di Servizio IP-SOM",
                "id": "9866",
                "brand": "Api-Ip",
                "amenity": "fuel",
                "operator": "POLLI VALTER"
            },
            "geometry": {
                "type": "Point",
                "coordinates": [
                    13.227762453442438,
                    46.07114701046118
                ]
            }
        },
        {
            "type": "Feature",
            "properties": {
                "name": "PAVIA DI UDINE - LAUZACCO",
                "id": "25828",
                "brand": "Api-Ip",
                "amenity": "fuel",
                "operator": "IP SERVICES S.R.L."
            },
            "geometry": {
                "type": "Point",
                "coordinates": [
                    13.274045884609224,
                    46.000149296396906
                ]
            }
        },
        {
            "type": "Feature",
            "properties": {
                "name": "REPSOL",
                "id": "22954",
                "brand": "Repsol",
                "amenity": "fuel",
                "operator": "ILARIUCCI ANDREA"
            },
            "geometry": {
                "type": "Point",
                "coordinates": [
                    13.257429599761961,
                    46.016023836902
                ]
            }
        },
        {
            "type": "Feature",
            "properties": {
                "name": "Repsol",
                "id": "24586",
                "brand": "Repsol",
                "amenity": "fuel",
                "operator": "DEGANO LUCA"
            },
            "geometry": {
                "type": "Point",
                "coordinates": [
                    13.192077577114105,
                    46.024296866763265
                ]
            }
        },
        {
            "type": "Feature",
            "properties": {
                "name": "14317",
                "id": "16392",
                "brand": "Agip Eni",
                "amenity": "fuel",
                "operator": "STAZIONE ENI DI MAZZA GIOVANNI"
            },
            "geometry": {
                "type": "Point",
                "coordinates": [
                    13.284128308296204,
                    46.02952139848762
                ]
            }
        },
        {
            "type": "Feature",
            "properties": {
                "name": "Tamoil Udine 7547",
                "id": "13872",
                "brand": "Tamoil",
                "amenity": "fuel",
                "operator": "TIEMME SERVICE S.A.S. DI TRIBOS DANIELE SEBASTIANO & C."
            },
            "geometry": {
                "type": "Point",
                "coordinates": [
                    13.246404379606247,
                    46.036915052777054
                ]
            }
        },
        {
            "type": "Feature",
            "properties": {
                "name": "Formaggio Fulvio",
                "id": "27100",
                "brand": "Esso",
                "amenity": "fuel",
                "operator": "FORMAGGIO FULVIO"
            },
            "geometry": {
                "type": "Point",
                "coordinates": [
                    13.244364559650418,
                    46.06798975629575
                ]
            }
        },
        {
            "type": "Feature",
            "properties": {
                "name": "UDINE-VIALE PALMANOVA 77",
                "id": "11910",
                "brand": "Q8",
                "amenity": "fuel",
                "operator": "SERVIZI & GESTIONI ITALIA S.R.L."
            },
            "geometry": {
                "type": "Point",
                "coordinates": [
                    13.246617609786993,
                    46.053450570524525
                ]
            }
        },
        {
            "type": "Feature",
            "properties": {
                "name": "PRADAMANO SR 56 VIA NAZIONALE.",
                "id": "7293",
                "brand": "Q8",
                "amenity": "fuel",
                "operator": "SERVIZI & GESTIONI ITALIA S.R.L."
            },
            "geometry": {
                "type": "Point",
                "coordinates": [
                    13.2724928855896,
                    46.02313061916407
                ]
            }
        },
        {
            "type": "Feature",
            "properties": {
                "name": "SCLIPPA LINO",
                "id": "6856",
                "brand": "Q8",
                "amenity": "fuel",
                "operator": "SCLIPPA LINO"
            },
            "geometry": {
                "type": "Point",
                "coordinates": [
                    13.220152258872988,
                    46.059476470365816
                ]
            }
        },
        {
            "type": "Feature",
            "properties": {
                "name": "MOSCHIONE",
                "id": "17626",
                "brand": "Agip Eni",
                "amenity": "fuel",
                "operator": "MOSCHIONE LORIS"
            },
            "geometry": {
                "type": "Point",
                "coordinates": [
                    13.253400756344604,
                    46.009215435331335
                ]
            }
        },
        {
            "type": "Feature",
            "properties": {
                "name": "Udine",
                "id": "6987",
                "brand": "Api-Ip",
                "amenity": "fuel",
                "operator": "JETRENT S.R.L."
            },
            "geometry": {
                "type": "Point",
                "coordinates": [
                    13.252983838319782,
                    46.039744810616895
                ]
            }
        },
        {
            "type": "Feature",
            "properties": {
                "name": "Stazione di Servizio",
                "id": "13887",
                "brand": "Agip Eni",
                "amenity": "fuel",
                "operator": "CRAVELLO ANDREW"
            },
            "geometry": {
                "type": "Point",
                "coordinates": [
                    13.212007605311328,
                    46.06452358293556
                ]
            }
        },
        {
            "type": "Feature",
            "properties": {
                "name": "esso",
                "id": "29736",
                "brand": "Esso",
                "amenity": "fuel",
                "operator": "CRAVELLO DAVID"
            },
            "geometry": {
                "type": "Point",
                "coordinates": [
                    13.212475776672363,
                    46.064222067251414
                ]
            }
        },
        {
            "type": "Feature",
            "properties": {
                "name": "REPSOL UDINE",
                "id": "10689",
                "brand": "Repsol",
                "amenity": "fuel",
                "operator": "RO.MA SNC DI ADAMI ROBERTO & C."
            },
            "geometry": {
                "type": "Point",
                "coordinates": [
                    13.258821666240692,
                    46.028323416404625
                ]
            }
        },
        {
            "type": "Feature",
            "properties": {
                "name": "Gaidaros di bonopera andrea",
                "id": "18207",
                "brand": "Agip Eni",
                "amenity": "fuel",
                "operator": "GAIDAROS DI BONOPERA ANDREA"
            },
            "geometry": {
                "type": "Point",
                "coordinates": [
                    13.227195070911648,
                    46.0630744105702
                ]
            }
        },
        {
            "type": "Feature",
            "properties": {
                "name": "SERVIZIO ERG DI MARCOVIG FRANCO",
                "id": "16229",
                "brand": "Total Erg",
                "amenity": "fuel",
                "operator": "SERVIZIO ERG DI MARCOVIG FRANCO"
            },
            "geometry": {
                "type": "Point",
                "coordinates": [
                    13.231350481510159,
                    46.05466762572419
                ]
            }
        },
        {
            "type": "Feature",
            "properties": {
                "name": "Beauty Car Snc - Stazione di servizio AGIP 04220",
                "id": "5585",
                "brand": "Agip Eni",
                "amenity": "fuel",
                "operator": "BEAUTY CAR SNC DI ZUCCHIATTI GIANPAOLO E DI GIORGIO SIMONE"
            },
            "geometry": {
                "type": "Point",
                "coordinates": [
                    13.228932861307499,
                    46.056709137461915
                ]
            }
        },
        {
            "type": "Feature",
            "properties": {
                "name": "PASIAN DI PRATO-VIA CAMPOFORMIDO SS. 13 KM.125+556",
                "id": "11907",
                "brand": "Q8",
                "amenity": "fuel",
                "operator": "SERVIZI & GESTIONI ITALIA S.R.L."
            },
            "geometry": {
                "type": "Point",
                "coordinates": [
                    13.192581832408905,
                    46.04335897405019
                ]
            }
        }
    ]
}