{
    "type": "FeatureCollection",
    "features": [
        {
            "type": "Feature",
            "properties": {
                "name": "SELF AREA ENI p.v. 54034",
                "id": "23687",
                "brand": "Agip Eni",
                "amenity": "fuel",
                "operator": "C.M. CARBURANTI DI CARDI GIANPAOLO E MESCHINO VALERIO S.N.C."
            },
            "geometry": {
                "type": "Point",
                "coordinates": [
                    13.53138841688633,
                    41.290315310560274
                ]
            }
        },
        {
            "type": "Feature",
            "properties": {
                "name": "PANNONE FRANCO",
                "id": "30618",
                "brand": "Total Erg",
                "amenity": "fuel",
                "operator": "PANNONE FRANCO"
            },
            "geometry": {
                "type": "Point",
                "coordinates": [
                    13.38162660598755,
                    41.352755904326365
                ]
            }
        },
        {
            "type": "Feature",
            "properties": {
                "name": "eni Assaiante",
                "id": "31370",
                "brand": "Agip Eni",
                "amenity": "fuel",
                "operator": "ASSAIANTE FRANCESCO"
            },
            "geometry": {
                "type": "Point",
                "coordinates": [
                    13.392205238342289,
                    41.28457696330414
                ]
            }
        },
        {
            "type": "Feature",
            "properties": {
                "name": "boccia daniele",
                "id": "17305",
                "brand": "Api-Ip",
                "amenity": "fuel",
                "operator": "BOCCIA DANIELE"
            },
            "geometry": {
                "type": "Point",
                "coordinates": [
                    13.41673403978348,
                    41.33207886020762
                ]
            }
        },
        {
            "type": "Feature",
            "properties": {
                "name": "carburanti stamegna s.a.s.",
                "id": "27508",
                "brand": "Q8",
                "amenity": "fuel",
                "operator": "CARBURANTI STAMEGNA DI STAMEGNA ANNA MARIA & C. S.A.S."
            },
            "geometry": {
                "type": "Point",
                "coordinates": [
                    13.524033129215244,
                    41.29004081977803
                ]
            }
        },
        {
            "type": "Feature",
            "properties": {
                "name": "Stazione di Servizio IP Gruppo Api",
                "id": "6141",
                "brand": "Api-Ip",
                "amenity": "fuel",
                "operator": "DI BIASIO DOMENICO"
            },
            "geometry": {
                "type": "Point",
                "coordinates": [
                    13.431032316735127,
                    41.353395008685986
                ]
            }
        },
        {
            "type": "Feature",
            "properties": {
                "name": "d'alena carburanti snc",
                "id": "7604",
                "brand": "Agip Eni",
                "amenity": "fuel",
                "operator": "D'ALENA CARBURANTI S.N.C. DI D'ALENA EMILIO & FIGLI"
            },
            "geometry": {
                "type": "Point",
                "coordinates": [
                    13.413528800010681,
                    41.358339271755845
                ]
            }
        },
        {
            "type": "Feature",
            "properties": {
                "name": "STAZIONE DI SERVIZIO Q8 DI PANNOZZO ANGELO",
                "id": "31212",
                "brand": "Q8",
                "amenity": "fuel",
                "operator": "PANNOZZO ANGELO"
            },
            "geometry": {
                "type": "Point",
                "coordinates": [
                    13.421248197555542,
                    41.345749643044705
                ]
            }
        },
        {
            "type": "Feature",
            "properties": {
                "name": "Petrol Gamma",
                "id": "31741",
                "amenity": "fuel",
                "operator": "CARDINALE LUIGI BENEDETTO"
            },
            "geometry": {
                "type": "Point",
                "coordinates": [
                    13.420548708971523,
                    41.35939669563886
                ]
            }
        },
        {
            "type": "Feature",
            "properties": {
                "name": "STAZIONE DI SERVIZIO Q8 DI PANNOZZO ANGELO",
                "id": "19872",
                "brand": "Q8",
                "amenity": "fuel",
                "operator": "PANNOZZO ANGELO"
            },
            "geometry": {
                "type": "Point",
                "coordinates": [
                    13.413477838039396,
                    41.3484398015147
                ]
            }
        },
        {
            "type": "Feature",
            "properties": {
                "name": "IP - GRUPPO API",
                "id": "19533",
                "brand": "Api-Ip",
                "amenity": "fuel",
                "operator": "RANDONE SEBASTIANO"
            },
            "geometry": {
                "type": "Point",
                "coordinates": [
                    13.43714363873005,
                    41.25850478509655
                ]
            }
        },
        {
            "type": "Feature",
            "properties": {
                "name": "Italcarburanti F.lli Rubino",
                "id": "19593",
                "brand": "Api-Ip",
                "amenity": "fuel",
                "operator": "ITALCARBURANTI F.LLI RUBINO VINCENZO E GIANNI S.N.C."
            },
            "geometry": {
                "type": "Point",
                "coordinates": [
                    13.426384627819063,
                    41.331845229233764
                ]
            }
        },
        {
            "type": "Feature",
            "properties": {
                "name": "FONDI APPIA ESSO",
                "id": "30614",
                "brand": "Esso",
                "amenity": "fuel",
                "operator": "PENTA PETROLI SRL"
            },
            "geometry": {
                "type": "Point",
                "coordinates": [
                    13.458105772733688,
                    41.33689388727065
                ]
            }
        },
        {
            "type": "Feature",
            "properties": {
                "name": "LUKOIL Fondi",
                "id": "14392",
                "brand": "Lukoil",
                "amenity": "fuel",
                "operator": "LUKOIL ITALIA S.R.L."
            },
            "geometry": {
                "type": "Point",
                "coordinates": [
                    13.398513793945314,
                    41.30592391484644
                ]
            }
        },
        {
            "type": "Feature",
            "properties": {
                "name": "Petrol Gamma",
                "id": "19894",
                "amenity": "fuel",
                "operator": "PETROL GAMMA S.R.L."
            },
            "geometry": {
                "type": "Point",
                "coordinates": [
                    13.39634656906128,
                    41.30915890080935
                ]
            }
        },
        {
            "type": "Feature",
            "properties": {
                "name": "Lombardi Lino & C. SNC",
                "id": "30530",
                "brand": "Api-Ip",
                "amenity": "fuel",
                "operator": "LOMBARDI LINO & C. - S.N.C."
            },
            "geometry": {
                "type": "Point",
                "coordinates": [
                    13.416785001754764,
                    41.36276664713326
                ]
            }
        }
    ]
}