{
    "type": "FeatureCollection",
    "features": [
        {
            "type": "Feature",
            "properties": {
                "name": "TOTALERG",
                "id": "16535",
                "brand": "Total Erg",
                "amenity": "fuel",
                "operator": "ROTILIO PIETRO E IANNI CLAUDIO S.N.C."
            },
            "geometry": {
                "type": "Point",
                "coordinates": [
                    13.405124098062515,
                    42.35554666609215
                ]
            }
        },
        {
            "type": "Feature",
            "properties": {
                "name": "CENTROGAS SRL",
                "id": "28249",
                "brand": "Total Erg",
                "amenity": "fuel",
                "operator": "CENTROGAS - SOCIETA' A RESPONSABILITA' LIMITATA IN LIQUIDAZIONE"
            },
            "geometry": {
                "type": "Point",
                "coordinates": [
                    13.420596420764923,
                    42.328235008002
                ]
            }
        },
        {
            "type": "Feature",
            "properties": {
                "name": "STAZIONE DI SERVIZIO SODIFA TOTALERG",
                "id": "22075",
                "brand": "Total Erg",
                "amenity": "fuel",
                "operator": "SODIFA - SOCIETA' A RESPONSABILITA' LIMITATA"
            },
            "geometry": {
                "type": "Point",
                "coordinates": [
                    13.369308561086656,
                    42.36373178567668
                ]
            }
        },
        {
            "type": "Feature",
            "properties": {
                "name": "totalerg",
                "id": "14492",
                "brand": "Total Erg",
                "amenity": "fuel",
                "operator": "ALIUCCI ROBERTO & VINCENZO - SOCIETA' IN NOME COLLETTIVO"
            },
            "geometry": {
                "type": "Point",
                "coordinates": [
                    13.406525552272798,
                    42.33933302663716
                ]
            }
        },
        {
            "type": "Feature",
            "properties": {
                "name": "STAZIONE DI SERVIZIO SODIFA - VETOIO",
                "id": "17938",
                "brand": "Total Erg",
                "amenity": "fuel",
                "operator": "SODIFA - SOCIETA' A RESPONSABILITA' LIMITATA"
            },
            "geometry": {
                "type": "Point",
                "coordinates": [
                    13.362703621387485,
                    42.35888085653784
                ]
            }
        },
        {
            "type": "Feature",
            "properties": {
                "name": "L'Aquila - Casermette",
                "id": "5263",
                "amenity": "fuel",
                "operator": "BEYFIN S.P.A."
            },
            "geometry": {
                "type": "Point",
                "coordinates": [
                    13.374787398147648,
                    42.3631637917983
                ]
            }
        },
        {
            "type": "Feature",
            "properties": {
                "name": "martini adriana e c.sas",
                "id": "22175",
                "brand": "Agip Eni",
                "amenity": "fuel",
                "operator": "MARTINI ADRIANA & C. S.A.S."
            },
            "geometry": {
                "type": "Point",
                "coordinates": [
                    13.409492075443268,
                    42.339330647486314
                ]
            }
        },
        {
            "type": "Feature",
            "properties": {
                "name": "IP",
                "id": "8159",
                "brand": "Api-Ip",
                "amenity": "fuel",
                "operator": "BASILE MARCELLO"
            },
            "geometry": {
                "type": "Point",
                "coordinates": [
                    13.374014496803285,
                    42.36009778602674
                ]
            }
        },
        {
            "type": "Feature",
            "properties": {
                "name": "le querce s.a.s di francesca ciuffetelli",
                "id": "16487",
                "brand": "Total Erg",
                "amenity": "fuel",
                "operator": "LE QUERCE S.A.S. DI CIUFFETELLI FRANCESCA"
            },
            "geometry": {
                "type": "Point",
                "coordinates": [
                    13.424490988254544,
                    42.35439664448752
                ]
            }
        },
        {
            "type": "Feature",
            "properties": {
                "name": "Cardelli Patrizio",
                "id": "22166",
                "brand": "Agip Eni",
                "amenity": "fuel",
                "operator": "CARDELLI PATRIZIO"
            },
            "geometry": {
                "type": "Point",
                "coordinates": [
                    13.431325261945286,
                    42.347699024505204
                ]
            }
        },
        {
            "type": "Feature",
            "properties": {
                "name": "QUAIANNI S.N.C.",
                "id": "4725",
                "brand": "Agip Eni",
                "amenity": "fuel",
                "operator": "QUAIANNI DI QUAIANNI VITTORIO E DANIELA SOCIETA' IN NOME COLLET- TIVO"
            },
            "geometry": {
                "type": "Point",
                "coordinates": [
                    13.377501368522644,
                    42.360557596897294
                ]
            }
        },
        {
            "type": "Feature",
            "properties": {
                "name": "BEYFIN - BARISCIANO",
                "id": "29149",
                "amenity": "fuel",
                "operator": "S.D. SRL UNIPERSONALE"
            },
            "geometry": {
                "type": "Point",
                "coordinates": [
                    13.515267670154572,
                    42.32402386300271
                ]
            }
        },
        {
            "type": "Feature",
            "properties": {
                "name": "STAZIONE DI SERVIZIO ESSO",
                "id": "22010",
                "brand": "Esso",
                "amenity": "fuel",
                "operator": "EFTOSKI S.N.C. DI EFTOSKI STANISA & BOSKO"
            },
            "geometry": {
                "type": "Point",
                "coordinates": [
                    13.38190957903862,
                    42.35877105426098
                ]
            }
        },
        {
            "type": "Feature",
            "properties": {
                "name": "oasi del servizio",
                "id": "8215",
                "brand": "Api-Ip",
                "amenity": "fuel",
                "operator": "OASI DEL SERVIZIO DI CHIAPEROTTI DANIELE & C. - SOCIETA' IN ACCOMANDITA SEMPLICE"
            },
            "geometry": {
                "type": "Point",
                "coordinates": [
                    13.359634183549815,
                    42.368087268571436
                ]
            }
        },
        {
            "type": "Feature",
            "properties": {
                "name": "Del Re  Anselmo",
                "id": "16747",
                "brand": "Api-Ip",
                "amenity": "fuel",
                "operator": "DEL RE ANSELMO"
            },
            "geometry": {
                "type": "Point",
                "coordinates": [
                    13.405227193592964,
                    42.35573083857728
                ]
            }
        },
        {
            "type": "Feature",
            "properties": {
                "name": "STAZIONE DI SERVIZIO API F.LLI VECCHIONI",
                "id": "8212",
                "brand": "Api-Ip",
                "amenity": "fuel",
                "operator": "STAZIONE DI SERVIZIO API DEI F.LLI VECCHIONI  G. E V.  S.N.C."
            },
            "geometry": {
                "type": "Point",
                "coordinates": [
                    13.466858041664182,
                    42.351486813656024
                ]
            }
        },
        {
            "type": "Feature",
            "properties": {
                "name": "g.t sas",
                "id": "23532",
                "amenity": "fuel",
                "operator": "G.T. SAS DI GILMONDO CECALA  E C."
            },
            "geometry": {
                "type": "Point",
                "coordinates": [
                    13.404344916343689,
                    42.339566180684
                ]
            }
        }
    ]
}