{
    "type": "FeatureCollection",
    "features": [
        {
            "type": "Feature",
            "properties": {
                "name": "CORNO DI ROSAZZO (UD)",
                "id": "24821",
                "brand": "Api-Ip",
                "amenity": "fuel",
                "operator": "MOHAMMAD WAQAR"
            },
            "geometry": {
                "type": "Point",
                "coordinates": [
                    13.436850607395172,
                    46.00853684957895
                ]
            }
        },
        {
            "type": "Feature",
            "properties": {
                "name": "CORMONS-V.LE V.GIULIA SS 356 KM 45+511",
                "id": "11611",
                "brand": "Q8",
                "amenity": "fuel",
                "operator": "SERVIZI & GESTIONI ITALIA S.R.L."
            },
            "geometry": {
                "type": "Point",
                "coordinates": [
                    13.466316964626344,
                    45.95676739726052
                ]
            }
        },
        {
            "type": "Feature",
            "properties": {
                "name": "SMP MANZANO",
                "id": "5238",
                "brand": "San Marco Petroli",
                "amenity": "fuel",
                "operator": "SAN MARCO PETROLI DISTRIBUZIONE S.R.L."
            },
            "geometry": {
                "type": "Point",
                "coordinates": [
                    13.397309482097624,
                    45.98893682975692
                ]
            }
        },
        {
            "type": "Feature",
            "properties": {
                "name": "chiappo fausto",
                "id": "21007",
                "brand": "Agip Eni",
                "amenity": "fuel",
                "operator": "AUTOFFICINA DI CHIAPPO FAUSTO"
            },
            "geometry": {
                "type": "Point",
                "coordinates": [
                    13.388134986162186,
                    46.01463388813836
                ]
            }
        },
        {
            "type": "Feature",
            "properties": {
                "name": "autoservice2000",
                "id": "26366",
                "brand": "Tamoil",
                "amenity": "fuel",
                "operator": "AUTOSERVICE 2000 DI CARA STEFANO & C. S.N.C."
            },
            "geometry": {
                "type": "Point",
                "coordinates": [
                    13.43632087111473,
                    45.95302011300628
                ]
            }
        },
        {
            "type": "Feature",
            "properties": {
                "name": "Maurizio Mauri",
                "id": "10977",
                "brand": "Total Erg",
                "amenity": "fuel",
                "operator": "MAURIZIO MAURI"
            },
            "geometry": {
                "type": "Point",
                "coordinates": [
                    13.37604923313529,
                    45.98871322679211
                ]
            }
        },
        {
            "type": "Feature",
            "properties": {
                "name": "Censani Rag.Fabrizio& C.snc.",
                "id": "8191",
                "brand": "Agip Eni",
                "amenity": "fuel",
                "operator": "CENSANI RAG. FABRIZIO E C. S.N.C."
            },
            "geometry": {
                "type": "Point",
                "coordinates": [
                    13.36521148681641,
                    45.99055440367661
                ]
            }
        },
        {
            "type": "Feature",
            "properties": {
                "name": "ESSO",
                "id": "24846",
                "brand": "Esso",
                "amenity": "fuel",
                "operator": "B & T S.N.C. DI BONESSI M. & C."
            },
            "geometry": {
                "type": "Point",
                "coordinates": [
                    13.396252691745758,
                    45.97359212758381
                ]
            }
        },
        {
            "type": "Feature",
            "properties": {
                "name": "SMP CORMONS",
                "id": "23721",
                "brand": "San Marco Petroli",
                "amenity": "fuel",
                "operator": "SAN MARCO PETROLI DISTRIBUZIONE S.R.L."
            },
            "geometry": {
                "type": "Point",
                "coordinates": [
                    13.463874186508182,
                    45.95886767698287
                ]
            }
        },
        {
            "type": "Feature",
            "properties": {
                "name": "full service ip",
                "id": "19170",
                "brand": "Api-Ip",
                "amenity": "fuel",
                "operator": "FULL SERVICE DI MARGUTTI EDI E CASELLA LUCIA SNC"
            },
            "geometry": {
                "type": "Point",
                "coordinates": [
                    13.382816165685652,
                    46.05865269052585
                ]
            }
        }
    ]
}