{
    "type": "FeatureCollection",
    "features": [
        {
            "type": "Feature",
            "properties": {
                "name": "Eni Bonagia",
                "id": "18014",
                "brand": "Agip Eni",
                "amenity": "fuel",
                "operator": "M.G. POWER  SOCIETA' A RESPONSABILITA' LIMITATA"
            },
            "geometry": {
                "type": "Point",
                "coordinates": [
                    13.36715206503868,
                    38.08789394936531
                ]
            }
        },
        {
            "type": "Feature",
            "properties": {
                "name": "DISTRIBUTORE Q8 di De franchis giovanni",
                "id": "28481",
                "brand": "Q8",
                "amenity": "fuel",
                "operator": "DE FRANCHIS GIOVANNI"
            },
            "geometry": {
                "type": "Point",
                "coordinates": [
                    13.505624487102525,
                    38.08601334483427
                ]
            }
        },
        {
            "type": "Feature",
            "properties": {
                "name": "PALERMO VIA LAUDICINA",
                "id": "26121",
                "brand": "Q8",
                "amenity": "fuel",
                "operator": "SERVIZI & GESTIONI ITALIA S.R.L."
            },
            "geometry": {
                "type": "Point",
                "coordinates": [
                    13.412503915344244,
                    38.096606226852
                ]
            }
        },
        {
            "type": "Feature",
            "properties": {
                "name": "Q8 Casteldaccia Via Enrico Alliata 26",
                "id": "27173",
                "brand": "Q8",
                "amenity": "fuel",
                "operator": "F.A. DISTRIBUZIONE CARBURANTI DI FLORIO AGATINO"
            },
            "geometry": {
                "type": "Point",
                "coordinates": [
                    13.532681758285323,
                    38.056381755478576
                ]
            }
        },
        {
            "type": "Feature",
            "properties": {
                "name": "Tamoil",
                "id": "32197",
                "brand": "Tamoil",
                "amenity": "fuel",
                "operator": "MACALUSO MARIO"
            },
            "geometry": {
                "type": "Point",
                "coordinates": [
                    13.402623787766291,
                    38.07811784580341
                ]
            }
        },
        {
            "type": "Feature",
            "properties": {
                "name": "Q8",
                "id": "30735",
                "brand": "Q8",
                "amenity": "fuel",
                "operator": "CALDERONE GIROLAMO"
            },
            "geometry": {
                "type": "Point",
                "coordinates": [
                    13.391212361376919,
                    38.098388631909245
                ]
            }
        },
        {
            "type": "Feature",
            "properties": {
                "name": "MONDINO GAETANA & C. S.N.C.",
                "id": "28496",
                "brand": "Esso",
                "amenity": "fuel",
                "operator": "MONDINO GAETANA & C. S.N.C."
            },
            "geometry": {
                "type": "Point",
                "coordinates": [
                    13.361136540770532,
                    38.093823926338125
                ]
            }
        },
        {
            "type": "Feature",
            "properties": {
                "name": "GRIGOLI GIUSEPPE & C. S.N.C.",
                "id": "21306",
                "brand": "Api-Ip",
                "amenity": "fuel",
                "operator": "GRIGOLI GIUSEPPE & C.  S.N.C."
            },
            "geometry": {
                "type": "Point",
                "coordinates": [
                    13.41422544447596,
                    38.09104692044925
                ]
            }
        },
        {
            "type": "Feature",
            "properties": {
                "name": "ESSO",
                "id": "7504",
                "brand": "Esso",
                "amenity": "fuel",
                "operator": "SALERNO LORENZO"
            },
            "geometry": {
                "type": "Point",
                "coordinates": [
                    13.433534569311519,
                    38.08233131135003
                ]
            }
        },
        {
            "type": "Feature",
            "properties": {
                "name": "FRATELLI MAGGIORE DI MAGGIORE G E C SNC",
                "id": "19662",
                "brand": "Agip Eni",
                "amenity": "fuel",
                "operator": "FRATELLI MAGGIORE DI MAGGIORE GIANLUCA E C. S.N.C."
            },
            "geometry": {
                "type": "Point",
                "coordinates": [
                    13.508785245368928,
                    38.06948377789815
                ]
            }
        },
        {
            "type": "Feature",
            "properties": {
                "name": "BENINCASA LUCIANO",
                "id": "18540",
                "brand": "Api-Ip",
                "amenity": "fuel",
                "operator": "BENINCASA LUCIANO"
            },
            "geometry": {
                "type": "Point",
                "coordinates": [
                    13.377481922507286,
                    38.112860943399824
                ]
            }
        },
        {
            "type": "Feature",
            "properties": {
                "name": "Distributore Esso Orlando Maria Francesca",
                "id": "14832",
                "brand": "Esso",
                "amenity": "fuel",
                "operator": "ORLANDO MARIA FRANCESCA"
            },
            "geometry": {
                "type": "Point",
                "coordinates": [
                    13.360817104096554,
                    38.130529881881415
                ]
            }
        },
        {
            "type": "Feature",
            "properties": {
                "name": "Q8",
                "id": "30288",
                "brand": "Q8",
                "amenity": "fuel",
                "operator": "MESSINA PATRIZIA"
            },
            "geometry": {
                "type": "Point",
                "coordinates": [
                    13.382364213466644,
                    38.090094499550624
                ]
            }
        },
        {
            "type": "Feature",
            "properties": {
                "name": "PV9482",
                "id": "24406",
                "brand": "Q8",
                "amenity": "fuel",
                "operator": "PETROLI S.R.L."
            },
            "geometry": {
                "type": "Point",
                "coordinates": [
                    13.481533527374266,
                    38.09152496637002
                ]
            }
        },
        {
            "type": "Feature",
            "properties": {
                "name": "MORANA snc",
                "id": "20195",
                "brand": "Agip Eni",
                "amenity": "fuel",
                "operator": "MORANA GIUSEPPE  & C SNC"
            },
            "geometry": {
                "type": "Point",
                "coordinates": [
                    13.363675251603125,
                    38.124501776005324
                ]
            }
        },
        {
            "type": "Feature",
            "properties": {
                "name": "ESSO DI MADONIA FILOMENA E.C. SAS",
                "id": "7686",
                "brand": "Esso",
                "amenity": "fuel",
                "operator": "MADONIA FILOMENA & C. S.A.S."
            },
            "geometry": {
                "type": "Point",
                "coordinates": [
                    13.526487350463867,
                    38.086299648981615
                ]
            }
        },
        {
            "type": "Feature",
            "properties": {
                "name": "ENI F.lli VACCARO snc",
                "id": "21715",
                "brand": "Agip Eni",
                "amenity": "fuel",
                "operator": "FRATELLI VACCARO DI VACCARO GIROLAMO E C. S.N.C."
            },
            "geometry": {
                "type": "Point",
                "coordinates": [
                    13.407576978206633,
                    38.09827209605098
                ]
            }
        },
        {
            "type": "Feature",
            "properties": {
                "name": "Corso Giovanni",
                "id": "17532",
                "brand": "Esso",
                "amenity": "fuel",
                "operator": "CORSO GIOVANNI"
            },
            "geometry": {
                "type": "Point",
                "coordinates": [
                    13.458024942666611,
                    38.03298342096826
                ]
            }
        },
        {
            "type": "Feature",
            "properties": {
                "name": "SICILIANA CARBURANTI SRL FORO",
                "id": "26013",
                "brand": "Q8",
                "amenity": "fuel",
                "operator": "SICILIANA CARBURANTI S.R.L."
            },
            "geometry": {
                "type": "Point",
                "coordinates": [
                    13.374491930007936,
                    38.11620303245176
                ]
            }
        },
        {
            "type": "Feature",
            "properties": {
                "name": "Esso Bagheria",
                "id": "25820",
                "brand": "Esso",
                "amenity": "fuel",
                "operator": "MARRETTA ODDO ANDREA"
            },
            "geometry": {
                "type": "Point",
                "coordinates": [
                    13.501996479345733,
                    38.07330841892495
                ]
            }
        },
        {
            "type": "Feature",
            "properties": {
                "name": "Q8 - Viale Reg. Siciliana - Coccinella uscita PA-CT",
                "id": "30715",
                "brand": "Q8",
                "amenity": "fuel",
                "operator": "D & T  CARBURANTI S.N.C. DI TESTAGROSSA GABRIELE E D'AMICO SALVAT ORE"
            },
            "geometry": {
                "type": "Point",
                "coordinates": [
                    13.382358849048616,
                    38.09011645410603
                ]
            }
        },
        {
            "type": "Feature",
            "properties": {
                "name": "NOTARBARTOLO VITTORIO",
                "id": "19298",
                "brand": "Tamoil",
                "amenity": "fuel",
                "operator": "NOTARBARTOLO VITTORIO"
            },
            "geometry": {
                "type": "Point",
                "coordinates": [
                    13.37774947285652,
                    38.103495864186186
                ]
            }
        },
        {
            "type": "Feature",
            "properties": {
                "name": "gurrera vincenzo",
                "id": "20078",
                "brand": "Tamoil",
                "amenity": "fuel",
                "operator": "GURRERA VINCENZO"
            },
            "geometry": {
                "type": "Point",
                "coordinates": [
                    13.504013686676103,
                    38.088956872230625
                ]
            }
        },
        {
            "type": "Feature",
            "properties": {
                "name": "impianti carburanti Q8",
                "id": "9364",
                "brand": "Q8",
                "amenity": "fuel",
                "operator": "CANGELOSI VINCENZO"
            },
            "geometry": {
                "type": "Point",
                "coordinates": [
                    13.432571094633543,
                    38.08883939583042
                ]
            }
        },
        {
            "type": "Feature",
            "properties": {
                "name": "marchese rosaria",
                "id": "17339",
                "brand": "Esso",
                "amenity": "fuel",
                "operator": "MARCHESE ROSARIA"
            },
            "geometry": {
                "type": "Point",
                "coordinates": [
                    13.371070772409439,
                    38.10051623659785
                ]
            }
        },
        {
            "type": "Feature",
            "properties": {
                "name": "Pirrello Angelo & La Lia Natale",
                "id": "28038",
                "brand": "Q8",
                "amenity": "fuel",
                "operator": "PIRRELLO ANGELO E LA LA LIA NATALE S.N.C."
            },
            "geometry": {
                "type": "Point",
                "coordinates": [
                    13.459735214710237,
                    38.0403785134782
                ]
            }
        },
        {
            "type": "Feature",
            "properties": {
                "name": "distributore carburanti ingrassia &c",
                "id": "27937",
                "brand": "Agip Eni",
                "amenity": "fuel",
                "operator": "DISTRIBUTORE CARBURANTE S.A.S. DI INGRASSIA GAETANO & C."
            },
            "geometry": {
                "type": "Point",
                "coordinates": [
                    13.397538140416145,
                    38.04599022054373
                ]
            }
        },
        {
            "type": "Feature",
            "properties": {
                "name": "PALERMO - MESSINA MARINE",
                "id": "31468",
                "brand": "Api-Ip",
                "amenity": "fuel",
                "operator": "IP SERVICES S.R.L."
            },
            "geometry": {
                "type": "Point",
                "coordinates": [
                    13.404862449073791,
                    38.09911688599973
                ]
            }
        },
        {
            "type": "Feature",
            "properties": {
                "name": "DISTRIBUTORE Q8",
                "id": "25455",
                "brand": "Q8",
                "amenity": "fuel",
                "operator": "GIANNUSA FRANCESCO"
            },
            "geometry": {
                "type": "Point",
                "coordinates": [
                    13.431569337844847,
                    38.091481842382656
                ]
            }
        },
        {
            "type": "Feature",
            "properties": {
                "name": "DBS Serv. Petroliferi srl",
                "id": "30050",
                "brand": "Agip Eni",
                "amenity": "fuel",
                "operator": "DBS SERVIZI PETROLIFERI S.R.L."
            },
            "geometry": {
                "type": "Point",
                "coordinates": [
                    13.38336373939512,
                    38.08977682052031
                ]
            }
        },
        {
            "type": "Feature",
            "properties": {
                "name": "q8",
                "id": "19713",
                "brand": "Q8",
                "amenity": "fuel",
                "operator": "SCHIMMENTI GIUSEPPE"
            },
            "geometry": {
                "type": "Point",
                "coordinates": [
                    13.453454822301866,
                    38.033333169641296
                ]
            }
        },
        {
            "type": "Feature",
            "properties": {
                "name": "stazione di servizio esso",
                "id": "28876",
                "brand": "Esso",
                "amenity": "fuel",
                "operator": "CASTELLI ALBERTO MARIA"
            },
            "geometry": {
                "type": "Point",
                "coordinates": [
                    13.411853558443566,
                    38.09816149339889
                ]
            }
        },
        {
            "type": "Feature",
            "properties": {
                "name": "Q8 DI MINEO",
                "id": "20340",
                "brand": "Q8",
                "amenity": "fuel",
                "operator": "FORTUNATA DI M. E M. DI MINEO MICHELANGELO E MINEO ANGELO E C. S.A.S."
            },
            "geometry": {
                "type": "Point",
                "coordinates": [
                    13.517605215311049,
                    38.08061840462841
                ]
            }
        },
        {
            "type": "Feature",
            "properties": {
                "name": "Maria Di Maria",
                "id": "26042",
                "brand": "Agip Eni",
                "amenity": "fuel",
                "operator": "DI MARIA MARIA"
            },
            "geometry": {
                "type": "Point",
                "coordinates": [
                    13.376959562301636,
                    38.10428453969149
                ]
            }
        },
        {
            "type": "Feature",
            "properties": {
                "name": "IMP ENI D'AGOSTINO",
                "id": "12828",
                "brand": "Agip Eni",
                "amenity": "fuel",
                "operator": "D'AGOSTINO STEFANO"
            },
            "geometry": {
                "type": "Point",
                "coordinates": [
                    13.439589142799376,
                    38.07888147294599
                ]
            }
        },
        {
            "type": "Feature",
            "properties": {
                "name": "FUELPOWER",
                "id": "22597",
                "amenity": "fuel",
                "operator": "FUELPOWER   SOCIETA' A RESPONSABILITA' LIMITATA"
            },
            "geometry": {
                "type": "Point",
                "coordinates": [
                    13.45356948673725,
                    38.01566338223583
                ]
            }
        },
        {
            "type": "Feature",
            "properties": {
                "name": "S G PETROLI BAGHERIA",
                "id": "31098",
                "brand": "Q8",
                "amenity": "fuel",
                "operator": "S.G. PETROLI DI GIULIANO SALVATORE"
            },
            "geometry": {
                "type": "Point",
                "coordinates": [
                    13.501347005367279,
                    38.08495274208364
                ]
            }
        },
        {
            "type": "Feature",
            "properties": {
                "name": "EOS",
                "id": "23088",
                "amenity": "fuel",
                "operator": "CONIGLIO ALESSANDRO"
            },
            "geometry": {
                "type": "Point",
                "coordinates": [
                    13.524671370416852,
                    38.08240872898774
                ]
            }
        },
        {
            "type": "Feature",
            "properties": {
                "name": "PV9480",
                "id": "24407",
                "brand": "Q8",
                "amenity": "fuel",
                "operator": "PETROLI S.R.L."
            },
            "geometry": {
                "type": "Point",
                "coordinates": [
                    13.461422324180605,
                    38.06507585561204
                ]
            }
        },
        {
            "type": "Feature",
            "properties": {
                "name": "ENI",
                "id": "16176",
                "brand": "Agip Eni",
                "amenity": "fuel",
                "operator": "DISTRIBUTORE AGIP DI SCIORTINO CARLO"
            },
            "geometry": {
                "type": "Point",
                "coordinates": [
                    13.512617127647445,
                    38.078873461992764
                ]
            }
        },
        {
            "type": "Feature",
            "properties": {
                "name": "PALERMO - MESSINA MONTAGNE 10",
                "id": "31472",
                "brand": "Api-Ip",
                "amenity": "fuel",
                "operator": "IP SERVICES S.R.L."
            },
            "geometry": {
                "type": "Point",
                "coordinates": [
                    13.429974764585495,
                    38.08315717948859
                ]
            }
        },
        {
            "type": "Feature",
            "properties": {
                "name": "eni salerno lorenzo",
                "id": "7801",
                "brand": "Agip Eni",
                "amenity": "fuel",
                "operator": "SALERNO LORENZO"
            },
            "geometry": {
                "type": "Point",
                "coordinates": [
                    13.431719541549684,
                    38.08229178907744
                ]
            }
        },
        {
            "type": "Feature",
            "properties": {
                "name": "AGIP MARCHESE",
                "id": "28265",
                "brand": "Agip Eni",
                "amenity": "fuel",
                "operator": "MARCHESE ANTONINO"
            },
            "geometry": {
                "type": "Point",
                "coordinates": [
                    13.372465521097187,
                    38.099161148695906
                ]
            }
        },
        {
            "type": "Feature",
            "properties": {
                "name": "salamone e sedita",
                "id": "8505",
                "brand": "Esso",
                "amenity": "fuel",
                "operator": "SEIDITA ANNUNZIATA E SALAMONE ANTONIA S.N.C."
            },
            "geometry": {
                "type": "Point",
                "coordinates": [
                    13.381862640380861,
                    38.09104866998049
                ]
            }
        }
    ]
}