{
    "type": "FeatureCollection",
    "features": [
        {
            "type": "Feature",
            "properties": {
                "name": "Rotondi Filomena",
                "id": "9036",
                "amenity": "fuel",
                "operator": "ROTONDI FILOMENA"
            },
            "geometry": {
                "type": "Point",
                "coordinates": [
                    13.526671821826197,
                    41.55661658686807
                ]
            }
        },
        {
            "type": "Feature",
            "properties": {
                "name": "PETROL GAMMA",
                "id": "32203",
                "amenity": "fuel",
                "operator": "ANGELO SAVO"
            },
            "geometry": {
                "type": "Point",
                "coordinates": [
                    13.395952284336087,
                    41.62509457464322
                ]
            }
        },
        {
            "type": "Feature",
            "properties": {
                "name": "F.LLI TELLINA E MIGLIORI SRL",
                "id": "19779",
                "amenity": "fuel",
                "operator": "FRATELLI TELLINA E MIGLIORI S.R.L."
            },
            "geometry": {
                "type": "Point",
                "coordinates": [
                    13.404820117721556,
                    41.51566474242583
                ]
            }
        },
        {
            "type": "Feature",
            "properties": {
                "name": "16641 Frosinone",
                "id": "26857",
                "brand": "Agip Eni",
                "amenity": "fuel",
                "operator": "ENI RETE OIL&NONOIL S.P.A."
            },
            "geometry": {
                "type": "Point",
                "coordinates": [
                    13.359591051944335,
                    41.63178833957495
                ]
            }
        },
        {
            "type": "Feature",
            "properties": {
                "name": "IP",
                "id": "14091",
                "brand": "Api-Ip",
                "amenity": "fuel",
                "operator": "VALERIANI FRANCESCO"
            },
            "geometry": {
                "type": "Point",
                "coordinates": [
                    13.41592187588219,
                    41.564656416988775
                ]
            }
        },
        {
            "type": "Feature",
            "properties": {
                "name": "Repsol",
                "id": "24384",
                "brand": "Repsol",
                "amenity": "fuel",
                "operator": "FUEL AND OIL DI MAGLIOCCHETTI MASSIMILIANO"
            },
            "geometry": {
                "type": "Point",
                "coordinates": [
                    13.492499667427978,
                    41.54101677573221
                ]
            }
        },
        {
            "type": "Feature",
            "properties": {
                "name": "Lunghi Maria Grazia -",
                "id": "8536",
                "brand": "Repsol",
                "amenity": "fuel",
                "operator": "LUNGHI MARIA GRAZIA"
            },
            "geometry": {
                "type": "Point",
                "coordinates": [
                    13.424079269170761,
                    41.6126407000605
                ]
            }
        },
        {
            "type": "Feature",
            "properties": {
                "name": "Mariani",
                "id": "9937",
                "amenity": "fuel",
                "operator": "PIZZICAROLA ANTONIO"
            },
            "geometry": {
                "type": "Point",
                "coordinates": [
                    13.4229701757431,
                    41.60445952452268
                ]
            }
        },
        {
            "type": "Feature",
            "properties": {
                "name": "PETROLMED",
                "id": "5562",
                "brand": "Api-Ip",
                "amenity": "fuel",
                "operator": "PETROLMED S.R.L."
            },
            "geometry": {
                "type": "Point",
                "coordinates": [
                    13.491031229496004,
                    41.55433325981622
                ]
            }
        },
        {
            "type": "Feature",
            "properties": {
                "name": "4700",
                "id": "30470",
                "brand": "Tamoil",
                "amenity": "fuel",
                "operator": "T.D.M. S.R.L."
            },
            "geometry": {
                "type": "Point",
                "coordinates": [
                    13.37091788649559,
                    41.62902836744529
                ]
            }
        },
        {
            "type": "Feature",
            "properties": {
                "name": "RUOTA-LIBERA s.n.c.",
                "id": "24482",
                "brand": "Esso",
                "amenity": "fuel",
                "operator": "RUOTA LIBERA S.N.C. DI GAROFALI MARIA OLIVA E GAROFALI DANIELA"
            },
            "geometry": {
                "type": "Point",
                "coordinates": [
                    13.413556292653084,
                    41.53419460068903
                ]
            }
        },
        {
            "type": "Feature",
            "properties": {
                "name": "REPSOL",
                "id": "27873",
                "brand": "Repsol",
                "amenity": "fuel",
                "operator": "CINELLI ANNA"
            },
            "geometry": {
                "type": "Point",
                "coordinates": [
                    13.506639003753659,
                    41.62160663332189
                ]
            }
        },
        {
            "type": "Feature",
            "properties": {
                "name": "STELLATO CARBURANTI",
                "id": "15667",
                "brand": "Api-Ip",
                "amenity": "fuel",
                "operator": "STELLATO CARBURANTI S.A.S. DI STELLATO MAURIZIO"
            },
            "geometry": {
                "type": "Point",
                "coordinates": [
                    13.512617431877173,
                    41.54711808872685
                ]
            }
        },
        {
            "type": "Feature",
            "properties": {
                "name": "IP",
                "id": "14700",
                "brand": "Api-Ip",
                "amenity": "fuel",
                "operator": "VALERIANI  SIMONE"
            },
            "geometry": {
                "type": "Point",
                "coordinates": [
                    13.421771228313444,
                    41.539487332620304
                ]
            }
        }
    ]
}