{
    "type": "FeatureCollection",
    "features": [
        {
            "type": "Feature",
            "properties": {
                "name": "_SMP GORIZIA",
                "id": "29817",
                "brand": "San Marco Petroli",
                "amenity": "fuel",
                "operator": "SAN MARCO PETROLI DISTRIBUZIONE S.R.L."
            },
            "geometry": {
                "type": "Point",
                "coordinates": [
                    13.613113313913345,
                    45.934614834940454
                ]
            }
        },
        {
            "type": "Feature",
            "properties": {
                "name": "der-w (tamoil)",
                "id": "24264",
                "brand": "Tamoil",
                "amenity": "fuel",
                "operator": "DER-W DI RIZZI MANUEL"
            },
            "geometry": {
                "type": "Point",
                "coordinates": [
                    13.600412479345666,
                    45.935742047394335
                ]
            }
        },
        {
            "type": "Feature",
            "properties": {
                "name": "GORIZIA-VIA AQUILEIA ANG. FATEBENEFRATELLI",
                "id": "11610",
                "brand": "Q8",
                "amenity": "fuel",
                "operator": "SERVIZI & GESTIONI ITALIA S.R.L."
            },
            "geometry": {
                "type": "Point",
                "coordinates": [
                    13.606942915344233,
                    45.93447461702115
                ]
            }
        },
        {
            "type": "Feature",
            "properties": {
                "name": "autoservizi snc",
                "id": "11385",
                "brand": "Agip Eni",
                "amenity": "fuel",
                "operator": "AUTOSERVIZI S.N.C. DI TRAFICANTE ANTONIO & VINCENZO"
            },
            "geometry": {
                "type": "Point",
                "coordinates": [
                    13.613188120901443,
                    45.92793252306182
                ]
            }
        },
        {
            "type": "Feature",
            "properties": {
                "name": "eni",
                "id": "16668",
                "brand": "Agip Eni",
                "amenity": "fuel",
                "operator": "AREA 4133 S.N.C. DI SABRINA PONZALLI E PAOLO MACUZ"
            },
            "geometry": {
                "type": "Point",
                "coordinates": [
                    13.601025787033107,
                    45.93461103828427
                ]
            }
        },
        {
            "type": "Feature",
            "properties": {
                "name": "stazione di servizio Traini snc",
                "id": "21193",
                "brand": "Esso",
                "amenity": "fuel",
                "operator": "STAZIONE DI SERVIZIO TRAINI DI PIO TRAINI E GIOVANNI ROMANUT S.N.C."
            },
            "geometry": {
                "type": "Point",
                "coordinates": [
                    13.603541595106437,
                    45.93415671441838
                ]
            }
        },
        {
            "type": "Feature",
            "properties": {
                "name": "Farra D'Isonzo",
                "id": "30744",
                "brand": "Total Erg",
                "amenity": "fuel",
                "operator": "GESTIONI EUROPA - SOCIETA' PER AZIONI"
            },
            "geometry": {
                "type": "Point",
                "coordinates": [
                    13.537172090388482,
                    45.904499206819175
                ]
            }
        },
        {
            "type": "Feature",
            "properties": {
                "name": "stazione di servizio AGIP",
                "id": "29775",
                "brand": "Agip Eni",
                "amenity": "fuel",
                "operator": "DIANA MASSIMILIANO"
            },
            "geometry": {
                "type": "Point",
                "coordinates": [
                    13.623064536770697,
                    45.942845678860614
                ]
            }
        }
    ]
}