{
    "type": "FeatureCollection",
    "features": [
        {
            "type": "Feature",
            "properties": {
                "name": "X FUEL ASCOLI PICENO",
                "id": "28865",
                "amenity": "fuel",
                "operator": "X FUEL S.R.L."
            },
            "geometry": {
                "type": "Point",
                "coordinates": [
                    13.590214799756952,
                    42.86176665900366
                ]
            }
        },
        {
            "type": "Feature",
            "properties": {
                "name": "MI.FA.Di Mindoli Piergiorgio",
                "id": "21959",
                "brand": "Total Erg",
                "amenity": "fuel",
                "operator": "MI.FA. DI MINDOLI PIERGIORGIO"
            },
            "geometry": {
                "type": "Point",
                "coordinates": [
                    13.586445260713164,
                    42.861076335885215
                ]
            }
        },
        {
            "type": "Feature",
            "properties": {
                "name": "Ascoli Piceno",
                "id": "10088",
                "brand": "Total Erg",
                "amenity": "fuel",
                "operator": "GESTIONI EUROPA - SOCIETA' PER AZIONI"
            },
            "geometry": {
                "type": "Point",
                "coordinates": [
                    13.592567592859265,
                    42.85416058030797
                ]
            }
        },
        {
            "type": "Feature",
            "properties": {
                "name": "ocra snc",
                "id": "29864",
                "brand": "Api-Ip",
                "amenity": "fuel",
                "operator": "OCRA DI RAZZETTI DONATO E C. S.N.C."
            },
            "geometry": {
                "type": "Point",
                "coordinates": [
                    13.668121397495266,
                    42.84744296387294
                ]
            }
        },
        {
            "type": "Feature",
            "properties": {
                "name": "MAOLONI LETIZIA",
                "id": "21711",
                "brand": "Api-Ip",
                "amenity": "fuel",
                "operator": "MAOLONI LETIZIA"
            },
            "geometry": {
                "type": "Point",
                "coordinates": [
                    13.622638035124623,
                    42.93860195963238
                ]
            }
        },
        {
            "type": "Feature",
            "properties": {
                "name": "Q8",
                "id": "30751",
                "brand": "Q8",
                "amenity": "fuel",
                "operator": "FACCIABENE VINCENZO & LEONI FABIO - SOCIETA' IN NOME COLLETTIVO"
            },
            "geometry": {
                "type": "Point",
                "coordinates": [
                    13.605254597869818,
                    42.85251893918427
                ]
            }
        },
        {
            "type": "Feature",
            "properties": {
                "name": "7626",
                "id": "27708",
                "brand": "Tamoil",
                "amenity": "fuel",
                "operator": "T.D.M. S.R.L."
            },
            "geometry": {
                "type": "Point",
                "coordinates": [
                    13.701517581939697,
                    42.8539769282531
                ]
            }
        },
        {
            "type": "Feature",
            "properties": {
                "name": "FIORAVANTI FELICE",
                "id": "27832",
                "brand": "Agip Eni",
                "amenity": "fuel",
                "operator": "FIORAVANTI FELICE"
            },
            "geometry": {
                "type": "Point",
                "coordinates": [
                    13.625975847244263,
                    42.849916780230984
                ]
            }
        },
        {
            "type": "Feature",
            "properties": {
                "name": "Amoil Poggio di Bretta 03",
                "id": "16614",
                "brand": "Amoil",
                "amenity": "fuel",
                "operator": "AMOIL S.R.L."
            },
            "geometry": {
                "type": "Point",
                "coordinates": [
                    13.640488684177399,
                    42.86319111619177
                ]
            }
        },
        {
            "type": "Feature",
            "properties": {
                "name": "STAZIONE DI SERVIZIO DE ANGELIS EDO E C. SNC",
                "id": "13918",
                "brand": "Api-Ip",
                "amenity": "fuel",
                "operator": "DE ANGELIS EDO & C. S.N.C."
            },
            "geometry": {
                "type": "Point",
                "coordinates": [
                    13.70234102010727,
                    42.940109498181286
                ]
            }
        },
        {
            "type": "Feature",
            "properties": {
                "name": "castel di lama carburanti",
                "id": "7700",
                "brand": "Agip Eni",
                "amenity": "fuel",
                "operator": "CASTEL DI LAMA CARBURANTI DI SEGHETTI MAURO E C. S.N.C."
            },
            "geometry": {
                "type": "Point",
                "coordinates": [
                    13.707303106784824,
                    42.85919408601271
                ]
            }
        },
        {
            "type": "Feature",
            "properties": {
                "name": "ENI",
                "id": "21828",
                "brand": "Agip Eni",
                "amenity": "fuel",
                "operator": "ROSATI SILVESTRO"
            },
            "geometry": {
                "type": "Point",
                "coordinates": [
                    13.707856893539425,
                    42.82658398194972
                ]
            }
        },
        {
            "type": "Feature",
            "properties": {
                "name": "PIT LANE di  Giorgi Daniele",
                "id": "29233",
                "brand": "Api-Ip",
                "amenity": "fuel",
                "operator": "PIT LANE DI GIORGI DANIELE"
            },
            "geometry": {
                "type": "Point",
                "coordinates": [
                    13.588046791037756,
                    42.8512407489432
                ]
            }
        },
        {
            "type": "Feature",
            "properties": {
                "name": "DISTRIB. Retitalia Ascoli Piceno",
                "id": "29172",
                "brand": "Retitalia",
                "amenity": "fuel",
                "operator": "PETROLIFERA ADRIATICA S.P.A."
            },
            "geometry": {
                "type": "Point",
                "coordinates": [
                    13.58787909150124,
                    42.854463388733116
                ]
            }
        },
        {
            "type": "Feature",
            "properties": {
                "name": "ASCOLI PICENO-VIA DEL COMMERCIO",
                "id": "11463",
                "brand": "Q8",
                "amenity": "fuel",
                "operator": "SERVIZI & GESTIONI ITALIA S.R.L."
            },
            "geometry": {
                "type": "Point",
                "coordinates": [
                    13.62163830919269,
                    42.84542359886193
                ]
            }
        },
        {
            "type": "Feature",
            "properties": {
                "name": "GABRIELLI STEFANO",
                "id": "18761",
                "brand": "Api-Ip",
                "amenity": "fuel",
                "operator": "GABRIELLI STEFANO"
            },
            "geometry": {
                "type": "Point",
                "coordinates": [
                    13.63343665761954,
                    42.82056849451321
                ]
            }
        },
        {
            "type": "Feature",
            "properties": {
                "name": "STAZIONE RIFORNIMENTO ROSSI BRUNORI ALFREDO",
                "id": "13886",
                "brand": "Esso",
                "amenity": "fuel",
                "operator": "ROSSI BRUNORI ALFREDO"
            },
            "geometry": {
                "type": "Point",
                "coordinates": [
                    13.565006465641432,
                    42.85466895345791
                ]
            }
        },
        {
            "type": "Feature",
            "properties": {
                "name": "CELANI LUIGI",
                "id": "4495",
                "amenity": "fuel",
                "operator": "LUIGI CELANI"
            },
            "geometry": {
                "type": "Point",
                "coordinates": [
                    13.632866227228192,
                    42.836679509503696
                ]
            }
        },
        {
            "type": "Feature",
            "properties": {
                "name": "TOTALERG",
                "id": "4496",
                "brand": "Total Erg",
                "amenity": "fuel",
                "operator": "LUIGI CELANI"
            },
            "geometry": {
                "type": "Point",
                "coordinates": [
                    13.610449007689452,
                    42.84470780488817
                ]
            }
        },
        {
            "type": "Feature",
            "properties": {
                "name": "ASCOLI PICENO - TEVERE 282",
                "id": "30395",
                "brand": "Api-Ip",
                "amenity": "fuel",
                "operator": "IP SERVICES S.R.L."
            },
            "geometry": {
                "type": "Point",
                "coordinates": [
                    13.610724898147623,
                    42.850480335898446
                ]
            }
        },
        {
            "type": "Feature",
            "properties": {
                "name": "shell",
                "id": "20234",
                "brand": "Shell",
                "amenity": "fuel",
                "operator": "FACCIABENE VINCENZO & LEONI FABIO - SOCIETA' IN NOME COLLETTIVO"
            },
            "geometry": {
                "type": "Point",
                "coordinates": [
                    13.605279922485352,
                    42.85254859199057
                ]
            }
        },
        {
            "type": "Feature",
            "properties": {
                "name": "IP",
                "id": "27539",
                "brand": "Api-Ip",
                "amenity": "fuel",
                "operator": "GLES DI STIPA EMIDIO & C. S.N.C."
            },
            "geometry": {
                "type": "Point",
                "coordinates": [
                    13.667111545801164,
                    42.8936830046813
                ]
            }
        },
        {
            "type": "Feature",
            "properties": {
                "name": "bonifica",
                "id": "16350",
                "brand": "Api-Ip",
                "amenity": "fuel",
                "operator": "FAN SRL"
            },
            "geometry": {
                "type": "Point",
                "coordinates": [
                    13.68421733379364,
                    42.84655763597807
                ]
            }
        },
        {
            "type": "Feature",
            "properties": {
                "name": "TAMOIL",
                "id": "21472",
                "brand": "Tamoil",
                "amenity": "fuel",
                "operator": "F.LLI ARMILLEI-SOCIETA' IN NOME COLLETTIVO DI ARMILLEI ENZO & C."
            },
            "geometry": {
                "type": "Point",
                "coordinates": [
                    13.626016080379484,
                    42.84255167358341
                ]
            }
        },
        {
            "type": "Feature",
            "properties": {
                "name": "STAZIONE DI SERVIZIO BAR TAMOIL DI AMATUCCI CLAUDIO",
                "id": "8499",
                "brand": "Tamoil",
                "amenity": "fuel",
                "operator": "STAZIONE DI SERVIZIO BAR TAMOIL DI AMATUCCI CLAUDIO"
            },
            "geometry": {
                "type": "Point",
                "coordinates": [
                    13.554486930370329,
                    42.852246167501626
                ]
            }
        },
        {
            "type": "Feature",
            "properties": {
                "name": "ESSO PENNILE di ventura mario",
                "id": "14662",
                "brand": "Esso",
                "amenity": "fuel",
                "operator": "VENTURA MARIO"
            },
            "geometry": {
                "type": "Point",
                "coordinates": [
                    13.590431274852104,
                    42.85146884932801
                ]
            }
        },
        {
            "type": "Feature",
            "properties": {
                "name": "Distrubutore Esso di Basciani Denis",
                "id": "8369",
                "brand": "Repsol",
                "amenity": "fuel",
                "operator": "BASCIANI DENIS"
            },
            "geometry": {
                "type": "Point",
                "coordinates": [
                    13.696729641819731,
                    42.819348615437285
                ]
            }
        },
        {
            "type": "Feature",
            "properties": {
                "name": "Distributore Carburanti Impresa Evasio Corradetti srl",
                "id": "11302",
                "brand": "Api-Ip",
                "amenity": "fuel",
                "operator": "IMPRESA EVASIO CORRADETTI S.R.L."
            },
            "geometry": {
                "type": "Point",
                "coordinates": [
                    13.700942711639414,
                    42.854991122959305
                ]
            }
        },
        {
            "type": "Feature",
            "properties": {
                "name": "traini franco",
                "id": "8653",
                "brand": "Agip Eni",
                "amenity": "fuel",
                "operator": "TRAINI FRANCO"
            },
            "geometry": {
                "type": "Point",
                "coordinates": [
                    13.59805941581726,
                    42.853272202571404
                ]
            }
        },
        {
            "type": "Feature",
            "properties": {
                "name": "esso",
                "id": "31727",
                "brand": "Esso",
                "amenity": "fuel",
                "operator": "STAZIONE DI SERVIZIO DI GNARINI GAETANA E C. S.A.S."
            },
            "geometry": {
                "type": "Point",
                "coordinates": [
                    13.616571351885792,
                    42.850162976676295
                ]
            }
        }
    ]
}