{
    "type": "FeatureCollection",
    "features": [
        {
            "type": "Feature",
            "properties": {
                "name": "BM SERVIZI S.A.S. DI TACCHETTO BRYAN E BRIENZA MICHELE",
                "id": "22395",
                "brand": "Esso",
                "amenity": "fuel",
                "operator": "BM SERVIZI S.A.S. DI TACCHETTO BRYAN E BRIENZA MICHELE"
            },
            "geometry": {
                "type": "Point",
                "coordinates": [
                    13.547295928001404,
                    45.80220739523038
                ]
            }
        },
        {
            "type": "Feature",
            "properties": {
                "name": "friulservice monfalcone",
                "id": "8588",
                "amenity": "fuel",
                "operator": "FRIULSERVICE S.R.L."
            },
            "geometry": {
                "type": "Point",
                "coordinates": [
                    13.560186624526978,
                    45.792204646370124
                ]
            }
        },
        {
            "type": "Feature",
            "properties": {
                "name": "MONFALCONE-VIA ARRIGO BOITO 43",
                "id": "11609",
                "brand": "Q8",
                "amenity": "fuel",
                "operator": "SERVIZI & GESTIONI ITALIA S.R.L."
            },
            "geometry": {
                "type": "Point",
                "coordinates": [
                    13.541698890876773,
                    45.80222991789096
                ]
            }
        },
        {
            "type": "Feature",
            "properties": {
                "name": "oil italia",
                "id": "9342",
                "brand": "Oil Italia",
                "amenity": "fuel",
                "operator": "VIOLA ETTORE"
            },
            "geometry": {
                "type": "Point",
                "coordinates": [
                    13.669059798029366,
                    45.75132846589885
                ]
            }
        },
        {
            "type": "Feature",
            "properties": {
                "name": "DUINO NORD",
                "id": "31262",
                "brand": "Total Erg",
                "amenity": "fuel",
                "operator": "Duino Nord Sas"
            },
            "geometry": {
                "type": "Point",
                "coordinates": [
                    13.607787031612816,
                    45.77737402092327
                ]
            }
        },
        {
            "type": "Feature",
            "properties": {
                "name": "MONFALCONE-VIA MATTEOTTI 23",
                "id": "11606",
                "brand": "Q8",
                "amenity": "fuel",
                "operator": "SERVIZI & GESTIONI ITALIA S.R.L."
            },
            "geometry": {
                "type": "Point",
                "coordinates": [
                    13.538689271164001,
                    45.80616163972838
                ]
            }
        },
        {
            "type": "Feature",
            "properties": {
                "name": "MONFALCONE - BOITO 57",
                "id": "31331",
                "brand": "Api-Ip",
                "amenity": "fuel",
                "operator": "IP SERVICES S.R.L."
            },
            "geometry": {
                "type": "Point",
                "coordinates": [
                    13.546205364418029,
                    45.80197569161448
                ]
            }
        },
        {
            "type": "Feature",
            "properties": {
                "name": "DUINO SUD",
                "id": "3898",
                "brand": "Agip Eni",
                "amenity": "fuel",
                "operator": "DUINO SUD PETROLI S.A.S. DI ZORZIN SILVANA & C."
            },
            "geometry": {
                "type": "Point",
                "coordinates": [
                    13.608471751213072,
                    45.776671559187655
                ]
            }
        },
        {
            "type": "Feature",
            "properties": {
                "name": "agip monfalcone",
                "id": "18877",
                "brand": "Agip Eni",
                "amenity": "fuel",
                "operator": "BIDUT ROBERTO - IMPIANTO AGIP MONFALCONE"
            },
            "geometry": {
                "type": "Point",
                "coordinates": [
                    13.54940414428711,
                    45.80175159455908
                ]
            }
        },
        {
            "type": "Feature",
            "properties": {
                "name": "VEGA DUINO AURISINA",
                "id": "31521",
                "brand": "Vega",
                "amenity": "fuel",
                "operator": "VEGA CARBURANTI S.P.A."
            },
            "geometry": {
                "type": "Point",
                "coordinates": [
                    13.64677369594574,
                    45.769698930138546
                ]
            }
        },
        {
            "type": "Feature",
            "properties": {
                "name": "Sistiana Service S.n.c.",
                "id": "10152",
                "brand": "Esso",
                "amenity": "fuel",
                "operator": "SISTIANA SERVICE SNC DI G. HUBAT E F. MAIORANA"
            },
            "geometry": {
                "type": "Point",
                "coordinates": [
                    13.637176752090454,
                    45.77126677190927
                ]
            }
        }
    ]
}