{
    "type": "FeatureCollection",
    "features": [
        {
            "type": "Feature",
            "properties": {
                "name": "al.ga.sa.",
                "id": "4419",
                "brand": "Agip Eni",
                "amenity": "fuel",
                "operator": "AL.GA.SA. S.N.C. DI SCOPINI ALMO & C."
            },
            "geometry": {
                "type": "Point",
                "coordinates": [
                    13.643560409545897,
                    43.43682417719542
                ]
            }
        },
        {
            "type": "Feature",
            "properties": {
                "name": "NATURAL GAS S.R.L.",
                "id": "28491",
                "amenity": "fuel",
                "operator": "NATURAL GAS S.R.L."
            },
            "geometry": {
                "type": "Point",
                "coordinates": [
                    13.704427778720856,
                    43.34445667581506
                ]
            }
        },
        {
            "type": "Feature",
            "properties": {
                "name": "MAGGI MIRKO E C. S.N.C.",
                "id": "14611",
                "brand": "Esso",
                "amenity": "fuel",
                "operator": "MAGGI MIRKO E C. S.N.C."
            },
            "geometry": {
                "type": "Point",
                "coordinates": [
                    13.691236674785614,
                    43.37425820060966
                ]
            }
        },
        {
            "type": "Feature",
            "properties": {
                "name": "Stazione di Servizio IS - Recanati",
                "id": "27193",
                "amenity": "fuel",
                "operator": "SIMONETTI MARIO S.R.L."
            },
            "geometry": {
                "type": "Point",
                "coordinates": [
                    13.536223769187924,
                    43.384824788639676
                ]
            }
        },
        {
            "type": "Feature",
            "properties": {
                "name": "Eni Testasecca & c.",
                "id": "19005",
                "brand": "Agip Eni",
                "amenity": "fuel",
                "operator": "T.S. DI TESTASECCA CARLO & C. - S.N.C."
            },
            "geometry": {
                "type": "Point",
                "coordinates": [
                    13.608900904655458,
                    43.446702970845514
                ]
            }
        },
        {
            "type": "Feature",
            "properties": {
                "name": "Esso",
                "id": "29576",
                "brand": "Esso",
                "amenity": "fuel",
                "operator": "MONTI WALTER"
            },
            "geometry": {
                "type": "Point",
                "coordinates": [
                    13.663859979098559,
                    43.425021104296825
                ]
            }
        },
        {
            "type": "Feature",
            "properties": {
                "name": "STAZIONE DI SERVIZIO",
                "id": "27406",
                "brand": "Api-Ip",
                "amenity": "fuel",
                "operator": "MARTINELLI ELIO"
            },
            "geometry": {
                "type": "Point",
                "coordinates": [
                    13.696070015430449,
                    43.36298464971994
                ]
            }
        },
        {
            "type": "Feature",
            "properties": {
                "name": "Stazione di servizio di Harti Ivan",
                "id": "32069",
                "brand": "Retitalia",
                "amenity": "fuel",
                "operator": "HARTVAN DI HARTI IVAN"
            },
            "geometry": {
                "type": "Point",
                "coordinates": [
                    13.655208513921025,
                    43.44932167217985
                ]
            }
        },
        {
            "type": "Feature",
            "properties": {
                "name": "bartolacci renato",
                "id": "16921",
                "brand": "Agip Eni",
                "amenity": "fuel",
                "operator": "BARTOLACCI RENATO"
            },
            "geometry": {
                "type": "Point",
                "coordinates": [
                    13.618723154067993,
                    43.4434426758687
                ]
            }
        },
        {
            "type": "Feature",
            "properties": {
                "name": "ESSO",
                "id": "28221",
                "brand": "Esso",
                "amenity": "fuel",
                "operator": "CARLOME' LORIS"
            },
            "geometry": {
                "type": "Point",
                "coordinates": [
                    13.659490048885347,
                    43.43282709777364
                ]
            }
        },
        {
            "type": "Feature",
            "properties": {
                "name": "gestione Prosperi imp. 06797",
                "id": "18122",
                "brand": "Agip Eni",
                "amenity": "fuel",
                "operator": "PROSPERI ALDERANO"
            },
            "geometry": {
                "type": "Point",
                "coordinates": [
                    13.547899369495553,
                    43.40592953845705
                ]
            }
        },
        {
            "type": "Feature",
            "properties": {
                "name": "MA.FR.O. DI MARIO E FRANCO ORTOLANI - S.N.C.",
                "id": "17354",
                "brand": "Api-Ip",
                "amenity": "fuel",
                "operator": "MA.FR.O. DI MARIO E FRANCO ORTOLANI - S.N.C."
            },
            "geometry": {
                "type": "Point",
                "coordinates": [
                    13.657912909984589,
                    43.438667395815266
                ]
            }
        },
        {
            "type": "Feature",
            "properties": {
                "name": "stazione di servizio Q8",
                "id": "10240",
                "brand": "Q8",
                "amenity": "fuel",
                "operator": "SEVERINI E RICCETTI DI SEVERINI ARMANDO E RICCETTI IVANO S.N.C."
            },
            "geometry": {
                "type": "Point",
                "coordinates": [
                    13.563800889147617,
                    43.40525353351697
                ]
            }
        },
        {
            "type": "Feature",
            "properties": {
                "name": "METANO LORETO SAS",
                "id": "16447",
                "amenity": "fuel",
                "operator": "METANO LORETO - S.A.S. DI BULDORINI PIETRO & C."
            },
            "geometry": {
                "type": "Point",
                "coordinates": [
                    13.645456731319427,
                    43.434585128429305
                ]
            }
        },
        {
            "type": "Feature",
            "properties": {
                "name": "stazione di servizio Q8",
                "id": "9153",
                "brand": "Q8",
                "amenity": "fuel",
                "operator": "DICHIARA SILVANO E VERDE ANTONIO SNC"
            },
            "geometry": {
                "type": "Point",
                "coordinates": [
                    13.631179332733154,
                    43.37170371159302
                ]
            }
        },
        {
            "type": "Feature",
            "properties": {
                "name": "BRACALENTE STEFANO",
                "id": "13300",
                "brand": "Esso",
                "amenity": "fuel",
                "operator": "BRACALENTE STEFANO"
            },
            "geometry": {
                "type": "Point",
                "coordinates": [
                    13.606849014759064,
                    43.37959221638821
                ]
            }
        },
        {
            "type": "Feature",
            "properties": {
                "name": "PESARESI MASSIMO",
                "id": "14663",
                "brand": "Api-Ip",
                "amenity": "fuel",
                "operator": "PESARESI MASSIMO"
            },
            "geometry": {
                "type": "Point",
                "coordinates": [
                    13.63601803779602,
                    43.43055712524201
                ]
            }
        },
        {
            "type": "Feature",
            "properties": {
                "name": "ESSO",
                "id": "12692",
                "brand": "Esso",
                "amenity": "fuel",
                "operator": "PATARCA DI PATARCA MIRKO & C. SAS"
            },
            "geometry": {
                "type": "Point",
                "coordinates": [
                    13.623057603836061,
                    43.440810475993025
                ]
            }
        },
        {
            "type": "Feature",
            "properties": {
                "name": "FEDELI PAOLO E PERUGINI ANDREA SNC",
                "id": "21545",
                "brand": "Api-Ip",
                "amenity": "fuel",
                "operator": "FEDELI PAOLO E PERUGINI ANDREA S.N.C."
            },
            "geometry": {
                "type": "Point",
                "coordinates": [
                    13.69408518075943,
                    43.366899764147604
                ]
            }
        },
        {
            "type": "Feature",
            "properties": {
                "name": "6800 MACERATA POTENZA PICENA",
                "id": "26110",
                "brand": "Agip Eni",
                "amenity": "fuel",
                "operator": "ENI RETE OIL&NONOIL S.P.A."
            },
            "geometry": {
                "type": "Point",
                "coordinates": [
                    13.699334263801575,
                    43.353799382325256
                ]
            }
        },
        {
            "type": "Feature",
            "properties": {
                "name": "Stazione di Servizio IS - Montelupone",
                "id": "27192",
                "amenity": "fuel",
                "operator": "SIMONETTI MARIO S.R.L."
            },
            "geometry": {
                "type": "Point",
                "coordinates": [
                    13.579105321271639,
                    43.36666635667232
                ]
            }
        },
        {
            "type": "Feature",
            "properties": {
                "name": "IP -  Recanati",
                "id": "13720",
                "brand": "Api-Ip",
                "amenity": "fuel",
                "operator": "ACEMA S.P.A."
            },
            "geometry": {
                "type": "Point",
                "coordinates": [
                    13.587917983531952,
                    43.44327130202853
                ]
            }
        },
        {
            "type": "Feature",
            "properties": {
                "name": "ENI Porto Potenza Picena",
                "id": "19942",
                "brand": "Agip Eni",
                "amenity": "fuel",
                "operator": "INTERPETROL - S.R.L."
            },
            "geometry": {
                "type": "Point",
                "coordinates": [
                    13.678376823663713,
                    43.40160858504645
                ]
            }
        },
        {
            "type": "Feature",
            "properties": {
                "name": "CASTELFIDARDO-LOC. CERRETANO VIA JESINA SP3 DELLA VAL MUSONE KM5",
                "id": "6602",
                "brand": "Q8",
                "amenity": "fuel",
                "operator": "SERVIZI & GESTIONI ITALIA srl"
            },
            "geometry": {
                "type": "Point",
                "coordinates": [
                    13.553947845368949,
                    43.44618279467819
                ]
            }
        },
        {
            "type": "Feature",
            "properties": {
                "name": "Andrea Martinelli ESSO",
                "id": "28356",
                "brand": "Esso",
                "amenity": "fuel",
                "operator": "MARTINELLI ANDREA"
            },
            "geometry": {
                "type": "Point",
                "coordinates": [
                    13.588083609938622,
                    43.34503678467176
                ]
            }
        },
        {
            "type": "Feature",
            "properties": {
                "name": "Q8 Anconetani Maurizio",
                "id": "10214",
                "brand": "Q8",
                "amenity": "fuel",
                "operator": "ANCONETANI MAURIZIO"
            },
            "geometry": {
                "type": "Point",
                "coordinates": [
                    13.588298857212067,
                    43.45182810588346
                ]
            }
        },
        {
            "type": "Feature",
            "properties": {
                "name": "Stazione di Servizio IP - Regina",
                "id": "27187",
                "brand": "Api-Ip",
                "amenity": "fuel",
                "operator": "SIMONETTI MARIO S.R.L."
            },
            "geometry": {
                "type": "Point",
                "coordinates": [
                    13.542105068325784,
                    43.36918587393587
                ]
            }
        },
        {
            "type": "Feature",
            "properties": {
                "name": "RETITALIA",
                "id": "29949",
                "brand": "Retitalia",
                "amenity": "fuel",
                "operator": "DGS SNC DI ATTARDI MARCO E FALANGA DOMENICO"
            },
            "geometry": {
                "type": "Point",
                "coordinates": [
                    13.651861846446991,
                    43.397871307027216
                ]
            }
        },
        {
            "type": "Feature",
            "properties": {
                "name": "Stazione di Servizio IS - Potenza Picena",
                "id": "27180",
                "amenity": "fuel",
                "operator": "SIMONETTI MARIO S.R.L."
            },
            "geometry": {
                "type": "Point",
                "coordinates": [
                    13.683151104185754,
                    43.39003957821197
                ]
            }
        },
        {
            "type": "Feature",
            "properties": {
                "name": "Stazione di servizio Eni gestione Prosperi Alderano imp. 06814",
                "id": "26209",
                "brand": "Agip Eni",
                "amenity": "fuel",
                "operator": "PROSPERI ALDERANO"
            },
            "geometry": {
                "type": "Point",
                "coordinates": [
                    13.574552536010742,
                    43.4141182234994
                ]
            }
        }
    ]
}