{
    "type": "FeatureCollection",
    "features": [
        {
            "type": "Feature",
            "properties": {
                "name": "ANGELOZZI LELLA",
                "id": "18178",
                "brand": "Api-Ip",
                "amenity": "fuel",
                "operator": "ANGELOZZI LELLA"
            },
            "geometry": {
                "type": "Point",
                "coordinates": [
                    13.757154934362008,
                    42.60794632910315
                ]
            }
        },
        {
            "type": "Feature",
            "properties": {
                "name": "SAF DISTRIBUTORE CARBURANTE",
                "id": "24519",
                "brand": "Api-Ip",
                "amenity": "fuel",
                "operator": "SAF DISTRIBUTORE DI CARBURANTE DI SICHINI ANTONIO FABRIZIO"
            },
            "geometry": {
                "type": "Point",
                "coordinates": [
                    13.802472614281328,
                    42.645986405243434
                ]
            }
        },
        {
            "type": "Feature",
            "properties": {
                "name": "SHELL",
                "id": "22179",
                "brand": "Shell",
                "amenity": "fuel",
                "operator": "AZZURRA S.N.C. DI MACCHIAVELLI GIUSEPPE & FOSCHI SONIA"
            },
            "geometry": {
                "type": "Point",
                "coordinates": [
                    13.758670065884417,
                    42.68040812236584
                ]
            }
        },
        {
            "type": "Feature",
            "properties": {
                "name": "DI.GI DI WALTER DI GIACINTO & C. S.N.C.",
                "id": "15530",
                "brand": "Api-Ip",
                "amenity": "fuel",
                "operator": "DI.GI DI WALTER DI GIACINTO & C. S.N.C."
            },
            "geometry": {
                "type": "Point",
                "coordinates": [
                    13.716513812541963,
                    42.665165182776946
                ]
            }
        },
        {
            "type": "Feature",
            "properties": {
                "name": "STAZIONE IP COLLEATTERRATO",
                "id": "13768",
                "brand": "Api-Ip",
                "amenity": "fuel",
                "operator": "ANTICO GABRIELE"
            },
            "geometry": {
                "type": "Point",
                "coordinates": [
                    13.73495399951935,
                    42.674044632501186
                ]
            }
        },
        {
            "type": "Feature",
            "properties": {
                "name": "DONZELLI RICCARDO & C. Snc",
                "id": "23921",
                "brand": "Agip Eni",
                "amenity": "fuel",
                "operator": "DONZELLI RICCARDO & C. S.N.C."
            },
            "geometry": {
                "type": "Point",
                "coordinates": [
                    13.724825978279114,
                    42.667116151312136
                ]
            }
        },
        {
            "type": "Feature",
            "properties": {
                "name": "odoardi raffaele",
                "id": "15863",
                "brand": "Total Erg",
                "amenity": "fuel",
                "operator": "ODOARDI RAFFAELE"
            },
            "geometry": {
                "type": "Point",
                "coordinates": [
                    13.849163571267924,
                    42.629299311217096
                ]
            }
        },
        {
            "type": "Feature",
            "properties": {
                "name": "TERAMO-C/O CENTRO COMMERCIALE GRAN SASSO",
                "id": "11845",
                "brand": "Q8",
                "amenity": "fuel",
                "operator": "SERVIZI & GESTIONI ITALIA S.R.L."
            },
            "geometry": {
                "type": "Point",
                "coordinates": [
                    13.75866437301636,
                    42.680384225464564
                ]
            }
        },
        {
            "type": "Feature",
            "properties": {
                "name": "Euroservice Snc \\t",
                "id": "24477",
                "brand": "Q8",
                "amenity": "fuel",
                "operator": "EUROSERVICE S.N.C. DI VITALI R. & L."
            },
            "geometry": {
                "type": "Point",
                "coordinates": [
                    13.877371251583103,
                    42.63087557825519
                ]
            }
        },
        {
            "type": "Feature",
            "properties": {
                "name": "di mattia s.n.c",
                "id": "13901",
                "brand": "Agip Eni",
                "amenity": "fuel",
                "operator": "SELF AREA DI MATTIA DI DI MATTIA CLADIO & FIGLI S.N.C."
            },
            "geometry": {
                "type": "Point",
                "coordinates": [
                    13.758829683065416,
                    42.60889842333032
                ]
            }
        },
        {
            "type": "Feature",
            "properties": {
                "name": "TERAMO F CRISPI",
                "id": "6613",
                "brand": "Q8",
                "amenity": "fuel",
                "operator": "SERVIZI & GESTIONI ITALIA srl"
            },
            "geometry": {
                "type": "Point",
                "coordinates": [
                    13.716128385026652,
                    42.66107834737426
                ]
            }
        },
        {
            "type": "Feature",
            "properties": {
                "name": "Tamoil",
                "id": "13240",
                "brand": "Tamoil",
                "amenity": "fuel",
                "operator": "D.G. SAS DI DANIELLI GIANLUCA & C."
            },
            "geometry": {
                "type": "Point",
                "coordinates": [
                    13.715223670005798,
                    42.660510380258415
                ]
            }
        },
        {
            "type": "Feature",
            "properties": {
                "name": "FIRE SERVICE DI GROTTA GIUSEPPE",
                "id": "7213",
                "brand": "Total Erg",
                "amenity": "fuel",
                "operator": "FIRE SERVICE DI GROTTA GIUSEPPE"
            },
            "geometry": {
                "type": "Point",
                "coordinates": [
                    13.71869332996903,
                    42.567923061694216
                ]
            }
        },
        {
            "type": "Feature",
            "properties": {
                "name": "DI STEFANO GLOBAL ENERGY S..R.L.",
                "id": "20279",
                "amenity": "fuel",
                "operator": "DI STEFANO GLOBAL ENERGY SRL"
            },
            "geometry": {
                "type": "Point",
                "coordinates": [
                    13.724898397922518,
                    42.61094571247862
                ]
            }
        },
        {
            "type": "Feature",
            "properties": {
                "name": "IP",
                "id": "18387",
                "brand": "Api-Ip",
                "amenity": "fuel",
                "operator": "DI GIOSIA MARCELLO"
            },
            "geometry": {
                "type": "Point",
                "coordinates": [
                    13.856527134776112,
                    42.58438613587562
                ]
            }
        },
        {
            "type": "Feature",
            "properties": {
                "name": "retitalia",
                "id": "30129",
                "brand": "Retitalia",
                "amenity": "fuel",
                "operator": "FRATO' DESIRE'"
            },
            "geometry": {
                "type": "Point",
                "coordinates": [
                    13.723586127161981,
                    42.665546821612146
                ]
            }
        },
        {
            "type": "Feature",
            "properties": {
                "name": "totalerg",
                "id": "25431",
                "brand": "Total Erg",
                "amenity": "fuel",
                "operator": "MECCANICA TARASCHI S.R.L."
            },
            "geometry": {
                "type": "Point",
                "coordinates": [
                    13.715258827342947,
                    42.66080899987655
                ]
            }
        },
        {
            "type": "Feature",
            "properties": {
                "name": "SELF AREA TERAMO MARE",
                "id": "5638",
                "brand": "Api-Ip",
                "amenity": "fuel",
                "operator": "SELF AREA TERAMO - MARE S.N.C. DI  STACCHIOTTI D. & MACCHIAVELLI M."
            },
            "geometry": {
                "type": "Point",
                "coordinates": [
                    13.759759068489075,
                    42.67944615032178
                ]
            }
        },
        {
            "type": "Feature",
            "properties": {
                "name": "TOTAL ERG GOLDENGAS",
                "id": "17183",
                "brand": "Total Erg",
                "amenity": "fuel",
                "operator": "CARTA ANGELO"
            },
            "geometry": {
                "type": "Point",
                "coordinates": [
                    13.778328001499178,
                    42.61944624674905
                ]
            }
        },
        {
            "type": "Feature",
            "properties": {
                "name": "S.S.80 TERAMO-MARE -  TERAMO",
                "id": "29426",
                "brand": "Q8",
                "amenity": "fuel",
                "operator": "SERVIZI & GESTIONI ITALIA S.R.L."
            },
            "geometry": {
                "type": "Point",
                "coordinates": [
                    13.754568994045254,
                    42.67499277160871
                ]
            }
        },
        {
            "type": "Feature",
            "properties": {
                "name": "SCUPPA ROBERTO",
                "id": "25744",
                "brand": "Esso",
                "amenity": "fuel",
                "operator": "SCUPPA ROBERTO"
            },
            "geometry": {
                "type": "Point",
                "coordinates": [
                    13.810173869132994,
                    42.62633977893356
                ]
            }
        },
        {
            "type": "Feature",
            "properties": {
                "name": "BONAVITA",
                "id": "16102",
                "brand": "Agip Eni",
                "amenity": "fuel",
                "operator": "BONAVITA MICHELE DI BONAVITA ROBERTO & C. S.N.C"
            },
            "geometry": {
                "type": "Point",
                "coordinates": [
                    13.720259517431256,
                    42.66348002669534
                ]
            }
        }
    ]
}