{
    "type": "FeatureCollection",
    "features": [
        {
            "type": "Feature",
            "properties": {
                "name": "53891 SAN BENEDETTO DEL TRONTO",
                "id": "26115",
                "brand": "Agip Eni",
                "amenity": "fuel",
                "operator": "ENI RETE OIL&NONOIL S.P.A."
            },
            "geometry": {
                "type": "Point",
                "coordinates": [
                    13.87596309185028,
                    42.954608640733376
                ]
            }
        },
        {
            "type": "Feature",
            "properties": {
                "name": "_ARIAL",
                "id": "6884",
                "amenity": "fuel",
                "operator": "C. & C. DI CARDARELLI FABIO E C. SNC"
            },
            "geometry": {
                "type": "Point",
                "coordinates": [
                    13.848212957382199,
                    43.06582704822864
                ]
            }
        },
        {
            "type": "Feature",
            "properties": {
                "name": "TOTALERG",
                "id": "7482",
                "brand": "Total Erg",
                "amenity": "fuel",
                "operator": "CRESCENZI ARMANDO & C. - S.N.C."
            },
            "geometry": {
                "type": "Point",
                "coordinates": [
                    13.857061564922333,
                    43.02989618642966
                ]
            }
        },
        {
            "type": "Feature",
            "properties": {
                "name": "PV 7284",
                "id": "25867",
                "brand": "Agip Eni",
                "amenity": "fuel",
                "operator": "GESTIONI INNOVATIVE ITALIA S.R.L."
            },
            "geometry": {
                "type": "Point",
                "coordinates": [
                    13.874407410621643,
                    42.96127022933938
                ]
            }
        },
        {
            "type": "Feature",
            "properties": {
                "name": "GIORGETTI GIOVANNI",
                "id": "32171",
                "brand": "Esso",
                "amenity": "fuel",
                "operator": "GIORGETTI GIOVANNI"
            },
            "geometry": {
                "type": "Point",
                "coordinates": [
                    13.795979619026184,
                    42.98042926811828
                ]
            }
        },
        {
            "type": "Feature",
            "properties": {
                "name": "METANO",
                "id": "27630",
                "brand": "Agip Eni",
                "amenity": "fuel",
                "operator": "MULTICARBURANTI S.R.L."
            },
            "geometry": {
                "type": "Point",
                "coordinates": [
                    13.835004419088364,
                    43.03417190747009
                ]
            }
        },
        {
            "type": "Feature",
            "properties": {
                "name": "DISTRIB. Retitalia Petrolifera Grottammare",
                "id": "7816",
                "brand": "Retitalia",
                "amenity": "fuel",
                "operator": "PETROLIFERA ADRIATICA S.P.A."
            },
            "geometry": {
                "type": "Point",
                "coordinates": [
                    13.866881132125854,
                    43.004756775261704
                ]
            }
        },
        {
            "type": "Feature",
            "properties": {
                "name": "area di servizio 2 T",
                "id": "29674",
                "brand": "Agip Eni",
                "amenity": "fuel",
                "operator": "DUE T DI TRAINI FABIO & C. SOCIETA'  IN NOME COLLETTIVO"
            },
            "geometry": {
                "type": "Point",
                "coordinates": [
                    13.873121291399,
                    42.966990579611064
                ]
            }
        },
        {
            "type": "Feature",
            "properties": {
                "name": "SAN BENEDETTO DEL TRONTO PIAZZA SAN FILIPPO NERI",
                "id": "21863",
                "brand": "Api-Ip",
                "amenity": "fuel",
                "operator": "IP SERVICES S.R.L."
            },
            "geometry": {
                "type": "Point",
                "coordinates": [
                    13.875116093254062,
                    42.96113326198274
                ]
            }
        },
        {
            "type": "Feature",
            "properties": {
                "name": "CURMAX",
                "id": "19529",
                "brand": "Api-Ip",
                "amenity": "fuel",
                "operator": "CURMAX DI CURIALE MASSIMO"
            },
            "geometry": {
                "type": "Point",
                "coordinates": [
                    13.872525840997696,
                    42.98554861275123
                ]
            }
        },
        {
            "type": "Feature",
            "properties": {
                "name": "Ricci Val Menocchia",
                "id": "26757",
                "amenity": "fuel",
                "operator": "ALIMENTARI RICCI ITALO"
            },
            "geometry": {
                "type": "Point",
                "coordinates": [
                    13.724057446486544,
                    43.0262829122521
                ]
            }
        },
        {
            "type": "Feature",
            "properties": {
                "name": "vallorani giovanna",
                "id": "13803",
                "amenity": "fuel",
                "operator": "VALLORANI GIOVANNA"
            },
            "geometry": {
                "type": "Point",
                "coordinates": [
                    13.777198791503906,
                    42.97530086236225
                ]
            }
        },
        {
            "type": "Feature",
            "properties": {
                "name": "IP",
                "id": "27599",
                "brand": "Api-Ip",
                "amenity": "fuel",
                "operator": "MULTICARBURANTI S.R.L."
            },
            "geometry": {
                "type": "Point",
                "coordinates": [
                    13.836432695388796,
                    42.98213994977638
                ]
            }
        },
        {
            "type": "Feature",
            "properties": {
                "name": "Totalerg Pignotti Giuliano",
                "id": "8136",
                "brand": "Total Erg",
                "amenity": "fuel",
                "operator": "PIGNOTTI GIULIANO"
            },
            "geometry": {
                "type": "Point",
                "coordinates": [
                    13.874927759170532,
                    42.959644158380776
                ]
            }
        },
        {
            "type": "Feature",
            "properties": {
                "name": "ENI - LUCCI WALTER & C SNC",
                "id": "26364",
                "brand": "Agip Eni",
                "amenity": "fuel",
                "operator": "LUCCI WALTER & C. S.N.C."
            },
            "geometry": {
                "type": "Point",
                "coordinates": [
                    13.869008123874664,
                    42.98421279727492
                ]
            }
        },
        {
            "type": "Feature",
            "properties": {
                "name": "Stazione di servizio IP",
                "id": "24281",
                "brand": "Api-Ip",
                "amenity": "fuel",
                "operator": "ROSSI GIUSEPPE & C. S.A.S."
            },
            "geometry": {
                "type": "Point",
                "coordinates": [
                    13.809050890290791,
                    42.944767875034074
                ]
            }
        },
        {
            "type": "Feature",
            "properties": {
                "name": "Stazione di servizio Totalerg",
                "id": "8546",
                "brand": "Total Erg",
                "amenity": "fuel",
                "operator": "MIGNINI NAZZARIO"
            },
            "geometry": {
                "type": "Point",
                "coordinates": [
                    13.871636688709257,
                    42.97206158720549
                ]
            }
        },
        {
            "type": "Feature",
            "properties": {
                "name": "STAMPATORI CRISTIAN",
                "id": "22225",
                "brand": "Api-Ip",
                "amenity": "fuel",
                "operator": "STAMPATORI CRISTIAN"
            },
            "geometry": {
                "type": "Point",
                "coordinates": [
                    13.753541037440302,
                    43.04940566304381
                ]
            }
        },
        {
            "type": "Feature",
            "properties": {
                "name": "BEYFIN",
                "id": "21163",
                "amenity": "fuel",
                "operator": "AMABILI ANTONIO"
            },
            "geometry": {
                "type": "Point",
                "coordinates": [
                    13.861173391342163,
                    43.020395129980095
                ]
            }
        }
    ]
}