{
    "type": "FeatureCollection",
    "features": [
        {
            "type": "Feature",
            "properties": {
                "name": "Eni 04051",
                "id": "31947",
                "brand": "Agip Eni",
                "amenity": "fuel",
                "operator": "GESTIONI FUTURE S.A.S. DI JIMMY ZOL & C."
            },
            "geometry": {
                "type": "Point",
                "coordinates": [
                    13.79445902115674,
                    45.65807273521945
                ]
            }
        },
        {
            "type": "Feature",
            "properties": {
                "name": "tamoil",
                "id": "10746",
                "brand": "Tamoil",
                "amenity": "fuel",
                "operator": "LA PINETA DI MASSIMO PISANI & C. S.N.C."
            },
            "geometry": {
                "type": "Point",
                "coordinates": [
                    13.747576767568376,
                    45.68632456143003
                ]
            }
        },
        {
            "type": "Feature",
            "properties": {
                "name": "De Cleva e Bernardini S.a.s.",
                "id": "13942",
                "brand": "Esso",
                "amenity": "fuel",
                "operator": "DE CLEVA E BERNARDINI DI DE CLEVA PAOLO & C. S.A.S."
            },
            "geometry": {
                "type": "Point",
                "coordinates": [
                    13.815501104018379,
                    45.6383350473115
                ]
            }
        },
        {
            "type": "Feature",
            "properties": {
                "name": "SHELL",
                "id": "28291",
                "brand": "Shell",
                "amenity": "fuel",
                "operator": "DEPIERA ERMANNO"
            },
            "geometry": {
                "type": "Point",
                "coordinates": [
                    13.815004527568817,
                    45.63796402706731
                ]
            }
        },
        {
            "type": "Feature",
            "properties": {
                "name": "Esso Trieste",
                "id": "12427",
                "brand": "Esso",
                "amenity": "fuel",
                "operator": "PAULETICH & C. S.N.C. DI PAULETICH FULVIO"
            },
            "geometry": {
                "type": "Point",
                "coordinates": [
                    13.78887158630107,
                    45.640011744840656
                ]
            }
        },
        {
            "type": "Feature",
            "properties": {
                "name": "Stazione di servizio ESSO di Riva Stefano",
                "id": "9737",
                "brand": "Esso",
                "amenity": "fuel",
                "operator": "RIVA STEFANO"
            },
            "geometry": {
                "type": "Point",
                "coordinates": [
                    13.79527613042478,
                    45.625284722136534
                ]
            }
        },
        {
            "type": "Feature",
            "properties": {
                "name": "Lonza e Coglievina S.r.l.",
                "id": "13947",
                "brand": "Esso",
                "amenity": "fuel",
                "operator": "LONZA & COGLIEVINA SOCIETA' A RESPONSABILITA' LIMITATA"
            },
            "geometry": {
                "type": "Point",
                "coordinates": [
                    13.782269066734328,
                    45.68345145440614
                ]
            }
        },
        {
            "type": "Feature",
            "properties": {
                "name": "IMPIANTO MARINO di Millo Gianni",
                "id": "12853",
                "brand": "Agip Eni",
                "amenity": "fuel",
                "operator": "GIANNI MILLO"
            },
            "geometry": {
                "type": "Point",
                "coordinates": [
                    13.750365729475787,
                    45.609843530201836
                ]
            }
        },
        {
            "type": "Feature",
            "properties": {
                "name": "TRIESTE-VIALE CAMPI ELISI 1/1",
                "id": "11891",
                "brand": "Q8",
                "amenity": "fuel",
                "operator": "SERVIZI & GESTIONI ITALIA S.R.L."
            },
            "geometry": {
                "type": "Point",
                "coordinates": [
                    13.765280466270497,
                    45.63829873054745
                ]
            }
        },
        {
            "type": "Feature",
            "properties": {
                "name": "esso",
                "id": "28037",
                "brand": "Esso",
                "amenity": "fuel",
                "operator": "GASFIN DI ROBERTO DI ILIO & C. SNC"
            },
            "geometry": {
                "type": "Point",
                "coordinates": [
                    13.77385675907135,
                    45.639291775454375
                ]
            }
        },
        {
            "type": "Feature",
            "properties": {
                "name": "TRIESTE-VIA LOCCHI 3",
                "id": "11893",
                "brand": "Q8",
                "amenity": "fuel",
                "operator": "SERVIZI & GESTIONI ITALIA S.R.L."
            },
            "geometry": {
                "type": "Point",
                "coordinates": [
                    13.757236034393372,
                    45.641867470414766
                ]
            }
        },
        {
            "type": "Feature",
            "properties": {
                "name": "IP",
                "id": "30090",
                "brand": "Api-Ip",
                "amenity": "fuel",
                "operator": "MARILLI ROBERTO"
            },
            "geometry": {
                "type": "Point",
                "coordinates": [
                    13.7949313116394,
                    45.62667717237059
                ]
            }
        },
        {
            "type": "Feature",
            "properties": {
                "name": "TRIESTE-VIA RAFFAELLO SANZIO 31",
                "id": "11894",
                "brand": "Q8",
                "amenity": "fuel",
                "operator": "SERVIZI & GESTIONI ITALIA S.R.L."
            },
            "geometry": {
                "type": "Point",
                "coordinates": [
                    13.804014576721215,
                    45.65567375308166
                ]
            }
        },
        {
            "type": "Feature",
            "properties": {
                "name": "total erg",
                "id": "28980",
                "brand": "Total Erg",
                "amenity": "fuel",
                "operator": "GI.DA. SAS DI PALUDAN FABRIZIO & C."
            },
            "geometry": {
                "type": "Point",
                "coordinates": [
                    13.814942836761475,
                    45.61791645399791
                ]
            }
        },
        {
            "type": "Feature",
            "properties": {
                "name": "area eni di ZOL FRANCO",
                "id": "24446",
                "brand": "Agip Eni",
                "amenity": "fuel",
                "operator": "ZOL FRANCO - CARBURANTI"
            },
            "geometry": {
                "type": "Point",
                "coordinates": [
                    13.764411426983658,
                    45.669185029866085
                ]
            }
        },
        {
            "type": "Feature",
            "properties": {
                "name": "PV4053 Fontanone Virgilio",
                "id": "8041",
                "brand": "Agip Eni",
                "amenity": "fuel",
                "operator": "FONTANONE VIRGILIO"
            },
            "geometry": {
                "type": "Point",
                "coordinates": [
                    13.79430323839188,
                    45.62705579538696
                ]
            }
        },
        {
            "type": "Feature",
            "properties": {
                "name": "DA.LE s.a.s",
                "id": "28374",
                "brand": "Agip Eni",
                "amenity": "fuel",
                "operator": "DA.LE. S.A.S. DI DAVID VIOLA & C."
            },
            "geometry": {
                "type": "Point",
                "coordinates": [
                    13.790855854894971,
                    45.61525411788689
                ]
            }
        },
        {
            "type": "Feature",
            "properties": {
                "name": "self area 4004 di riccobon mauro",
                "id": "9331",
                "brand": "Agip Eni",
                "amenity": "fuel",
                "operator": "SELF AREA 4004 DI RICCOBON MAURO"
            },
            "geometry": {
                "type": "Point",
                "coordinates": [
                    13.818380087614058,
                    45.61855655657254
                ]
            }
        },
        {
            "type": "Feature",
            "properties": {
                "name": "area eni di zol franco",
                "id": "24319",
                "brand": "Agip Eni",
                "amenity": "fuel",
                "operator": "ZOL FRANCO"
            },
            "geometry": {
                "type": "Point",
                "coordinates": [
                    13.767398613491874,
                    45.664814521079194
                ]
            }
        },
        {
            "type": "Feature",
            "properties": {
                "name": "Punto Auto di Ambrosetti",
                "id": "16382",
                "brand": "Q8",
                "amenity": "fuel",
                "operator": "PUNTO AUTO DI AMBROSETTI ROBERTO"
            },
            "geometry": {
                "type": "Point",
                "coordinates": [
                    13.825705200433728,
                    45.6129019395051
                ]
            }
        },
        {
            "type": "Feature",
            "properties": {
                "name": "AREA TAMOIL",
                "id": "14309",
                "brand": "Tamoil",
                "amenity": "fuel",
                "operator": "AREA 202 SAS DI RICCARDO FURLAN & C"
            },
            "geometry": {
                "type": "Point",
                "coordinates": [
                    13.77643164669644,
                    45.65537093139547
                ]
            }
        },
        {
            "type": "Feature",
            "properties": {
                "name": "self area 4004",
                "id": "27631",
                "brand": "Agip Eni",
                "amenity": "fuel",
                "operator": "SELF AREA 4004 DI RICCOBON MAURO"
            },
            "geometry": {
                "type": "Point",
                "coordinates": [
                    13.831101804971695,
                    45.63606836783801
                ]
            }
        },
        {
            "type": "Feature",
            "properties": {
                "name": "H6",
                "id": "27608",
                "amenity": "fuel",
                "operator": "AUTOSTAR S.N.C. DI SOPPANI GUIDO E C."
            },
            "geometry": {
                "type": "Point",
                "coordinates": [
                    13.807566761970516,
                    45.605652164044656
                ]
            }
        },
        {
            "type": "Feature",
            "properties": {
                "name": "esso",
                "id": "26099",
                "brand": "Esso",
                "amenity": "fuel",
                "operator": "GRS DI SAMUEL CHIARUTTINI & C. S.A.S."
            },
            "geometry": {
                "type": "Point",
                "coordinates": [
                    13.819355070590975,
                    45.61153904271866
                ]
            }
        },
        {
            "type": "Feature",
            "properties": {
                "name": "Eni - Eni cafe",
                "id": "8222",
                "brand": "Agip Eni",
                "amenity": "fuel",
                "operator": "J & J SERVICE S.A.S. DI ZOL ROBERTO & C."
            },
            "geometry": {
                "type": "Point",
                "coordinates": [
                    13.794513717129346,
                    45.658041720962586
                ]
            }
        },
        {
            "type": "Feature",
            "properties": {
                "name": "Stazione di servizio Eni",
                "id": "18807",
                "brand": "Agip Eni",
                "amenity": "fuel",
                "operator": "MATCOVICH ALESSANDRO"
            },
            "geometry": {
                "type": "Point",
                "coordinates": [
                    13.777198120951653,
                    45.639757417682084
                ]
            }
        },
        {
            "type": "Feature",
            "properties": {
                "name": "MONRUPINO-AUTOPORTO FERNETTI",
                "id": "11892",
                "brand": "Q8",
                "amenity": "fuel",
                "operator": "SERVIZI & GESTIONI ITALIA S.R.L."
            },
            "geometry": {
                "type": "Point",
                "coordinates": [
                    13.829931020736698,
                    45.699427891273054
                ]
            }
        }
    ]
}