{
    "type": "FeatureCollection",
    "features": [
        {
            "type": "Feature",
            "properties": {
                "name": "PAPA ANTONELLA",
                "id": "24577",
                "brand": "Api-Ip",
                "amenity": "fuel",
                "operator": "PAPA ANTONELLA"
            },
            "geometry": {
                "type": "Point",
                "coordinates": [
                    13.912721775814816,
                    42.7855041057513
                ]
            }
        },
        {
            "type": "Feature",
            "properties": {
                "name": "ENI: ADRIATICA DISTRIBUTORI SNC",
                "id": "8815",
                "brand": "Agip Eni",
                "amenity": "fuel",
                "operator": "ADRIATICA DISTRIBUTORI S.N.C. DI D'AMBROSIO, DI BONAVENTURA & C."
            },
            "geometry": {
                "type": "Point",
                "coordinates": [
                    14.00853529572487,
                    42.68535450876371
                ]
            }
        },
        {
            "type": "Feature",
            "properties": {
                "name": "Self Area Agip di Ragni e Figliola snc",
                "id": "8445",
                "brand": "Agip Eni",
                "amenity": "fuel",
                "operator": "SELF AREA AGIP DI RAGNI & FIGLIOLA S.N.C."
            },
            "geometry": {
                "type": "Point",
                "coordinates": [
                    13.932306915521622,
                    42.809961181909195
                ]
            }
        },
        {
            "type": "Feature",
            "properties": {
                "name": "DISTRIBUTORE IP",
                "id": "15684",
                "brand": "Api-Ip",
                "amenity": "fuel",
                "operator": "PA.TO CARBURANTI S.A.S. DI PAOLETTI GABRIELLA E C."
            },
            "geometry": {
                "type": "Point",
                "coordinates": [
                    13.893454134918214,
                    42.74232457546194
                ]
            }
        },
        {
            "type": "Feature",
            "properties": {
                "name": "CIPRIETTI",
                "id": "17457",
                "brand": "Api-Ip",
                "amenity": "fuel",
                "operator": "CIPRIETTI S.R.L."
            },
            "geometry": {
                "type": "Point",
                "coordinates": [
                    13.95200103521347,
                    42.77386323364265
                ]
            }
        },
        {
            "type": "Feature",
            "properties": {
                "name": "Q8",
                "id": "23871",
                "brand": "Q8",
                "amenity": "fuel",
                "operator": "RAPAGNA' EDOARDO"
            },
            "geometry": {
                "type": "Point",
                "coordinates": [
                    13.940529227256777,
                    42.79440081808429
                ]
            }
        },
        {
            "type": "Feature",
            "properties": {
                "name": "AREA IP-GRUPPO API DI GERMANO PELUSI",
                "id": "14524",
                "brand": "Api-Ip",
                "amenity": "fuel",
                "operator": "AREA DI SERVIZIO IP - GRUPPO API DI GERMANO PELUSI"
            },
            "geometry": {
                "type": "Point",
                "coordinates": [
                    13.906642198562622,
                    42.722732032173575
                ]
            }
        },
        {
            "type": "Feature",
            "properties": {
                "name": "impianto eni 7372",
                "id": "25225",
                "brand": "Agip Eni",
                "amenity": "fuel",
                "operator": "SE.FRA. SERVICE DI IGNAZII SETTIMIO & C. S.A.S."
            },
            "geometry": {
                "type": "Point",
                "coordinates": [
                    13.967650208459416,
                    42.74650495658218
                ]
            }
        },
        {
            "type": "Feature",
            "properties": {
                "name": "FC AUTOLAVAGGIO DI CICIONI ANDREA",
                "id": "27013",
                "brand": "Esso",
                "amenity": "fuel",
                "operator": "FC AUTOLAVAGGIO DI CICIONI ANDREA"
            },
            "geometry": {
                "type": "Point",
                "coordinates": [
                    13.997131935355245,
                    42.70006426172764
                ]
            }
        },
        {
            "type": "Feature",
            "properties": {
                "name": "TORTORETO OVEST",
                "id": "3747",
                "brand": "Tamoil",
                "amenity": "fuel",
                "operator": "F.lli Nepa S.a.s. di Nepa Umberto & c."
            },
            "geometry": {
                "type": "Point",
                "coordinates": [
                    13.92762915344235,
                    42.804928603655796
                ]
            }
        },
        {
            "type": "Feature",
            "properties": {
                "name": "GIULIANOVA - VIA CUPA",
                "id": "4535",
                "amenity": "fuel",
                "operator": "METANAUTO GIULIANOVA SRL"
            },
            "geometry": {
                "type": "Point",
                "coordinates": [
                    13.950801212977128,
                    42.72993573868717
                ]
            }
        },
        {
            "type": "Feature",
            "properties": {
                "name": "TORTORETO EST",
                "id": "7229",
                "brand": "Esso",
                "amenity": "fuel",
                "operator": "PLANAMENTE MARIA"
            },
            "geometry": {
                "type": "Point",
                "coordinates": [
                    13.928642507934569,
                    42.8047857026702
                ]
            }
        },
        {
            "type": "Feature",
            "properties": {
                "name": "MOSCIANO SANT'ANGELO",
                "id": "5393",
                "brand": "Agip Eni",
                "amenity": "fuel",
                "operator": "enirete oil&nonoil S.p.A."
            },
            "geometry": {
                "type": "Point",
                "coordinates": [
                    13.899766666669962,
                    42.709220264504076
                ]
            }
        },
        {
            "type": "Feature",
            "properties": {
                "name": "SELF AREA ROSETO NORD snc",
                "id": "22394",
                "brand": "Api-Ip",
                "amenity": "fuel",
                "operator": "SELF AREA ROSETO NORD DI LA LUNA VINCENZO & C. S.N.C."
            },
            "geometry": {
                "type": "Point",
                "coordinates": [
                    13.988580076057476,
                    42.71432223408356
                ]
            }
        },
        {
            "type": "Feature",
            "properties": {
                "name": "MARCO SANTUCCI",
                "id": "13419",
                "brand": "Api-Ip",
                "amenity": "fuel",
                "operator": "SANTUCCI MARCO"
            },
            "geometry": {
                "type": "Point",
                "coordinates": [
                    13.961881561238101,
                    42.756549452141236
                ]
            }
        },
        {
            "type": "Feature",
            "properties": {
                "name": "IP GRUPPO API",
                "id": "5715",
                "brand": "Api-Ip",
                "amenity": "fuel",
                "operator": "PAMAN S.N.C. DI DI FEBO PAMELA & ANGELA"
            },
            "geometry": {
                "type": "Point",
                "coordinates": [
                    13.991172015666963,
                    42.70924583370422
                ]
            }
        },
        {
            "type": "Feature",
            "properties": {
                "name": "Totalerg",
                "id": "7603",
                "brand": "Total Erg",
                "amenity": "fuel",
                "operator": "PISTILLI & DI EGIDIO DI PISTILLI R. & C. S.N.C."
            },
            "geometry": {
                "type": "Point",
                "coordinates": [
                    13.960209935903551,
                    42.75939720593236
                ]
            }
        },
        {
            "type": "Feature",
            "properties": {
                "name": "M.E.G.A.A. Carburanti IP",
                "id": "13560",
                "brand": "Api-Ip",
                "amenity": "fuel",
                "operator": "PACCHIOLI MAURIZIO"
            },
            "geometry": {
                "type": "Point",
                "coordinates": [
                    13.95707443356514,
                    42.74663758088802
                ]
            }
        },
        {
            "type": "Feature",
            "properties": {
                "name": "TotalErg",
                "id": "7441",
                "brand": "Total Erg",
                "amenity": "fuel",
                "operator": "IACONI FLAVIANO"
            },
            "geometry": {
                "type": "Point",
                "coordinates": [
                    13.968748761376899,
                    42.74542944895548
                ]
            }
        }
    ]
}