{
    "type": "FeatureCollection",
    "features": [
        {
            "type": "Feature",
            "properties": {
                "name": "dnm carburanti",
                "id": "10234",
                "brand": "Agip Eni",
                "amenity": "fuel",
                "operator": "DNM CARBURANTI DI DI FIORE GIUSEPPE"
            },
            "geometry": {
                "type": "Point",
                "coordinates": [
                    14.042473501713628,
                    37.49099299689078
                ]
            }
        },
        {
            "type": "Feature",
            "properties": {
                "name": "MULTI ENERGY SRL",
                "id": "18808",
                "brand": "Esso",
                "amenity": "fuel",
                "operator": "MULTI ENERGY S.R.L."
            },
            "geometry": {
                "type": "Point",
                "coordinates": [
                    13.992703557014465,
                    37.47725065576404
                ]
            }
        },
        {
            "type": "Feature",
            "properties": {
                "name": "IP CALTANISSETTA, VIA NISCEMI",
                "id": "12792",
                "brand": "Api-Ip",
                "amenity": "fuel",
                "operator": "DI BENEDETTO CARBURANTI S.R.L."
            },
            "geometry": {
                "type": "Point",
                "coordinates": [
                    14.058082246067443,
                    37.48311109955289
                ]
            }
        },
        {
            "type": "Feature",
            "properties": {
                "name": "Q 8",
                "id": "19099",
                "brand": "Q8",
                "amenity": "fuel",
                "operator": "FALCAM PETROLI DI FALZONE DANIELA E C.S.A.S."
            },
            "geometry": {
                "type": "Point",
                "coordinates": [
                    13.985587015973353,
                    37.480712836334156
                ]
            }
        },
        {
            "type": "Feature",
            "properties": {
                "name": "Distributore ENI di Gazzara Salvatore",
                "id": "28341",
                "brand": "Agip Eni",
                "amenity": "fuel",
                "operator": "GAZZARA SALVATORE"
            },
            "geometry": {
                "type": "Point",
                "coordinates": [
                    14.055679142475128,
                    37.497891698450054
                ]
            }
        },
        {
            "type": "Feature",
            "properties": {
                "name": "pccarburanti",
                "id": "30581",
                "brand": "Agip Eni",
                "amenity": "fuel",
                "operator": "PC CARBURANTI DI PALMERI ALESSANDRO"
            },
            "geometry": {
                "type": "Point",
                "coordinates": [
                    14.056110701817715,
                    37.48089101332695
                ]
            }
        },
        {
            "type": "Feature",
            "properties": {
                "name": "CALTANISSETTA VIA TRIESTE 263 DISTR. Q8",
                "id": "23751",
                "brand": "Q8",
                "amenity": "fuel",
                "operator": "SERVIZI & GESTIONI ITALIA S.R.L."
            },
            "geometry": {
                "type": "Point",
                "coordinates": [
                    14.04923107301636,
                    37.494469637169296
                ]
            }
        },
        {
            "type": "Feature",
            "properties": {
                "name": "IMPIANTO ENI",
                "id": "21746",
                "brand": "Agip Eni",
                "amenity": "fuel",
                "operator": "SE. SCA. PETROLI DI SCALZO SERGIO FABIO & C. - SOCIETA' IN ACCOMA NDITA SEMPLICE"
            },
            "geometry": {
                "type": "Point",
                "coordinates": [
                    13.993856631288395,
                    37.4922116475296
                ]
            }
        },
        {
            "type": "Feature",
            "properties": {
                "name": "Imp. Caltanissetta, via Colajanni",
                "id": "24101",
                "amenity": "fuel",
                "operator": "DI BENEDETTO CARBURANTI S.R.L."
            },
            "geometry": {
                "type": "Point",
                "coordinates": [
                    14.058897793292997,
                    37.4862757479992
                ]
            }
        },
        {
            "type": "Feature",
            "properties": {
                "name": "P & P di Pilato M. e c. s.a.s.",
                "id": "26510",
                "brand": "Agip Eni",
                "amenity": "fuel",
                "operator": "P & P DI PILATO MAURIZIO E C.S.A.S"
            },
            "geometry": {
                "type": "Point",
                "coordinates": [
                    14.00204498687742,
                    37.487752444534294
                ]
            }
        },
        {
            "type": "Feature",
            "properties": {
                "name": "AC/CALTANISSETTA",
                "id": "11035",
                "amenity": "fuel",
                "operator": "PALMERI RAFFAELE"
            },
            "geometry": {
                "type": "Point",
                "coordinates": [
                    14.03902530670166,
                    37.49167342485318
                ]
            }
        },
        {
            "type": "Feature",
            "properties": {
                "name": "ESSO",
                "id": "14994",
                "brand": "Esso",
                "amenity": "fuel",
                "operator": "ROVETTO EUGENIA"
            },
            "geometry": {
                "type": "Point",
                "coordinates": [
                    14.052239209413527,
                    37.47780578932966
                ]
            }
        },
        {
            "type": "Feature",
            "properties": {
                "name": "eni",
                "id": "30905",
                "brand": "Agip Eni",
                "amenity": "fuel",
                "operator": "MAENZA S.A.S. DI MAENZA FRANCESCO & C"
            },
            "geometry": {
                "type": "Point",
                "coordinates": [
                    14.057283103466034,
                    37.49702432077797
                ]
            }
        },
        {
            "type": "Feature",
            "properties": {
                "name": "A. Di Benedetto srl Viale Trieste Caltanissetta",
                "id": "25330",
                "brand": "Agip Eni",
                "amenity": "fuel",
                "operator": "ALFONSO DI BENEDETTO CARBURANTI LUBRIFICANTI SRL"
            },
            "geometry": {
                "type": "Point",
                "coordinates": [
                    14.052116403240689,
                    37.494629474835264
                ]
            }
        },
        {
            "type": "Feature",
            "properties": {
                "name": "Eni Gafuel",
                "id": "14166",
                "brand": "Agip Eni",
                "amenity": "fuel",
                "operator": "GAFUEL S.A.S. DI GANDOLFO FRANCESCO"
            },
            "geometry": {
                "type": "Point",
                "coordinates": [
                    14.04945647238742,
                    37.49333596097207
                ]
            }
        },
        {
            "type": "Feature",
            "properties": {
                "name": "SA.GI. Petroli s.a.s.",
                "id": "31575",
                "brand": "Esso",
                "amenity": "fuel",
                "operator": "SA.GI. PETROLI S.A.S. DI SALVATORE URSO & C."
            },
            "geometry": {
                "type": "Point",
                "coordinates": [
                    14.057449217218963,
                    37.47872906209513
                ]
            }
        },
        {
            "type": "Feature",
            "properties": {
                "name": "AGIP RIZZO DI RIZZO ANGELO & C. SAS",
                "id": "10317",
                "brand": "Agip Eni",
                "amenity": "fuel",
                "operator": "AGIP RIZZO DI RIZZO ANGELO & C. S.A.S."
            },
            "geometry": {
                "type": "Point",
                "coordinates": [
                    14.046713715222154,
                    37.47472074692058
                ]
            }
        },
        {
            "type": "Feature",
            "properties": {
                "name": "GRM",
                "id": "6988",
                "amenity": "fuel",
                "operator": "GRM DI MARCHESE RAGONA GIUSEPPE S.A.S."
            },
            "geometry": {
                "type": "Point",
                "coordinates": [
                    13.999956250190735,
                    37.46852804610422
                ]
            }
        },
        {
            "type": "Feature",
            "properties": {
                "name": "CALTANISSETTA VIA CATANIA PAL.ARGENTO",
                "id": "19702",
                "brand": "Q8",
                "amenity": "fuel",
                "operator": "SERVIZI & GESTIONI ITALIA S.R.L."
            },
            "geometry": {
                "type": "Point",
                "coordinates": [
                    14.053904993254038,
                    37.49259962313395
                ]
            }
        },
        {
            "type": "Feature",
            "properties": {
                "name": "CORSO SICILIA SAN CATALDO",
                "id": "25152",
                "brand": "Q8",
                "amenity": "fuel",
                "operator": "SERVIZI E GESTIONI ZENIT S.R.L. IN SIGLA - ZENIT S.R.L."
            },
            "geometry": {
                "type": "Point",
                "coordinates": [
                    13.991350382566452,
                    37.488061395978164
                ]
            }
        },
        {
            "type": "Feature",
            "properties": {
                "name": "Imp.  Caltanissetta, via Due Fontane",
                "id": "24099",
                "amenity": "fuel",
                "operator": "DI BENEDETTO CARBURANTI S.R.L."
            },
            "geometry": {
                "type": "Point",
                "coordinates": [
                    14.03470292687416,
                    37.48845257273016
                ]
            }
        },
        {
            "type": "Feature",
            "properties": {
                "name": "AC/CALTANISSETTA",
                "id": "11036",
                "amenity": "fuel",
                "operator": "PALMERI RAFFAELE"
            },
            "geometry": {
                "type": "Point",
                "coordinates": [
                    14.046806395053862,
                    37.488487050698176
                ]
            }
        },
        {
            "type": "Feature",
            "properties": {
                "name": "ASD IDROCARBURI SAS di ARNONE S.",
                "id": "8498",
                "brand": "Esso",
                "amenity": "fuel",
                "operator": "A.S.D. IDROCARBURI DI SETTIMO ARNONE & C. S.A.S."
            },
            "geometry": {
                "type": "Point",
                "coordinates": [
                    14.03925061225891,
                    37.491454222326176
                ]
            }
        },
        {
            "type": "Feature",
            "properties": {
                "name": "I.D.C. CALTANISSETTA , PIAZZA TRENTO",
                "id": "27318",
                "amenity": "fuel",
                "operator": "DI BENEDETTO CARBURANTI S.R.L."
            },
            "geometry": {
                "type": "Point",
                "coordinates": [
                    14.054313898086548,
                    37.494285503340926
                ]
            }
        }
    ]
}