{
    "type": "FeatureCollection",
    "features": [
        {
            "type": "Feature",
            "properties": {
                "name": "Tamoil Italia S.p.a",
                "id": "22309",
                "brand": "Tamoil",
                "amenity": "fuel",
                "operator": "CASTALDO CORRADO"
            },
            "geometry": {
                "type": "Point",
                "coordinates": [
                    14.062357092659793,
                    40.81942882459064
                ]
            }
        },
        {
            "type": "Feature",
            "properties": {
                "name": "distributore carburanti ESSO",
                "id": "29691",
                "brand": "Esso",
                "amenity": "fuel",
                "operator": "IACONO GIUSEPPE E FIGLIO S.N.C."
            },
            "geometry": {
                "type": "Point",
                "coordinates": [
                    13.891673460602759,
                    40.752434174178894
                ]
            }
        },
        {
            "type": "Feature",
            "properties": {
                "name": "IMPIANTO ENI",
                "id": "10571",
                "brand": "Agip Eni",
                "amenity": "fuel",
                "operator": "MI.DA. SAS DI MIRAGLIUOLO DOMENICO E C."
            },
            "geometry": {
                "type": "Point",
                "coordinates": [
                    13.94184350967407,
                    40.733469826169575
                ]
            }
        },
        {
            "type": "Feature",
            "properties": {
                "name": "ESSO",
                "id": "27244",
                "brand": "Esso",
                "amenity": "fuel",
                "operator": "MATTERA ANTONIO"
            },
            "geometry": {
                "type": "Point",
                "coordinates": [
                    14.055369347333908,
                    40.79392202928247
                ]
            }
        },
        {
            "type": "Feature",
            "properties": {
                "name": "Agip",
                "id": "16166",
                "brand": "Agip Eni",
                "amenity": "fuel",
                "operator": "STAZIONE DI SERVIZIO SIBILLA PETROLI SAS DI DI COSTANZO GENNARO & C."
            },
            "geometry": {
                "type": "Point",
                "coordinates": [
                    14.057409490737886,
                    40.82925458535962
                ]
            }
        },
        {
            "type": "Feature",
            "properties": {
                "name": "EWA OIL S.P.A",
                "id": "27002",
                "amenity": "fuel",
                "operator": "PIT LANE DI COMITO GIUSEPPE"
            },
            "geometry": {
                "type": "Point",
                "coordinates": [
                    14.025875777006148,
                    40.76325891031477
                ]
            }
        },
        {
            "type": "Feature",
            "properties": {
                "name": "Tamoil",
                "id": "16234",
                "brand": "Tamoil",
                "amenity": "fuel",
                "operator": "ESPOSITO COSTIGLIOLA LUDOVICO"
            },
            "geometry": {
                "type": "Point",
                "coordinates": [
                    14.060574764417991,
                    40.80163445651341
                ]
            }
        },
        {
            "type": "Feature",
            "properties": {
                "name": "IP",
                "id": "20009",
                "brand": "Api-Ip",
                "amenity": "fuel",
                "operator": "STAZIONE DI SERVIZIO DI COSTANZO E FIGLI S.A.S. DI DI COSTANZO GE NNARO E DI COSTANZO MICHELE"
            },
            "geometry": {
                "type": "Point",
                "coordinates": [
                    14.051220640540125,
                    40.810472847444075
                ]
            }
        },
        {
            "type": "Feature",
            "properties": {
                "name": "AMBROSINO",
                "id": "23806",
                "amenity": "fuel",
                "operator": "F.LLI AMBROSINO SERVAUTO 1 DI AMBROSINO GIUSEPPE E C. S.A.S."
            },
            "geometry": {
                "type": "Point",
                "coordinates": [
                    13.940856456756592,
                    40.719572902802625
                ]
            }
        },
        {
            "type": "Feature",
            "properties": {
                "name": "esso",
                "id": "21194",
                "brand": "Esso",
                "amenity": "fuel",
                "operator": "LUBRANO LOBIANCO FRANCESCO E FIGLI SRL"
            },
            "geometry": {
                "type": "Point",
                "coordinates": [
                    14.03025510726934,
                    40.76573159200168
                ]
            }
        },
        {
            "type": "Feature",
            "properties": {
                "name": "Q8",
                "id": "28021",
                "brand": "Q8",
                "amenity": "fuel",
                "operator": "LO SPECIALISTA DEI LUBRIFICANTI DI PIETRO DE ROSA"
            },
            "geometry": {
                "type": "Point",
                "coordinates": [
                    14.060449433000144,
                    40.82387841019173
                ]
            }
        },
        {
            "type": "Feature",
            "properties": {
                "name": "Monte di Procida (NA) via Salita Torregaveta",
                "id": "10285",
                "amenity": "fuel",
                "operator": "NUOVA FUEL CALOR S.R.L."
            },
            "geometry": {
                "type": "Point",
                "coordinates": [
                    14.052157402038574,
                    40.80068928426829
                ]
            }
        },
        {
            "type": "Feature",
            "properties": {
                "name": "CUOMO SAS DI BENEDETTO CUOMO & C.",
                "id": "29680",
                "brand": "Agip Eni",
                "amenity": "fuel",
                "operator": "CUOMO SAS DI CUOMO  BENEDETTO & C."
            },
            "geometry": {
                "type": "Point",
                "coordinates": [
                    13.94674686913913,
                    40.72780692557185
                ]
            }
        },
        {
            "type": "Feature",
            "properties": {
                "name": "Totalerg",
                "id": "14231",
                "brand": "Total Erg",
                "amenity": "fuel",
                "operator": "SENESE NUNZIO E FRATELLI SAS"
            },
            "geometry": {
                "type": "Point",
                "coordinates": [
                    13.909607951084807,
                    40.749027012098324
                ]
            }
        },
        {
            "type": "Feature",
            "properties": {
                "name": "AMBROSINO",
                "id": "15061",
                "brand": "Agip Eni",
                "amenity": "fuel",
                "operator": "AMBROSINO S.R.L."
            },
            "geometry": {
                "type": "Point",
                "coordinates": [
                    13.926267921924593,
                    40.71496441403827
                ]
            }
        },
        {
            "type": "Feature",
            "properties": {
                "name": "AMBROSINO SERVAUTO 2",
                "id": "15436",
                "brand": "Agip Eni",
                "amenity": "fuel",
                "operator": "FR.LLI AMBROSINO SERVAUTO 2 DI AMBROSINO GIUSEPPE E C. S.A.S."
            },
            "geometry": {
                "type": "Point",
                "coordinates": [
                    13.940507099032402,
                    40.74607756130515
                ]
            }
        }
    ]
}