{
    "type": "FeatureCollection",
    "features": [
        {
            "type": "Feature",
            "properties": {
                "name": "Sax",
                "id": "26958",
                "brand": "Api-Ip",
                "amenity": "fuel",
                "operator": "SOC. SAX DEL RAG. MILKO SACCUTI & C. SAS"
            },
            "geometry": {
                "type": "Point",
                "coordinates": [
                    13.922070164495837,
                    42.82784755735968
                ]
            }
        },
        {
            "type": "Feature",
            "properties": {
                "name": "retitalia",
                "id": "27552",
                "brand": "Retitalia",
                "amenity": "fuel",
                "operator": "RE RICCARDO"
            },
            "geometry": {
                "type": "Point",
                "coordinates": [
                    13.915455937385559,
                    42.882165255437
                ]
            }
        },
        {
            "type": "Feature",
            "properties": {
                "name": "7382 MARTINSICURO TERAMO",
                "id": "26102",
                "brand": "Agip Eni",
                "amenity": "fuel",
                "operator": "ENI RETE OIL&NONOIL S.P.A."
            },
            "geometry": {
                "type": "Point",
                "coordinates": [
                    13.912958800792696,
                    42.855225515586774
                ]
            }
        },
        {
            "type": "Feature",
            "properties": {
                "name": "camaioni&cocciasnc",
                "id": "26699",
                "brand": "Agip Eni",
                "amenity": "fuel",
                "operator": "CAMAIONI & COCCIA DI CAMAIONI VALENTINO E C. S.N.C."
            },
            "geometry": {
                "type": "Point",
                "coordinates": [
                    13.897984027862547,
                    42.83309916880977
                ]
            }
        },
        {
            "type": "Feature",
            "properties": {
                "name": "SAN BENEDETTO - SGARIGLIA",
                "id": "29915",
                "brand": "Api-Ip",
                "amenity": "fuel",
                "operator": "IP SERVICES S.R.L."
            },
            "geometry": {
                "type": "Point",
                "coordinates": [
                    13.898218775463079,
                    42.90253516320567
                ]
            }
        },
        {
            "type": "Feature",
            "properties": {
                "name": "illuminati F.e C.s.n.c.",
                "id": "8367",
                "brand": "Esso",
                "amenity": "fuel",
                "operator": "ILLUMINATI FABRIZIO & SIMONE S.N.C."
            },
            "geometry": {
                "type": "Point",
                "coordinates": [
                    13.904609084129333,
                    42.87858399358408
                ]
            }
        },
        {
            "type": "Feature",
            "properties": {
                "name": "ENI DI MASCITTI & GIOBBI",
                "id": "6214",
                "brand": "Agip Eni",
                "amenity": "fuel",
                "operator": "MASCITTI ROBERTO & GIOBBI LUIGINO S.N.C."
            },
            "geometry": {
                "type": "Point",
                "coordinates": [
                    13.898080587387085,
                    42.90593613508092
                ]
            }
        },
        {
            "type": "Feature",
            "properties": {
                "name": "SAN BENEDETTO TRONTO - P.TO D'ASCOLI",
                "id": "29939",
                "brand": "Api-Ip",
                "amenity": "fuel",
                "operator": "IP SERVICES S.R.L."
            },
            "geometry": {
                "type": "Point",
                "coordinates": [
                    13.895929504299149,
                    42.8996019648459
                ]
            }
        },
        {
            "type": "Feature",
            "properties": {
                "name": "Total Erg",
                "id": "18678",
                "brand": "Total Erg",
                "amenity": "fuel",
                "operator": "CARBONE PIERO"
            },
            "geometry": {
                "type": "Point",
                "coordinates": [
                    13.92070726745078,
                    42.86505728189828
                ]
            }
        },
        {
            "type": "Feature",
            "properties": {
                "name": "TOTALERG",
                "id": "29408",
                "brand": "Total Erg",
                "amenity": "fuel",
                "operator": "CAR WASH SERVICES DI CAPRIOTTI A. & MARTELLI S. S.N.C."
            },
            "geometry": {
                "type": "Point",
                "coordinates": [
                    13.887781440475464,
                    42.92161454954949
                ]
            }
        },
        {
            "type": "Feature",
            "properties": {
                "name": "Enercoop",
                "id": "12133",
                "amenity": "fuel",
                "operator": "ENERCOOP ADRIATICA S.P.A."
            },
            "geometry": {
                "type": "Point",
                "coordinates": [
                    13.892724215984344,
                    42.89660690666815
                ]
            }
        },
        {
            "type": "Feature",
            "properties": {
                "name": "Self Area Agip di Gaetani Francesco & Luigi snc",
                "id": "19168",
                "brand": "Agip Eni",
                "amenity": "fuel",
                "operator": "GAETANI FRANCESCO E LUIGI S.N.C."
            },
            "geometry": {
                "type": "Point",
                "coordinates": [
                    13.918667813491767,
                    42.837953531060165
                ]
            }
        },
        {
            "type": "Feature",
            "properties": {
                "name": "PB",
                "id": "18626",
                "amenity": "fuel",
                "operator": "CFC OIL S.R.L."
            },
            "geometry": {
                "type": "Point",
                "coordinates": [
                    13.90235345767212,
                    42.9161568215919
                ]
            }
        },
        {
            "type": "Feature",
            "properties": {
                "name": "silvestri ettore & c. sas",
                "id": "8348",
                "brand": "Esso",
                "amenity": "fuel",
                "operator": "SILVESTRI ETTORE & C. S.A.S."
            },
            "geometry": {
                "type": "Point",
                "coordinates": [
                    13.889122009277344,
                    42.917212160086194
                ]
            }
        },
        {
            "type": "Feature",
            "properties": {
                "name": "3 P. - snc",
                "id": "18299",
                "brand": "Api-Ip",
                "amenity": "fuel",
                "operator": "3 P. - SNC DI PIETROLUNGO BARBARA & C."
            },
            "geometry": {
                "type": "Point",
                "coordinates": [
                    13.89443278312683,
                    42.922726838638724
                ]
            }
        },
        {
            "type": "Feature",
            "properties": {
                "name": "totalerg",
                "id": "6344",
                "brand": "Total Erg",
                "amenity": "fuel",
                "operator": "DI BONAVENTURA GABRIELE & C. S.N.C."
            },
            "geometry": {
                "type": "Point",
                "coordinates": [
                    13.90518891978229,
                    42.888952532856166
                ]
            }
        },
        {
            "type": "Feature",
            "properties": {
                "name": "PORTO D'ASCOLI",
                "id": "10143",
                "brand": "Total Erg",
                "amenity": "fuel",
                "operator": "GESTIONI EUROPA - SOCIETA' PER AZIONI"
            },
            "geometry": {
                "type": "Point",
                "coordinates": [
                    13.891773372888565,
                    42.90956649379355
                ]
            }
        },
        {
            "type": "Feature",
            "properties": {
                "name": "METANO",
                "id": "27629",
                "brand": "Agip Eni",
                "amenity": "fuel",
                "operator": "MULTICARBURANTI S.R.L."
            },
            "geometry": {
                "type": "Point",
                "coordinates": [
                    13.895751964417968,
                    42.89348367528934
                ]
            }
        },
        {
            "type": "Feature",
            "properties": {
                "name": "BASCIANI AMALIA SRL",
                "id": "27023",
                "brand": "Api-Ip",
                "amenity": "fuel",
                "operator": "BASCIANI AMALIA SOCIETA' A RESPONSABILITA' LIMITATA, IN FORMA ABBREVIATA \"BASCIANI AMALIA S.R.L.\""
            },
            "geometry": {
                "type": "Point",
                "coordinates": [
                    13.915949463844301,
                    42.8259390060527
                ]
            }
        },
        {
            "type": "Feature",
            "properties": {
                "name": "stazione di servizio ip",
                "id": "16063",
                "brand": "Api-Ip",
                "amenity": "fuel",
                "operator": "DI CANDIDO PEPPINO"
            },
            "geometry": {
                "type": "Point",
                "coordinates": [
                    13.93093563616276,
                    42.8355005881771
                ]
            }
        },
        {
            "type": "Feature",
            "properties": {
                "name": "TOTALERG",
                "id": "30632",
                "brand": "Total Erg",
                "amenity": "fuel",
                "operator": "LUIGI CELANI"
            },
            "geometry": {
                "type": "Point",
                "coordinates": [
                    13.891026377677916,
                    42.89619466060141
                ]
            }
        },
        {
            "type": "Feature",
            "properties": {
                "name": "Ruggieri Ruggero",
                "id": "10860",
                "brand": "Total Erg",
                "amenity": "fuel",
                "operator": "RUGGIERI RUGGERO"
            },
            "geometry": {
                "type": "Point",
                "coordinates": [
                    13.894094824790958,
                    42.92226252164546
                ]
            }
        },
        {
            "type": "Feature",
            "properties": {
                "name": "DI.GI.MA srl",
                "id": "16027",
                "brand": "Total Erg",
                "amenity": "fuel",
                "operator": "DI.GI.MA. SOCIETA' A RESPONSABILITA' LIMITATA"
            },
            "geometry": {
                "type": "Point",
                "coordinates": [
                    13.891037106513977,
                    42.896237889583624
                ]
            }
        }
    ]
}