{
    "type": "FeatureCollection",
    "features": [
        {
            "type": "Feature",
            "properties": {
                "name": "ESSO CALVI RISORTA",
                "id": "29975",
                "brand": "Esso",
                "amenity": "fuel",
                "operator": "PENTA PETROLI SRL"
            },
            "geometry": {
                "type": "Point",
                "coordinates": [
                    14.120800495147703,
                    41.17538990779541
                ]
            }
        },
        {
            "type": "Feature",
            "properties": {
                "name": "TEANO OVEST",
                "id": "3783",
                "brand": "Total Erg",
                "amenity": "fuel",
                "operator": "SIDICINA PETROLI S.A.S. DI ENRICO DE MITA & C."
            },
            "geometry": {
                "type": "Point",
                "coordinates": [
                    14.092151312828035,
                    41.23292115932987
                ]
            }
        },
        {
            "type": "Feature",
            "properties": {
                "name": "stazione Eni di Donciglio Mario",
                "id": "14076",
                "brand": "Agip Eni",
                "amenity": "fuel",
                "operator": "STAZIONE AGIP DI DONCIGLIO MARIO"
            },
            "geometry": {
                "type": "Point",
                "coordinates": [
                    14.200770556926727,
                    41.11286446665789
                ]
            }
        },
        {
            "type": "Feature",
            "properties": {
                "name": "Totalerg",
                "id": "13381",
                "brand": "Total Erg",
                "amenity": "fuel",
                "operator": "INFOLAB DI BOVENZI ANTONIO"
            },
            "geometry": {
                "type": "Point",
                "coordinates": [
                    14.16694387793541,
                    41.18430937429271
                ]
            }
        },
        {
            "type": "Feature",
            "properties": {
                "name": "CAMIGLIANO",
                "id": "30089",
                "brand": "Esso",
                "amenity": "fuel",
                "operator": "EWA OIL S.P.A."
            },
            "geometry": {
                "type": "Point",
                "coordinates": [
                    14.197252839803692,
                    41.17398595485126
                ]
            }
        },
        {
            "type": "Feature",
            "properties": {
                "name": "Calvi Risorta",
                "id": "14174",
                "brand": "Total Erg",
                "amenity": "fuel",
                "operator": "N.E.C. S.R.L. - NETWORK - ENERGY COMPANY"
            },
            "geometry": {
                "type": "Point",
                "coordinates": [
                    14.143367279762288,
                    41.21617656435697
                ]
            }
        },
        {
            "type": "Feature",
            "properties": {
                "name": "esso",
                "id": "15983",
                "brand": "Esso",
                "amenity": "fuel",
                "operator": "ANDOLFI S.A.S. DI GIOVANNI ANDOLFI & C."
            },
            "geometry": {
                "type": "Point",
                "coordinates": [
                    14.092298001050947,
                    41.17876258326419
                ]
            }
        },
        {
            "type": "Feature",
            "properties": {
                "name": "CAMY S.R.L.",
                "id": "24250",
                "brand": "Q8",
                "amenity": "fuel",
                "operator": "CAMY S.R.L."
            },
            "geometry": {
                "type": "Point",
                "coordinates": [
                    14.169209003448483,
                    41.186760536021346
                ]
            }
        },
        {
            "type": "Feature",
            "properties": {
                "name": "Q8",
                "id": "26628",
                "brand": "Q8",
                "amenity": "fuel",
                "operator": "DISTRIBUTORE DI CARBURANTI \" ITALIANA PETROLI SPA\" DI CARLETTI MARIO"
            },
            "geometry": {
                "type": "Point",
                "coordinates": [
                    14.121736586093903,
                    41.21194750068552
                ]
            }
        },
        {
            "type": "Feature",
            "properties": {
                "name": "ital empory srl",
                "id": "19093",
                "brand": "Api-Ip",
                "amenity": "fuel",
                "operator": "ITAL EMPORY S.R.L."
            },
            "geometry": {
                "type": "Point",
                "coordinates": [
                    14.075762182474136,
                    41.177487907622876
                ]
            }
        },
        {
            "type": "Feature",
            "properties": {
                "name": "IP ROTOLI MARIA CONCETTA",
                "id": "13489",
                "brand": "Api-Ip",
                "amenity": "fuel",
                "operator": "ROTOLI MARIA CONCETTA"
            },
            "geometry": {
                "type": "Point",
                "coordinates": [
                    14.176557585597042,
                    41.15553169451773
                ]
            }
        },
        {
            "type": "Feature",
            "properties": {
                "name": "Capua",
                "id": "31269",
                "brand": "Total Erg",
                "amenity": "fuel",
                "operator": "GESTIONI EUROPA - SOCIETA' PER AZIONI"
            },
            "geometry": {
                "type": "Point",
                "coordinates": [
                    14.200553297996521,
                    41.1187936847583
                ]
            }
        },
        {
            "type": "Feature",
            "properties": {
                "name": "Gaffoil Vitulazio",
                "id": "22262",
                "amenity": "fuel",
                "operator": "TRAGEN S.R.L."
            },
            "geometry": {
                "type": "Point",
                "coordinates": [
                    14.17789600789547,
                    41.150805681349304
                ]
            }
        },
        {
            "type": "Feature",
            "properties": {
                "name": "Bellona",
                "id": "14199",
                "amenity": "fuel",
                "operator": "N.E.C. S.R.L. - NETWORK - ENERGY COMPANY"
            },
            "geometry": {
                "type": "Point",
                "coordinates": [
                    14.22595935242703,
                    41.16314095434277
                ]
            }
        },
        {
            "type": "Feature",
            "properties": {
                "name": "TEANO EST",
                "id": "3782",
                "brand": "Total Erg",
                "amenity": "fuel",
                "operator": "G.I.DI.CAR. S.R.L."
            },
            "geometry": {
                "type": "Point",
                "coordinates": [
                    14.093375101852418,
                    41.23490364796403
                ]
            }
        },
        {
            "type": "Feature",
            "properties": {
                "name": "GIANO VETUSTO",
                "id": "23169",
                "brand": "Esso",
                "amenity": "fuel",
                "operator": "EWA OIL S.P.A."
            },
            "geometry": {
                "type": "Point",
                "coordinates": [
                    14.190606609786984,
                    41.20285408287454
                ]
            }
        },
        {
            "type": "Feature",
            "properties": {
                "name": "TEANO",
                "id": "29053",
                "brand": "Esso",
                "amenity": "fuel",
                "operator": "PENTA PETROLI SRL"
            },
            "geometry": {
                "type": "Point",
                "coordinates": [
                    14.104310274124144,
                    41.22401988883679
                ]
            }
        }
    ]
}