{
    "type": "FeatureCollection",
    "features": [
        {
            "type": "Feature",
            "properties": {
                "name": "Stazione Q8  sm carburanti sas",
                "id": "18617",
                "brand": "Q8",
                "amenity": "fuel",
                "operator": "S.M. CARBURANTI S.A.S. DI ROMEO DI SANTILLO MARIA ROSARIA & C."
            },
            "geometry": {
                "type": "Point",
                "coordinates": [
                    14.19595330953598,
                    40.91317934584797
                ]
            }
        },
        {
            "type": "Feature",
            "properties": {
                "name": "Fabozzi energia e carburanti",
                "id": "14613",
                "brand": "Esso",
                "amenity": "fuel",
                "operator": "C. FABOZZI S.R.L."
            },
            "geometry": {
                "type": "Point",
                "coordinates": [
                    14.189916998147964,
                    40.97737822835945
                ]
            }
        },
        {
            "type": "Feature",
            "properties": {
                "name": "RAN S.R.L.",
                "id": "28508",
                "amenity": "fuel",
                "operator": "RAN S.R.L."
            },
            "geometry": {
                "type": "Point",
                "coordinates": [
                    14.211162775754927,
                    40.95626703131627
                ]
            }
        },
        {
            "type": "Feature",
            "properties": {
                "name": "GIUGLIANO IN CAMPANIA - SS7 KM 4",
                "id": "7274",
                "brand": "Shell",
                "amenity": "fuel",
                "operator": "SERVIZI & GESTIONI ITALIA S.R.L."
            },
            "geometry": {
                "type": "Point",
                "coordinates": [
                    14.086039305557277,
                    40.88461866104375
                ]
            }
        },
        {
            "type": "Feature",
            "properties": {
                "name": "Parisi di Pietro Parisi & c. sas",
                "id": "24687",
                "brand": "Tamoil",
                "amenity": "fuel",
                "operator": "PARISI DI PIETRO PARISI E C. S.A.S."
            },
            "geometry": {
                "type": "Point",
                "coordinates": [
                    14.230856895446777,
                    40.90962438019625
                ]
            }
        },
        {
            "type": "Feature",
            "properties": {
                "name": "MIGLIACCIO CARBURANTI - P.V.MARANO(NA)",
                "id": "27850",
                "amenity": "fuel",
                "operator": "GE.MI. PETROLI S.R.L."
            },
            "geometry": {
                "type": "Point",
                "coordinates": [
                    14.126926660537722,
                    40.90186838628478
                ]
            }
        },
        {
            "type": "Feature",
            "properties": {
                "name": "Euroenergia snc",
                "id": "4532",
                "brand": "Q8",
                "amenity": "fuel",
                "operator": "EUROENERGIA DI GRANATA FILOMENA E GRANATA CARMINE S.N.C."
            },
            "geometry": {
                "type": "Point",
                "coordinates": [
                    14.127286076545715,
                    40.93020436900389
                ]
            }
        },
        {
            "type": "Feature",
            "properties": {
                "name": "chianese petroli",
                "id": "20491",
                "amenity": "fuel",
                "operator": "CHIANESE PETROLI S.N.C. DI CHIANESE FRANCESCANTONIO, CHIANESE ANGELA CATERINA E"
            },
            "geometry": {
                "type": "Point",
                "coordinates": [
                    14.168588072061539,
                    40.965390857309266
                ]
            }
        },
        {
            "type": "Feature",
            "properties": {
                "name": "di vincenzo gennaro",
                "id": "17918",
                "brand": "Agip Eni",
                "amenity": "fuel",
                "operator": "DISTRIBUTORE AGIP DI DI VINCENZO GENNARO"
            },
            "geometry": {
                "type": "Point",
                "coordinates": [
                    14.195469841361048,
                    40.90493987675014
                ]
            }
        },
        {
            "type": "Feature",
            "properties": {
                "name": "C.L.Gas Auto",
                "id": "16205",
                "amenity": "fuel",
                "operator": "C.L. GAS - S.R.L."
            },
            "geometry": {
                "type": "Point",
                "coordinates": [
                    14.213679617435444,
                    40.949020515468014
                ]
            }
        },
        {
            "type": "Feature",
            "properties": {
                "name": "GIUGLIANO IN CAMPANIA LOC.CASACELLE PROL.V.PIGNA",
                "id": "23405",
                "brand": "Q8",
                "amenity": "fuel",
                "operator": "SERVIZI & GESTIONI ITALIA S.R.L."
            },
            "geometry": {
                "type": "Point",
                "coordinates": [
                    14.17430381349186,
                    40.94093834152493
                ]
            }
        },
        {
            "type": "Feature",
            "properties": {
                "name": "NAPOLI - NUOVA TOSCANELLA",
                "id": "29745",
                "brand": "Api-Ip",
                "amenity": "fuel",
                "operator": "IP SERVICES S.R.L."
            },
            "geometry": {
                "type": "Point",
                "coordinates": [
                    14.217489271163915,
                    40.88566755526838
                ]
            }
        },
        {
            "type": "Feature",
            "properties": {
                "name": "STAZIONE Q8",
                "id": "28270",
                "brand": "Q8",
                "amenity": "fuel",
                "operator": "PETROLCAR  S.R.L."
            },
            "geometry": {
                "type": "Point",
                "coordinates": [
                    14.113586081020344,
                    40.8765469893162
                ]
            }
        },
        {
            "type": "Feature",
            "properties": {
                "name": "Q8 NIVA SRL",
                "id": "22966",
                "brand": "Q8",
                "amenity": "fuel",
                "operator": "NI. VA. S.R.L."
            },
            "geometry": {
                "type": "Point",
                "coordinates": [
                    14.143043124487349,
                    40.91219356434489
                ]
            }
        },
        {
            "type": "Feature",
            "properties": {
                "name": "GIUGLIANO IN CAMPANIA-VIA SAN FRANCESCO A PATRIA",
                "id": "11742",
                "brand": "Q8",
                "amenity": "fuel",
                "operator": "SERVIZI & GESTIONI ITALIA S.R.L."
            },
            "geometry": {
                "type": "Point",
                "coordinates": [
                    14.15370000000007,
                    40.92822026492086
                ]
            }
        },
        {
            "type": "Feature",
            "properties": {
                "name": "Q8 Granata",
                "id": "4548",
                "brand": "Q8",
                "amenity": "fuel",
                "operator": "GRANATA CARMINE"
            },
            "geometry": {
                "type": "Point",
                "coordinates": [
                    14.150978028774258,
                    40.92218326860465
                ]
            }
        },
        {
            "type": "Feature",
            "properties": {
                "name": "ENERGAS TOSCANELLA",
                "id": "30427",
                "amenity": "fuel",
                "operator": "EASY SERVICE S.R.L."
            },
            "geometry": {
                "type": "Point",
                "coordinates": [
                    14.217003466131588,
                    40.88424858334243
                ]
            }
        },
        {
            "type": "Feature",
            "properties": {
                "name": "AREA DI SERVIZIO Q8 LASMAR S.A.S.",
                "id": "9998",
                "brand": "Q8",
                "amenity": "fuel",
                "operator": "LASMAR DI SMARRAZZO ANTONIO & C. S.A.S."
            },
            "geometry": {
                "type": "Point",
                "coordinates": [
                    14.229966487410591,
                    40.86835320497925
                ]
            }
        },
        {
            "type": "Feature",
            "properties": {
                "name": "MUGNANO DI NAPOLI - NENNI",
                "id": "30379",
                "brand": "Api-Ip",
                "amenity": "fuel",
                "operator": "IP SERVICES S.R.L."
            },
            "geometry": {
                "type": "Point",
                "coordinates": [
                    14.215518775463124,
                    40.915614188149846
                ]
            }
        },
        {
            "type": "Feature",
            "properties": {
                "name": "Q8 DE FRANCESCO CARBURANTI",
                "id": "16935",
                "brand": "Q8",
                "amenity": "fuel",
                "operator": "DE FRANCESCO CARBURANTI S.A.S. DI DE FRANCESCO SALVATORE & C."
            },
            "geometry": {
                "type": "Point",
                "coordinates": [
                    14.207864999771118,
                    40.96247307160279
                ]
            }
        },
        {
            "type": "Feature",
            "properties": {
                "name": "Giugliano",
                "id": "29162",
                "amenity": "fuel",
                "operator": "EASY SERVICE S.R.L."
            },
            "geometry": {
                "type": "Point",
                "coordinates": [
                    14.213674664497375,
                    40.9490223682448
                ]
            }
        },
        {
            "type": "Feature",
            "properties": {
                "name": "ESSO",
                "id": "31920",
                "brand": "Esso",
                "amenity": "fuel",
                "operator": "FERRARIO GROUP S.A.S. DI FERRARIO FABRIZIO & C."
            },
            "geometry": {
                "type": "Point",
                "coordinates": [
                    14.229415208101276,
                    40.909835194304755
                ]
            }
        },
        {
            "type": "Feature",
            "properties": {
                "name": "NAPOLI-VIA MONTAGNA SPACCATA 250",
                "id": "11732",
                "brand": "Q8",
                "amenity": "fuel",
                "operator": "SERVIZI & GESTIONI ITALIA S.R.L."
            },
            "geometry": {
                "type": "Point",
                "coordinates": [
                    14.175481982803378,
                    40.85046203667078
                ]
            }
        },
        {
            "type": "Feature",
            "properties": {
                "name": "TOTAL ERG",
                "id": "12904",
                "brand": "Total Erg",
                "amenity": "fuel",
                "operator": "PRINCIPE PETROLI S.A.S. DI PRINCIPE ANTIMO & C."
            },
            "geometry": {
                "type": "Point",
                "coordinates": [
                    14.122045644180275,
                    40.8764268730071
                ]
            }
        },
        {
            "type": "Feature",
            "properties": {
                "name": "Stazione di Servizio TotalErg",
                "id": "32099",
                "brand": "Total Erg",
                "amenity": "fuel",
                "operator": "RUSSO STEFANO"
            },
            "geometry": {
                "type": "Point",
                "coordinates": [
                    14.157661163618515,
                    40.9199442937438
                ]
            }
        },
        {
            "type": "Feature",
            "properties": {
                "name": "TAMOIL",
                "id": "27699",
                "brand": "Tamoil",
                "amenity": "fuel",
                "operator": "PETROL PARAGLIOLA S.A.S. DI PARAGLIOLA ANTONIO"
            },
            "geometry": {
                "type": "Point",
                "coordinates": [
                    14.080075149125946,
                    40.87537241120684
                ]
            }
        },
        {
            "type": "Feature",
            "properties": {
                "name": "ESSO",
                "id": "16240",
                "brand": "Esso",
                "amenity": "fuel",
                "operator": "DE BIASE MARCO"
            },
            "geometry": {
                "type": "Point",
                "coordinates": [
                    14.151977151632313,
                    40.85517942579594
                ]
            }
        },
        {
            "type": "Feature",
            "properties": {
                "name": "PARETE STRADA PROV GIUGLIANO",
                "id": "6718",
                "brand": "Q8",
                "amenity": "fuel",
                "operator": "SERVIZI & GESTIONI ITALIA srl"
            },
            "geometry": {
                "type": "Point",
                "coordinates": [
                    14.166695166270413,
                    40.95704551947195
                ]
            }
        },
        {
            "type": "Feature",
            "properties": {
                "name": "Via Toscanella, 30 Napoli",
                "id": "10288",
                "amenity": "fuel",
                "operator": "NUOVA FUEL CALOR S.R.L."
            },
            "geometry": {
                "type": "Point",
                "coordinates": [
                    14.220539024606296,
                    40.87716267022728
                ]
            }
        },
        {
            "type": "Feature",
            "properties": {
                "name": "DE BIASE",
                "id": "13192",
                "brand": "Esso",
                "amenity": "fuel",
                "operator": "DE BIASE CONCETTA"
            },
            "geometry": {
                "type": "Point",
                "coordinates": [
                    14.2221350222826,
                    40.87049827044283
                ]
            }
        },
        {
            "type": "Feature",
            "properties": {
                "name": "TOTALERG",
                "id": "14339",
                "brand": "Total Erg",
                "amenity": "fuel",
                "operator": "CLAMAR CARBURANTI S.A.S. DI DI VAIO CLAUDIO"
            },
            "geometry": {
                "type": "Point",
                "coordinates": [
                    14.226000756025313,
                    40.86317019824898
                ]
            }
        },
        {
            "type": "Feature",
            "properties": {
                "name": "GIUGLIANO IN CAMPANIA CORSO CAMPANO 494/B     IMP.Q8",
                "id": "6707",
                "brand": "Q8",
                "amenity": "fuel",
                "operator": "SERVIZI & GESTIONI ITALIA srl"
            },
            "geometry": {
                "type": "Point",
                "coordinates": [
                    14.187136023502374,
                    40.928840169280775
                ]
            }
        },
        {
            "type": "Feature",
            "properties": {
                "name": "Asso",
                "id": "28988",
                "amenity": "fuel",
                "operator": "ASSO PETROLI S.R.L."
            },
            "geometry": {
                "type": "Point",
                "coordinates": [
                    14.196116466235708,
                    40.91935712879931
                ]
            }
        },
        {
            "type": "Feature",
            "properties": {
                "name": "Stazione di Servizio Auchan",
                "id": "23879",
                "brand": "Auchan",
                "amenity": "fuel",
                "operator": "AUCHAN S.P.A."
            },
            "geometry": {
                "type": "Point",
                "coordinates": [
                    14.14685547351837,
                    40.93188871694365
                ]
            }
        },
        {
            "type": "Feature",
            "properties": {
                "name": "felaco fiorenza",
                "id": "16779",
                "brand": "Q8",
                "amenity": "fuel",
                "operator": "FELACO FIORENZA"
            },
            "geometry": {
                "type": "Point",
                "coordinates": [
                    14.225179508676547,
                    40.84931755931541
                ]
            }
        },
        {
            "type": "Feature",
            "properties": {
                "name": "MASI GIUSEPPE",
                "id": "17438",
                "brand": "Api-Ip",
                "amenity": "fuel",
                "operator": "MASI GIUSEPPE"
            },
            "geometry": {
                "type": "Point",
                "coordinates": [
                    14.237676758046748,
                    40.8781979343146
                ]
            }
        },
        {
            "type": "Feature",
            "properties": {
                "name": "eddie gas service di Silvestri",
                "id": "27716",
                "amenity": "fuel",
                "operator": "EDDIE GAS SERVICE DI SILVESTRI ANNAMARIA"
            },
            "geometry": {
                "type": "Point",
                "coordinates": [
                    14.119799763229368,
                    40.883745652963526
                ]
            }
        },
        {
            "type": "Feature",
            "properties": {
                "name": "ESSO \"on the run caf√®\"",
                "id": "13437",
                "brand": "Esso",
                "amenity": "fuel",
                "operator": "G.I.C.A. DI LA ROCCA GAETANO &  C. - S.N.C."
            },
            "geometry": {
                "type": "Point",
                "coordinates": [
                    14.215379369641825,
                    40.947283654622
                ]
            }
        },
        {
            "type": "Feature",
            "properties": {
                "name": "Ghepardoil (LUS)",
                "id": "28197",
                "amenity": "fuel",
                "operator": "DELTA PETROLI S.A.S. DI FELACO ANTONIO & C."
            },
            "geometry": {
                "type": "Point",
                "coordinates": [
                    14.189985394477842,
                    40.96053348087241
                ]
            }
        },
        {
            "type": "Feature",
            "properties": {
                "name": "Stazione di Servizio Eni di Vallefuoco Biagio",
                "id": "16736",
                "brand": "Agip Eni",
                "amenity": "fuel",
                "operator": "VALLEFUOCO BIAGIO"
            },
            "geometry": {
                "type": "Point",
                "coordinates": [
                    14.115178808842755,
                    40.90338152861553
                ]
            }
        },
        {
            "type": "Feature",
            "properties": {
                "name": "tamoil",
                "id": "22028",
                "brand": "Tamoil",
                "amenity": "fuel",
                "operator": "PROJECT FOOD & OIL S.R.L."
            },
            "geometry": {
                "type": "Point",
                "coordinates": [
                    14.168736934661869,
                    40.94049945703005
                ]
            }
        },
        {
            "type": "Feature",
            "properties": {
                "name": "quaranta giuliano",
                "id": "17446",
                "brand": "Shell",
                "amenity": "fuel",
                "operator": "QUARANTA GIULIANO"
            },
            "geometry": {
                "type": "Point",
                "coordinates": [
                    14.088359847664831,
                    40.86198465439569
                ]
            }
        },
        {
            "type": "Feature",
            "properties": {
                "name": "esso",
                "id": "27809",
                "brand": "Esso",
                "amenity": "fuel",
                "operator": "S.C.S.D. DI CAIANIELLO ENRICHETTA E DI FALCO ANNA SNC"
            },
            "geometry": {
                "type": "Point",
                "coordinates": [
                    14.127491110450704,
                    40.877785
                ]
            }
        },
        {
            "type": "Feature",
            "properties": {
                "name": "PARETE - SALVO D'ACQUISTO",
                "id": "27764",
                "brand": "Api-Ip",
                "amenity": "fuel",
                "operator": "IP SERVICES S.R.L."
            },
            "geometry": {
                "type": "Point",
                "coordinates": [
                    14.169729504299198,
                    40.965422278858526
                ]
            }
        },
        {
            "type": "Feature",
            "properties": {
                "name": "TotalErg",
                "id": "21552",
                "brand": "Total Erg",
                "amenity": "fuel",
                "operator": "MOSELLA GIANPAOLO"
            },
            "geometry": {
                "type": "Point",
                "coordinates": [
                    14.187329337000849,
                    40.87274813024953
                ]
            }
        },
        {
            "type": "Feature",
            "properties": {
                "name": "TOTAL",
                "id": "21026",
                "brand": "Total Erg",
                "amenity": "fuel",
                "operator": "CESARO BRUNO GESTORE IP"
            },
            "geometry": {
                "type": "Point",
                "coordinates": [
                    14.16928879916668,
                    40.91039790249974
                ]
            }
        },
        {
            "type": "Feature",
            "properties": {
                "name": "CONAD SUPERMERCATO",
                "id": "22265",
                "brand": "CONAD",
                "amenity": "fuel",
                "operator": "APPIA STORE S.R.L."
            },
            "geometry": {
                "type": "Point",
                "coordinates": [
                    14.216533899307251,
                    40.94266533861125
                ]
            }
        },
        {
            "type": "Feature",
            "properties": {
                "name": "Cossutia srl Distributore Q8",
                "id": "7544",
                "brand": "Q8",
                "amenity": "fuel",
                "operator": "COSSUTIA S.R.L."
            },
            "geometry": {
                "type": "Point",
                "coordinates": [
                    14.232864528894423,
                    40.977571411485286
                ]
            }
        },
        {
            "type": "Feature",
            "properties": {
                "name": "GIUGLIANO IN CAMPANIA-VIA S.F.SCO A PATRIA 175-LOC.CAPECE",
                "id": "11731",
                "brand": "Q8",
                "amenity": "fuel",
                "operator": "SERVIZI & GESTIONI ITALIA S.R.L."
            },
            "geometry": {
                "type": "Point",
                "coordinates": [
                    14.124973177909851,
                    40.93092634331942
                ]
            }
        },
        {
            "type": "Feature",
            "properties": {
                "name": "Pianese Gennaro",
                "id": "17589",
                "brand": "Total Erg",
                "amenity": "fuel",
                "operator": "PIANESE GENNARO"
            },
            "geometry": {
                "type": "Point",
                "coordinates": [
                    14.218086898326872,
                    40.8593902436466
                ]
            }
        },
        {
            "type": "Feature",
            "properties": {
                "name": "RUFINO CARBURANTI",
                "id": "19979",
                "amenity": "fuel",
                "operator": "RUFINO ANTONIO"
            },
            "geometry": {
                "type": "Point",
                "coordinates": [
                    14.136224538087845,
                    40.97470347473133
                ]
            }
        },
        {
            "type": "Feature",
            "properties": {
                "name": "LUMASNC",
                "id": "18164",
                "brand": "Total Erg",
                "amenity": "fuel",
                "operator": "LU.MA. S.N.C. DI TRAVAGLIONE MARIO"
            },
            "geometry": {
                "type": "Point",
                "coordinates": [
                    14.219368569975243,
                    40.853588420810226
                ]
            }
        },
        {
            "type": "Feature",
            "properties": {
                "name": "ALS power (Quarto)",
                "id": "27578",
                "amenity": "fuel",
                "operator": "A.L.S. S.R.L."
            },
            "geometry": {
                "type": "Point",
                "coordinates": [
                    14.144689589738844,
                    40.881229344130944
                ]
            }
        },
        {
            "type": "Feature",
            "properties": {
                "name": "Tamoil di Zuppa Raffaele",
                "id": "20813",
                "brand": "Tamoil",
                "amenity": "fuel",
                "operator": "ZUPPA RAFFAELE"
            },
            "geometry": {
                "type": "Point",
                "coordinates": [
                    14.207936161406339,
                    40.96344552470608
                ]
            }
        },
        {
            "type": "Feature",
            "properties": {
                "name": "Rusciano self center s.a.s",
                "id": "30706",
                "brand": "Agip Eni",
                "amenity": "fuel",
                "operator": "RUSCIANO SELF CENTER ENI DI NICOLA RUSCIANO & C. S.A.S."
            },
            "geometry": {
                "type": "Point",
                "coordinates": [
                    14.214610755443577,
                    40.895840949566264
                ]
            }
        },
        {
            "type": "Feature",
            "properties": {
                "name": "CONAD IPERMERCATO",
                "id": "6129",
                "brand": "CONAD",
                "amenity": "fuel",
                "operator": "PIANETA COSPEA S.R.L."
            },
            "geometry": {
                "type": "Point",
                "coordinates": [
                    14.172105789184574,
                    40.96834699400806
                ]
            }
        },
        {
            "type": "Feature",
            "properties": {
                "name": "stazione eni di barbato & cavallaccio",
                "id": "16766",
                "brand": "Agip Eni",
                "amenity": "fuel",
                "operator": "DISTRIBUTORE CARBURANTI - LUBRIFICANTI S.N.C. DI CAVALLACCIO SALVATORE & BARBATO ANTONIO"
            },
            "geometry": {
                "type": "Point",
                "coordinates": [
                    14.209619164466856,
                    40.95991326969028
                ]
            }
        },
        {
            "type": "Feature",
            "properties": {
                "name": "EP Fuel",
                "id": "15408",
                "amenity": "fuel",
                "operator": "PALMA SALVATORE"
            },
            "geometry": {
                "type": "Point",
                "coordinates": [
                    14.182237163186073,
                    40.92738432753997
                ]
            }
        },
        {
            "type": "Feature",
            "properties": {
                "name": "onotri Gennaro",
                "id": "13268",
                "brand": "Agip Eni",
                "amenity": "fuel",
                "operator": "ONOTRI GENNARO"
            },
            "geometry": {
                "type": "Point",
                "coordinates": [
                    14.23552966020486,
                    40.853666900875616
                ]
            }
        },
        {
            "type": "Feature",
            "properties": {
                "name": "your fuel",
                "id": "20367",
                "amenity": "fuel",
                "operator": "C.M.PETROLIO S.R.L."
            },
            "geometry": {
                "type": "Point",
                "coordinates": [
                    14.23003274481744,
                    40.915184964862654
                ]
            }
        },
        {
            "type": "Feature",
            "properties": {
                "name": "distributore eni",
                "id": "28074",
                "brand": "Agip Eni",
                "amenity": "fuel",
                "operator": "DI BERNARDO FRANCESCO"
            },
            "geometry": {
                "type": "Point",
                "coordinates": [
                    14.185219109058378,
                    40.90105948871891
                ]
            }
        },
        {
            "type": "Feature",
            "properties": {
                "name": "IMPIANTO ENI",
                "id": "12921",
                "brand": "Agip Eni",
                "amenity": "fuel",
                "operator": "DI COSTANZO VINCENZO"
            },
            "geometry": {
                "type": "Point",
                "coordinates": [
                    14.180755913257599,
                    40.848521204673716
                ]
            }
        },
        {
            "type": "Feature",
            "properties": {
                "name": "Via provinciale Pianura, 15 Pozzuoli (NA)",
                "id": "10289",
                "amenity": "fuel",
                "operator": "NUOVA FUEL CALOR S.R.L."
            },
            "geometry": {
                "type": "Point",
                "coordinates": [
                    14.130510091781616,
                    40.86436771889614
                ]
            }
        },
        {
            "type": "Feature",
            "properties": {
                "name": "eni",
                "id": "27267",
                "brand": "Agip Eni",
                "amenity": "fuel",
                "operator": "I.A.V. S.A.S. DI IACCARINO ATTILIO & C."
            },
            "geometry": {
                "type": "Point",
                "coordinates": [
                    14.122066220237688,
                    40.875482001196346
                ]
            }
        },
        {
            "type": "Feature",
            "properties": {
                "name": "europetrolio srl",
                "id": "19843",
                "amenity": "fuel",
                "operator": "EUROPETROLIO S.R.L."
            },
            "geometry": {
                "type": "Point",
                "coordinates": [
                    14.173637330532072,
                    40.90776310564651
                ]
            }
        },
        {
            "type": "Feature",
            "properties": {
                "name": "Fabozzi energia e carburanti",
                "id": "14606",
                "brand": "Esso",
                "amenity": "fuel",
                "operator": "C. FABOZZI S.R.L."
            },
            "geometry": {
                "type": "Point",
                "coordinates": [
                    14.190450757741928,
                    40.979182868886056
                ]
            }
        },
        {
            "type": "Feature",
            "properties": {
                "name": "GIUGLIANO IN CAMPANIA-VIA COLONNE 101",
                "id": "11727",
                "brand": "Q8",
                "amenity": "fuel",
                "operator": "SERVIZI & GESTIONI ITALIA S.R.L."
            },
            "geometry": {
                "type": "Point",
                "coordinates": [
                    14.211885423278773,
                    40.92848955674072
                ]
            }
        },
        {
            "type": "Feature",
            "properties": {
                "name": "MARANO DI NAPOLI - CORSO EUROPA 68",
                "id": "31857",
                "brand": "Q8",
                "amenity": "fuel",
                "operator": "SERVIZI & GESTIONI ITALIA S.R.L."
            },
            "geometry": {
                "type": "Point",
                "coordinates": [
                    14.197599313491766,
                    40.89801275007502
                ]
            }
        },
        {
            "type": "Feature",
            "properties": {
                "name": "REPSOL",
                "id": "20539",
                "brand": "Repsol",
                "amenity": "fuel",
                "operator": "FADDIMM  S.R.L."
            },
            "geometry": {
                "type": "Point",
                "coordinates": [
                    14.224473237991333,
                    40.97979560929537
                ]
            }
        },
        {
            "type": "Feature",
            "properties": {
                "name": "Arenella Giuseppe impianto Ip",
                "id": "16263",
                "brand": "Api-Ip",
                "amenity": "fuel",
                "operator": "ARENELLA GIUSEPPE"
            },
            "geometry": {
                "type": "Point",
                "coordinates": [
                    14.224987081390738,
                    40.84731827065725
                ]
            }
        },
        {
            "type": "Feature",
            "properties": {
                "name": "capuano gas srl",
                "id": "13765",
                "brand": "Esso",
                "amenity": "fuel",
                "operator": "CAPUANO GAS S.R.L."
            },
            "geometry": {
                "type": "Point",
                "coordinates": [
                    14.221265316009523,
                    40.912979488031525
                ]
            }
        },
        {
            "type": "Feature",
            "properties": {
                "name": "rusciano carburanti s.r.l.",
                "id": "19020",
                "amenity": "fuel",
                "operator": "RUSCIANO CARBURANTI S.R.L."
            },
            "geometry": {
                "type": "Point",
                "coordinates": [
                    14.217248879762339,
                    40.882238433343844
                ]
            }
        },
        {
            "type": "Feature",
            "properties": {
                "name": "Aversa",
                "id": "27220",
                "brand": "Total Erg",
                "amenity": "fuel",
                "operator": "GESTIONI EUROPA - SOCIETA' PER AZIONI"
            },
            "geometry": {
                "type": "Point",
                "coordinates": [
                    14.215456927647438,
                    40.96531815662782
                ]
            }
        },
        {
            "type": "Feature",
            "properties": {
                "name": "FLLI CIPOLLETTA SNC",
                "id": "28093",
                "brand": "Total Erg",
                "amenity": "fuel",
                "operator": "F.LLI CIPOLLETTA S.N.C. DI GENNARO E DONATO CIPOLLETTA"
            },
            "geometry": {
                "type": "Point",
                "coordinates": [
                    14.185766530024697,
                    40.92866975273618
                ]
            }
        },
        {
            "type": "Feature",
            "properties": {
                "name": "S.ANTIMO CORSO EUROPA, 37",
                "id": "7496",
                "brand": "Q8",
                "amenity": "fuel",
                "operator": "SERVIZI & GESTIONI ITALIA S.R.L."
            },
            "geometry": {
                "type": "Point",
                "coordinates": [
                    14.230506867170334,
                    40.93010872140122
                ]
            }
        },
        {
            "type": "Feature",
            "properties": {
                "name": "q8",
                "id": "31012",
                "brand": "Q8",
                "amenity": "fuel",
                "operator": "D.M. S.A.S. DI D'ALTERIO GAETANO"
            },
            "geometry": {
                "type": "Point",
                "coordinates": [
                    14.182587862014774,
                    40.95386560163885
                ]
            }
        },
        {
            "type": "Feature",
            "properties": {
                "name": "CARBURANTI F.LLI IPPOLITO DI IPPOLITO UMBERTO & C. S.A.S.",
                "id": "28903",
                "brand": "Total Erg",
                "amenity": "fuel",
                "operator": "CARBURANTI F.LLI IPPOLITO DI IPPOLITO UMBERTO & C. S.A.S."
            },
            "geometry": {
                "type": "Point",
                "coordinates": [
                    14.195237906745888,
                    40.89825373960294
                ]
            }
        },
        {
            "type": "Feature",
            "properties": {
                "name": "Stazione di servizio F.lli Liccardi",
                "id": "13677",
                "brand": "Shell",
                "amenity": "fuel",
                "operator": "FRATELLI LICCARDI S.N.C. DI LICCARDI ASCANIO & C."
            },
            "geometry": {
                "type": "Point",
                "coordinates": [
                    14.142251461744307,
                    40.878595352523185
                ]
            }
        },
        {
            "type": "Feature",
            "properties": {
                "name": "VILLARICCA",
                "id": "27317",
                "brand": "Esso",
                "amenity": "fuel",
                "operator": "C.M.M. S.A.S. DI MAURO ALESSANDRO PELLONE"
            },
            "geometry": {
                "type": "Point",
                "coordinates": [
                    14.127170741558075,
                    40.906857382718556
                ]
            }
        },
        {
            "type": "Feature",
            "properties": {
                "name": "TAMOIL KM9",
                "id": "21930",
                "brand": "Tamoil",
                "amenity": "fuel",
                "operator": "CANCELLO MASSIMILIANO"
            },
            "geometry": {
                "type": "Point",
                "coordinates": [
                    14.198262691497806,
                    40.94131557114516
                ]
            }
        },
        {
            "type": "Feature",
            "properties": {
                "name": "Q8 FALCO PETROLI SRL",
                "id": "21673",
                "brand": "Q8",
                "amenity": "fuel",
                "operator": "FALCO PETROLI S.R.L."
            },
            "geometry": {
                "type": "Point",
                "coordinates": [
                    14.121180027723309,
                    40.87943048294791
                ]
            }
        },
        {
            "type": "Feature",
            "properties": {
                "name": "Distr. TOTAL di Muscatello Amedeo",
                "id": "15864",
                "brand": "Total Erg",
                "amenity": "fuel",
                "operator": "MUSCATELLO AMEDEO"
            },
            "geometry": {
                "type": "Point",
                "coordinates": [
                    14.17040728032589,
                    40.85751364160764
                ]
            }
        },
        {
            "type": "Feature",
            "properties": {
                "name": "Mugnano di Napoli",
                "id": "5955",
                "brand": "Total Erg",
                "amenity": "fuel",
                "operator": "GESTIONI EUROPA S.p.A."
            },
            "geometry": {
                "type": "Point",
                "coordinates": [
                    14.222520589828491,
                    40.912019918639025
                ]
            }
        },
        {
            "type": "Feature",
            "properties": {
                "name": "Distributore Carburanti",
                "id": "21614",
                "amenity": "fuel",
                "operator": "ME.CAR. DI MERENDA GIULIANA & C. S.A.S."
            },
            "geometry": {
                "type": "Point",
                "coordinates": [
                    14.185827299952505,
                    40.974221811133134
                ]
            }
        },
        {
            "type": "Feature",
            "properties": {
                "name": "GIUGLIANO",
                "id": "14089",
                "brand": "Total Erg",
                "amenity": "fuel",
                "operator": "GESTIONI EUROPA - SOCIETA' PER AZIONI"
            },
            "geometry": {
                "type": "Point",
                "coordinates": [
                    14.166213877523772,
                    40.924897943349364
                ]
            }
        },
        {
            "type": "Feature",
            "properties": {
                "name": "flli del prete petroli s.a.s eni",
                "id": "26667",
                "brand": "Agip Eni",
                "amenity": "fuel",
                "operator": "F.LLI DEL PRETE PETROLI S.A.S. DI DEL PRETE GIOVANNI & C."
            },
            "geometry": {
                "type": "Point",
                "coordinates": [
                    14.160646006475872,
                    40.896534413214546
                ]
            }
        },
        {
            "type": "Feature",
            "properties": {
                "name": "NAPOLI-VIA LEONARDO BIANCHI 46",
                "id": "11736",
                "brand": "Q8",
                "amenity": "fuel",
                "operator": "SERVIZI & GESTIONI ITALIA S.R.L."
            },
            "geometry": {
                "type": "Point",
                "coordinates": [
                    14.21450961971277,
                    40.867427176154024
                ]
            }
        },
        {
            "type": "Feature",
            "properties": {
                "name": "totalerg",
                "id": "20800",
                "brand": "Total Erg",
                "amenity": "fuel",
                "operator": "FELICIELLO ROTONDA"
            },
            "geometry": {
                "type": "Point",
                "coordinates": [
                    14.207987040281296,
                    40.93894559882631
                ]
            }
        },
        {
            "type": "Feature",
            "properties": {
                "name": "gti petroli",
                "id": "27889",
                "amenity": "fuel",
                "operator": "CARBURANTI PROCOPIO GENNARO"
            },
            "geometry": {
                "type": "Point",
                "coordinates": [
                    14.225283265113829,
                    40.93498170977913
                ]
            }
        },
        {
            "type": "Feature",
            "properties": {
                "name": "NEW PETROL",
                "id": "16716",
                "amenity": "fuel",
                "operator": "NEW PETROL SRL"
            },
            "geometry": {
                "type": "Point",
                "coordinates": [
                    14.187689423561094,
                    40.961383780467195
                ]
            }
        },
        {
            "type": "Feature",
            "properties": {
                "name": "Roil Petroli",
                "id": "28023",
                "amenity": "fuel",
                "operator": "LO SPECIALISTA DEI LUBRIFICANTI DI PIETRO DE ROSA"
            },
            "geometry": {
                "type": "Point",
                "coordinates": [
                    14.122269026742744,
                    40.87561972028129
                ]
            }
        },
        {
            "type": "Feature",
            "properties": {
                "name": "ALS power (Villaricca)",
                "id": "27579",
                "amenity": "fuel",
                "operator": "A.L.S. S.R.L."
            },
            "geometry": {
                "type": "Point",
                "coordinates": [
                    14.183898486755426,
                    40.91925750154397
                ]
            }
        },
        {
            "type": "Feature",
            "properties": {
                "name": "TAMOIL",
                "id": "8953",
                "brand": "Tamoil",
                "amenity": "fuel",
                "operator": "DOELMA S.A.S. DI PIROZZI ANTONIO & C."
            },
            "geometry": {
                "type": "Point",
                "coordinates": [
                    14.16495770215988,
                    40.92486896629517
                ]
            }
        },
        {
            "type": "Feature",
            "properties": {
                "name": "Monteleone",
                "id": "31770",
                "amenity": "fuel",
                "operator": "BNA DISTRIBUZIONE SERVICE S.R.L."
            },
            "geometry": {
                "type": "Point",
                "coordinates": [
                    14.120328169476124,
                    40.882320665711205
                ]
            }
        },
        {
            "type": "Feature",
            "properties": {
                "name": "B CARBURANTI",
                "id": "29127",
                "amenity": "fuel",
                "operator": "CAR WASH DI TERRACCIANO ANDREA"
            },
            "geometry": {
                "type": "Point",
                "coordinates": [
                    14.119644492065392,
                    40.852890934164705
                ]
            }
        },
        {
            "type": "Feature",
            "properties": {
                "name": "TAMOIL NAPOLI DI DARIO GIUSEPPE",
                "id": "19810",
                "brand": "Tamoil",
                "amenity": "fuel",
                "operator": "DARIO GIUSEPPE"
            },
            "geometry": {
                "type": "Point",
                "coordinates": [
                    14.217036677384955,
                    40.89402778312684
                ]
            }
        },
        {
            "type": "Feature",
            "properties": {
                "name": "MUGNANO - S.P. MELITO-MUGNANO  SNC",
                "id": "31878",
                "brand": "Q8",
                "amenity": "fuel",
                "operator": "SERVIZI & GESTIONI ITALIA S.R.L."
            },
            "geometry": {
                "type": "Point",
                "coordinates": [
                    14.222807586193088,
                    40.91692099516414
                ]
            }
        },
        {
            "type": "Feature",
            "properties": {
                "name": "Fabozzi energia e carburanti",
                "id": "14619",
                "brand": "Esso",
                "amenity": "fuel",
                "operator": "C. FABOZZI S.R.L."
            },
            "geometry": {
                "type": "Point",
                "coordinates": [
                    14.145157635211946,
                    40.974912562418844
                ]
            }
        },
        {
            "type": "Feature",
            "properties": {
                "name": "gifras petroli",
                "id": "22820",
                "amenity": "fuel",
                "operator": "GIFRAS PETROLI S.A.S. DI FELACO GIOVANNI & C."
            },
            "geometry": {
                "type": "Point",
                "coordinates": [
                    14.195896983146666,
                    40.93065281662088
                ]
            }
        },
        {
            "type": "Feature",
            "properties": {
                "name": "TAMOIL",
                "id": "18940",
                "brand": "Tamoil",
                "amenity": "fuel",
                "operator": "MARZOCCHELLA CLORINDA S.A.S. DI CAPPUCCIO AMODIO E C."
            },
            "geometry": {
                "type": "Point",
                "coordinates": [
                    14.234720005254529,
                    40.9331366406972
                ]
            }
        },
        {
            "type": "Feature",
            "properties": {
                "name": "q8",
                "id": "31014",
                "amenity": "fuel",
                "operator": "D.M. S.A.S. DI D'ALTERIO GAETANO"
            },
            "geometry": {
                "type": "Point",
                "coordinates": [
                    14.182587862014774,
                    40.95386560163885
                ]
            }
        },
        {
            "type": "Feature",
            "properties": {
                "name": "NAPOLI - MARIANO SEMMOLA 88",
                "id": "32070",
                "brand": "Api-Ip",
                "amenity": "fuel",
                "operator": "IP SERVICES S.R.L."
            },
            "geometry": {
                "type": "Point",
                "coordinates": [
                    14.220793143548917,
                    40.8622195123757
                ]
            }
        },
        {
            "type": "Feature",
            "properties": {
                "name": "STAZIONE DI SERVIZIO Q8",
                "id": "17123",
                "brand": "Q8",
                "amenity": "fuel",
                "operator": "SANTANGELO LUIGI"
            },
            "geometry": {
                "type": "Point",
                "coordinates": [
                    14.145892560482025,
                    40.90155577593526
                ]
            }
        },
        {
            "type": "Feature",
            "properties": {
                "name": "TAMOIL PARETE",
                "id": "23135",
                "brand": "Tamoil",
                "amenity": "fuel",
                "operator": "CANCELLO MASSIMILIANO"
            },
            "geometry": {
                "type": "Point",
                "coordinates": [
                    14.180682152509688,
                    40.94321682677615
                ]
            }
        },
        {
            "type": "Feature",
            "properties": {
                "name": "Gesim",
                "id": "24713",
                "amenity": "fuel",
                "operator": "TUFANO ANNA"
            },
            "geometry": {
                "type": "Point",
                "coordinates": [
                    14.151594936847687,
                    40.92145153285099
                ]
            }
        },
        {
            "type": "Feature",
            "properties": {
                "name": "Delta Petroli Parete",
                "id": "29267",
                "brand": "Api-Ip",
                "amenity": "fuel",
                "operator": "DELTA PETROLI S.A.S. DI FELACO ANTONIO & C."
            },
            "geometry": {
                "type": "Point",
                "coordinates": [
                    14.167823335947332,
                    40.95600278224631
                ]
            }
        },
        {
            "type": "Feature",
            "properties": {
                "name": "Lago d'Averno",
                "id": "9533",
                "brand": "Q8",
                "amenity": "fuel",
                "operator": "SE.CA.F. S.R.L. SERVIZI CARBURANTI FLEGREI"
            },
            "geometry": {
                "type": "Point",
                "coordinates": [
                    14.085255861282349,
                    40.85225230930187
                ]
            }
        },
        {
            "type": "Feature",
            "properties": {
                "name": "stazione ESSO PELLONE",
                "id": "13132",
                "brand": "Esso",
                "amenity": "fuel",
                "operator": "PELLONE S.A.S. DI CLAUDIO PELLONE."
            },
            "geometry": {
                "type": "Point",
                "coordinates": [
                    14.234301622055455,
                    40.84796578542767
                ]
            }
        },
        {
            "type": "Feature",
            "properties": {
                "name": "AP GESTIONE QUATTRO SRL",
                "id": "23226",
                "amenity": "fuel",
                "operator": "AP GESTIONE QUATTRO S.R.L."
            },
            "geometry": {
                "type": "Point",
                "coordinates": [
                    14.226364766088636,
                    40.97959522519232
                ]
            }
        },
        {
            "type": "Feature",
            "properties": {
                "name": "BO.GA PETROLI",
                "id": "13558",
                "brand": "Total Erg",
                "amenity": "fuel",
                "operator": "BO.GA. PETROLI S.R.L."
            },
            "geometry": {
                "type": "Point",
                "coordinates": [
                    14.213653206825256,
                    40.93626311965497
                ]
            }
        },
        {
            "type": "Feature",
            "properties": {
                "name": "TAMOIL",
                "id": "27700",
                "brand": "Tamoil",
                "amenity": "fuel",
                "operator": "PETROL PARAGLIOLA S.A.S. DI PARAGLIOLA ANTONIO"
            },
            "geometry": {
                "type": "Point",
                "coordinates": [
                    14.118551236174198,
                    40.886306982396356
                ]
            }
        },
        {
            "type": "Feature",
            "properties": {
                "name": "4843",
                "id": "30769",
                "brand": "Tamoil",
                "amenity": "fuel",
                "operator": "T.D.M. S.R.L."
            },
            "geometry": {
                "type": "Point",
                "coordinates": [
                    14.1293178498745,
                    40.90762473433722
                ]
            }
        },
        {
            "type": "Feature",
            "properties": {
                "name": "MIGLIACCIO CARBURANTI - P.V. GIUGLIANO(NA)",
                "id": "27849",
                "amenity": "fuel",
                "operator": "GE.MI. PETROLI S.R.L."
            },
            "geometry": {
                "type": "Point",
                "coordinates": [
                    14.0836438536644,
                    40.88979755329167
                ]
            }
        },
        {
            "type": "Feature",
            "properties": {
                "name": "QUALIANO-TRAVERSA CIRCONVALLAZIONE ESTERNA",
                "id": "11738",
                "brand": "Shell",
                "amenity": "fuel",
                "operator": "SERVIZI & GESTIONI ITALIA S.R.L."
            },
            "geometry": {
                "type": "Point",
                "coordinates": [
                    14.12493109703064,
                    40.93092091110576
                ]
            }
        },
        {
            "type": "Feature",
            "properties": {
                "name": "ENI",
                "id": "13883",
                "brand": "Agip Eni",
                "amenity": "fuel",
                "operator": "DI MARO PASQUALE"
            },
            "geometry": {
                "type": "Point",
                "coordinates": [
                    14.207097887992855,
                    40.89795294643961
                ]
            }
        }
    ]
}