{
    "type": "FeatureCollection",
    "features": [
        {
            "type": "Feature",
            "properties": {
                "name": "TOTAL ERG DI TRAVAGLIONE MARIO",
                "id": "16633",
                "brand": "Total Erg",
                "amenity": "fuel",
                "operator": "TRAVAGLIONE MARIO"
            },
            "geometry": {
                "type": "Point",
                "coordinates": [
                    14.231776269597955,
                    40.83709888570083
                ]
            }
        },
        {
            "type": "Feature",
            "properties": {
                "name": "scarlatti",
                "id": "16558",
                "brand": "Total Erg",
                "amenity": "fuel",
                "operator": "TOMMASO PEZZAROSSA"
            },
            "geometry": {
                "type": "Point",
                "coordinates": [
                    14.233227683242491,
                    40.84406873812467
                ]
            }
        },
        {
            "type": "Feature",
            "properties": {
                "name": "NERI GENNARO",
                "id": "16578",
                "brand": "Esso",
                "amenity": "fuel",
                "operator": "NERI GENNARO"
            },
            "geometry": {
                "type": "Point",
                "coordinates": [
                    14.193719699978827,
                    40.802208613586636
                ]
            }
        },
        {
            "type": "Feature",
            "properties": {
                "name": "ESSO DI PERSICO VINCENZO",
                "id": "20979",
                "amenity": "fuel",
                "operator": "PERSICO VINCENZO"
            },
            "geometry": {
                "type": "Point",
                "coordinates": [
                    14.124258163036075,
                    40.82568523379676
                ]
            }
        },
        {
            "type": "Feature",
            "properties": {
                "name": "VILA SAS DI VITTORIO SCHERILLO",
                "id": "15920",
                "brand": "Esso",
                "amenity": "fuel",
                "operator": "VI.LA. S.A.S. DI SCHERILLO VITTORIO"
            },
            "geometry": {
                "type": "Point",
                "coordinates": [
                    14.223823338615379,
                    40.831841727301644
                ]
            }
        },
        {
            "type": "Feature",
            "properties": {
                "name": "TotalErg",
                "id": "14571",
                "brand": "Total Erg",
                "amenity": "fuel",
                "operator": "BRAGA LUCIANO"
            },
            "geometry": {
                "type": "Point",
                "coordinates": [
                    14.191584257130444,
                    40.83217717750678
                ]
            }
        },
        {
            "type": "Feature",
            "properties": {
                "name": "acanfora stefania",
                "id": "12556",
                "brand": "Total Erg",
                "amenity": "fuel",
                "operator": "ACANFORA STEFANIA"
            },
            "geometry": {
                "type": "Point",
                "coordinates": [
                    14.202353112314201,
                    40.8345523779108
                ]
            }
        },
        {
            "type": "Feature",
            "properties": {
                "name": "FRATELLI DE ROSA DI CONCETTA POLVERINO & C. S.A.S.",
                "id": "15556",
                "brand": "Agip Eni",
                "amenity": "fuel",
                "operator": "FRATELLI DE ROSA DI CONCETTA POLVERINO & C. S.A.S."
            },
            "geometry": {
                "type": "Point",
                "coordinates": [
                    14.16330997389275,
                    40.83217853370379
                ]
            }
        },
        {
            "type": "Feature",
            "properties": {
                "name": "NE.GE.CAR s.a.s. di Neri Vincenzo",
                "id": "16723",
                "brand": "Esso",
                "amenity": "fuel",
                "operator": "NE.GE. CAR S.A.S. DI NERI VINCENZO & C."
            },
            "geometry": {
                "type": "Point",
                "coordinates": [
                    14.211050998672478,
                    40.83391188666516
                ]
            }
        },
        {
            "type": "Feature",
            "properties": {
                "name": "Repsol",
                "id": "21954",
                "brand": "Repsol",
                "amenity": "fuel",
                "operator": "TE. OC.  S.A.S.  DI GRIMALDI DAVIDE & C."
            },
            "geometry": {
                "type": "Point",
                "coordinates": [
                    14.223319888114927,
                    40.825827751018025
                ]
            }
        },
        {
            "type": "Feature",
            "properties": {
                "name": "NAPOLI  POZZUOLI",
                "id": "5496",
                "brand": "Agip Eni",
                "amenity": "fuel",
                "operator": "enirete oil&nonoil S.p.A."
            },
            "geometry": {
                "type": "Point",
                "coordinates": [
                    14.08868265277863,
                    40.840963475032524
                ]
            }
        },
        {
            "type": "Feature",
            "properties": {
                "name": "Tamoil",
                "id": "15856",
                "brand": "Tamoil",
                "amenity": "fuel",
                "operator": "DITTA DE LUCA PASQUALE"
            },
            "geometry": {
                "type": "Point",
                "coordinates": [
                    14.22858926140293,
                    40.84128142959939
                ]
            }
        },
        {
            "type": "Feature",
            "properties": {
                "name": "IP",
                "id": "16174",
                "brand": "Api-Ip",
                "amenity": "fuel",
                "operator": "STAZIONE DI SERVIZIO SIBILLA PETROLI SAS DI DI COSTANZO GENNARO & C."
            },
            "geometry": {
                "type": "Point",
                "coordinates": [
                    14.079571864211063,
                    40.80711405269545
                ]
            }
        },
        {
            "type": "Feature",
            "properties": {
                "name": "Esso",
                "id": "17071",
                "brand": "Esso",
                "amenity": "fuel",
                "operator": "PERRELLA SERGIO"
            },
            "geometry": {
                "type": "Point",
                "coordinates": [
                    14.076831713318825,
                    40.79815590852959
                ]
            }
        },
        {
            "type": "Feature",
            "properties": {
                "name": "Q8",
                "id": "24591",
                "brand": "Q8",
                "amenity": "fuel",
                "operator": "TUFANO ANNA"
            },
            "geometry": {
                "type": "Point",
                "coordinates": [
                    14.188497946039208,
                    40.821109852445126
                ]
            }
        },
        {
            "type": "Feature",
            "properties": {
                "name": "EWA OIL",
                "id": "29359",
                "amenity": "fuel",
                "operator": "M.G.A. S.R.L."
            },
            "geometry": {
                "type": "Point",
                "coordinates": [
                    14.186340272426605,
                    40.84202383362902
                ]
            }
        },
        {
            "type": "Feature",
            "properties": {
                "name": "eni",
                "id": "27503",
                "brand": "Agip Eni",
                "amenity": "fuel",
                "operator": "ESPOSITO ELISABETTA"
            },
            "geometry": {
                "type": "Point",
                "coordinates": [
                    14.18757677078247,
                    40.8219323731964
                ]
            }
        },
        {
            "type": "Feature",
            "properties": {
                "name": "tamoil",
                "id": "18822",
                "brand": "Tamoil",
                "amenity": "fuel",
                "operator": "MANGINI MASSIMILIANO"
            },
            "geometry": {
                "type": "Point",
                "coordinates": [
                    14.195338109782485,
                    40.82784619479516
                ]
            }
        },
        {
            "type": "Feature",
            "properties": {
                "name": "Panniello Carlo",
                "id": "10778",
                "brand": "Agip Eni",
                "amenity": "fuel",
                "operator": "PANNIELLO  CARLO"
            },
            "geometry": {
                "type": "Point",
                "coordinates": [
                    14.202854365543997,
                    40.812302794400054
                ]
            }
        },
        {
            "type": "Feature",
            "properties": {
                "name": "NAPOLI V.LE KENNEDY,2",
                "id": "25973",
                "brand": "Q8",
                "amenity": "fuel",
                "operator": "SERVIZI & GESTIONI ITALIA S.R.L."
            },
            "geometry": {
                "type": "Point",
                "coordinates": [
                    14.191709793254063,
                    40.82364017775593
                ]
            }
        },
        {
            "type": "Feature",
            "properties": {
                "name": "DE LUCA ALFONSO IMPIANTO ENI",
                "id": "18814",
                "brand": "Agip Eni",
                "amenity": "fuel",
                "operator": "DE LUCA ALFONSO"
            },
            "geometry": {
                "type": "Point",
                "coordinates": [
                    14.189459681510925,
                    40.834037090990876
                ]
            }
        },
        {
            "type": "Feature",
            "properties": {
                "name": "Leonardo Testa",
                "id": "30049",
                "brand": "Esso",
                "amenity": "fuel",
                "operator": "TESTA LEONARDO"
            },
            "geometry": {
                "type": "Point",
                "coordinates": [
                    14.095617905259132,
                    40.836756198076344
                ]
            }
        },
        {
            "type": "Feature",
            "properties": {
                "name": "ENI",
                "id": "32215",
                "brand": "Agip Eni",
                "amenity": "fuel",
                "operator": "CAPOCCIA ANTONIO"
            },
            "geometry": {
                "type": "Point",
                "coordinates": [
                    14.215753643551238,
                    40.838540570183866
                ]
            }
        },
        {
            "type": "Feature",
            "properties": {
                "name": "imp. ip",
                "id": "13753",
                "brand": "Api-Ip",
                "amenity": "fuel",
                "operator": "PAPARONE GIOSUE'"
            },
            "geometry": {
                "type": "Point",
                "coordinates": [
                    14.078717306256294,
                    40.79296987182871
                ]
            }
        },
        {
            "type": "Feature",
            "properties": {
                "name": "DACARSAS",
                "id": "15921",
                "brand": "Esso",
                "amenity": "fuel",
                "operator": "DACAR S.A.S. DI COSTAGLIOLA ANNA MARIA"
            },
            "geometry": {
                "type": "Point",
                "coordinates": [
                    14.18988693491815,
                    40.83123454285525
                ]
            }
        },
        {
            "type": "Feature",
            "properties": {
                "name": "Agip 8077",
                "id": "12728",
                "brand": "Agip Eni",
                "amenity": "fuel",
                "operator": "LA CAVA MARCO"
            },
            "geometry": {
                "type": "Point",
                "coordinates": [
                    14.209497544678925,
                    40.818566762060954
                ]
            }
        },
        {
            "type": "Feature",
            "properties": {
                "name": "RIVIERA PETROLI",
                "id": "16152",
                "brand": "Total Erg",
                "amenity": "fuel",
                "operator": "RIVIERA PETROLI DI ESPOSITO PASQUALINA"
            },
            "geometry": {
                "type": "Point",
                "coordinates": [
                    14.23215060170992,
                    40.83368369246697
                ]
            }
        },
        {
            "type": "Feature",
            "properties": {
                "name": "NAPOLI RIONE TRAIANO DISTR. Q8",
                "id": "20040",
                "brand": "Q8",
                "amenity": "fuel",
                "operator": "SERVIZI & GESTIONI ITALIA S.R.L."
            },
            "geometry": {
                "type": "Point",
                "coordinates": [
                    14.19982759334448,
                    40.83946796923407
                ]
            }
        },
        {
            "type": "Feature",
            "properties": {
                "name": "ALBA DE BIASE & C.",
                "id": "32162",
                "amenity": "fuel",
                "operator": "ALBA DE BIASE   C. SOCIETA' IN ACCOMANDITA SEMPLICE"
            },
            "geometry": {
                "type": "Point",
                "coordinates": [
                    14.091461822390556,
                    40.831523456420285
                ]
            }
        },
        {
            "type": "Feature",
            "properties": {
                "name": "TOTALERG",
                "id": "19156",
                "brand": "Total Erg",
                "amenity": "fuel",
                "operator": "ERRELLE CARBURANTI S.N.C. DI ROBERTO MINOPOLI"
            },
            "geometry": {
                "type": "Point",
                "coordinates": [
                    14.21907067977952,
                    40.83496289703459
                ]
            }
        },
        {
            "type": "Feature",
            "properties": {
                "name": "eni",
                "id": "27868",
                "brand": "Agip Eni",
                "amenity": "fuel",
                "operator": "SANNINO RITA"
            },
            "geometry": {
                "type": "Point",
                "coordinates": [
                    14.208473508517159,
                    40.82807668221449
                ]
            }
        },
        {
            "type": "Feature",
            "properties": {
                "name": "Migliaccio Carburanti",
                "id": "27348",
                "amenity": "fuel",
                "operator": "ECOFUEL SANNINO S.A.S. DI SANNINO SALVATORE & C."
            },
            "geometry": {
                "type": "Point",
                "coordinates": [
                    14.068777039647102,
                    40.79456999211559
                ]
            }
        },
        {
            "type": "Feature",
            "properties": {
                "name": "BOIANO",
                "id": "13184",
                "brand": "Total Erg",
                "amenity": "fuel",
                "operator": "BOIANO PETROLI S.A.S. DI CIRO BOIANO"
            },
            "geometry": {
                "type": "Point",
                "coordinates": [
                    14.200654551386833,
                    40.83837656970375
                ]
            }
        },
        {
            "type": "Feature",
            "properties": {
                "name": "totalerg",
                "id": "16241",
                "brand": "Total Erg",
                "amenity": "fuel",
                "operator": "STRAZZULLO LUIGI"
            },
            "geometry": {
                "type": "Point",
                "coordinates": [
                    14.198785051703453,
                    40.80376384453925
                ]
            }
        },
        {
            "type": "Feature",
            "properties": {
                "name": "NAPOLI - CINTHIA",
                "id": "23675",
                "brand": "Api-Ip",
                "amenity": "fuel",
                "operator": "IP SERVICES S.R.L."
            },
            "geometry": {
                "type": "Point",
                "coordinates": [
                    14.189681224536908,
                    40.836833483323964
                ]
            }
        },
        {
            "type": "Feature",
            "properties": {
                "name": "GI.MAX.FUEL s.a.s.",
                "id": "24473",
                "brand": "Agip Eni",
                "amenity": "fuel",
                "operator": "GI. MAX. FUEL S.A.S. DI VILLONE GIOVANNI, DE CICCO MASSIMILIANO & C."
            },
            "geometry": {
                "type": "Point",
                "coordinates": [
                    14.227227866649628,
                    40.83986338055077
                ]
            }
        },
        {
            "type": "Feature",
            "properties": {
                "name": "esso",
                "id": "27751",
                "brand": "Esso",
                "amenity": "fuel",
                "operator": "DE BIASE PAOLO"
            },
            "geometry": {
                "type": "Point",
                "coordinates": [
                    14.184645116329193,
                    40.84364265613833
                ]
            }
        },
        {
            "type": "Feature",
            "properties": {
                "name": "NAPOLI-VIA DELL'EPOMEO 116/B",
                "id": "11737",
                "brand": "Q8",
                "amenity": "fuel",
                "operator": "SERVIZI & GESTIONI ITALIA S.R.L."
            },
            "geometry": {
                "type": "Point",
                "coordinates": [
                    14.202953644180296,
                    40.845136225628046
                ]
            }
        },
        {
            "type": "Feature",
            "properties": {
                "name": "VIA CAMPI FLEGREI, 10",
                "id": "23045",
                "brand": "Q8",
                "amenity": "fuel",
                "operator": "BNA DISTRIBUZIONE SERVICE S.R.L."
            },
            "geometry": {
                "type": "Point",
                "coordinates": [
                    14.115752577781679,
                    40.83097184838549
                ]
            }
        },
        {
            "type": "Feature",
            "properties": {
                "name": "esso",
                "id": "12929",
                "brand": "Esso",
                "amenity": "fuel",
                "operator": "FRATELLI MORENO DI MORENO NICOLA E ANTONIO SNC"
            },
            "geometry": {
                "type": "Point",
                "coordinates": [
                    14.198636939438867,
                    40.83987355465937
                ]
            }
        },
        {
            "type": "Feature",
            "properties": {
                "name": "basileantonio",
                "id": "31733",
                "brand": "Esso",
                "amenity": "fuel",
                "operator": "BASILE ANTONIO"
            },
            "geometry": {
                "type": "Point",
                "coordinates": [
                    14.217320457100866,
                    40.84102559414452
                ]
            }
        },
        {
            "type": "Feature",
            "properties": {
                "name": "total erg",
                "id": "19482",
                "brand": "Total Erg",
                "amenity": "fuel",
                "operator": "OIL DISTRIBUTORI S.A.S. DI CIRELLA SERGIO & C."
            },
            "geometry": {
                "type": "Point",
                "coordinates": [
                    14.212370440363884,
                    40.831824829712204
                ]
            }
        },
        {
            "type": "Feature",
            "properties": {
                "name": "PV 28046",
                "id": "31899",
                "brand": "Agip Eni",
                "amenity": "fuel",
                "operator": "GESTIONI INNOVATIVE ITALIA S.R.L."
            },
            "geometry": {
                "type": "Point",
                "coordinates": [
                    14.194536432623863,
                    40.82583059248579
                ]
            }
        },
        {
            "type": "Feature",
            "properties": {
                "name": "via terracina",
                "id": "18087",
                "brand": "Agip Eni",
                "amenity": "fuel",
                "operator": "FRA.MAR. PETROLI S.A.S. DI CACCIA PASQUALINA & C."
            },
            "geometry": {
                "type": "Point",
                "coordinates": [
                    14.183555101852448,
                    40.82766502822007
                ]
            }
        },
        {
            "type": "Feature",
            "properties": {
                "name": "Andrea Doria",
                "id": "22228",
                "brand": "Api-Ip",
                "amenity": "fuel",
                "operator": "COFIS S.R.L."
            },
            "geometry": {
                "type": "Point",
                "coordinates": [
                    14.202118212213918,
                    40.82718815187796
                ]
            }
        },
        {
            "type": "Feature",
            "properties": {
                "name": "AGNANO EST",
                "id": "3833",
                "brand": "Tamoil",
                "amenity": "fuel",
                "operator": "DI CARLUCCIO EDUARDO"
            },
            "geometry": {
                "type": "Point",
                "coordinates": [
                    14.170551740622955,
                    40.83943112101028
                ]
            }
        },
        {
            "type": "Feature",
            "properties": {
                "name": "Esso",
                "id": "11435",
                "brand": "Esso",
                "amenity": "fuel",
                "operator": "AMATO GENNARO"
            },
            "geometry": {
                "type": "Point",
                "coordinates": [
                    14.222428801048181,
                    40.83972777007223
                ]
            }
        },
        {
            "type": "Feature",
            "properties": {
                "name": "TRONCONE ANIELLO TOTALERG",
                "id": "14462",
                "brand": "Total Erg",
                "amenity": "fuel",
                "operator": "TRONCONE ANIELLO"
            },
            "geometry": {
                "type": "Point",
                "coordinates": [
                    14.196231753997722,
                    40.82970567821059
                ]
            }
        },
        {
            "type": "Feature",
            "properties": {
                "name": "Epomeo s.a.s.",
                "id": "13961",
                "brand": "Esso",
                "amenity": "fuel",
                "operator": "S.A.S. EPOMEO DI CLAUDIO VIVENZIO & C."
            },
            "geometry": {
                "type": "Point",
                "coordinates": [
                    14.198435181614741,
                    40.84574930094774
                ]
            }
        },
        {
            "type": "Feature",
            "properties": {
                "name": "PL GAS SRL",
                "id": "13349",
                "amenity": "fuel",
                "operator": "PL GAS S.R.L."
            },
            "geometry": {
                "type": "Point",
                "coordinates": [
                    14.185176640446004,
                    40.82808367244937
                ]
            }
        },
        {
            "type": "Feature",
            "properties": {
                "name": "NAPOLI-VIA LABRIOLA ANG.VIA G.MEDITERRANEO",
                "id": "11741",
                "brand": "Q8",
                "amenity": "fuel",
                "operator": "SERVIZI & GESTIONI ITALIA S.R.L."
            },
            "geometry": {
                "type": "Point",
                "coordinates": [
                    14.180176267528507,
                    40.82195128608152
                ]
            }
        },
        {
            "type": "Feature",
            "properties": {
                "name": "IP ANTONIO GUARINO",
                "id": "28189",
                "brand": "Api-Ip",
                "amenity": "fuel",
                "operator": "GUARINO ANTONIO"
            },
            "geometry": {
                "type": "Point",
                "coordinates": [
                    14.232573452024553,
                    40.838214085446204
                ]
            }
        },
        {
            "type": "Feature",
            "properties": {
                "name": "VIA CARAVAGGIO 170 - NAPOLI",
                "id": "29727",
                "brand": "Q8",
                "amenity": "fuel",
                "operator": "SERVIZI & GESTIONI ITALIA S.R.L."
            },
            "geometry": {
                "type": "Point",
                "coordinates": [
                    14.207448468717189,
                    40.835269474580514
                ]
            }
        },
        {
            "type": "Feature",
            "properties": {
                "name": "AGNANO OVEST",
                "id": "22226",
                "brand": "Agip Eni",
                "amenity": "fuel",
                "operator": "F.I.S.M. & L. DI CACCIA PASQUALINA E CACCIA MAURIZIO SRL"
            },
            "geometry": {
                "type": "Point",
                "coordinates": [
                    14.17043209075928,
                    40.84003723952566
                ]
            }
        },
        {
            "type": "Feature",
            "properties": {
                "name": "AGIP TRONCONE VIA EPOMEO",
                "id": "17140",
                "brand": "Agip Eni",
                "amenity": "fuel",
                "operator": "STAZIONE DI SERVIZIO TRONCONE ANTONIO S.A.S. DI FORTUNA LANGELLA"
            },
            "geometry": {
                "type": "Point",
                "coordinates": [
                    14.197349611045068,
                    40.84622851366393
                ]
            }
        },
        {
            "type": "Feature",
            "properties": {
                "name": "IP",
                "id": "17346",
                "brand": "Api-Ip",
                "amenity": "fuel",
                "operator": "MIRAOIL SOCIETA' IN NOME COLLETTIVO DI ENZO MIRABEL LA & MARIANO MIRABELLA"
            },
            "geometry": {
                "type": "Point",
                "coordinates": [
                    14.172050803899765,
                    40.82094509643777
                ]
            }
        },
        {
            "type": "Feature",
            "properties": {
                "name": "ANTICA CAMPANA EST",
                "id": "32152",
                "brand": "Esso",
                "amenity": "fuel",
                "operator": "G&G OIL AND FOOD S.A.S. DI SENSALE GAETANA"
            },
            "geometry": {
                "type": "Point",
                "coordinates": [
                    14.120105803012846,
                    40.83758637713866
                ]
            }
        }
    ]
}