{
    "type": "FeatureCollection",
    "features": [
        {
            "type": "Feature",
            "properties": {
                "name": "q8",
                "id": "9569",
                "brand": "Q8",
                "amenity": "fuel",
                "operator": "AMBROSINI NICOLA E FIGLIO - S.N.C."
            },
            "geometry": {
                "type": "Point",
                "coordinates": [
                    14.159298241138458,
                    42.39005496060944
                ]
            }
        },
        {
            "type": "Feature",
            "properties": {
                "name": "Stazione di Servizio Auchan",
                "id": "19687",
                "brand": "Auchan",
                "amenity": "fuel",
                "operator": "AUCHAN S.P.A."
            },
            "geometry": {
                "type": "Point",
                "coordinates": [
                    14.154231548309326,
                    42.41725500482548
                ]
            }
        },
        {
            "type": "Feature",
            "properties": {
                "name": "eni station",
                "id": "16074",
                "brand": "Agip Eni",
                "amenity": "fuel",
                "operator": "IMPIANTI CARBURANTI S.N.C. DI SANTOLERI C. & C."
            },
            "geometry": {
                "type": "Point",
                "coordinates": [
                    14.141329685319533,
                    42.36416740000002
                ]
            }
        },
        {
            "type": "Feature",
            "properties": {
                "name": "SOPEA CARBURANTI",
                "id": "10899",
                "amenity": "fuel",
                "operator": "SO.PE.A. - SOCIETA' PETROLI ABRUZZO - DI PARTENZA PAOLA & C. S.A.S."
            },
            "geometry": {
                "type": "Point",
                "coordinates": [
                    14.091375321149826,
                    42.365560002814284
                ]
            }
        },
        {
            "type": "Feature",
            "properties": {
                "name": "Tamoil di Malandra Antonio",
                "id": "19104",
                "brand": "Tamoil",
                "amenity": "fuel",
                "operator": "MALANDRA ANTONIO"
            },
            "geometry": {
                "type": "Point",
                "coordinates": [
                    14.234602600336075,
                    42.3686429797207
                ]
            }
        },
        {
            "type": "Feature",
            "properties": {
                "name": "Retitalia",
                "id": "31048",
                "brand": "Retitalia",
                "amenity": "fuel",
                "operator": "EFFEMME SRL"
            },
            "geometry": {
                "type": "Point",
                "coordinates": [
                    14.159437716007233,
                    42.39097374403183
                ]
            }
        },
        {
            "type": "Feature",
            "properties": {
                "name": "CHIETI S.P. 656 VALPESCARA-CHIETI KM 0+295",
                "id": "6667",
                "brand": "Q8",
                "amenity": "fuel",
                "operator": "SERVIZI & GESTIONI ITALIA srl"
            },
            "geometry": {
                "type": "Point",
                "coordinates": [
                    14.158770793254119,
                    42.388735458858186
                ]
            }
        },
        {
            "type": "Feature",
            "properties": {
                "name": "eni",
                "id": "8795",
                "brand": "Agip Eni",
                "amenity": "fuel",
                "operator": "SULPIZIO  GUIDO"
            },
            "geometry": {
                "type": "Point",
                "coordinates": [
                    14.180969148874283,
                    42.301279186023784
                ]
            }
        },
        {
            "type": "Feature",
            "properties": {
                "name": "26585 CHIETI",
                "id": "26113",
                "brand": "Agip Eni",
                "amenity": "fuel",
                "operator": "ENI RETE OIL&NONOIL S.P.A."
            },
            "geometry": {
                "type": "Point",
                "coordinates": [
                    14.115218818187717,
                    42.331392190315356
                ]
            }
        },
        {
            "type": "Feature",
            "properties": {
                "name": "MANOPPELLO",
                "id": "5535",
                "brand": "Total Erg",
                "amenity": "fuel",
                "operator": "GESTIONI EUROPA S.p.A."
            },
            "geometry": {
                "type": "Point",
                "coordinates": [
                    14.077930813491777,
                    42.3156807502732
                ]
            }
        },
        {
            "type": "Feature",
            "properties": {
                "name": "STAZ. IP VILLAREIA",
                "id": "14734",
                "brand": "Api-Ip",
                "amenity": "fuel",
                "operator": "ENNIO LAURETI S.R.L."
            },
            "geometry": {
                "type": "Point",
                "coordinates": [
                    14.112584888935087,
                    42.34546294401563
                ]
            }
        },
        {
            "type": "Feature",
            "properties": {
                "name": "FUTURO PULITO SNC",
                "id": "15847",
                "brand": "Esso",
                "amenity": "fuel",
                "operator": "FUTURO PULITO - S.N.C. DI FRANCESCO CAPONE E GIANFRANCA D'AMICO"
            },
            "geometry": {
                "type": "Point",
                "coordinates": [
                    14.152434468269348,
                    42.36354787062468
                ]
            }
        },
        {
            "type": "Feature",
            "properties": {
                "name": "SOPEA CARBURANTI",
                "id": "10898",
                "amenity": "fuel",
                "operator": "SO.PE.A. - SOCIETA' PETROLI ABRUZZO - DI PARTENZA PAOLA & C. S.A.S."
            },
            "geometry": {
                "type": "Point",
                "coordinates": [
                    14.151050448417664,
                    42.41293734429773
                ]
            }
        },
        {
            "type": "Feature",
            "properties": {
                "name": "TAMOIL Brecciarola",
                "id": "7472",
                "brand": "Tamoil",
                "amenity": "fuel",
                "operator": "DI PASQUALE ROBERTO"
            },
            "geometry": {
                "type": "Point",
                "coordinates": [
                    14.088833928108217,
                    42.320941275265135
                ]
            }
        },
        {
            "type": "Feature",
            "properties": {
                "name": "Self Area Eni di Di Credico Fiorello 54447",
                "id": "26581",
                "brand": "Agip Eni",
                "amenity": "fuel",
                "operator": "DI CREDICO  FIORELLO"
            },
            "geometry": {
                "type": "Point",
                "coordinates": [
                    14.071997702121731,
                    42.313182576145955
                ]
            }
        },
        {
            "type": "Feature",
            "properties": {
                "name": "BRECCIAROLA SUD",
                "id": "3634",
                "brand": "Q8",
                "amenity": "fuel",
                "operator": "TERAMO S.R.L."
            },
            "geometry": {
                "type": "Point",
                "coordinates": [
                    14.087567925453184,
                    42.3255595477489
                ]
            }
        },
        {
            "type": "Feature",
            "properties": {
                "name": "IP via Camarra Chieti",
                "id": "25891",
                "brand": "Api-Ip",
                "amenity": "fuel",
                "operator": "TOMMASO DE LUCA CARBURANTI S.R.L."
            },
            "geometry": {
                "type": "Point",
                "coordinates": [
                    14.176423623530582,
                    42.35097820879952
                ]
            }
        },
        {
            "type": "Feature",
            "properties": {
                "name": "FINOCCHIO IGOR",
                "id": "26891",
                "brand": "Esso",
                "amenity": "fuel",
                "operator": "FINOCCHIO  IGOR"
            },
            "geometry": {
                "type": "Point",
                "coordinates": [
                    14.099631160497665,
                    42.32566583853939
                ]
            }
        },
        {
            "type": "Feature",
            "properties": {
                "name": "STAZIONE SERVIZIO ENI",
                "id": "23455",
                "brand": "Agip Eni",
                "amenity": "fuel",
                "operator": "P.D.G. SERVICES S.A.S. DI PACE GIULIO & C"
            },
            "geometry": {
                "type": "Point",
                "coordinates": [
                    14.15430933237076,
                    42.375511507222924
                ]
            }
        },
        {
            "type": "Feature",
            "properties": {
                "name": "CHIETI SCALO",
                "id": "5394",
                "brand": "Agip Eni",
                "amenity": "fuel",
                "operator": "enirete oil&nonoil S.p.A."
            },
            "geometry": {
                "type": "Point",
                "coordinates": [
                    14.136853847885163,
                    42.351197892662505
                ]
            }
        },
        {
            "type": "Feature",
            "properties": {
                "name": "IMPIANTO ENI DITTA COSTANTINI GIUSEPPE",
                "id": "16123",
                "brand": "Agip Eni",
                "amenity": "fuel",
                "operator": "COSTANTINI GIUSEPPE"
            },
            "geometry": {
                "type": "Point",
                "coordinates": [
                    14.216558039188385,
                    42.35974579059159
                ]
            }
        },
        {
            "type": "Feature",
            "properties": {
                "name": "Eni PV 26622 Florio Raffaele",
                "id": "23499",
                "brand": "Agip Eni",
                "amenity": "fuel",
                "operator": "FLORIO RAFFAELE"
            },
            "geometry": {
                "type": "Point",
                "coordinates": [
                    14.183899084655762,
                    42.41960091672077
                ]
            }
        },
        {
            "type": "Feature",
            "properties": {
                "name": "TOTALERG",
                "id": "14589",
                "brand": "Total Erg",
                "amenity": "fuel",
                "operator": "CIMINI ATTILIO"
            },
            "geometry": {
                "type": "Point",
                "coordinates": [
                    14.129356741905212,
                    42.34604101278592
                ]
            }
        },
        {
            "type": "Feature",
            "properties": {
                "name": "DISTRIB. Retitalia via Madonna degli Angeli - CHIETI",
                "id": "21049",
                "brand": "Retitalia",
                "amenity": "fuel",
                "operator": "PETROLIFERA ADRIATICA S.P.A."
            },
            "geometry": {
                "type": "Point",
                "coordinates": [
                    14.161526155575304,
                    42.34928539286765
                ]
            }
        },
        {
            "type": "Feature",
            "properties": {
                "name": "impianto totalerg CH033",
                "id": "30065",
                "brand": "Total Erg",
                "amenity": "fuel",
                "operator": "MED OIL - SOCIETA' A RESPONSABILITA' LIMITATA"
            },
            "geometry": {
                "type": "Point",
                "coordinates": [
                    14.17033955454826,
                    42.41612195459428
                ]
            }
        },
        {
            "type": "Feature",
            "properties": {
                "name": "Q8",
                "id": "9545",
                "brand": "Q8",
                "amenity": "fuel",
                "operator": "DI BARTOLO CHRISTIAN"
            },
            "geometry": {
                "type": "Point",
                "coordinates": [
                    14.167732307451956,
                    42.35686952007344
                ]
            }
        },
        {
            "type": "Feature",
            "properties": {
                "name": "Stazione servizio ESSO Di Federico Vincenzo",
                "id": "26800",
                "brand": "Esso",
                "amenity": "fuel",
                "operator": "DI FEDERICO VINCENZO"
            },
            "geometry": {
                "type": "Point",
                "coordinates": [
                    14.106832198804113,
                    42.390369312164154
                ]
            }
        },
        {
            "type": "Feature",
            "properties": {
                "name": "CHIETI SCALO",
                "id": "24495",
                "brand": "Api-Ip",
                "amenity": "fuel",
                "operator": "IP SERVICES S.R.L."
            },
            "geometry": {
                "type": "Point",
                "coordinates": [
                    14.121735626983648,
                    42.33311982801698
                ]
            }
        },
        {
            "type": "Feature",
            "properties": {
                "name": "IP-CHIETI- VIA MAIELLA",
                "id": "28575",
                "brand": "Api-Ip",
                "amenity": "fuel",
                "operator": "ITALA PETROLI S.R.L."
            },
            "geometry": {
                "type": "Point",
                "coordinates": [
                    14.16982060356736,
                    42.341235427374706
                ]
            }
        },
        {
            "type": "Feature",
            "properties": {
                "name": "CASALINCONTRA - VIA CAPPELLE",
                "id": "31139",
                "brand": "Api-Ip",
                "amenity": "fuel",
                "operator": "IP SERVICES S.R.L."
            },
            "geometry": {
                "type": "Point",
                "coordinates": [
                    14.128199999999994,
                    42.29621785568167
                ]
            }
        },
        {
            "type": "Feature",
            "properties": {
                "name": "Eni",
                "id": "6295",
                "brand": "Agip Eni",
                "amenity": "fuel",
                "operator": "PETROLBITUMI - SOCIETA A RESPONSABILITA LIMITATA"
            },
            "geometry": {
                "type": "Point",
                "coordinates": [
                    14.165410042716985,
                    42.42195504831713
                ]
            }
        },
        {
            "type": "Feature",
            "properties": {
                "name": "CHIETI VIA ERASMO PIAGGIO",
                "id": "10503",
                "brand": "Q8",
                "amenity": "fuel",
                "operator": "SERVIZI & GESTIONI ITALIA S.R.L."
            },
            "geometry": {
                "type": "Point",
                "coordinates": [
                    14.136378171163868,
                    42.36272959706732
                ]
            }
        },
        {
            "type": "Feature",
            "properties": {
                "name": "ENI",
                "id": "4302",
                "brand": "Agip Eni",
                "amenity": "fuel",
                "operator": "SELF AREA AGIP S.N.C. DI DONATUCCI NICOLA GIANNI E C."
            },
            "geometry": {
                "type": "Point",
                "coordinates": [
                    14.158996492624286,
                    42.29572438653073
                ]
            }
        },
        {
            "type": "Feature",
            "properties": {
                "name": "CIARCIAGLINI MERI",
                "id": "18292",
                "brand": "Total Erg",
                "amenity": "fuel",
                "operator": "CIARCIAGLINI MERI"
            },
            "geometry": {
                "type": "Point",
                "coordinates": [
                    14.132149637434395,
                    42.39012127204506
                ]
            }
        },
        {
            "type": "Feature",
            "properties": {
                "name": "eni station dragonara",
                "id": "9724",
                "brand": "Agip Eni",
                "amenity": "fuel",
                "operator": "DRAGONARA SERVICE SNC DI SANTOLERI CARLO & C."
            },
            "geometry": {
                "type": "Point",
                "coordinates": [
                    14.167411923408508,
                    42.40156394269239
                ]
            }
        },
        {
            "type": "Feature",
            "properties": {
                "name": "Pi√π",
                "id": "6292",
                "amenity": "fuel",
                "operator": "PETROLBITUMI - SOCIETA A RESPONSABILITA LIMITATA"
            },
            "geometry": {
                "type": "Point",
                "coordinates": [
                    14.199815779373237,
                    42.36178460180254
                ]
            }
        },
        {
            "type": "Feature",
            "properties": {
                "name": "IP via Papa Giovanni XXIII",
                "id": "25892",
                "brand": "Api-Ip",
                "amenity": "fuel",
                "operator": "TOMMASO DE LUCA CARBURANTI S.R.L."
            },
            "geometry": {
                "type": "Point",
                "coordinates": [
                    14.169025521598767,
                    42.350121086187556
                ]
            }
        },
        {
            "type": "Feature",
            "properties": {
                "name": "DISTRIB. Retitalia Villamagna",
                "id": "21047",
                "brand": "Retitalia",
                "amenity": "fuel",
                "operator": "PETROLIFERA ADRIATICA S.P.A."
            },
            "geometry": {
                "type": "Point",
                "coordinates": [
                    14.235688637190263,
                    42.33243073848555
                ]
            }
        },
        {
            "type": "Feature",
            "properties": {
                "name": "IP GRUPPO API",
                "id": "31313",
                "brand": "Api-Ip",
                "amenity": "fuel",
                "operator": "DI GIOACCHINO DANILO SRL"
            },
            "geometry": {
                "type": "Point",
                "coordinates": [
                    14.087511956686289,
                    42.365358951053786
                ]
            }
        },
        {
            "type": "Feature",
            "properties": {
                "name": "eni",
                "id": "9432",
                "brand": "Agip Eni",
                "amenity": "fuel",
                "operator": "ZAMPACORTA GIUSEPPE"
            },
            "geometry": {
                "type": "Point",
                "coordinates": [
                    14.156709909439087,
                    42.42062892564456
                ]
            }
        },
        {
            "type": "Feature",
            "properties": {
                "name": "eni",
                "id": "23585",
                "brand": "Agip Eni",
                "amenity": "fuel",
                "operator": "DI PASQUALE ANNA"
            },
            "geometry": {
                "type": "Point",
                "coordinates": [
                    14.159794449806213,
                    42.332492665655096
                ]
            }
        },
        {
            "type": "Feature",
            "properties": {
                "name": "q8 gelber",
                "id": "9570",
                "brand": "Q8",
                "amenity": "fuel",
                "operator": "AMBROSINI NICOLA E FIGLIO - S.N.C."
            },
            "geometry": {
                "type": "Point",
                "coordinates": [
                    14.137620627880098,
                    42.36296441411552
                ]
            }
        },
        {
            "type": "Feature",
            "properties": {
                "name": "DAM CARBURANTI",
                "id": "4846",
                "amenity": "fuel",
                "operator": "COMPRESSIONE METANO ABRUZZO DI BOCCANERA GIOVANNI & C."
            },
            "geometry": {
                "type": "Point",
                "coordinates": [
                    14.116642768389168,
                    42.33959240486815
                ]
            }
        },
        {
            "type": "Feature",
            "properties": {
                "name": "Romano Iglif distributore ENI",
                "id": "9508",
                "brand": "Agip Eni",
                "amenity": "fuel",
                "operator": "ROMANO IGLIF"
            },
            "geometry": {
                "type": "Point",
                "coordinates": [
                    14.164408379404675,
                    42.34898490051947
                ]
            }
        },
        {
            "type": "Feature",
            "properties": {
                "name": "distributore Retitalia Caramanico",
                "id": "22969",
                "brand": "Retitalia",
                "amenity": "fuel",
                "operator": "PETROLIFERA ADRIATICA S.P.A."
            },
            "geometry": {
                "type": "Point",
                "coordinates": [
                    14.14063901181385,
                    42.35854196527734
                ]
            }
        }
    ]
}