{
    "type": "FeatureCollection",
    "features": [
        {
            "type": "Feature",
            "properties": {
                "name": "JESUS - SP ENERGIA SICILIANA",
                "id": "18422",
                "brand": "Esso",
                "amenity": "fuel",
                "operator": "JESUS DI BARBAGALLO ROSA E LO GIOCO SALVATORE S.N.C."
            },
            "geometry": {
                "type": "Point",
                "coordinates": [
                    14.405189752578734,
                    37.641732008558876
                ]
            }
        },
        {
            "type": "Feature",
            "properties": {
                "name": "fla en oil di leonforte",
                "id": "21082",
                "brand": "Agip Eni",
                "amenity": "fuel",
                "operator": "FLA.EN.OIL DI PICCOLO FLAVIA E C. S.A.S."
            },
            "geometry": {
                "type": "Point",
                "coordinates": [
                    14.40025404421499,
                    37.64231822040934
                ]
            }
        },
        {
            "type": "Feature",
            "properties": {
                "name": "SP-ENERGIA SICILIANA - JESUS di BARBAGALLO ROSA",
                "id": "30487",
                "brand": "SP Energia Siciliana",
                "amenity": "fuel",
                "operator": "BARBAGALLO ROSA"
            },
            "geometry": {
                "type": "Point",
                "coordinates": [
                    14.405192775862133,
                    37.641717977770185
                ]
            }
        },
        {
            "type": "Feature",
            "properties": {
                "name": "stazione di servizio Q8",
                "id": "13077",
                "brand": "Q8",
                "amenity": "fuel",
                "operator": "PUGLISI FAUSTO GIUSEPPE"
            },
            "geometry": {
                "type": "Point",
                "coordinates": [
                    14.2734601909126,
                    37.58799098875474
                ]
            }
        },
        {
            "type": "Feature",
            "properties": {
                "name": "SP19 BIVIO SS117 VILLADORO",
                "id": "30725",
                "brand": "Giap",
                "amenity": "fuel",
                "operator": "SERVIZI E GESTIONI ZENIT S.R.L. IN SIGLA - ZENIT S.R.L."
            },
            "geometry": {
                "type": "Point",
                "coordinates": [
                    14.283001720905304,
                    37.702220492422654
                ]
            }
        }
    ]
}