{
    "type": "FeatureCollection",
    "features": [
        {
            "type": "Feature",
            "properties": {
                "name": "Agip",
                "id": "31785",
                "brand": "Agip Eni",
                "amenity": "fuel",
                "operator": "ECOFUEL SANNINO S.A.S. DI SANNINO SALVATORE & C."
            },
            "geometry": {
                "type": "Point",
                "coordinates": [
                    14.303531348705295,
                    40.940330884071635
                ]
            }
        },
        {
            "type": "Feature",
            "properties": {
                "name": "BORRELLI RAFFAELE",
                "id": "12899",
                "brand": "Esso",
                "amenity": "fuel",
                "operator": "BORRELLI RAFFAELE"
            },
            "geometry": {
                "type": "Point",
                "coordinates": [
                    14.329464286565779,
                    40.85078302173115
                ]
            }
        },
        {
            "type": "Feature",
            "properties": {
                "name": "ASE FUEL ENERGY GROUP SRL",
                "id": "20249",
                "amenity": "fuel",
                "operator": "A.S.E. FUEL ENERGY GROUP S.R.L."
            },
            "geometry": {
                "type": "Point",
                "coordinates": [
                    14.397529363632199,
                    40.881694083689844
                ]
            }
        },
        {
            "type": "Feature",
            "properties": {
                "name": "Staz.Rifor. ESSO DEL PINO snc",
                "id": "16930",
                "brand": "Esso",
                "amenity": "fuel",
                "operator": "STAZIONE DI RIFORNIMENTO DEL PINO S.N.C. DI BUGLIONE CIRO & C."
            },
            "geometry": {
                "type": "Point",
                "coordinates": [
                    14.25215899944305,
                    40.910719389997496
                ]
            }
        },
        {
            "type": "Feature",
            "properties": {
                "name": "BRP",
                "id": "15401",
                "amenity": "fuel",
                "operator": "BRP S.A.S. DI BAFFICO NICOLA E BAFFICO SALVATORE & C."
            },
            "geometry": {
                "type": "Point",
                "coordinates": [
                    14.261425188946532,
                    40.97552048616645
                ]
            }
        },
        {
            "type": "Feature",
            "properties": {
                "name": "CPM",
                "id": "24752",
                "amenity": "fuel",
                "operator": "IMPIANTI ITALIA S.R.L."
            },
            "geometry": {
                "type": "Point",
                "coordinates": [
                    14.351913034915928,
                    40.931293769485706
                ]
            }
        },
        {
            "type": "Feature",
            "properties": {
                "name": "FRATTAMAGGIORE-SP PER AFRAGOLA",
                "id": "11739",
                "brand": "Q8",
                "amenity": "fuel",
                "operator": "SERVIZI & GESTIONI ITALIA S.R.L."
            },
            "geometry": {
                "type": "Point",
                "coordinates": [
                    14.283683906745862,
                    40.93547163223486
                ]
            }
        },
        {
            "type": "Feature",
            "properties": {
                "name": "NAPOLI - FERRANTE IMPARATO",
                "id": "30323",
                "brand": "Api-Ip",
                "amenity": "fuel",
                "operator": "IP SERVICES S.R.L."
            },
            "geometry": {
                "type": "Point",
                "coordinates": [
                    14.29868927116399,
                    40.856808114721595
                ]
            }
        },
        {
            "type": "Feature",
            "properties": {
                "name": "StarOil",
                "id": "31945",
                "amenity": "fuel",
                "operator": "BENE DOMENICO SOCIETA' A RESPONSABILITA' LIMITATA SEMPLIFICATA"
            },
            "geometry": {
                "type": "Point",
                "coordinates": [
                    14.37209665775299,
                    40.863994888929554
                ]
            }
        },
        {
            "type": "Feature",
            "properties": {
                "name": "acv srl",
                "id": "15075",
                "brand": "Q8",
                "amenity": "fuel",
                "operator": "A.C.V. S.R.L."
            },
            "geometry": {
                "type": "Point",
                "coordinates": [
                    14.412733465433124,
                    40.90892058054189
                ]
            }
        },
        {
            "type": "Feature",
            "properties": {
                "name": "PV 8164",
                "id": "31616",
                "brand": "Agip Eni",
                "amenity": "fuel",
                "operator": "GESTIONI INNOVATIVE ITALIA S.R.L."
            },
            "geometry": {
                "type": "Point",
                "coordinates": [
                    14.37869757413864,
                    40.908719696245264
                ]
            }
        },
        {
            "type": "Feature",
            "properties": {
                "name": "societ√† carburanti snc di Flauto Maria",
                "id": "12910",
                "brand": "Esso",
                "amenity": "fuel",
                "operator": "SOCIETA' CARBURANTI S.N.C. DI FLAUTO MARIA ANGELA"
            },
            "geometry": {
                "type": "Point",
                "coordinates": [
                    14.351210296154022,
                    40.885577027124654
                ]
            }
        },
        {
            "type": "Feature",
            "properties": {
                "name": "CITTADELLA",
                "id": "3741",
                "brand": "Total Erg",
                "amenity": "fuel",
                "operator": "D&D Car sas"
            },
            "geometry": {
                "type": "Point",
                "coordinates": [
                    14.3170490380287,
                    40.886390611036894
                ]
            }
        },
        {
            "type": "Feature",
            "properties": {
                "name": "IP",
                "id": "28245",
                "brand": "Api-Ip",
                "amenity": "fuel",
                "operator": "DE.MA. CARBURANTI DI DE MICHELE VERONICA"
            },
            "geometry": {
                "type": "Point",
                "coordinates": [
                    14.2748182155417,
                    40.88521868589112
                ]
            }
        },
        {
            "type": "Feature",
            "properties": {
                "name": "Esso",
                "id": "24652",
                "brand": "Esso",
                "amenity": "fuel",
                "operator": "'F.LLI PERILLO S.A.S. DI PERILLO LAZZARO E C.\""
            },
            "geometry": {
                "type": "Point",
                "coordinates": [
                    14.289455115795135,
                    40.849426914621596
                ]
            }
        },
        {
            "type": "Feature",
            "properties": {
                "name": "ANMA 455",
                "id": "27865",
                "brand": "Esso",
                "amenity": "fuel",
                "operator": "ANMA S.N.C. DI SEGRETO ANTONIO"
            },
            "geometry": {
                "type": "Point",
                "coordinates": [
                    14.298361086920293,
                    40.8578919849302
                ]
            }
        },
        {
            "type": "Feature",
            "properties": {
                "name": "Stazione ESSO OSA",
                "id": "12916",
                "brand": "Esso",
                "amenity": "fuel",
                "operator": "ORGANIZZAZIONE SERVIZI AUTO - O.S.A. - S.P.A."
            },
            "geometry": {
                "type": "Point",
                "coordinates": [
                    14.276054799556734,
                    40.850338293086786
                ]
            }
        },
        {
            "type": "Feature",
            "properties": {
                "name": "Caruso Patrizia",
                "id": "17170",
                "brand": "Total Erg",
                "amenity": "fuel",
                "operator": "CARUSO PATRIZIA"
            },
            "geometry": {
                "type": "Point",
                "coordinates": [
                    14.27267052233219,
                    40.86719572173699
                ]
            }
        },
        {
            "type": "Feature",
            "properties": {
                "name": "ANGECRI",
                "id": "17297",
                "amenity": "fuel",
                "operator": "ANGECRI DEI FRATELLI LA CAVA DI MARCO LA CAVA S.A.S."
            },
            "geometry": {
                "type": "Point",
                "coordinates": [
                    14.266412278747111,
                    40.919509691658725
                ]
            }
        },
        {
            "type": "Feature",
            "properties": {
                "name": "IPER FUEL",
                "id": "16739",
                "amenity": "fuel",
                "operator": "THERMO GAS SRL"
            },
            "geometry": {
                "type": "Point",
                "coordinates": [
                    14.413228332996372,
                    40.87097282991321
                ]
            }
        },
        {
            "type": "Feature",
            "properties": {
                "name": "TOIL SPA ARZANO (NA)",
                "id": "23752",
                "amenity": "fuel",
                "operator": "TOIL S.P.A."
            },
            "geometry": {
                "type": "Point",
                "coordinates": [
                    14.259320497512816,
                    40.91622781290623
                ]
            }
        },
        {
            "type": "Feature",
            "properties": {
                "name": "q8",
                "id": "16577",
                "brand": "Q8",
                "amenity": "fuel",
                "operator": "DE FRANCESCO SALVATORE"
            },
            "geometry": {
                "type": "Point",
                "coordinates": [
                    14.261861890554432,
                    40.96856653190242
                ]
            }
        },
        {
            "type": "Feature",
            "properties": {
                "name": "CRISPINO LUIGI & C. s.n.c.",
                "id": "13186",
                "amenity": "fuel",
                "operator": "CRISPINO LUIGI E C. SN.C."
            },
            "geometry": {
                "type": "Point",
                "coordinates": [
                    14.309662896820102,
                    40.928474749087115
                ]
            }
        },
        {
            "type": "Feature",
            "properties": {
                "name": "MC CARBURANTI",
                "id": "23782",
                "amenity": "fuel",
                "operator": "MC CARBURANTI DI LUPOLI MICHELA"
            },
            "geometry": {
                "type": "Point",
                "coordinates": [
                    14.271686257672172,
                    40.95110343236743
                ]
            }
        },
        {
            "type": "Feature",
            "properties": {
                "name": "ENERGAS",
                "id": "26883",
                "amenity": "fuel",
                "operator": "FUSCO ELIA"
            },
            "geometry": {
                "type": "Point",
                "coordinates": [
                    14.39421965182646,
                    40.91274706299927
                ]
            }
        },
        {
            "type": "Feature",
            "properties": {
                "name": "Giuseppe Campece",
                "id": "11285",
                "brand": "Agip Eni",
                "amenity": "fuel",
                "operator": "CAMPECE GIUSEPPE"
            },
            "geometry": {
                "type": "Point",
                "coordinates": [
                    14.294157857880464,
                    40.905396106582586
                ]
            }
        },
        {
            "type": "Feature",
            "properties": {
                "name": "CPM",
                "id": "24753",
                "amenity": "fuel",
                "operator": "IMPIANTI ITALIA S.R.L."
            },
            "geometry": {
                "type": "Point",
                "coordinates": [
                    14.360486501991316,
                    40.91173661597967
                ]
            }
        },
        {
            "type": "Feature",
            "properties": {
                "name": "F.LLI SCOPPA DI SCOPPA MICHELE & C. S.N.C.",
                "id": "17134",
                "brand": "Tamoil",
                "amenity": "fuel",
                "operator": "FRATELLI SCOPPA DI SCOPPA MICHELE E C. SNC"
            },
            "geometry": {
                "type": "Point",
                "coordinates": [
                    14.302079630216669,
                    40.87242195584707
                ]
            }
        },
        {
            "type": "Feature",
            "properties": {
                "name": "RI.AL.GA. PETROLI SAS",
                "id": "28161",
                "brand": "Agip Eni",
                "amenity": "fuel",
                "operator": "RI.AL.GA. PETROLI S.A.S. DI COPPOLA RITA & C."
            },
            "geometry": {
                "type": "Point",
                "coordinates": [
                    14.306846559047697,
                    40.958610442664636
                ]
            }
        },
        {
            "type": "Feature",
            "properties": {
                "name": "AG PETROLI",
                "id": "23304",
                "amenity": "fuel",
                "operator": "LOGI-CA S.R.L."
            },
            "geometry": {
                "type": "Point",
                "coordinates": [
                    14.359981119632724,
                    40.91821086249862
                ]
            }
        },
        {
            "type": "Feature",
            "properties": {
                "name": "Total ERG",
                "id": "22623",
                "brand": "Total Erg",
                "amenity": "fuel",
                "operator": "DISTRIBUTORE ERG DI CRISCUOLO LUISA"
            },
            "geometry": {
                "type": "Point",
                "coordinates": [
                    14.270129799842836,
                    40.8889609315471
                ]
            }
        },
        {
            "type": "Feature",
            "properties": {
                "name": "SIMONETTI ANTONIO RAFFAELE",
                "id": "19425",
                "brand": "Q8",
                "amenity": "fuel",
                "operator": "SIMONETTI ANTONIO RAFFAELE"
            },
            "geometry": {
                "type": "Point",
                "coordinates": [
                    14.333755820989609,
                    40.84932019405211
                ]
            }
        },
        {
            "type": "Feature",
            "properties": {
                "name": "AUTOSTAZIONE CANCELLO CARLO",
                "id": "31941",
                "brand": "Esso",
                "amenity": "fuel",
                "operator": "AUTOSTAZIONE CANCELLO CARLO"
            },
            "geometry": {
                "type": "Point",
                "coordinates": [
                    14.252169728279117,
                    40.910716957569576
                ]
            }
        },
        {
            "type": "Feature",
            "properties": {
                "name": "stazione di servizio eni lettieri giuseppe & c.s.a.s.",
                "id": "18867",
                "brand": "Agip Eni",
                "amenity": "fuel",
                "operator": "LETTIERI GIUSEPPE & C. S.A.S. CARBURANTI E LUBRIFICANTI"
            },
            "geometry": {
                "type": "Point",
                "coordinates": [
                    14.359015524387361,
                    40.927334069913805
                ]
            }
        },
        {
            "type": "Feature",
            "properties": {
                "name": "MIGLIACCIO CARBURANTI",
                "id": "29470",
                "amenity": "fuel",
                "operator": "4M CARBURANTI S.A.S. DI MIGLIACCIO RAFFAELE & C."
            },
            "geometry": {
                "type": "Point",
                "coordinates": [
                    14.271739795804024,
                    40.94665167174847
                ]
            }
        },
        {
            "type": "Feature",
            "properties": {
                "name": "SA.GI. CARBURANTI",
                "id": "31893",
                "amenity": "fuel",
                "operator": "SA.GI. CARBURANTI S.R.L"
            },
            "geometry": {
                "type": "Point",
                "coordinates": [
                    14.379167008665718,
                    40.854903202309885
                ]
            }
        },
        {
            "type": "Feature",
            "properties": {
                "name": "VESUVIO SUD",
                "id": "29992",
                "amenity": "fuel",
                "operator": "SARNI S.R.L."
            },
            "geometry": {
                "type": "Point",
                "coordinates": [
                    14.372791349887848,
                    40.901600376724886
                ]
            }
        },
        {
            "type": "Feature",
            "properties": {
                "name": "L.S.Q8sas",
                "id": "8602",
                "brand": "Q8",
                "amenity": "fuel",
                "operator": "L.S. Q8 S.A.S. DI AUFIERO TOMMASINA & MOTTOLA SABINO"
            },
            "geometry": {
                "type": "Point",
                "coordinates": [
                    14.262000024318695,
                    40.901842031383175
                ]
            }
        },
        {
            "type": "Feature",
            "properties": {
                "name": "ENI MANZONI SAS DI MANZONI SALVATORE",
                "id": "13940",
                "brand": "Agip Eni",
                "amenity": "fuel",
                "operator": "MANZONI S.A.S DI MANZONI SALVATORE"
            },
            "geometry": {
                "type": "Point",
                "coordinates": [
                    14.248971864581108,
                    40.922293519724015
                ]
            }
        },
        {
            "type": "Feature",
            "properties": {
                "name": "DI CAR SAS di Gerardo Di Carluccio",
                "id": "17636",
                "brand": "Agip Eni",
                "amenity": "fuel",
                "operator": "DICAR DI GERARDO DI CARLUCCIO S.A.S."
            },
            "geometry": {
                "type": "Point",
                "coordinates": [
                    14.28414434194565,
                    40.87054284033581
                ]
            }
        },
        {
            "type": "Feature",
            "properties": {
                "name": "TOTALERG",
                "id": "31967",
                "brand": "Total Erg",
                "amenity": "fuel",
                "operator": "PONTICELLI TOMMASO"
            },
            "geometry": {
                "type": "Point",
                "coordinates": [
                    14.302432538623062,
                    40.949442548318544
                ]
            }
        },
        {
            "type": "Feature",
            "properties": {
                "name": "ANMA 251",
                "id": "27864",
                "amenity": "fuel",
                "operator": "ANMA S.N.C. DI SEGRETO ANTONIO"
            },
            "geometry": {
                "type": "Point",
                "coordinates": [
                    14.300285709026298,
                    40.84798606376835
                ]
            }
        },
        {
            "type": "Feature",
            "properties": {
                "name": "acanfora stefania",
                "id": "12555",
                "brand": "Total Erg",
                "amenity": "fuel",
                "operator": "ACANFORA STEFANIA"
            },
            "geometry": {
                "type": "Point",
                "coordinates": [
                    14.293411170835611,
                    40.862960192370096
                ]
            }
        },
        {
            "type": "Feature",
            "properties": {
                "name": "Staz.Q8 Mosella",
                "id": "11099",
                "brand": "Q8",
                "amenity": "fuel",
                "operator": "MOSELLA GIANPAOLO"
            },
            "geometry": {
                "type": "Point",
                "coordinates": [
                    14.260159405218134,
                    40.857915625531206
                ]
            }
        },
        {
            "type": "Feature",
            "properties": {
                "name": "s.s.esso zucchi s.n.c.",
                "id": "22486",
                "brand": "Esso",
                "amenity": "fuel",
                "operator": "ZUCCHI S.N.C. DI ZUCCHI RAFFAELE E C."
            },
            "geometry": {
                "type": "Point",
                "coordinates": [
                    14.384150505065916,
                    40.86874861757095
                ]
            }
        },
        {
            "type": "Feature",
            "properties": {
                "name": "Ip gruppo api",
                "id": "12702",
                "brand": "Api-Ip",
                "amenity": "fuel",
                "operator": "CRETELLA S.A.S. DI CRETELLA ANTONIO & C."
            },
            "geometry": {
                "type": "Point",
                "coordinates": [
                    14.260535538196564,
                    40.96621922089378
                ]
            }
        },
        {
            "type": "Feature",
            "properties": {
                "name": "CRISPINO GAETANO",
                "id": "13194",
                "amenity": "fuel",
                "operator": "CRISPINO GAETANO"
            },
            "geometry": {
                "type": "Point",
                "coordinates": [
                    14.314258173108101,
                    40.91977837003956
                ]
            }
        },
        {
            "type": "Feature",
            "properties": {
                "name": "VESUVIOGAS SRL",
                "id": "16956",
                "amenity": "fuel",
                "operator": "VESUVIO GAS S.R.L."
            },
            "geometry": {
                "type": "Point",
                "coordinates": [
                    14.267773479223255,
                    40.95377120368689
                ]
            }
        },
        {
            "type": "Feature",
            "properties": {
                "name": "Baffico",
                "id": "16172",
                "amenity": "fuel",
                "operator": "BAFFICO C. & R. DI BAFFICO CARLO E RAIMONDO SNC"
            },
            "geometry": {
                "type": "Point",
                "coordinates": [
                    14.250041649256444,
                    40.96217722172922
                ]
            }
        },
        {
            "type": "Feature",
            "properties": {
                "name": "ECO TRADING AREA SRL",
                "id": "14035",
                "amenity": "fuel",
                "operator": "ECO TRADING AREA S.R.L. - DISTRIBUZIONE CARBURANTI ECOLOGICI"
            },
            "geometry": {
                "type": "Point",
                "coordinates": [
                    14.403037279844284,
                    40.900147186426615
                ]
            }
        },
        {
            "type": "Feature",
            "properties": {
                "name": "mauro e pasquale ciaramella snc",
                "id": "17704",
                "brand": "Esso",
                "amenity": "fuel",
                "operator": "MAURO E PASQUALE CIARAMELLA S.N.C."
            },
            "geometry": {
                "type": "Point",
                "coordinates": [
                    14.285856963458853,
                    40.902248283429614
                ]
            }
        },
        {
            "type": "Feature",
            "properties": {
                "name": "B2B SRL",
                "id": "28371",
                "brand": "Esso",
                "amenity": "fuel",
                "operator": "B2B S.R.L."
            },
            "geometry": {
                "type": "Point",
                "coordinates": [
                    14.341147989034654,
                    40.90193285439065
                ]
            }
        },
        {
            "type": "Feature",
            "properties": {
                "name": "ESSO GIEFFECI",
                "id": "4350",
                "brand": "Esso",
                "amenity": "fuel",
                "operator": "GIEFFECI S.A.S. DI GIUSEPPE CIFINELLI & C."
            },
            "geometry": {
                "type": "Point",
                "coordinates": [
                    14.277313834573304,
                    40.898156948933156
                ]
            }
        },
        {
            "type": "Feature",
            "properties": {
                "name": "VOLPICELLA",
                "id": "5531",
                "brand": "Total Erg",
                "amenity": "fuel",
                "operator": "GESTIONI EUROPA S.p.A."
            },
            "geometry": {
                "type": "Point",
                "coordinates": [
                    14.32532441182775,
                    40.849239502862
                ]
            }
        },
        {
            "type": "Feature",
            "properties": {
                "name": "TOTALERG",
                "id": "16073",
                "brand": "Total Erg",
                "amenity": "fuel",
                "operator": "EUROPETROL S.A.S. DI FUSCO GERARDO & C."
            },
            "geometry": {
                "type": "Point",
                "coordinates": [
                    14.284775984731256,
                    40.94322867055087
                ]
            }
        },
        {
            "type": "Feature",
            "properties": {
                "name": "ANMA VIA MADD.",
                "id": "27863",
                "brand": "Esso",
                "amenity": "fuel",
                "operator": "ANMA S.N.C. DI SEGRETO ANTONIO"
            },
            "geometry": {
                "type": "Point",
                "coordinates": [
                    14.278174133568884,
                    40.87570689990799
                ]
            }
        },
        {
            "type": "Feature",
            "properties": {
                "name": "SCUDILLO OVEST",
                "id": "4023",
                "brand": "Esso",
                "amenity": "fuel",
                "operator": "EDDY RISTOCAR S.R.L."
            },
            "geometry": {
                "type": "Point",
                "coordinates": [
                    14.242064580321314,
                    40.865729742550826
                ]
            }
        },
        {
            "type": "Feature",
            "properties": {
                "name": "ARZANO-RETTIFILO AL BRAVO",
                "id": "11735",
                "brand": "Q8",
                "amenity": "fuel",
                "operator": "SERVIZI & GESTIONI ITALIA S.R.L."
            },
            "geometry": {
                "type": "Point",
                "coordinates": [
                    14.274977784061432,
                    40.91677567789186
                ]
            }
        },
        {
            "type": "Feature",
            "properties": {
                "name": "D.P. PETROLI S.A.S. DI PETRONE LUIGI E & C.",
                "id": "29756",
                "brand": "Ies",
                "amenity": "fuel",
                "operator": "D.P. PETROLI S.A.S. DI PETRONE LUIGI & C."
            },
            "geometry": {
                "type": "Point",
                "coordinates": [
                    14.24385482663638,
                    40.945938805229694
                ]
            }
        },
        {
            "type": "Feature",
            "properties": {
                "name": "ACERRA-VIA MOLINO SS. 162",
                "id": "11729",
                "brand": "Q8",
                "amenity": "fuel",
                "operator": "SERVIZI & GESTIONI ITALIA S.R.L."
            },
            "geometry": {
                "type": "Point",
                "coordinates": [
                    14.381809970569634,
                    40.94887624989548
                ]
            }
        },
        {
            "type": "Feature",
            "properties": {
                "name": "m oil",
                "id": "32189",
                "amenity": "fuel",
                "operator": "D'ANIELLO LUISA"
            },
            "geometry": {
                "type": "Point",
                "coordinates": [
                    14.27825689315796,
                    40.94131192420758
                ]
            }
        },
        {
            "type": "Feature",
            "properties": {
                "name": "Q8 SECONDIGLIANO Circumvallazione Esterna VARRIALE FRANCESCO",
                "id": "9078",
                "brand": "Q8",
                "amenity": "fuel",
                "operator": "VARRIALE FRANCESCO"
            },
            "geometry": {
                "type": "Point",
                "coordinates": [
                    14.266691207885744,
                    40.900279369669875
                ]
            }
        },
        {
            "type": "Feature",
            "properties": {
                "name": "CERCOLA - EUROPA",
                "id": "24256",
                "brand": "Api-Ip",
                "amenity": "fuel",
                "operator": "IP SERVICES S.R.L."
            },
            "geometry": {
                "type": "Point",
                "coordinates": [
                    14.356618775463177,
                    40.850369566845515
                ]
            }
        },
        {
            "type": "Feature",
            "properties": {
                "name": "Stazione Di Servizio TotalErg",
                "id": "19614",
                "brand": "Total Erg",
                "amenity": "fuel",
                "operator": "CENNAMO MAURO"
            },
            "geometry": {
                "type": "Point",
                "coordinates": [
                    14.408306549737521,
                    40.9046006760032
                ]
            }
        },
        {
            "type": "Feature",
            "properties": {
                "name": "IP di ANNA PRISCO",
                "id": "23055",
                "brand": "Api-Ip",
                "amenity": "fuel",
                "operator": "PRISCO ANNA"
            },
            "geometry": {
                "type": "Point",
                "coordinates": [
                    14.329958131358014,
                    40.85786741826477
                ]
            }
        },
        {
            "type": "Feature",
            "properties": {
                "name": "Oceania Casoria",
                "id": "30397",
                "brand": "Q8",
                "amenity": "fuel",
                "operator": "OCEANIA S.R.L."
            },
            "geometry": {
                "type": "Point",
                "coordinates": [
                    14.2870531976223,
                    40.91230004785369
                ]
            }
        },
        {
            "type": "Feature",
            "properties": {
                "name": "ESSO",
                "id": "27724",
                "brand": "Esso",
                "amenity": "fuel",
                "operator": "MARINOIL S.R.L."
            },
            "geometry": {
                "type": "Point",
                "coordinates": [
                    14.276685118675232,
                    40.84767941956628
                ]
            }
        },
        {
            "type": "Feature",
            "properties": {
                "name": "Eco Fuel",
                "id": "28904",
                "amenity": "fuel",
                "operator": "UNION FUEL S.R.L."
            },
            "geometry": {
                "type": "Point",
                "coordinates": [
                    14.246666559524556,
                    40.93328605071204
                ]
            }
        },
        {
            "type": "Feature",
            "properties": {
                "name": "STAZIONE Q8",
                "id": "30262",
                "brand": "Q8",
                "amenity": "fuel",
                "operator": "A.F. CARBURANTI S.A.S. DI FALCO ANTONIO & C."
            },
            "geometry": {
                "type": "Point",
                "coordinates": [
                    14.260856619402603,
                    40.858457221333275
                ]
            }
        },
        {
            "type": "Feature",
            "properties": {
                "name": "TOTALERG",
                "id": "18504",
                "brand": "Total Erg",
                "amenity": "fuel",
                "operator": "CLAMAR CARBURANTI S.A.S. DI DI VAIO CLAUDIO"
            },
            "geometry": {
                "type": "Point",
                "coordinates": [
                    14.248825013637545,
                    40.879764288894464
                ]
            }
        },
        {
            "type": "Feature",
            "properties": {
                "name": "AGIP",
                "id": "13181",
                "brand": "Agip Eni",
                "amenity": "fuel",
                "operator": "ESPOSITO ANTONIO"
            },
            "geometry": {
                "type": "Point",
                "coordinates": [
                    14.250597691215486,
                    40.888581919161965
                ]
            }
        },
        {
            "type": "Feature",
            "properties": {
                "name": "staz. servizio. q8",
                "id": "17155",
                "brand": "Q8",
                "amenity": "fuel",
                "operator": "CARRARA PIETRO"
            },
            "geometry": {
                "type": "Point",
                "coordinates": [
                    14.28934048226529,
                    40.850306850747714
                ]
            }
        },
        {
            "type": "Feature",
            "properties": {
                "name": "S.ANASTASIA VIALE EUROPA, 4",
                "id": "26104",
                "brand": "Q8",
                "amenity": "fuel",
                "operator": "SERVIZI & GESTIONI ITALIA S.R.L."
            },
            "geometry": {
                "type": "Point",
                "coordinates": [
                    14.401473030688523,
                    40.871997979284465
                ]
            }
        },
        {
            "type": "Feature",
            "properties": {
                "name": "Stazione di Servizio Perrotta Claudio",
                "id": "18348",
                "brand": "Api-Ip",
                "amenity": "fuel",
                "operator": "PERROTTA CLAUDIO"
            },
            "geometry": {
                "type": "Point",
                "coordinates": [
                    14.258250812850974,
                    40.96684948495689
                ]
            }
        },
        {
            "type": "Feature",
            "properties": {
                "name": "ESSO",
                "id": "20066",
                "brand": "Esso",
                "amenity": "fuel",
                "operator": "GESP S.A.S. DI GIOVANNI EMANUELE ESPOSITO"
            },
            "geometry": {
                "type": "Point",
                "coordinates": [
                    14.303997044877406,
                    40.92496612189702
                ]
            }
        },
        {
            "type": "Feature",
            "properties": {
                "name": "SS",
                "id": "31867",
                "amenity": "fuel",
                "operator": "RUSSO NUNZIO"
            },
            "geometry": {
                "type": "Point",
                "coordinates": [
                    14.255764519223247,
                    40.936691910130286
                ]
            }
        },
        {
            "type": "Feature",
            "properties": {
                "name": "TOTAL ERG",
                "id": "31972",
                "brand": "Total Erg",
                "amenity": "fuel",
                "operator": "ROMANO LUCA"
            },
            "geometry": {
                "type": "Point",
                "coordinates": [
                    14.273536205291744,
                    40.924110407580564
                ]
            }
        },
        {
            "type": "Feature",
            "properties": {
                "name": "IP",
                "id": "26447",
                "brand": "Api-Ip",
                "amenity": "fuel",
                "operator": "PERROTTA FELICE"
            },
            "geometry": {
                "type": "Point",
                "coordinates": [
                    14.38144013285637,
                    40.90408175508934
                ]
            }
        },
        {
            "type": "Feature",
            "properties": {
                "name": "GREEN",
                "id": "18339",
                "brand": "Agip Eni",
                "amenity": "fuel",
                "operator": "GREEN S.A.S. DI VERDE RENATO E C."
            },
            "geometry": {
                "type": "Point",
                "coordinates": [
                    14.250583201646805,
                    40.88859432327592
                ]
            }
        },
        {
            "type": "Feature",
            "properties": {
                "name": "MASSERIA OVEST",
                "id": "3781",
                "brand": "Tamoil",
                "amenity": "fuel",
                "operator": "DI CARLUCCIO EDUARDO"
            },
            "geometry": {
                "type": "Point",
                "coordinates": [
                    14.317000000000002,
                    40.891
                ]
            }
        },
        {
            "type": "Feature",
            "properties": {
                "name": "fico pasquale",
                "id": "31870",
                "brand": "Total Erg",
                "amenity": "fuel",
                "operator": "FICO PASQUALE"
            },
            "geometry": {
                "type": "Point",
                "coordinates": [
                    14.353365182112617,
                    40.91735399150816
                ]
            }
        },
        {
            "type": "Feature",
            "properties": {
                "name": "esso",
                "id": "29789",
                "brand": "Esso",
                "amenity": "fuel",
                "operator": "DISTRIBUTORE CARBURANTI ESSO MEO ANDREA"
            },
            "geometry": {
                "type": "Point",
                "coordinates": [
                    14.26257538444065,
                    40.85974447977975
                ]
            }
        },
        {
            "type": "Feature",
            "properties": {
                "name": "pit stop carburante sas",
                "id": "15902",
                "amenity": "fuel",
                "operator": "PIT -  STOP CARBURANTE S.A.S. DI ASCIONE LUCIA & C."
            },
            "geometry": {
                "type": "Point",
                "coordinates": [
                    14.250720124606344,
                    40.917703298373304
                ]
            }
        },
        {
            "type": "Feature",
            "properties": {
                "name": "b.oil srl",
                "id": "20970",
                "amenity": "fuel",
                "operator": "B.OIL S.R.L."
            },
            "geometry": {
                "type": "Point",
                "coordinates": [
                    14.314351379871368,
                    40.85272015344219
                ]
            }
        },
        {
            "type": "Feature",
            "properties": {
                "name": "TAMOIL",
                "id": "17165",
                "brand": "Tamoil",
                "amenity": "fuel",
                "operator": "BARBAGALLO SALVATORE"
            },
            "geometry": {
                "type": "Point",
                "coordinates": [
                    14.241719067352962,
                    40.8472265446674
                ]
            }
        },
        {
            "type": "Feature",
            "properties": {
                "name": "ESSO F.lli Iovino s.a.s.",
                "id": "22677",
                "brand": "Esso",
                "amenity": "fuel",
                "operator": "F.LLI IOVINO S.A.S. DI IOVINO ANGELO"
            },
            "geometry": {
                "type": "Point",
                "coordinates": [
                    14.265537084655762,
                    40.912816613747445
                ]
            }
        },
        {
            "type": "Feature",
            "properties": {
                "name": "AP GESTIONE DUE SRL",
                "id": "15968",
                "amenity": "fuel",
                "operator": "AP GESTIONE DUE S.R.L."
            },
            "geometry": {
                "type": "Point",
                "coordinates": [
                    14.241448938846586,
                    40.95368166730894
                ]
            }
        },
        {
            "type": "Feature",
            "properties": {
                "name": "LA MARCHESA S.A.S.",
                "id": "22678",
                "brand": "Esso",
                "amenity": "fuel",
                "operator": "LA MARCHESA S.A.S. DI IOVINO ANGELO & C."
            },
            "geometry": {
                "type": "Point",
                "coordinates": [
                    14.350373446941372,
                    40.9297780065123
                ]
            }
        },
        {
            "type": "Feature",
            "properties": {
                "name": "RO.AL.SA.CE. DI CELLA MARIO & C SAS",
                "id": "22051",
                "brand": "Agip Eni",
                "amenity": "fuel",
                "operator": "RO.AL.SA.CE. DI CELLA MARIO  & C. S.A.S."
            },
            "geometry": {
                "type": "Point",
                "coordinates": [
                    14.402445852756502,
                    40.91443685556677
                ]
            }
        },
        {
            "type": "Feature",
            "properties": {
                "name": "POMIGLIANO D'ARCO",
                "id": "26660",
                "brand": "Q8",
                "amenity": "fuel",
                "operator": "ZETA GAS S.P.A."
            },
            "geometry": {
                "type": "Point",
                "coordinates": [
                    14.398765861988064,
                    40.90326274834047
                ]
            }
        },
        {
            "type": "Feature",
            "properties": {
                "name": "Delta Petroli (VOLLA)",
                "id": "20567",
                "brand": "Api-Ip",
                "amenity": "fuel",
                "operator": "DELTA PETROLI S.A.S. DI FELACO ANTONIO & C."
            },
            "geometry": {
                "type": "Point",
                "coordinates": [
                    14.35372026702578,
                    40.88841550110374
                ]
            }
        },
        {
            "type": "Feature",
            "properties": {
                "name": "METANO / GPL CASORIA",
                "id": "5295",
                "amenity": "fuel",
                "operator": "CAR.IO S.R.L."
            },
            "geometry": {
                "type": "Point",
                "coordinates": [
                    14.318895288221709,
                    40.883934189888485
                ]
            }
        },
        {
            "type": "Feature",
            "properties": {
                "name": "ESSO",
                "id": "27723",
                "brand": "Esso",
                "amenity": "fuel",
                "operator": "MARINOIL S.R.L."
            },
            "geometry": {
                "type": "Point",
                "coordinates": [
                    14.284973144531248,
                    40.87055987770188
                ]
            }
        },
        {
            "type": "Feature",
            "properties": {
                "name": "RUOTOLO PETROLI",
                "id": "31892",
                "brand": "Esso",
                "amenity": "fuel",
                "operator": "LOMBARDI EDVIGE"
            },
            "geometry": {
                "type": "Point",
                "coordinates": [
                    14.359073191881183,
                    40.92268953053201
                ]
            }
        },
        {
            "type": "Feature",
            "properties": {
                "name": "acanfora stefania",
                "id": "20622",
                "brand": "Total Erg",
                "amenity": "fuel",
                "operator": "ACANFORA STEFANIA"
            },
            "geometry": {
                "type": "Point",
                "coordinates": [
                    14.294732338039807,
                    40.86439910023402
                ]
            }
        },
        {
            "type": "Feature",
            "properties": {
                "name": "Stazione di serv. Esso di De Benedictis Anna",
                "id": "15662",
                "brand": "Esso",
                "amenity": "fuel",
                "operator": "DE BENEDICTIS  ANNA"
            },
            "geometry": {
                "type": "Point",
                "coordinates": [
                    14.332445082803359,
                    40.86040397151067
                ]
            }
        },
        {
            "type": "Feature",
            "properties": {
                "name": "SP PETROLI ARZANO",
                "id": "16194",
                "amenity": "fuel",
                "operator": "SANNINO PETROLI S.R.L."
            },
            "geometry": {
                "type": "Point",
                "coordinates": [
                    14.26848080402567,
                    40.91604799563869
                ]
            }
        },
        {
            "type": "Feature",
            "properties": {
                "name": "STAZIONE Q8",
                "id": "31923",
                "brand": "Q8",
                "amenity": "fuel",
                "operator": "AN.CI. CARBURANTI S.A.S. DI CIRO PORRICELLI"
            },
            "geometry": {
                "type": "Point",
                "coordinates": [
                    14.37264047563076,
                    40.85065114538969
                ]
            }
        },
        {
            "type": "Feature",
            "properties": {
                "name": "Petrol Service",
                "id": "29423",
                "amenity": "fuel",
                "operator": "PETROL SERVICE S.R.L."
            },
            "geometry": {
                "type": "Point",
                "coordinates": [
                    14.247038662433622,
                    40.887806757365944
                ]
            }
        },
        {
            "type": "Feature",
            "properties": {
                "name": "q8",
                "id": "16588",
                "brand": "Q8",
                "amenity": "fuel",
                "operator": "DE FRANCESCO SALVATORE"
            },
            "geometry": {
                "type": "Point",
                "coordinates": [
                    14.261861890554432,
                    40.96856653190242
                ]
            }
        },
        {
            "type": "Feature",
            "properties": {
                "name": "D.B.M. CARBURANTI",
                "id": "31680",
                "brand": "Esso",
                "amenity": "fuel",
                "operator": "DI BENEDETTO FILOMENA"
            },
            "geometry": {
                "type": "Point",
                "coordinates": [
                    14.350375458598139,
                    40.92977679069536
                ]
            }
        },
        {
            "type": "Feature",
            "properties": {
                "name": "Ip gruppo Api",
                "id": "28874",
                "brand": "Api-Ip",
                "amenity": "fuel",
                "operator": "CRISPINO CARMINE"
            },
            "geometry": {
                "type": "Point",
                "coordinates": [
                    14.264306076057434,
                    40.93689854741887
                ]
            }
        },
        {
            "type": "Feature",
            "properties": {
                "name": "esso",
                "id": "17293",
                "brand": "Esso",
                "amenity": "fuel",
                "operator": "CAR RIVERS  S.A.S. DI VASTARELLA ERRICO E C."
            },
            "geometry": {
                "type": "Point",
                "coordinates": [
                    14.27151381969452,
                    40.94951019204616
                ]
            }
        },
        {
            "type": "Feature",
            "properties": {
                "name": "ENI",
                "id": "19802",
                "brand": "Agip Eni",
                "amenity": "fuel",
                "operator": "IASEVOLI CARMINE"
            },
            "geometry": {
                "type": "Point",
                "coordinates": [
                    14.388818828836067,
                    40.90547662439096
                ]
            }
        },
        {
            "type": "Feature",
            "properties": {
                "name": "ST OIL",
                "id": "24616",
                "amenity": "fuel",
                "operator": "TELESCO SALVATORE"
            },
            "geometry": {
                "type": "Point",
                "coordinates": [
                    14.356403052806852,
                    40.86312568810577
                ]
            }
        },
        {
            "type": "Feature",
            "properties": {
                "name": "GR CARBURANTI",
                "id": "31739",
                "amenity": "fuel",
                "operator": "GR CARBURANTI SRL"
            },
            "geometry": {
                "type": "Point",
                "coordinates": [
                    14.361075543815106,
                    40.876524406099456
                ]
            }
        },
        {
            "type": "Feature",
            "properties": {
                "name": "CASORIA - S.S. 87 KM.7,710",
                "id": "30634",
                "brand": "Api-Ip",
                "amenity": "fuel",
                "operator": "IP SERVICES S.R.L."
            },
            "geometry": {
                "type": "Point",
                "coordinates": [
                    14.291124139881163,
                    40.91663749667929
                ]
            }
        },
        {
            "type": "Feature",
            "properties": {
                "name": "MY OIL GIANTURCO",
                "id": "19166",
                "amenity": "fuel",
                "operator": "DE LUCA                            LUIGI"
            },
            "geometry": {
                "type": "Point",
                "coordinates": [
                    14.289373978972439,
                    40.851290438849134
                ]
            }
        },
        {
            "type": "Feature",
            "properties": {
                "name": "ENERGAS",
                "id": "26661",
                "amenity": "fuel",
                "operator": "ZETA GAS S.P.A."
            },
            "geometry": {
                "type": "Point",
                "coordinates": [
                    14.35089647769928,
                    40.904048508490625
                ]
            }
        },
        {
            "type": "Feature",
            "properties": {
                "name": "ALMA",
                "id": "17623",
                "brand": "Api-Ip",
                "amenity": "fuel",
                "operator": "AL.MA S.N.C. DI RUSSO FABIO"
            },
            "geometry": {
                "type": "Point",
                "coordinates": [
                    14.294325336813927,
                    40.89609661487518
                ]
            }
        },
        {
            "type": "Feature",
            "properties": {
                "name": "distributore shell",
                "id": "19210",
                "brand": "Shell",
                "amenity": "fuel",
                "operator": "MARCHITTO ANTONIO"
            },
            "geometry": {
                "type": "Point",
                "coordinates": [
                    14.249906673016312,
                    40.88750666855785
                ]
            }
        },
        {
            "type": "Feature",
            "properties": {
                "name": "Tamoil di Vitale G.ppe",
                "id": "20214",
                "brand": "Tamoil",
                "amenity": "fuel",
                "operator": "VITALE GIUSEPPE"
            },
            "geometry": {
                "type": "Point",
                "coordinates": [
                    14.26477633894376,
                    40.874372383450705
                ]
            }
        },
        {
            "type": "Feature",
            "properties": {
                "name": "Eni 28062",
                "id": "12721",
                "brand": "Agip Eni",
                "amenity": "fuel",
                "operator": "LA CAVA MARCO"
            },
            "geometry": {
                "type": "Point",
                "coordinates": [
                    14.275767374313316,
                    40.9181939910084
                ]
            }
        },
        {
            "type": "Feature",
            "properties": {
                "name": "Agip",
                "id": "18040",
                "brand": "Agip Eni",
                "amenity": "fuel",
                "operator": "CANCELLO MASSIMILIANO"
            },
            "geometry": {
                "type": "Point",
                "coordinates": [
                    14.267089285047405,
                    40.90044986950094
                ]
            }
        },
        {
            "type": "Feature",
            "properties": {
                "name": "STAZIONE DI SERVIZIO M.Y.L.T.O.N. PETROLI DI MOSCA MICHELE]",
                "id": "14323",
                "brand": "Total Erg",
                "amenity": "fuel",
                "operator": "STAZIONE DI SERVIZIO M.Y.L.T.O.N. PETROLI DI MOSCA MICHELE"
            },
            "geometry": {
                "type": "Point",
                "coordinates": [
                    14.322363713491766,
                    40.84832334843441
                ]
            }
        },
        {
            "type": "Feature",
            "properties": {
                "name": "Esso",
                "id": "30549",
                "brand": "Esso",
                "amenity": "fuel",
                "operator": "S.D.P. S.A.S. DI FRANCESCO DI PALMA"
            },
            "geometry": {
                "type": "Point",
                "coordinates": [
                    14.35119152069092,
                    40.97272505724485
                ]
            }
        },
        {
            "type": "Feature",
            "properties": {
                "name": "retitalia",
                "id": "24454",
                "brand": "Retitalia",
                "amenity": "fuel",
                "operator": "CONSOLINO MAURIZIO"
            },
            "geometry": {
                "type": "Point",
                "coordinates": [
                    14.270597721439229,
                    40.85875967622646
                ]
            }
        },
        {
            "type": "Feature",
            "properties": {
                "name": "Impianto IP",
                "id": "16173",
                "brand": "Api-Ip",
                "amenity": "fuel",
                "operator": "SALZANO GIOVANNI E FIGLIO S.A.S. DI SALZANO GIOVANNI"
            },
            "geometry": {
                "type": "Point",
                "coordinates": [
                    14.299805886438776,
                    40.92684392956943
                ]
            }
        },
        {
            "type": "Feature",
            "properties": {
                "name": "MC CARBURANTI",
                "id": "23781",
                "amenity": "fuel",
                "operator": "MC CARBURANTI DI LUPOLI MICHELA"
            },
            "geometry": {
                "type": "Point",
                "coordinates": [
                    14.271686257672172,
                    40.95110343236743
                ]
            }
        },
        {
            "type": "Feature",
            "properties": {
                "name": "METANO POMIGLIANO",
                "id": "5288",
                "amenity": "fuel",
                "operator": "CAR.IO S.R.L."
            },
            "geometry": {
                "type": "Point",
                "coordinates": [
                    14.362065196037298,
                    40.901706607563014
                ]
            }
        },
        {
            "type": "Feature",
            "properties": {
                "name": "SS SANNITICA 87 PAL.RUSSO - CASORIA",
                "id": "29726",
                "brand": "Q8",
                "amenity": "fuel",
                "operator": "SERVIZI & GESTIONI ITALIA S.R.L."
            },
            "geometry": {
                "type": "Point",
                "coordinates": [
                    14.296560555819724,
                    40.92404121584755
                ]
            }
        },
        {
            "type": "Feature",
            "properties": {
                "name": "meridiana",
                "id": "26666",
                "brand": "Q8",
                "amenity": "fuel",
                "operator": "ZETA GAS S.P.A."
            },
            "geometry": {
                "type": "Point",
                "coordinates": [
                    14.337139427661896,
                    40.90041641829388
                ]
            }
        },
        {
            "type": "Feature",
            "properties": {
                "name": "verde renato",
                "id": "18869",
                "amenity": "fuel",
                "operator": "VERDE RENATO"
            },
            "geometry": {
                "type": "Point",
                "coordinates": [
                    14.238582998514175,
                    40.885203911057204
                ]
            }
        },
        {
            "type": "Feature",
            "properties": {
                "name": "CAIVANO - S.S. 87 KM 13,480",
                "id": "28044",
                "brand": "Api-Ip",
                "amenity": "fuel",
                "operator": "IP SERVICES S.R.L."
            },
            "geometry": {
                "type": "Point",
                "coordinates": [
                    14.307010728836076,
                    40.9632405083603
                ]
            }
        },
        {
            "type": "Feature",
            "properties": {
                "name": "Staz.Q8 Santangelo A.",
                "id": "17040",
                "brand": "Q8",
                "amenity": "fuel",
                "operator": "SANTANGELO ANTONIO"
            },
            "geometry": {
                "type": "Point",
                "coordinates": [
                    14.27033489404562,
                    40.860093110866615
                ]
            }
        },
        {
            "type": "Feature",
            "properties": {
                "name": "PV 8086",
                "id": "25273",
                "brand": "Agip Eni",
                "amenity": "fuel",
                "operator": "GESTIONI INNOVATIVE ITALIA S.R.L."
            },
            "geometry": {
                "type": "Point",
                "coordinates": [
                    14.276156723499298,
                    40.90690684506938
                ]
            }
        },
        {
            "type": "Feature",
            "properties": {
                "name": "Q8",
                "id": "9884",
                "brand": "Q8",
                "amenity": "fuel",
                "operator": "VENTRIGLIA VALENTINA"
            },
            "geometry": {
                "type": "Point",
                "coordinates": [
                    14.36212956905365,
                    40.9562872876271
                ]
            }
        },
        {
            "type": "Feature",
            "properties": {
                "name": "VR",
                "id": "31900",
                "amenity": "fuel",
                "operator": "RUSSO NUNZIO"
            },
            "geometry": {
                "type": "Point",
                "coordinates": [
                    14.272191077470781,
                    40.933527226850615
                ]
            }
        },
        {
            "type": "Feature",
            "properties": {
                "name": "MYLTON S.R.L.",
                "id": "14328",
                "amenity": "fuel",
                "operator": "MYLTON  S.R.L."
            },
            "geometry": {
                "type": "Point",
                "coordinates": [
                    14.309363812208174,
                    40.84985379511883
                ]
            }
        },
        {
            "type": "Feature",
            "properties": {
                "name": "PICCOLO GROUP",
                "id": "7526",
                "brand": "Agip Eni",
                "amenity": "fuel",
                "operator": "PICCOLO GROUP S.R.L."
            },
            "geometry": {
                "type": "Point",
                "coordinates": [
                    14.371241382063547,
                    40.876544472375066
                ]
            }
        },
        {
            "type": "Feature",
            "properties": {
                "name": "DORANTOIL SAS",
                "id": "18094",
                "brand": "Esso",
                "amenity": "fuel",
                "operator": "DORANTOIL S.A.S. DI MIELE RAFFAELE"
            },
            "geometry": {
                "type": "Point",
                "coordinates": [
                    14.282879680395126,
                    40.94835180733347
                ]
            }
        },
        {
            "type": "Feature",
            "properties": {
                "name": "eni",
                "id": "20441",
                "brand": "Agip Eni",
                "amenity": "fuel",
                "operator": "RICCIARDI GIACINTO"
            },
            "geometry": {
                "type": "Point",
                "coordinates": [
                    14.339417601852347,
                    40.88026141875078
                ]
            }
        },
        {
            "type": "Feature",
            "properties": {
                "name": "BENZINA - GASOLIO - HIQ CASORIA",
                "id": "29071",
                "brand": "Q8",
                "amenity": "fuel",
                "operator": "CAR.IO S.R.L."
            },
            "geometry": {
                "type": "Point",
                "coordinates": [
                    14.319015987627381,
                    40.883618858465454
                ]
            }
        },
        {
            "type": "Feature",
            "properties": {
                "name": "masi vito",
                "id": "16846",
                "brand": "Agip Eni",
                "amenity": "fuel",
                "operator": "MASI VITO"
            },
            "geometry": {
                "type": "Point",
                "coordinates": [
                    14.288344113215317,
                    40.84787307234628
                ]
            }
        },
        {
            "type": "Feature",
            "properties": {
                "name": "DE LUCA ANNA",
                "id": "21523",
                "amenity": "fuel",
                "operator": "DE LUCA ANNA"
            },
            "geometry": {
                "type": "Point",
                "coordinates": [
                    14.379214297808856,
                    40.85491162730432
                ]
            }
        },
        {
            "type": "Feature",
            "properties": {
                "name": "tamoil",
                "id": "19419",
                "brand": "Tamoil",
                "amenity": "fuel",
                "operator": "ALFIERI CIRO"
            },
            "geometry": {
                "type": "Point",
                "coordinates": [
                    14.284238889813425,
                    40.91321339870182
                ]
            }
        },
        {
            "type": "Feature",
            "properties": {
                "name": "ESSO CAPODICHINO",
                "id": "29982",
                "brand": "Esso",
                "amenity": "fuel",
                "operator": "PENTA PETROLI SRL"
            },
            "geometry": {
                "type": "Point",
                "coordinates": [
                    14.278305843472477,
                    40.889912471469344
                ]
            }
        },
        {
            "type": "Feature",
            "properties": {
                "name": "distributore esso elio vitullo",
                "id": "17432",
                "brand": "Esso",
                "amenity": "fuel",
                "operator": "VITULLO ELIO"
            },
            "geometry": {
                "type": "Point",
                "coordinates": [
                    14.276378005743029,
                    40.886422539951006
                ]
            }
        },
        {
            "type": "Feature",
            "properties": {
                "name": "tamoil",
                "id": "19567",
                "brand": "Tamoil",
                "amenity": "fuel",
                "operator": "LONGOBARDI MARIO"
            },
            "geometry": {
                "type": "Point",
                "coordinates": [
                    14.269004376226349,
                    40.88501960510016
                ]
            }
        },
        {
            "type": "Feature",
            "properties": {
                "name": "santangelo carburanti",
                "id": "18622",
                "brand": "Q8",
                "amenity": "fuel",
                "operator": "SANTANGELO CARBURANTI DI SANTANGELO PASQUALE"
            },
            "geometry": {
                "type": "Point",
                "coordinates": [
                    14.26982154106986,
                    40.88963560826791
                ]
            }
        },
        {
            "type": "Feature",
            "properties": {
                "name": "Stazione di Servizio Auchan/IP",
                "id": "7049",
                "brand": "Api-Ip",
                "amenity": "fuel",
                "operator": "AUCHAN S.P.A."
            },
            "geometry": {
                "type": "Point",
                "coordinates": [
                    14.314415752887724,
                    40.85107274293145
                ]
            }
        },
        {
            "type": "Feature",
            "properties": {
                "name": "DE.PI.",
                "id": "17580",
                "amenity": "fuel",
                "operator": "DE. PI. PETROLI S.R.L."
            },
            "geometry": {
                "type": "Point",
                "coordinates": [
                    14.386331140995027,
                    40.92136448606302
                ]
            }
        },
        {
            "type": "Feature",
            "properties": {
                "name": "FRATTAMAGGIORE VIA ROMA  262 IMP. Q8",
                "id": "6700",
                "brand": "Q8",
                "amenity": "fuel",
                "operator": "SERVIZI & GESTIONI ITALIA srl"
            },
            "geometry": {
                "type": "Point",
                "coordinates": [
                    14.272496311045074,
                    40.93349968936316
                ]
            }
        },
        {
            "type": "Feature",
            "properties": {
                "name": "Q8",
                "id": "17301",
                "brand": "Q8",
                "amenity": "fuel",
                "operator": "AMBROSINO GIOVANNI"
            },
            "geometry": {
                "type": "Point",
                "coordinates": [
                    14.288224699697594,
                    40.85536601779113
                ]
            }
        },
        {
            "type": "Feature",
            "properties": {
                "name": "REPSOL",
                "id": "18560",
                "brand": "Repsol",
                "amenity": "fuel",
                "operator": "BIG STATION Q8 DI ENRICO BALLETTA"
            },
            "geometry": {
                "type": "Point",
                "coordinates": [
                    14.30388808250427,
                    40.944732281182546
                ]
            }
        },
        {
            "type": "Feature",
            "properties": {
                "name": "FRATTAMINORE - MARTIRI ATELLANI",
                "id": "30242",
                "brand": "Api-Ip",
                "amenity": "fuel",
                "operator": "IP SERVICES S.R.L."
            },
            "geometry": {
                "type": "Point",
                "coordinates": [
                    14.264659766864723,
                    40.96120101274002
                ]
            }
        },
        {
            "type": "Feature",
            "properties": {
                "name": "POMIGLIANO D'ARCO VIA MAURO LEONE 115",
                "id": "16785",
                "brand": "Q8",
                "amenity": "fuel",
                "operator": "SERVIZI & GESTIONI ITALIA S.R.L."
            },
            "geometry": {
                "type": "Point",
                "coordinates": [
                    14.399531057008403,
                    40.91388004594245
                ]
            }
        },
        {
            "type": "Feature",
            "properties": {
                "name": "IP",
                "id": "24284",
                "brand": "Api-Ip",
                "amenity": "fuel",
                "operator": "IL CARBURANTE S.R.L."
            },
            "geometry": {
                "type": "Point",
                "coordinates": [
                    14.311280250549318,
                    40.850541586352406
                ]
            }
        },
        {
            "type": "Feature",
            "properties": {
                "name": "Q8 DI PICCOLO LUIGI",
                "id": "15322",
                "brand": "Q8",
                "amenity": "fuel",
                "operator": "PICCOLO LUIGI"
            },
            "geometry": {
                "type": "Point",
                "coordinates": [
                    14.297252297401428,
                    40.910872633117286
                ]
            }
        },
        {
            "type": "Feature",
            "properties": {
                "name": "ESSO",
                "id": "8785",
                "brand": "Esso",
                "amenity": "fuel",
                "operator": "IOVINO S.A.S. DI IOVINO ASSUNTA & DONATELLIS CLAUDIO"
            },
            "geometry": {
                "type": "Point",
                "coordinates": [
                    14.299086928367617,
                    40.94480521661301
                ]
            }
        },
        {
            "type": "Feature",
            "properties": {
                "name": "CARUFFO VALENTINA",
                "id": "18241",
                "amenity": "fuel",
                "operator": "CARUFFO VALENTINA"
            },
            "geometry": {
                "type": "Point",
                "coordinates": [
                    14.280980819582396,
                    40.86192487605891
                ]
            }
        },
        {
            "type": "Feature",
            "properties": {
                "name": "SCUDILLO EST",
                "id": "3615",
                "brand": "Api-Ip",
                "amenity": "fuel",
                "operator": "SCUDILLO PETROLI S.R.L."
            },
            "geometry": {
                "type": "Point",
                "coordinates": [
                    14.243377874252474,
                    40.86568544250829
                ]
            }
        },
        {
            "type": "Feature",
            "properties": {
                "name": "ESSO SS162 dir",
                "id": "15789",
                "brand": "Esso",
                "amenity": "fuel",
                "operator": "MAGA GEST. S.R.L."
            },
            "geometry": {
                "type": "Point",
                "coordinates": [
                    14.388006925582882,
                    40.89302999688766
                ]
            }
        },
        {
            "type": "Feature",
            "properties": {
                "name": "stazione Esso icel sas di Migliaccio",
                "id": "14148",
                "brand": "Esso",
                "amenity": "fuel",
                "operator": "I.C.E.L. S.A.S. DI MIGLIACCIO LUCIANO & C."
            },
            "geometry": {
                "type": "Point",
                "coordinates": [
                    14.259292334318161,
                    40.907368221705916
                ]
            }
        },
        {
            "type": "Feature",
            "properties": {
                "name": "MG CARBURANTI DI DE CHIARA G. E DE CHIARA M. S.N.C.",
                "id": "20677",
                "amenity": "fuel",
                "operator": "D & D DI DE CHIARA GABRIELE E DE CHIARA MARCELLO S.N.C."
            },
            "geometry": {
                "type": "Point",
                "coordinates": [
                    14.366717487573629,
                    40.94743853686717
                ]
            }
        },
        {
            "type": "Feature",
            "properties": {
                "name": "TAMOIL",
                "id": "15394",
                "brand": "Tamoil",
                "amenity": "fuel",
                "operator": "FULL SERVICE S.A.S. DI DEL PRETE SOSIO & C."
            },
            "geometry": {
                "type": "Point",
                "coordinates": [
                    14.258404523134232,
                    40.946680439922034
                ]
            }
        },
        {
            "type": "Feature",
            "properties": {
                "name": "IP",
                "id": "31887",
                "brand": "Api-Ip",
                "amenity": "fuel",
                "operator": "SORVILLO VINCENZO"
            },
            "geometry": {
                "type": "Point",
                "coordinates": [
                    14.280422284866404,
                    40.937370855372606
                ]
            }
        },
        {
            "type": "Feature",
            "properties": {
                "name": "ECO TRADING AREA SRL",
                "id": "14037",
                "amenity": "fuel",
                "operator": "ECO TRADING AREA S.R.L. - DISTRIBUZIONE CARBURANTI ECOLOGICI"
            },
            "geometry": {
                "type": "Point",
                "coordinates": [
                    14.377052038908005,
                    40.865957192211646
                ]
            }
        },
        {
            "type": "Feature",
            "properties": {
                "name": "Repsol",
                "id": "17179",
                "brand": "Repsol",
                "amenity": "fuel",
                "operator": "VULCANO PETROLI S.R.L."
            },
            "geometry": {
                "type": "Point",
                "coordinates": [
                    14.400169327855112,
                    40.903414386964
                ]
            }
        },
        {
            "type": "Feature",
            "properties": {
                "name": "VOLLA",
                "id": "26659",
                "brand": "Q8",
                "amenity": "fuel",
                "operator": "ZETA GAS S.P.A."
            },
            "geometry": {
                "type": "Point",
                "coordinates": [
                    14.356538504362105,
                    40.875412512552344
                ]
            }
        },
        {
            "type": "Feature",
            "properties": {
                "name": "Eurocarb srl",
                "id": "20890",
                "brand": "Esso",
                "amenity": "fuel",
                "operator": "EUROCARB S.R.L."
            },
            "geometry": {
                "type": "Point",
                "coordinates": [
                    14.329589009284973,
                    40.89658868164681
                ]
            }
        },
        {
            "type": "Feature",
            "properties": {
                "name": "Tamoil",
                "id": "7397",
                "brand": "Tamoil",
                "amenity": "fuel",
                "operator": "RUSSALF S.A.S. DI ALFIERI CIRO & C."
            },
            "geometry": {
                "type": "Point",
                "coordinates": [
                    14.288815408945082,
                    40.90768769681284
                ]
            }
        },
        {
            "type": "Feature",
            "properties": {
                "name": "esso",
                "id": "30708",
                "brand": "Esso",
                "amenity": "fuel",
                "operator": "MOSCA FAUSTO"
            },
            "geometry": {
                "type": "Point",
                "coordinates": [
                    14.270475804805756,
                    40.878201511249955
                ]
            }
        },
        {
            "type": "Feature",
            "properties": {
                "name": "DOGANELLA OVEST",
                "id": "3683",
                "brand": "Agip Eni",
                "amenity": "fuel",
                "operator": "ALBOREA SRL"
            },
            "geometry": {
                "type": "Point",
                "coordinates": [
                    14.278937578201294,
                    40.87261931155706
                ]
            }
        },
        {
            "type": "Feature",
            "properties": {
                "name": "ci.ma sas di cifinelli giovanniluca",
                "id": "12799",
                "brand": "Esso",
                "amenity": "fuel",
                "operator": "CI.MA. S.A.S. DI CIFINELLI GIOVANNILUCA"
            },
            "geometry": {
                "type": "Point",
                "coordinates": [
                    14.249216616153717,
                    40.9034131706002
                ]
            }
        },
        {
            "type": "Feature",
            "properties": {
                "name": "Orta di Atella",
                "id": "24741",
                "brand": "Total Erg",
                "amenity": "fuel",
                "operator": "GESTIONI EUROPA - SOCIETA' PER AZIONI"
            },
            "geometry": {
                "type": "Point",
                "coordinates": [
                    14.263139963150024,
                    40.96152920934232
                ]
            }
        },
        {
            "type": "Feature",
            "properties": {
                "name": "S.PIETRO",
                "id": "3513",
                "brand": "Q8",
                "amenity": "fuel",
                "operator": "SARNI S.R.L."
            },
            "geometry": {
                "type": "Point",
                "coordinates": [
                    14.298187234115629,
                    40.88415920489065
                ]
            }
        },
        {
            "type": "Feature",
            "properties": {
                "name": "Salzano Antonio",
                "id": "27853",
                "amenity": "fuel",
                "operator": "SALZANO ANTONIO"
            },
            "geometry": {
                "type": "Point",
                "coordinates": [
                    14.299802244705232,
                    40.926845784518605
                ]
            }
        },
        {
            "type": "Feature",
            "properties": {
                "name": "stazione esso di manciniandrea",
                "id": "17079",
                "brand": "Esso",
                "amenity": "fuel",
                "operator": "MANCINI ANDREA"
            },
            "geometry": {
                "type": "Point",
                "coordinates": [
                    14.284850433468819,
                    40.87223306888205
                ]
            }
        },
        {
            "type": "Feature",
            "properties": {
                "name": "S.ANASTASIA S.S. 268 KM 4+709",
                "id": "9119",
                "brand": "Q8",
                "amenity": "fuel",
                "operator": "SERVIZI & GESTIONI ITALIA S.R.L."
            },
            "geometry": {
                "type": "Point",
                "coordinates": [
                    14.40944241838531,
                    40.881556787255455
                ]
            }
        },
        {
            "type": "Feature",
            "properties": {
                "name": "vitagliano vincenzo",
                "id": "24950",
                "brand": "Api-Ip",
                "amenity": "fuel",
                "operator": "VITAGLIANO VINCENZO"
            },
            "geometry": {
                "type": "Point",
                "coordinates": [
                    14.271960407495499,
                    40.912521386338945
                ]
            }
        },
        {
            "type": "Feature",
            "properties": {
                "name": "api-ip",
                "id": "31930",
                "brand": "Api-Ip",
                "amenity": "fuel",
                "operator": "ANTIMO PETROLI S.R.L."
            },
            "geometry": {
                "type": "Point",
                "coordinates": [
                    14.27582089723569,
                    40.945324301418104
                ]
            }
        },
        {
            "type": "Feature",
            "properties": {
                "name": "Q8",
                "id": "16975",
                "brand": "Q8",
                "amenity": "fuel",
                "operator": "VILARDI ENRICO"
            },
            "geometry": {
                "type": "Point",
                "coordinates": [
                    14.262040257453917,
                    40.859673519284684
                ]
            }
        },
        {
            "type": "Feature",
            "properties": {
                "name": "PV 18148",
                "id": "25272",
                "brand": "Agip Eni",
                "amenity": "fuel",
                "operator": "GESTIONI INNOVATIVE ITALIA S.R.L."
            },
            "geometry": {
                "type": "Point",
                "coordinates": [
                    14.323423951864244,
                    40.9193865979874
                ]
            }
        },
        {
            "type": "Feature",
            "properties": {
                "name": "NAPOLI BOTTEGHELLE",
                "id": "28845",
                "brand": "Esso",
                "amenity": "fuel",
                "operator": "EWAGRILL DI SALZILLO VINCENZO & C S.N.C."
            },
            "geometry": {
                "type": "Point",
                "coordinates": [
                    14.329211421803961,
                    40.86578235770855
                ]
            }
        },
        {
            "type": "Feature",
            "properties": {
                "name": "POMIGLIANO D'ARCO - VIA POMIGLIANO.",
                "id": "7302",
                "brand": "Q8",
                "amenity": "fuel",
                "operator": "SERVIZI & GESTIONI ITALIA S.R.L."
            },
            "geometry": {
                "type": "Point",
                "coordinates": [
                    14.394618271163948,
                    40.8891806710201
                ]
            }
        },
        {
            "type": "Feature",
            "properties": {
                "name": "MASSERIA EST",
                "id": "3515",
                "brand": "Q8",
                "amenity": "fuel",
                "operator": "SARNI S.R.L."
            },
            "geometry": {
                "type": "Point",
                "coordinates": [
                    14.318506530094282,
                    40.891888397344644
                ]
            }
        },
        {
            "type": "Feature",
            "properties": {
                "name": "ESSO",
                "id": "15690",
                "brand": "Esso",
                "amenity": "fuel",
                "operator": "SALVADORI ORESTE"
            },
            "geometry": {
                "type": "Point",
                "coordinates": [
                    14.265009995169525,
                    40.86624854345855
                ]
            }
        },
        {
            "type": "Feature",
            "properties": {
                "name": "tigest srl",
                "id": "13345",
                "brand": "Q8",
                "amenity": "fuel",
                "operator": "TIGEST S.R.L."
            },
            "geometry": {
                "type": "Point",
                "coordinates": [
                    14.354476564031984,
                    40.896983951176146
                ]
            }
        }
    ]
}