{
    "type": "FeatureCollection",
    "features": [
        {
            "type": "Feature",
            "properties": {
                "name": "TOTALERG",
                "id": "27361",
                "brand": "Total Erg",
                "amenity": "fuel",
                "operator": "POLLIO MARTINO"
            },
            "geometry": {
                "type": "Point",
                "coordinates": [
                    14.38512682914734,
                    40.62745367240307
                ]
            }
        },
        {
            "type": "Feature",
            "properties": {
                "name": "SORRENTO VIA DEGLI ARANCI",
                "id": "9003",
                "brand": "Q8",
                "amenity": "fuel",
                "operator": "SERVIZI & GESTIONI ITALIA S.R.L."
            },
            "geometry": {
                "type": "Point",
                "coordinates": [
                    14.379842879648546,
                    40.625124941852
                ]
            }
        },
        {
            "type": "Feature",
            "properties": {
                "name": "Mae.Se.carburanti s.a.s.",
                "id": "23903",
                "brand": "Agip Eni",
                "amenity": "fuel",
                "operator": "MAR.SE CARBURANTI DI GIOVANNI ED ELENA MARTORELLI & C. S.A.S"
            },
            "geometry": {
                "type": "Point",
                "coordinates": [
                    14.374507963657381,
                    40.60624580915202
                ]
            }
        },
        {
            "type": "Feature",
            "properties": {
                "name": "esso",
                "id": "20620",
                "brand": "Esso",
                "amenity": "fuel",
                "operator": "MARCO DI PALMA & C. S.A.S."
            },
            "geometry": {
                "type": "Point",
                "coordinates": [
                    14.403996169567106,
                    40.630437923945784
                ]
            }
        },
        {
            "type": "Feature",
            "properties": {
                "name": "Q8",
                "id": "18521",
                "brand": "Q8",
                "amenity": "fuel",
                "operator": "QUATRARO GIUSEPPE"
            },
            "geometry": {
                "type": "Point",
                "coordinates": [
                    14.403430517860444,
                    40.63038721685209
                ]
            }
        },
        {
            "type": "Feature",
            "properties": {
                "name": "Stazione di servizio Ranzo Mario",
                "id": "19655",
                "brand": "Agip Eni",
                "amenity": "fuel",
                "operator": "RANZO MARIO"
            },
            "geometry": {
                "type": "Point",
                "coordinates": [
                    14.393631925200678,
                    40.629472252646586
                ]
            }
        },
        {
            "type": "Feature",
            "properties": {
                "name": "Ditta Aversa Roberto",
                "id": "15867",
                "brand": "Esso",
                "amenity": "fuel",
                "operator": "AVERSA ROBERTO"
            },
            "geometry": {
                "type": "Point",
                "coordinates": [
                    14.399595192590368,
                    40.63038982091061
                ]
            }
        },
        {
            "type": "Feature",
            "properties": {
                "name": "TOTALERG",
                "id": "27360",
                "brand": "Total Erg",
                "amenity": "fuel",
                "operator": "POLLIO MARTINO"
            },
            "geometry": {
                "type": "Point",
                "coordinates": [
                    14.409340345223768,
                    40.632264478766416
                ]
            }
        },
        {
            "type": "Feature",
            "properties": {
                "name": "ESSO",
                "id": "15676",
                "brand": "Esso",
                "amenity": "fuel",
                "operator": "ROMEO CARBURANTI DI ROMEO ANNIBALE & C. S.A.S."
            },
            "geometry": {
                "type": "Point",
                "coordinates": [
                    14.38620775938034,
                    40.62800778426901
                ]
            }
        },
        {
            "type": "Feature",
            "properties": {
                "name": "ESSO",
                "id": "24554",
                "brand": "Esso",
                "amenity": "fuel",
                "operator": "MARCIA VITTORIO"
            },
            "geometry": {
                "type": "Point",
                "coordinates": [
                    14.343189004568783,
                    40.61233654636725
                ]
            }
        },
        {
            "type": "Feature",
            "properties": {
                "name": "IP",
                "id": "17503",
                "brand": "Api-Ip",
                "amenity": "fuel",
                "operator": "CELENTANO MICHELE"
            },
            "geometry": {
                "type": "Point",
                "coordinates": [
                    14.39445286989212,
                    40.62946876927913
                ]
            }
        },
        {
            "type": "Feature",
            "properties": {
                "name": "ESSO",
                "id": "15163",
                "brand": "Esso",
                "amenity": "fuel",
                "operator": "SCIARDO' S.N.C. DI SCIARDO' ANTONIO & C."
            },
            "geometry": {
                "type": "Point",
                "coordinates": [
                    14.3690841064149,
                    40.62443569650315
                ]
            }
        },
        {
            "type": "Feature",
            "properties": {
                "name": "AREA SERVICE",
                "id": "15114",
                "brand": "Esso",
                "amenity": "fuel",
                "operator": "AREA SERVICE DI CACCAVIELLO ANTONINO S.A.S."
            },
            "geometry": {
                "type": "Point",
                "coordinates": [
                    14.371726512908934,
                    40.6056334399671
                ]
            }
        },
        {
            "type": "Feature",
            "properties": {
                "name": "Totalerg di Gennaro Aiello",
                "id": "27376",
                "brand": "Total Erg",
                "amenity": "fuel",
                "operator": "AIELLO GENNARO"
            },
            "geometry": {
                "type": "Point",
                "coordinates": [
                    14.355279627756087,
                    40.62887097951016
                ]
            }
        },
        {
            "type": "Feature",
            "properties": {
                "name": "Stazione di Servizio Ciro Pagano",
                "id": "19656",
                "brand": "Agip Eni",
                "amenity": "fuel",
                "operator": "SER.PE.CO. DI PAGANO CIRO"
            },
            "geometry": {
                "type": "Point",
                "coordinates": [
                    14.382120743393896,
                    40.62667766370439
                ]
            }
        },
        {
            "type": "Feature",
            "properties": {
                "name": "PERSICO PETROLI",
                "id": "14593",
                "amenity": "fuel",
                "operator": "PERSICO PETROLI S.A.S. DI PERSICO RAFFAELE E FIGLI"
            },
            "geometry": {
                "type": "Point",
                "coordinates": [
                    14.372706464950062,
                    40.605513895373406
                ]
            }
        }
    ]
}