{
    "type": "FeatureCollection",
    "features": [
        {
            "type": "Feature",
            "properties": {
                "name": "spadera italia srl",
                "id": "20095",
                "brand": "Api-Ip",
                "amenity": "fuel",
                "operator": "SPADERA ITALIA S.R.L."
            },
            "geometry": {
                "type": "Point",
                "coordinates": [
                    14.360691905021666,
                    42.2997057115289
                ]
            }
        },
        {
            "type": "Feature",
            "properties": {
                "name": "Di Sario srl",
                "id": "22554",
                "amenity": "fuel",
                "operator": "DI SARIO S.R.L."
            },
            "geometry": {
                "type": "Point",
                "coordinates": [
                    14.305671877909845,
                    42.302288318099365
                ]
            }
        },
        {
            "type": "Feature",
            "properties": {
                "name": "ALENTO OVEST",
                "id": "3730",
                "brand": "Agip Eni",
                "amenity": "fuel",
                "operator": "DITTA FERRO VITO"
            },
            "geometry": {
                "type": "Point",
                "coordinates": [
                    14.288167055225358,
                    42.38654047428998
                ]
            }
        },
        {
            "type": "Feature",
            "properties": {
                "name": "eni",
                "id": "9424",
                "brand": "Agip Eni",
                "amenity": "fuel",
                "operator": "TUCCI ALESSANDRO"
            },
            "geometry": {
                "type": "Point",
                "coordinates": [
                    14.39092040061951,
                    42.33015051367128
                ]
            }
        },
        {
            "type": "Feature",
            "properties": {
                "name": "gasoline station",
                "id": "15231",
                "amenity": "fuel",
                "operator": "PETROL SERVICE S.R.L."
            },
            "geometry": {
                "type": "Point",
                "coordinates": [
                    14.27310465597725,
                    42.4216542911159
                ]
            }
        },
        {
            "type": "Feature",
            "properties": {
                "name": "ALENTO EST",
                "id": "3791",
                "brand": "Shell",
                "amenity": "fuel",
                "operator": "SARA DI G. BAGNATO & C. S.A.S."
            },
            "geometry": {
                "type": "Point",
                "coordinates": [
                    14.289196152114869,
                    42.38849225007389
                ]
            }
        },
        {
            "type": "Feature",
            "properties": {
                "name": "Ditta Ranalli Giuseppe Srl",
                "id": "13834",
                "amenity": "fuel",
                "operator": "DITTA RANALLI GIUSEPPE - S.R.L."
            },
            "geometry": {
                "type": "Point",
                "coordinates": [
                    14.412005363993103,
                    42.356897543793664
                ]
            }
        },
        {
            "type": "Feature",
            "properties": {
                "name": "impianto totalerg CH036",
                "id": "30067",
                "brand": "Total Erg",
                "amenity": "fuel",
                "operator": "MED OIL - SOCIETA' A RESPONSABILITA' LIMITATA"
            },
            "geometry": {
                "type": "Point",
                "coordinates": [
                    14.296723902225498,
                    42.391554563595044
                ]
            }
        },
        {
            "type": "Feature",
            "properties": {
                "name": "Area Torrevecchia Teatina",
                "id": "20924",
                "amenity": "fuel",
                "operator": "GOLDENGAS - SOCIETA' PER AZIONI"
            },
            "geometry": {
                "type": "Point",
                "coordinates": [
                    14.250856116414072,
                    42.392024841344494
                ]
            }
        },
        {
            "type": "Feature",
            "properties": {
                "name": "OK CARBURANTI ORTONA",
                "id": "30006",
                "amenity": "fuel",
                "operator": "ALENTO FUEL S.R.L."
            },
            "geometry": {
                "type": "Point",
                "coordinates": [
                    14.376396238803864,
                    42.3432521190817
                ]
            }
        },
        {
            "type": "Feature",
            "properties": {
                "name": "SECCIA GIANLUCA",
                "id": "8723",
                "brand": "Agip Eni",
                "amenity": "fuel",
                "operator": "SECCIA GIANLUCA"
            },
            "geometry": {
                "type": "Point",
                "coordinates": [
                    14.387106299400328,
                    42.351556980264974
                ]
            }
        },
        {
            "type": "Feature",
            "properties": {
                "name": "De Marco Patrizio",
                "id": "8897",
                "brand": "Agip Eni",
                "amenity": "fuel",
                "operator": "DE MARCO PATRIZIO"
            },
            "geometry": {
                "type": "Point",
                "coordinates": [
                    14.287958095037084,
                    42.35575839400206
                ]
            }
        },
        {
            "type": "Feature",
            "properties": {
                "name": "Ip",
                "id": "23046",
                "brand": "Api-Ip",
                "amenity": "fuel",
                "operator": "PANTALONE MIRCO"
            },
            "geometry": {
                "type": "Point",
                "coordinates": [
                    14.351749420166017,
                    42.38795704051598
                ]
            }
        },
        {
            "type": "Feature",
            "properties": {
                "name": "OK CARBURANTI",
                "id": "30005",
                "amenity": "fuel",
                "operator": "ALENTO FUEL S.R.L."
            },
            "geometry": {
                "type": "Point",
                "coordinates": [
                    14.278411120176314,
                    42.36006211090474
                ]
            }
        },
        {
            "type": "Feature",
            "properties": {
                "name": "ORTONA MONTE MAIELLA",
                "id": "29783",
                "brand": "Retitalia",
                "amenity": "fuel",
                "operator": "PETROLIFERA ADRIATICA S.P.A."
            },
            "geometry": {
                "type": "Point",
                "coordinates": [
                    14.402688830688474,
                    42.35676871289862
                ]
            }
        },
        {
            "type": "Feature",
            "properties": {
                "name": "IP De Luca carburanti Villamagna",
                "id": "25893",
                "brand": "Api-Ip",
                "amenity": "fuel",
                "operator": "TOMMASO DE LUCA CARBURANTI S.R.L."
            },
            "geometry": {
                "type": "Point",
                "coordinates": [
                    14.239075183868405,
                    42.312308274268474
                ]
            }
        },
        {
            "type": "Feature",
            "properties": {
                "name": "ESSO",
                "id": "9935",
                "brand": "Esso",
                "amenity": "fuel",
                "operator": "D.C.B. S.A.S. DI DI CECCO BRUNO & C."
            },
            "geometry": {
                "type": "Point",
                "coordinates": [
                    14.266532957553865,
                    42.42005724587174
                ]
            }
        },
        {
            "type": "Feature",
            "properties": {
                "name": "Eni 26610",
                "id": "29449",
                "brand": "Agip Eni",
                "amenity": "fuel",
                "operator": "BRACCIALE DENIS"
            },
            "geometry": {
                "type": "Point",
                "coordinates": [
                    14.318590611219406,
                    42.34967542882281
                ]
            }
        },
        {
            "type": "Feature",
            "properties": {
                "name": "tre esse di g.seccia e figli sas",
                "id": "14772",
                "brand": "Agip Eni",
                "amenity": "fuel",
                "operator": "TRE ESSE DI GIUSEPPE SECCIA E FIGLI SAS"
            },
            "geometry": {
                "type": "Point",
                "coordinates": [
                    14.401949644088745,
                    42.34662224802371
                ]
            }
        },
        {
            "type": "Feature",
            "properties": {
                "name": "FRANCAVILLA A MARE",
                "id": "17659",
                "brand": "Api-Ip",
                "amenity": "fuel",
                "operator": "IP SERVICES S.R.L."
            },
            "geometry": {
                "type": "Point",
                "coordinates": [
                    14.29680134110447,
                    42.41541188123115
                ]
            }
        }
    ]
}