{
    "type": "FeatureCollection",
    "features": [
        {
            "type": "Feature",
            "properties": {
                "name": "CLAJL DI DI MAIO GAETANO",
                "id": "15980",
                "amenity": "fuel",
                "operator": "CLAJL DI DI MAIO GAETANO"
            },
            "geometry": {
                "type": "Point",
                "coordinates": [
                    14.362389743328093,
                    40.8439104946054
                ]
            }
        },
        {
            "type": "Feature",
            "properties": {
                "name": "NAPOLI-VIA REPUBBLICHE MARINARE 392",
                "id": "11734",
                "brand": "Q8",
                "amenity": "fuel",
                "operator": "SERVIZI & GESTIONI ITALIA S.R.L."
            },
            "geometry": {
                "type": "Point",
                "coordinates": [
                    14.320937550926145,
                    40.831767528857256
                ]
            }
        },
        {
            "type": "Feature",
            "properties": {
                "name": "IMPIANTO Q8 DI FRANCO PETROLI S.A.S.",
                "id": "28953",
                "brand": "Q8",
                "amenity": "fuel",
                "operator": "DI FRANCO PALMERINO"
            },
            "geometry": {
                "type": "Point",
                "coordinates": [
                    14.386063577810999,
                    40.7707923084201
                ]
            }
        },
        {
            "type": "Feature",
            "properties": {
                "name": "Distributore Tamoil Impianto 8332",
                "id": "13092",
                "brand": "Tamoil",
                "amenity": "fuel",
                "operator": "VENUSO SALVATORE"
            },
            "geometry": {
                "type": "Point",
                "coordinates": [
                    14.312672622965236,
                    40.845943261022875
                ]
            }
        },
        {
            "type": "Feature",
            "properties": {
                "name": "STAZIONE ESSO",
                "id": "15897",
                "brand": "Esso",
                "amenity": "fuel",
                "operator": "DE.AS. DI ASTARITA  FRANCO & C. S.A.S."
            },
            "geometry": {
                "type": "Point",
                "coordinates": [
                    14.340851604938505,
                    40.84139358183089
                ]
            }
        },
        {
            "type": "Feature",
            "properties": {
                "name": "Q8 NUOVA CARBURANTI SRL",
                "id": "16698",
                "brand": "Q8",
                "amenity": "fuel",
                "operator": "NUOVA CARBURANTI  S.R.L."
            },
            "geometry": {
                "type": "Point",
                "coordinates": [
                    14.334207807409713,
                    40.84329092615995
                ]
            }
        },
        {
            "type": "Feature",
            "properties": {
                "name": "ERCOLANO VIA B. COZZOLINO, 101",
                "id": "25008",
                "brand": "Q8",
                "amenity": "fuel",
                "operator": "SERVIZI & GESTIONI ITALIA S.R.L."
            },
            "geometry": {
                "type": "Point",
                "coordinates": [
                    14.3705156583012,
                    40.80445606762352
                ]
            }
        },
        {
            "type": "Feature",
            "properties": {
                "name": "Esso",
                "id": "15038",
                "brand": "Esso",
                "amenity": "fuel",
                "operator": "ZAMBONI MARCO"
            },
            "geometry": {
                "type": "Point",
                "coordinates": [
                    14.25560264459898,
                    40.84030018346606
                ]
            }
        },
        {
            "type": "Feature",
            "properties": {
                "name": "stazione di servizio esso lucarella",
                "id": "12189",
                "brand": "Esso",
                "amenity": "fuel",
                "operator": "LUCARELLA ROSA PETROLI"
            },
            "geometry": {
                "type": "Point",
                "coordinates": [
                    14.358681589365005,
                    40.79220939502857
                ]
            }
        },
        {
            "type": "Feature",
            "properties": {
                "name": "IMPIANTO TOTAL ERG",
                "id": "16451",
                "brand": "Total Erg",
                "amenity": "fuel",
                "operator": "ROMINO MASSIMO"
            },
            "geometry": {
                "type": "Point",
                "coordinates": [
                    14.354110028895205,
                    40.80854642804598
                ]
            }
        },
        {
            "type": "Feature",
            "properties": {
                "name": "IMPIANTO MARINO",
                "id": "31289",
                "amenity": "fuel",
                "operator": "NUOVA FUEL CALOR S.R.L."
            },
            "geometry": {
                "type": "Point",
                "coordinates": [
                    14.362934231758116,
                    40.786081807102576
                ]
            }
        },
        {
            "type": "Feature",
            "properties": {
                "name": "NAPOLI P.ZA S. ERASMO IMPIANTO Q8",
                "id": "6836",
                "brand": "Q8",
                "amenity": "fuel",
                "operator": "SERVIZI & GESTIONI ITALIA srl"
            },
            "geometry": {
                "type": "Point",
                "coordinates": [
                    14.283217930688467,
                    40.844458162052035
                ]
            }
        },
        {
            "type": "Feature",
            "properties": {
                "name": "ENI",
                "id": "27909",
                "brand": "Agip Eni",
                "amenity": "fuel",
                "operator": "PETROLSANNINO S.R.L."
            },
            "geometry": {
                "type": "Point",
                "coordinates": [
                    14.358663409787027,
                    40.808461776378664
                ]
            }
        },
        {
            "type": "Feature",
            "properties": {
                "name": "STAZIONE DI SERVIZIO ENI 28057 - TORRE DEL GRECO (NA)",
                "id": "31144",
                "brand": "Agip Eni",
                "amenity": "fuel",
                "operator": "VIRO FUEL DI VITTORIO ROMITO"
            },
            "geometry": {
                "type": "Point",
                "coordinates": [
                    14.375322014093397,
                    40.78219567221273
                ]
            }
        },
        {
            "type": "Feature",
            "properties": {
                "name": "SAN SEBASTIANO AL VESUVIO",
                "id": "25995",
                "brand": "Tamoil",
                "amenity": "fuel",
                "operator": "ENERGY PLANTS MANAGEMENT SERVICE S.R.L."
            },
            "geometry": {
                "type": "Point",
                "coordinates": [
                    14.369967325282799,
                    40.84582173509511
                ]
            }
        },
        {
            "type": "Feature",
            "properties": {
                "name": "ERCOLANO VIA DEGLI ULIVI",
                "id": "6702",
                "brand": "Q8",
                "amenity": "fuel",
                "operator": "SERVIZI & GESTIONI ITALIA srl"
            },
            "geometry": {
                "type": "Point",
                "coordinates": [
                    14.356227699999977,
                    40.814464840785895
                ]
            }
        },
        {
            "type": "Feature",
            "properties": {
                "name": "4825",
                "id": "30768",
                "brand": "Tamoil",
                "amenity": "fuel",
                "operator": "T.D.M. S.R.L."
            },
            "geometry": {
                "type": "Point",
                "coordinates": [
                    14.412388801574707,
                    40.75939303666961
                ]
            }
        },
        {
            "type": "Feature",
            "properties": {
                "name": "NAPOLI G. FERRARIS 172",
                "id": "26018",
                "brand": "Q8",
                "amenity": "fuel",
                "operator": "SERVIZI & GESTIONI ITALIA S.R.L."
            },
            "geometry": {
                "type": "Point",
                "coordinates": [
                    14.298712766270457,
                    40.84657667223768
                ]
            }
        },
        {
            "type": "Feature",
            "properties": {
                "name": "TORRE DEL GRECO VIA NAZIONALE,232",
                "id": "25140",
                "brand": "Q8",
                "amenity": "fuel",
                "operator": "SERVIZI & GESTIONI ITALIA S.R.L."
            },
            "geometry": {
                "type": "Point",
                "coordinates": [
                    14.386767670512198,
                    40.77905654087163
                ]
            }
        },
        {
            "type": "Feature",
            "properties": {
                "name": "ENI NOCERINO PORTICI",
                "id": "15120",
                "brand": "Agip Eni",
                "amenity": "fuel",
                "operator": "NOCERINO RAFFAELE & FIGLI S.A.S. DI NOCERINO GIOVANNI"
            },
            "geometry": {
                "type": "Point",
                "coordinates": [
                    14.33598568526213,
                    40.81949084940735
                ]
            }
        },
        {
            "type": "Feature",
            "properties": {
                "name": "ENI",
                "id": "24556",
                "brand": "Agip Eni",
                "amenity": "fuel",
                "operator": "GUAPPONE VINCENZO"
            },
            "geometry": {
                "type": "Point",
                "coordinates": [
                    14.339361064799618,
                    40.84397348108511
                ]
            }
        },
        {
            "type": "Feature",
            "properties": {
                "name": "Stazione di Servizio Repsol",
                "id": "12639",
                "brand": "Repsol",
                "amenity": "fuel",
                "operator": "PARKING TIME DI TARANTINO MARCO"
            },
            "geometry": {
                "type": "Point",
                "coordinates": [
                    14.353527600532969,
                    40.803136335359866
                ]
            }
        },
        {
            "type": "Feature",
            "properties": {
                "name": "Distributore Esso di Scherillo Giovanni",
                "id": "15878",
                "brand": "Esso",
                "amenity": "fuel",
                "operator": "SCHERILLO GIOVANNI"
            },
            "geometry": {
                "type": "Point",
                "coordinates": [
                    14.255958882014284,
                    40.84022409147923
                ]
            }
        },
        {
            "type": "Feature",
            "properties": {
                "name": "TORRE DEL GRECO VIA NAZIONALE  233 - IMP. Q8",
                "id": "6704",
                "brand": "Q8",
                "amenity": "fuel",
                "operator": "SERVIZI & GESTIONI ITALIA srl"
            },
            "geometry": {
                "type": "Point",
                "coordinates": [
                    14.387906467674384,
                    40.77828314556314
                ]
            }
        },
        {
            "type": "Feature",
            "properties": {
                "name": "DISTRIBUTORE TAMOIL",
                "id": "9879",
                "brand": "Tamoil",
                "amenity": "fuel",
                "operator": "GIACOMETTI LUIGI"
            },
            "geometry": {
                "type": "Point",
                "coordinates": [
                    14.348599519787287,
                    40.819074802377884
                ]
            }
        },
        {
            "type": "Feature",
            "properties": {
                "name": "STAZIONE DI SERVIZIO DI ANIELLO COPPOLA",
                "id": "28849",
                "amenity": "fuel",
                "operator": "STAZIONE DI SERVIZIO COPPOLA ANIELLO"
            },
            "geometry": {
                "type": "Point",
                "coordinates": [
                    14.355087705557255,
                    40.80405859642897
                ]
            }
        },
        {
            "type": "Feature",
            "properties": {
                "name": "IMPIANTO AGIP",
                "id": "14342",
                "brand": "Agip Eni",
                "amenity": "fuel",
                "operator": "DOMENICO ANTONELLI E GIUSEPPINA LAROTONDA E C. S.N.C."
            },
            "geometry": {
                "type": "Point",
                "coordinates": [
                    14.25645096644871,
                    40.840866556968884
                ]
            }
        },
        {
            "type": "Feature",
            "properties": {
                "name": "ESSO",
                "id": "14185",
                "brand": "Esso",
                "amenity": "fuel",
                "operator": "BARONE VINCENZO"
            },
            "geometry": {
                "type": "Point",
                "coordinates": [
                    14.394869122476166,
                    40.77471926595512
                ]
            }
        },
        {
            "type": "Feature",
            "properties": {
                "name": "SP PETROLI",
                "id": "24538",
                "amenity": "fuel",
                "operator": "GOLD PETROLI SRL"
            },
            "geometry": {
                "type": "Point",
                "coordinates": [
                    14.339215480157236,
                    40.807189626584275
                ]
            }
        },
        {
            "type": "Feature",
            "properties": {
                "name": "Erg",
                "id": "15723",
                "brand": "Total Erg",
                "amenity": "fuel",
                "operator": "DISTRIBUTORE ERG DI FLORIO ANTONIO"
            },
            "geometry": {
                "type": "Point",
                "coordinates": [
                    14.28792625665665,
                    40.84256155168131
                ]
            }
        },
        {
            "type": "Feature",
            "properties": {
                "name": "SAN GIORGIO A CREMANO VIA MANZONI",
                "id": "24046",
                "brand": "Q8",
                "amenity": "fuel",
                "operator": "SERVIZI & GESTIONI ITALIA S.R.L."
            },
            "geometry": {
                "type": "Point",
                "coordinates": [
                    14.34263984173356,
                    40.83816315925256
                ]
            }
        },
        {
            "type": "Feature",
            "properties": {
                "name": "Ghepardoil (TDG)",
                "id": "28198",
                "amenity": "fuel",
                "operator": "DELTA PETROLI S.A.S. DI FELACO ANTONIO & C."
            },
            "geometry": {
                "type": "Point",
                "coordinates": [
                    14.378057867288591,
                    40.78614232625158
                ]
            }
        },
        {
            "type": "Feature",
            "properties": {
                "name": "CLAJL DI DI MAIO GAETANO",
                "id": "15976",
                "brand": "Api-Ip",
                "amenity": "fuel",
                "operator": "CLAJL DI DI MAIO GAETANO"
            },
            "geometry": {
                "type": "Point",
                "coordinates": [
                    14.362389743328093,
                    40.8439104946054
                ]
            }
        },
        {
            "type": "Feature",
            "properties": {
                "name": "NAPOLI V.REP.MARINARE",
                "id": "25792",
                "brand": "Q8",
                "amenity": "fuel",
                "operator": "SERVIZI & GESTIONI ITALIA S.R.L."
            },
            "geometry": {
                "type": "Point",
                "coordinates": [
                    14.31483351600798,
                    40.836761953755826
                ]
            }
        },
        {
            "type": "Feature",
            "properties": {
                "name": "ECO TRADING AREA SRL",
                "id": "14034",
                "amenity": "fuel",
                "operator": "ECO TRADING AREA S.R.L. - DISTRIBUZIONE CARBURANTI ECOLOGICI"
            },
            "geometry": {
                "type": "Point",
                "coordinates": [
                    14.366668537259104,
                    40.81413078123835
                ]
            }
        },
        {
            "type": "Feature",
            "properties": {
                "name": "Stazione eni De LUCA ALFONSO",
                "id": "32177",
                "brand": "Agip Eni",
                "amenity": "fuel",
                "operator": "STAZIONE I.P. DI DE LUCA ALFONSO"
            },
            "geometry": {
                "type": "Point",
                "coordinates": [
                    14.34287638930641,
                    40.83164723763404
                ]
            }
        },
        {
            "type": "Feature",
            "properties": {
                "name": "DITTA ESPOSITO GIOVANNI",
                "id": "28062",
                "brand": "Api-Ip",
                "amenity": "fuel",
                "operator": "ESPOSITO GIOVANNI"
            },
            "geometry": {
                "type": "Point",
                "coordinates": [
                    14.372103118641913,
                    40.79390051824809
                ]
            }
        },
        {
            "type": "Feature",
            "properties": {
                "name": "ESSO3",
                "id": "29344",
                "brand": "Esso",
                "amenity": "fuel",
                "operator": "MARINOIL S.R.L."
            },
            "geometry": {
                "type": "Point",
                "coordinates": [
                    14.285954072493498,
                    40.84322082135957
                ]
            }
        },
        {
            "type": "Feature",
            "properties": {
                "name": "ENI NOCERINO",
                "id": "15064",
                "brand": "Agip Eni",
                "amenity": "fuel",
                "operator": "NOCERINO RAFFAELE & FIGLI S.A.S. DI NOCERINO GIOVANNI"
            },
            "geometry": {
                "type": "Point",
                "coordinates": [
                    14.36795102209021,
                    40.844052176734614
                ]
            }
        },
        {
            "type": "Feature",
            "properties": {
                "name": "Distributore ESSO  di Borrelli Raffaele",
                "id": "16533",
                "brand": "Esso",
                "amenity": "fuel",
                "operator": "BORRELLI RAFFAELE"
            },
            "geometry": {
                "type": "Point",
                "coordinates": [
                    14.330128256687772,
                    40.82581682176996
                ]
            }
        },
        {
            "type": "Feature",
            "properties": {
                "name": "A5",
                "id": "14708",
                "amenity": "fuel",
                "operator": "A 5 PETROLI S.R.L."
            },
            "geometry": {
                "type": "Point",
                "coordinates": [
                    14.366661903541399,
                    40.81412281440252
                ]
            }
        },
        {
            "type": "Feature",
            "properties": {
                "name": "SP PETROLI SAN GIORGIO",
                "id": "30477",
                "amenity": "fuel",
                "operator": "SANNINO PETROLI S.R.L."
            },
            "geometry": {
                "type": "Point",
                "coordinates": [
                    14.343853182764066,
                    40.83596353231728
                ]
            }
        },
        {
            "type": "Feature",
            "properties": {
                "name": "ESSO REPUBBLICHE",
                "id": "19163",
                "brand": "Esso",
                "amenity": "fuel",
                "operator": "DE LUCA                            LUIGI"
            },
            "geometry": {
                "type": "Point",
                "coordinates": [
                    14.316567555069923,
                    40.83526769404267
                ]
            }
        }
    ]
}