{
    "type": "FeatureCollection",
    "features": [
        {
            "type": "Feature",
            "properties": {
                "name": "stazione eni 18451",
                "id": "19453",
                "brand": "Agip Eni",
                "amenity": "fuel",
                "operator": "CARBURANTI S.A.S. DI RAZZANO MICHELE E C."
            },
            "geometry": {
                "type": "Point",
                "coordinates": [
                    14.296415448188784,
                    41.026688986435886
                ]
            }
        },
        {
            "type": "Feature",
            "properties": {
                "name": "BIP srl",
                "id": "29081",
                "amenity": "fuel",
                "operator": "B.I.P. S.R.L."
            },
            "geometry": {
                "type": "Point",
                "coordinates": [
                    14.37255263328552,
                    41.025008878767714
                ]
            }
        },
        {
            "type": "Feature",
            "properties": {
                "name": "TOTAL ERG",
                "id": "12996",
                "brand": "Total Erg",
                "amenity": "fuel",
                "operator": "RAUCCIO MARCELLO"
            },
            "geometry": {
                "type": "Point",
                "coordinates": [
                    14.279973506927492,
                    41.066619945745366
                ]
            }
        },
        {
            "type": "Feature",
            "properties": {
                "name": "S.NICOLA EST",
                "id": "3668",
                "brand": "Agip Eni",
                "amenity": "fuel",
                "operator": "Borgheseservicesrl"
            },
            "geometry": {
                "type": "Point",
                "coordinates": [
                    14.322657899475077,
                    41.050146652847666
                ]
            }
        },
        {
            "type": "Feature",
            "properties": {
                "name": "AMATO SANTOLO",
                "id": "24458",
                "brand": "Api-Ip",
                "amenity": "fuel",
                "operator": "AMATO SANTOLO"
            },
            "geometry": {
                "type": "Point",
                "coordinates": [
                    14.368867278099062,
                    41.06008090532538
                ]
            }
        },
        {
            "type": "Feature",
            "properties": {
                "name": "ESSO DE LUCIA SERVICE",
                "id": "28413",
                "brand": "Esso",
                "amenity": "fuel",
                "operator": "DE LUCIA SERVICE DI ANTONIO DE LUCIA S.A.S. IN SIGLA DE LUCIA SERVICE S.A.S."
            },
            "geometry": {
                "type": "Point",
                "coordinates": [
                    14.31188238599725,
                    41.073153175549045
                ]
            }
        },
        {
            "type": "Feature",
            "properties": {
                "name": "stazione totalerg",
                "id": "19466",
                "brand": "Total Erg",
                "amenity": "fuel",
                "operator": "CARBURANTI S.A.S. DI RAZZANO MICHELE E C."
            },
            "geometry": {
                "type": "Point",
                "coordinates": [
                    14.392375499010088,
                    41.02233008775486
                ]
            }
        },
        {
            "type": "Feature",
            "properties": {
                "name": "ENI",
                "id": "4240",
                "brand": "Agip Eni",
                "amenity": "fuel",
                "operator": "ANGELUCCI PASQUALE"
            },
            "geometry": {
                "type": "Point",
                "coordinates": [
                    14.266664385795591,
                    41.08146111804406
                ]
            }
        },
        {
            "type": "Feature",
            "properties": {
                "name": "VERNAOIL - CENTURANO",
                "id": "31958",
                "amenity": "fuel",
                "operator": "VERNAGAS GROUP S.R.L."
            },
            "geometry": {
                "type": "Point",
                "coordinates": [
                    14.356628769190479,
                    41.073266568979356
                ]
            }
        },
        {
            "type": "Feature",
            "properties": {
                "name": "STAZIONE Q8 FEDERICO GIUSEPPE",
                "id": "21536",
                "brand": "Q8",
                "amenity": "fuel",
                "operator": "FEDERICO GIUSEPPE"
            },
            "geometry": {
                "type": "Point",
                "coordinates": [
                    14.34621334075928,
                    41.04713033565985
                ]
            }
        },
        {
            "type": "Feature",
            "properties": {
                "name": "CASERTA",
                "id": "5447",
                "brand": "Agip Eni",
                "amenity": "fuel",
                "operator": "enirete oil&nonoil S.p.A."
            },
            "geometry": {
                "type": "Point",
                "coordinates": [
                    14.327653625325977,
                    41.066684732453815
                ]
            }
        },
        {
            "type": "Feature",
            "properties": {
                "name": "totalerg",
                "id": "15099",
                "brand": "Total Erg",
                "amenity": "fuel",
                "operator": "ZARRILLO LUIGI"
            },
            "geometry": {
                "type": "Point",
                "coordinates": [
                    14.303971230983732,
                    41.037240733750785
                ]
            }
        },
        {
            "type": "Feature",
            "properties": {
                "name": "area di servizio agip",
                "id": "19439",
                "brand": "Agip Eni",
                "amenity": "fuel",
                "operator": "PASCARELLA ANNA MARIA"
            },
            "geometry": {
                "type": "Point",
                "coordinates": [
                    14.393263310194016,
                    41.00511507238532
                ]
            }
        },
        {
            "type": "Feature",
            "properties": {
                "name": "A.G.OIL",
                "id": "23464",
                "brand": "Esso",
                "amenity": "fuel",
                "operator": "A.G. OIL SAS DI GOLINO GIOVANNI & C."
            },
            "geometry": {
                "type": "Point",
                "coordinates": [
                    14.278267544705157,
                    41.03726769989666
                ]
            }
        },
        {
            "type": "Feature",
            "properties": {
                "name": "PRIVATO",
                "id": "9079",
                "amenity": "fuel",
                "operator": "VENDEMIA CARBURANTI S.R.L."
            },
            "geometry": {
                "type": "Point",
                "coordinates": [
                    14.28257189691067,
                    41.063491666116796
                ]
            }
        },
        {
            "type": "Feature",
            "properties": {
                "name": "Gaffoil SMCV",
                "id": "14923",
                "amenity": "fuel",
                "operator": "TRAGEN S.R.L."
            },
            "geometry": {
                "type": "Point",
                "coordinates": [
                    14.250153377652166,
                    41.082162269371196
                ]
            }
        },
        {
            "type": "Feature",
            "properties": {
                "name": "tom & fede srl",
                "id": "28886",
                "brand": "Q8",
                "amenity": "fuel",
                "operator": "TOM & FEDE S.R.L."
            },
            "geometry": {
                "type": "Point",
                "coordinates": [
                    14.348056018352509,
                    41.02030240645925
                ]
            }
        },
        {
            "type": "Feature",
            "properties": {
                "name": "VERNAGAS GROUP S.R.L.",
                "id": "19552",
                "amenity": "fuel",
                "operator": "VERNAGAS GROUP S.R.L."
            },
            "geometry": {
                "type": "Point",
                "coordinates": [
                    14.300569467475952,
                    41.07745491595279
                ]
            }
        },
        {
            "type": "Feature",
            "properties": {
                "name": "REPSOL",
                "id": "20607",
                "brand": "Repsol",
                "amenity": "fuel",
                "operator": "ENERFUEL S.R.L."
            },
            "geometry": {
                "type": "Point",
                "coordinates": [
                    14.367363899946211,
                    41.040767789642565
                ]
            }
        },
        {
            "type": "Feature",
            "properties": {
                "name": "eni",
                "id": "16754",
                "brand": "Agip Eni",
                "amenity": "fuel",
                "operator": "PORCELLI RAFFAELE & C. S.N.C."
            },
            "geometry": {
                "type": "Point",
                "coordinates": [
                    14.318382740020756,
                    41.072439294607136
                ]
            }
        },
        {
            "type": "Feature",
            "properties": {
                "name": "t.c.r .s.a.s di barletta roberto",
                "id": "18714",
                "brand": "Agip Eni",
                "amenity": "fuel",
                "operator": "T.C.R. S.A.S. DI BARLETTA ROBERTO."
            },
            "geometry": {
                "type": "Point",
                "coordinates": [
                    14.33889923508923,
                    41.01711403224434
                ]
            }
        },
        {
            "type": "Feature",
            "properties": {
                "name": "ECOS",
                "id": "13133",
                "amenity": "fuel",
                "operator": "DISTRIBUTORI ECOS S.R.L."
            },
            "geometry": {
                "type": "Point",
                "coordinates": [
                    14.389187693595886,
                    41.00867987679888
                ]
            }
        },
        {
            "type": "Feature",
            "properties": {
                "name": "t.c.r. s.a.s di barletta roberto",
                "id": "18711",
                "brand": "Agip Eni",
                "amenity": "fuel",
                "operator": "T.C.R. S.A.S. DI BARLETTA ROBERTO."
            },
            "geometry": {
                "type": "Point",
                "coordinates": [
                    14.380558542327893,
                    41.03702681479209
                ]
            }
        },
        {
            "type": "Feature",
            "properties": {
                "name": "ECOS",
                "id": "30107",
                "amenity": "fuel",
                "operator": "DISTRIBUTORI ECOS S.R.L."
            },
            "geometry": {
                "type": "Point",
                "coordinates": [
                    14.414018177909838,
                    41.068191133159715
                ]
            }
        },
        {
            "type": "Feature",
            "properties": {
                "name": "shell",
                "id": "9732",
                "brand": "Shell",
                "amenity": "fuel",
                "operator": "LUOIL S.R.L."
            },
            "geometry": {
                "type": "Point",
                "coordinates": [
                    14.252614974975588,
                    41.101535992738874
                ]
            }
        },
        {
            "type": "Feature",
            "properties": {
                "name": "Tamoil",
                "id": "26416",
                "brand": "Tamoil",
                "amenity": "fuel",
                "operator": "MALATESTA DOMENICO"
            },
            "geometry": {
                "type": "Point",
                "coordinates": [
                    14.335290044546129,
                    41.03596775882688
                ]
            }
        },
        {
            "type": "Feature",
            "properties": {
                "name": "IP- CASERTA",
                "id": "20633",
                "brand": "Api-Ip",
                "amenity": "fuel",
                "operator": "DELTA PETROLI S.A.S. DI FELACO ANTONIO & C."
            },
            "geometry": {
                "type": "Point",
                "coordinates": [
                    14.346835613250732,
                    41.08149629714186
                ]
            }
        },
        {
            "type": "Feature",
            "properties": {
                "name": "STAZIONE RIFORNIMENTO IP",
                "id": "22151",
                "brand": "Api-Ip",
                "amenity": "fuel",
                "operator": "VERTALDI MARIANO"
            },
            "geometry": {
                "type": "Point",
                "coordinates": [
                    14.321080557622054,
                    41.077430996788664
                ]
            }
        },
        {
            "type": "Feature",
            "properties": {
                "name": "eni Stazione di servizio pv 54600",
                "id": "29584",
                "brand": "Agip Eni",
                "amenity": "fuel",
                "operator": "MONACO DOMENICO"
            },
            "geometry": {
                "type": "Point",
                "coordinates": [
                    14.282864928245544,
                    41.05005003915691
                ]
            }
        },
        {
            "type": "Feature",
            "properties": {
                "name": "ENI",
                "id": "4429",
                "brand": "Agip Eni",
                "amenity": "fuel",
                "operator": "CIRILLO RAFFAELE"
            },
            "geometry": {
                "type": "Point",
                "coordinates": [
                    14.337626010704183,
                    41.06633511739627
                ]
            }
        },
        {
            "type": "Feature",
            "properties": {
                "name": "MARCIANISE SS.87 SANNITICA KM.21+108",
                "id": "25308",
                "brand": "Q8",
                "amenity": "fuel",
                "operator": "SERVIZI & GESTIONI ITALIA S.R.L."
            },
            "geometry": {
                "type": "Point",
                "coordinates": [
                    14.32465790674587,
                    41.028638946818155
                ]
            }
        },
        {
            "type": "Feature",
            "properties": {
                "name": "Eco Energy",
                "id": "4387",
                "amenity": "fuel",
                "operator": "ECO ENERGY S.R.L."
            },
            "geometry": {
                "type": "Point",
                "coordinates": [
                    14.367987513542175,
                    41.017044629685365
                ]
            }
        },
        {
            "type": "Feature",
            "properties": {
                "name": "self area agip e autolavaggio",
                "id": "15028",
                "brand": "Agip Eni",
                "amenity": "fuel",
                "operator": "DITTA COPPOLA GIUSEPPE"
            },
            "geometry": {
                "type": "Point",
                "coordinates": [
                    14.241987692590328,
                    41.08806718113692
                ]
            }
        },
        {
            "type": "Feature",
            "properties": {
                "name": "D.L.C.SERVICE",
                "id": "8246",
                "brand": "Agip Eni",
                "amenity": "fuel",
                "operator": "D.L.C. SERVICE DI DE LUCIA GIOVANBATTISTA S.A.S."
            },
            "geometry": {
                "type": "Point",
                "coordinates": [
                    14.324567914009092,
                    41.04462398833658
                ]
            }
        },
        {
            "type": "Feature",
            "properties": {
                "name": "totalerg",
                "id": "15340",
                "brand": "Total Erg",
                "amenity": "fuel",
                "operator": "LETIZIA GIUSEPPE"
            },
            "geometry": {
                "type": "Point",
                "coordinates": [
                    14.287334829568863,
                    41.07420331818707
                ]
            }
        },
        {
            "type": "Feature",
            "properties": {
                "name": "ESPOSITO ANTONIO",
                "id": "21132",
                "brand": "Tamoil",
                "amenity": "fuel",
                "operator": "ESPOSITO ANTONIO"
            },
            "geometry": {
                "type": "Point",
                "coordinates": [
                    14.32166576385498,
                    41.058769135994574
                ]
            }
        },
        {
            "type": "Feature",
            "properties": {
                "name": "ESSO MADDALONI",
                "id": "12250",
                "brand": "Esso",
                "amenity": "fuel",
                "operator": "RIFORNIMENTI E SERVIZI S.A.S. DI ESPOSITO GENNARO & C."
            },
            "geometry": {
                "type": "Point",
                "coordinates": [
                    14.361598491668701,
                    41.02453537325301
                ]
            }
        },
        {
            "type": "Feature",
            "properties": {
                "name": "Q8 7765",
                "id": "27371",
                "brand": "Q8",
                "amenity": "fuel",
                "operator": "PASCARIELLO CRESCENZO"
            },
            "geometry": {
                "type": "Point",
                "coordinates": [
                    14.332876226983673,
                    41.04901260624146
                ]
            }
        },
        {
            "type": "Feature",
            "properties": {
                "name": "AGIP Sacco Vitaliano",
                "id": "19380",
                "brand": "Agip Eni",
                "amenity": "fuel",
                "operator": "SACCO VITALIANO S.R.L."
            },
            "geometry": {
                "type": "Point",
                "coordinates": [
                    14.356265045368898,
                    41.07615341457402
                ]
            }
        },
        {
            "type": "Feature",
            "properties": {
                "name": "ESSO",
                "id": "25287",
                "brand": "Esso",
                "amenity": "fuel",
                "operator": "DISTRIBUTORE ESSO DI IAVARONE MATTIA"
            },
            "geometry": {
                "type": "Point",
                "coordinates": [
                    14.325273334980015,
                    41.01747123799806
                ]
            }
        },
        {
            "type": "Feature",
            "properties": {
                "name": "AGIP",
                "id": "20072",
                "brand": "Agip Eni",
                "amenity": "fuel",
                "operator": "ZARRILLO SERVICE S.A.S. DI GIOVANNI ZARRILLO & C."
            },
            "geometry": {
                "type": "Point",
                "coordinates": [
                    14.30858638773157,
                    41.04346465733506
                ]
            }
        },
        {
            "type": "Feature",
            "properties": {
                "name": "autostazione eni di cavaso daniele",
                "id": "31479",
                "brand": "Agip Eni",
                "amenity": "fuel",
                "operator": "CAVASO DANIELE"
            },
            "geometry": {
                "type": "Point",
                "coordinates": [
                    14.313824325799944,
                    41.03707989355366
                ]
            }
        },
        {
            "type": "Feature",
            "properties": {
                "name": "Area Servizio TOTALERG F. B. OIL SAS",
                "id": "11238",
                "brand": "Total Erg",
                "amenity": "fuel",
                "operator": "F.B. OIL S.A.S. DI ANGELO BONAVOLONTA' E C."
            },
            "geometry": {
                "type": "Point",
                "coordinates": [
                    14.25356850028038,
                    41.08863361525536
                ]
            }
        },
        {
            "type": "Feature",
            "properties": {
                "name": "VERNAOIL",
                "id": "24795",
                "amenity": "fuel",
                "operator": "VERNAGAS GROUP S.R.L."
            },
            "geometry": {
                "type": "Point",
                "coordinates": [
                    14.307756907330713,
                    41.104619713651566
                ]
            }
        },
        {
            "type": "Feature",
            "properties": {
                "name": "ANDREAMASTROIANNI",
                "id": "30378",
                "amenity": "fuel",
                "operator": "MASTROIANNI ANDREA"
            },
            "geometry": {
                "type": "Point",
                "coordinates": [
                    14.318386763334274,
                    41.04376060144607
                ]
            }
        },
        {
            "type": "Feature",
            "properties": {
                "name": "SS 7 KM. 210+326 -  CASAPULLA",
                "id": "28275",
                "brand": "Q8",
                "amenity": "fuel",
                "operator": "SERVIZI & GESTIONI ITALIA S.R.L."
            },
            "geometry": {
                "type": "Point",
                "coordinates": [
                    14.296932655889123,
                    41.07349818008677
                ]
            }
        },
        {
            "type": "Feature",
            "properties": {
                "name": "AREA DI SERVIZIO Q8 RECALE",
                "id": "15629",
                "brand": "Q8",
                "amenity": "fuel",
                "operator": "ENRICO MASTROIANNI CARBURANTI SRL"
            },
            "geometry": {
                "type": "Point",
                "coordinates": [
                    14.307212680578232,
                    41.05101245700885
                ]
            }
        },
        {
            "type": "Feature",
            "properties": {
                "name": "NAPOLETANO SERVICE S.A.S",
                "id": "16539",
                "brand": "Agip Eni",
                "amenity": "fuel",
                "operator": "NAPOLETANO SERVICE DI NAPOLETANO ANTONIO S.A.S."
            },
            "geometry": {
                "type": "Point",
                "coordinates": [
                    14.341618455039223,
                    41.07239086335627
                ]
            }
        },
        {
            "type": "Feature",
            "properties": {
                "name": "Gaffoil Musicile",
                "id": "20710",
                "amenity": "fuel",
                "operator": "TRAGEN S.R.L."
            },
            "geometry": {
                "type": "Point",
                "coordinates": [
                    14.290934354066849,
                    41.05119854710766
                ]
            }
        },
        {
            "type": "Feature",
            "properties": {
                "name": "ENI PEDICINI MASSIMILIANO",
                "id": "18057",
                "brand": "Agip Eni",
                "amenity": "fuel",
                "operator": "PEDICINI MASSIMILIANO"
            },
            "geometry": {
                "type": "Point",
                "coordinates": [
                    14.325029253959654,
                    41.038964025790754
                ]
            }
        },
        {
            "type": "Feature",
            "properties": {
                "name": "AGIP",
                "id": "8204",
                "brand": "Agip Eni",
                "amenity": "fuel",
                "operator": "IMPIANTI DISTRIBUZIONE CARBURANTI S.R.L."
            },
            "geometry": {
                "type": "Point",
                "coordinates": [
                    14.3538613497376,
                    41.08104989285459
                ]
            }
        },
        {
            "type": "Feature",
            "properties": {
                "name": "SANT'ANGELO IN FORMIS",
                "id": "30088",
                "brand": "Esso",
                "amenity": "fuel",
                "operator": "PENTA PETROLI SRL"
            },
            "geometry": {
                "type": "Point",
                "coordinates": [
                    14.25141267478466,
                    41.108728933243995
                ]
            }
        },
        {
            "type": "Feature",
            "properties": {
                "name": "stazione ENI",
                "id": "20641",
                "brand": "Agip Eni",
                "amenity": "fuel",
                "operator": "DI GIACINTO CARBURANTI S.A.S. DI DI GIACINTO SALVATORE E C."
            },
            "geometry": {
                "type": "Point",
                "coordinates": [
                    14.290830279098484,
                    41.02347225955598
                ]
            }
        },
        {
            "type": "Feature",
            "properties": {
                "name": "PEPE CARBURANTI",
                "id": "27066",
                "amenity": "fuel",
                "operator": "PEPE CARBURANTI S.R.L."
            },
            "geometry": {
                "type": "Point",
                "coordinates": [
                    14.2739105232788,
                    41.07434428564861
                ]
            }
        },
        {
            "type": "Feature",
            "properties": {
                "name": "TOTALERG",
                "id": "8423",
                "brand": "Total Erg",
                "amenity": "fuel",
                "operator": "PG CARBURANTI S.A.S. DI LUISI ELISA"
            },
            "geometry": {
                "type": "Point",
                "coordinates": [
                    14.339759945869448,
                    41.087833475253504
                ]
            }
        },
        {
            "type": "Feature",
            "properties": {
                "name": "MEZZANO",
                "id": "29557",
                "brand": "Esso",
                "amenity": "fuel",
                "operator": "EWAGRILL DI SALZILLO VINCENZO & C S.N.C."
            },
            "geometry": {
                "type": "Point",
                "coordinates": [
                    14.348122403025624,
                    41.09604223057084
                ]
            }
        },
        {
            "type": "Feature",
            "properties": {
                "name": "ENI ROBERTO PEDICINI",
                "id": "17892",
                "brand": "Agip Eni",
                "amenity": "fuel",
                "operator": "PEDICINI ROBERTO"
            },
            "geometry": {
                "type": "Point",
                "coordinates": [
                    14.309885501861572,
                    41.073246496941515
                ]
            }
        },
        {
            "type": "Feature",
            "properties": {
                "name": "stazione eni 18470",
                "id": "19462",
                "brand": "Agip Eni",
                "amenity": "fuel",
                "operator": "CARBURANTI S.A.S. DI RAZZANO MICHELE E C."
            },
            "geometry": {
                "type": "Point",
                "coordinates": [
                    14.31353732943535,
                    41.02469766053227
                ]
            }
        },
        {
            "type": "Feature",
            "properties": {
                "name": "S.NICOLA OVEST",
                "id": "3654",
                "brand": "Shell",
                "amenity": "fuel",
                "operator": "D.G. CARBURANTI s.a.s."
            },
            "geometry": {
                "type": "Point",
                "coordinates": [
                    14.321995675563812,
                    41.04918429607012
                ]
            }
        },
        {
            "type": "Feature",
            "properties": {
                "name": "CASERTA",
                "id": "5436",
                "brand": "Agip Eni",
                "amenity": "fuel",
                "operator": "enirete oil&nonoil S.p.A."
            },
            "geometry": {
                "type": "Point",
                "coordinates": [
                    14.331003236770584,
                    41.085176233269614
                ]
            }
        },
        {
            "type": "Feature",
            "properties": {
                "name": "ENI RECALE 24H",
                "id": "29937",
                "brand": "Agip Eni",
                "amenity": "fuel",
                "operator": "IM.DI.CA. DI PICCIRILLO TERESA & C. S.A.S. IN SIGLA: IM.DI.CA. S.A.S."
            },
            "geometry": {
                "type": "Point",
                "coordinates": [
                    14.307780638337134,
                    41.06480253229068
                ]
            }
        },
        {
            "type": "Feature",
            "properties": {
                "name": "IMPIANTO PONTESELICE",
                "id": "15355",
                "brand": "Q8",
                "amenity": "fuel",
                "operator": "GRUPPO GESTIONI S.R.L."
            },
            "geometry": {
                "type": "Point",
                "coordinates": [
                    14.313994646072388,
                    41.06626281699062
                ]
            }
        },
        {
            "type": "Feature",
            "properties": {
                "name": "MARCIANISE VIA MARTIN LUTER KING STAZ.Q8",
                "id": "6720",
                "brand": "Q8",
                "amenity": "fuel",
                "operator": "SERVIZI & GESTIONI ITALIA srl"
            },
            "geometry": {
                "type": "Point",
                "coordinates": [
                    14.28306619325406,
                    41.032874743032956
                ]
            }
        },
        {
            "type": "Feature",
            "properties": {
                "name": "MADDALONI - S.S. 265",
                "id": "28436",
                "brand": "Api-Ip",
                "amenity": "fuel",
                "operator": "IP SERVICES S.R.L."
            },
            "geometry": {
                "type": "Point",
                "coordinates": [
                    14.377702474594116,
                    41.02421160683866
                ]
            }
        },
        {
            "type": "Feature",
            "properties": {
                "name": "Gaffoil Curti",
                "id": "19199",
                "amenity": "fuel",
                "operator": "TRAGEN S.R.L."
            },
            "geometry": {
                "type": "Point",
                "coordinates": [
                    14.27840106189251,
                    41.07818432957283
                ]
            }
        },
        {
            "type": "Feature",
            "properties": {
                "name": "ESSO SMCV",
                "id": "29981",
                "brand": "Esso",
                "amenity": "fuel",
                "operator": "PENTA PETROLI SRL"
            },
            "geometry": {
                "type": "Point",
                "coordinates": [
                    14.265140891075134,
                    41.08839587883899
                ]
            }
        },
        {
            "type": "Feature",
            "properties": {
                "name": "DAGI CARBURANTI SRL",
                "id": "20709",
                "brand": "Q8",
                "amenity": "fuel",
                "operator": "DAGI CARBURANTI S.R.L."
            },
            "geometry": {
                "type": "Point",
                "coordinates": [
                    14.360235929489136,
                    41.05437898814307
                ]
            }
        }
    ]
}