{
    "type": "FeatureCollection",
    "features": [
        {
            "type": "Feature",
            "properties": {
                "name": "stazione eni",
                "id": "23483",
                "brand": "Agip Eni",
                "amenity": "fuel",
                "operator": "RANELLONE GIUSEPPE"
            },
            "geometry": {
                "type": "Point",
                "coordinates": [
                    14.396986216306688,
                    42.235142226806474
                ]
            }
        },
        {
            "type": "Feature",
            "properties": {
                "name": "PV 46957 - ITALPETROLY SNC",
                "id": "29242",
                "brand": "Esso",
                "amenity": "fuel",
                "operator": "ITALPETROLY S.N.C. DI MARIA GIUSEPPA IEZZI & C."
            },
            "geometry": {
                "type": "Point",
                "coordinates": [
                    14.280449599027632,
                    42.21973422973782
                ]
            }
        },
        {
            "type": "Feature",
            "properties": {
                "name": "LANCIANO VIA SILVIO  SPAVENTA",
                "id": "19065",
                "brand": "Q8",
                "amenity": "fuel",
                "operator": "SERVIZI & GESTIONI ITALIA S.R.L."
            },
            "geometry": {
                "type": "Point",
                "coordinates": [
                    14.387011557672169,
                    42.22843181707406
                ]
            }
        },
        {
            "type": "Feature",
            "properties": {
                "name": "PV 41447 - ITALPETROLY SNC",
                "id": "21455",
                "brand": "Esso",
                "amenity": "fuel",
                "operator": "ITALPETROLY S.N.C. DI MARIA GIUSEPPA IEZZI & C."
            },
            "geometry": {
                "type": "Point",
                "coordinates": [
                    14.278606921434404,
                    42.21905091403971
                ]
            }
        },
        {
            "type": "Feature",
            "properties": {
                "name": "IP",
                "id": "27829",
                "brand": "Api-Ip",
                "amenity": "fuel",
                "operator": "G.L. CARBURANTI S.N.C. DI DELL'ELCE WILLIAM & PRIMOMO GABRIELE"
            },
            "geometry": {
                "type": "Point",
                "coordinates": [
                    14.405057653784752,
                    42.22511483418505
                ]
            }
        },
        {
            "type": "Feature",
            "properties": {
                "name": "eni",
                "id": "23484",
                "brand": "Agip Eni",
                "amenity": "fuel",
                "operator": "RANELLONE GIUSEPPE"
            },
            "geometry": {
                "type": "Point",
                "coordinates": [
                    14.393699169158937,
                    42.18181254292107
                ]
            }
        },
        {
            "type": "Feature",
            "properties": {
                "name": "Pi√π carburanti",
                "id": "27304",
                "amenity": "fuel",
                "operator": "PETROLBITUMI - SOCIETA A RESPONSABILITA LIMITATA"
            },
            "geometry": {
                "type": "Point",
                "coordinates": [
                    14.340350080148252,
                    42.27571066944313
                ]
            }
        },
        {
            "type": "Feature",
            "properties": {
                "name": "Eni Lanciano di Salomone Nicola & c.s.n.c",
                "id": "9111",
                "brand": "Agip Eni",
                "amenity": "fuel",
                "operator": "DISTRIBUZIONE CARBURANTI E LUBRIFICANTI-DI- SALOMONE NICOLA E C. S.N.C."
            },
            "geometry": {
                "type": "Point",
                "coordinates": [
                    14.399688747325628,
                    42.2258473063603
                ]
            }
        },
        {
            "type": "Feature",
            "properties": {
                "name": "LANCIANO",
                "id": "5526",
                "brand": "Total Erg",
                "amenity": "fuel",
                "operator": "GESTIONI EUROPA S.p.A."
            },
            "geometry": {
                "type": "Point",
                "coordinates": [
                    14.39736397668651,
                    42.23199091592005
                ]
            }
        },
        {
            "type": "Feature",
            "properties": {
                "name": "eni di frenceschini",
                "id": "9435",
                "brand": "Agip Eni",
                "amenity": "fuel",
                "operator": "FRANCESCHINI S.A.S. DI FRANCESCHINI DAVIDE & C."
            },
            "geometry": {
                "type": "Point",
                "coordinates": [
                    14.369336664676668,
                    42.19269988013503
                ]
            }
        },
        {
            "type": "Feature",
            "properties": {
                "name": "IP-ITALA-POGGIOFIORITO",
                "id": "28591",
                "brand": "Api-Ip",
                "amenity": "fuel",
                "operator": "ITALA PETROLI S.R.L."
            },
            "geometry": {
                "type": "Point",
                "coordinates": [
                    14.318916499614716,
                    42.256776348508275
                ]
            }
        },
        {
            "type": "Feature",
            "properties": {
                "name": "LANCIANO VIA GUIDO ROSATO S.N.C.",
                "id": "6675",
                "brand": "Q8",
                "amenity": "fuel",
                "operator": "SERVIZI & GESTIONI ITALIA srl"
            },
            "geometry": {
                "type": "Point",
                "coordinates": [
                    14.389418363571167,
                    42.22086426669915
                ]
            }
        },
        {
            "type": "Feature",
            "properties": {
                "name": "MASCITTI CARBURANTI",
                "id": "28696",
                "amenity": "fuel",
                "operator": "MUSICARTE INTERNATIONAL DI MASCITTI ANDREA"
            },
            "geometry": {
                "type": "Point",
                "coordinates": [
                    14.285690429882154,
                    42.22003574745209
                ]
            }
        },
        {
            "type": "Feature",
            "properties": {
                "name": "IP",
                "id": "28404",
                "brand": "Api-Ip",
                "amenity": "fuel",
                "operator": "FRAIOLI  MARIO"
            },
            "geometry": {
                "type": "Point",
                "coordinates": [
                    14.3876913699753,
                    42.22646862267286
                ]
            }
        },
        {
            "type": "Feature",
            "properties": {
                "name": "area di servizio Primante Massimo",
                "id": "22116",
                "amenity": "fuel",
                "operator": "PRIMANTE MASSIMO"
            },
            "geometry": {
                "type": "Point",
                "coordinates": [
                    14.306675150517322,
                    42.29273508341408
                ]
            }
        },
        {
            "type": "Feature",
            "properties": {
                "name": "LANCIANO - S.P. SAN VITO",
                "id": "32194",
                "brand": "Api-Ip",
                "amenity": "fuel",
                "operator": "IP SERVICES S.R.L."
            },
            "geometry": {
                "type": "Point",
                "coordinates": [
                    14.404611487102555,
                    42.22979006972211
                ]
            }
        }
    ]
}