{
    "type": "FeatureCollection",
    "features": [
        {
            "type": "Feature",
            "properties": {
                "name": "Area di servizio Gela",
                "id": "19555",
                "brand": "SP Energia Siciliana",
                "amenity": "fuel",
                "operator": "SERVIZI INTEGRATI S.R.L."
            },
            "geometry": {
                "type": "Point",
                "coordinates": [
                    14.262455329298973,
                    37.06434218213852
                ]
            }
        },
        {
            "type": "Feature",
            "properties": {
                "name": "ENI CAFE'&SHOP DI D'ARMA ALESSANDRO",
                "id": "27711",
                "brand": "Agip Eni",
                "amenity": "fuel",
                "operator": "D'ARMA ALESSANDRO"
            },
            "geometry": {
                "type": "Point",
                "coordinates": [
                    14.259736683446135,
                    37.068423559510386
                ]
            }
        },
        {
            "type": "Feature",
            "properties": {
                "name": "Tamoil di Maniscalco Grazia & C s.a.s",
                "id": "28510",
                "brand": "Tamoil",
                "amenity": "fuel",
                "operator": "MANISCALCO GRAZIA & C. S.A.S."
            },
            "geometry": {
                "type": "Point",
                "coordinates": [
                    14.253880940957403,
                    37.06194024158146
                ]
            }
        },
        {
            "type": "Feature",
            "properties": {
                "name": "eni/agip",
                "id": "6036",
                "brand": "Agip Eni",
                "amenity": "fuel",
                "operator": "SOCIETA' CARBOLUBRIFICANTI DI PUCCIO SALVATORE S.N.C."
            },
            "geometry": {
                "type": "Point",
                "coordinates": [
                    14.286751449108124,
                    37.11681877503247
                ]
            }
        },
        {
            "type": "Feature",
            "properties": {
                "name": "Distributore Carburanti di Pisano Orazio",
                "id": "21812",
                "amenity": "fuel",
                "operator": "PISANO ORAZIO"
            },
            "geometry": {
                "type": "Point",
                "coordinates": [
                    14.268069863319393,
                    37.08412468709121
                ]
            }
        },
        {
            "type": "Feature",
            "properties": {
                "name": "SP11 GELA-NISCEM",
                "id": "12015",
                "brand": "Agip Eni",
                "amenity": "fuel",
                "operator": "SERVIZI E GESTIONI ZENIT S.R.L. IN SIGLA - ZENIT S.R.L."
            },
            "geometry": {
                "type": "Point",
                "coordinates": [
                    14.39407864285272,
                    37.12634897726917
                ]
            }
        },
        {
            "type": "Feature",
            "properties": {
                "name": "Stazione di servizio ESSO di manfre angela",
                "id": "28469",
                "brand": "Esso",
                "amenity": "fuel",
                "operator": "STAZIONE SERVIZIO ESSO DI MANFRE' ANGELA & C. S.A.S."
            },
            "geometry": {
                "type": "Point",
                "coordinates": [
                    14.25865283757321,
                    37.06806028877032
                ]
            }
        },
        {
            "type": "Feature",
            "properties": {
                "name": "ACI",
                "id": "27625",
                "amenity": "fuel",
                "operator": "L.C. LONGO CARBURANTI, SOCIETA' IN ACCOMANDITA SEMPLICE DI LONGO FRANCESCO & C."
            },
            "geometry": {
                "type": "Point",
                "coordinates": [
                    14.39116299691466,
                    37.14636215021947
                ]
            }
        },
        {
            "type": "Feature",
            "properties": {
                "name": "ENI SHOP DI D'ARMA ALESSANDRO",
                "id": "27895",
                "brand": "Agip Eni",
                "amenity": "fuel",
                "operator": "D'ARMA ALESSANDRO"
            },
            "geometry": {
                "type": "Point",
                "coordinates": [
                    14.257792449737508,
                    37.0666390678037
                ]
            }
        },
        {
            "type": "Feature",
            "properties": {
                "name": "IDC VIA LARGO SPASIMO",
                "id": "23931",
                "amenity": "fuel",
                "operator": "PARTNERS S.N.C. DEI F.LLI PETRONACI GAETANO E PETRONACI IVAN FILI PPO"
            },
            "geometry": {
                "type": "Point",
                "coordinates": [
                    14.394980640540894,
                    37.14266302374875
                ]
            }
        },
        {
            "type": "Feature",
            "properties": {
                "name": "Esso",
                "id": "28706",
                "brand": "Esso",
                "amenity": "fuel",
                "operator": "LOREFICE GIOVANNI & BENNICI ANGELO S.N.C."
            },
            "geometry": {
                "type": "Point",
                "coordinates": [
                    14.266161471605303,
                    37.08080535048154
                ]
            }
        },
        {
            "type": "Feature",
            "properties": {
                "name": "GELA VIA GENERALE CASCINO 160",
                "id": "21237",
                "brand": "Q8",
                "amenity": "fuel",
                "operator": "SERVIZI & GESTIONI ITALIA S.R.L."
            },
            "geometry": {
                "type": "Point",
                "coordinates": [
                    14.256559411639389,
                    37.06585858301055
                ]
            }
        },
        {
            "type": "Feature",
            "properties": {
                "name": "EOS",
                "id": "31823",
                "brand": "EOS",
                "amenity": "fuel",
                "operator": "PISANO SAVERIO MIKEL"
            },
            "geometry": {
                "type": "Point",
                "coordinates": [
                    14.261317332332622,
                    37.06463518903005
                ]
            }
        },
        {
            "type": "Feature",
            "properties": {
                "name": "GELA",
                "id": "14527",
                "brand": "Lukoil",
                "amenity": "fuel",
                "operator": "ND PETROLI DI DIBENNARDO NUNZIO & C. S.R.L."
            },
            "geometry": {
                "type": "Point",
                "coordinates": [
                    14.257190084655804,
                    37.06566893821873
                ]
            }
        },
        {
            "type": "Feature",
            "properties": {
                "name": "distributore carburanti AGIP di Pisano Claudio",
                "id": "21807",
                "brand": "Agip Eni",
                "amenity": "fuel",
                "operator": "PISANO CLAUDIO"
            },
            "geometry": {
                "type": "Point",
                "coordinates": [
                    14.255673084562774,
                    37.066061887846075
                ]
            }
        },
        {
            "type": "Feature",
            "properties": {
                "name": "MEIC SERVICES",
                "id": "4605",
                "brand": "Esso",
                "amenity": "fuel",
                "operator": "MECHANICAL ELETRICAL INSTRUMENTATION CIVIL SERVICES  M.E.I.C. S.R.L."
            },
            "geometry": {
                "type": "Point",
                "coordinates": [
                    14.273746758699414,
                    37.062364953411496
                ]
            }
        }
    ]
}