{
    "type": "FeatureCollection",
    "features": [
        {
            "type": "Feature",
            "properties": {
                "name": "TAMOIL Piscitelli Pietro",
                "id": "6341",
                "brand": "Tamoil",
                "amenity": "fuel",
                "operator": "PISCITELLI PIETRO"
            },
            "geometry": {
                "type": "Point",
                "coordinates": [
                    14.499972313642498,
                    41.09033898474118
                ]
            }
        },
        {
            "type": "Feature",
            "properties": {
                "name": "goil",
                "id": "24307",
                "amenity": "fuel",
                "operator": "PIEMME SERVICES SRLS SOCIETA' A RESPONSABILITA' LIMITATA SEMPLIFICATA"
            },
            "geometry": {
                "type": "Point",
                "coordinates": [
                    14.541714191436766,
                    41.08517786241267
                ]
            }
        },
        {
            "type": "Feature",
            "properties": {
                "name": "ESSO",
                "id": "31971",
                "brand": "Esso",
                "amenity": "fuel",
                "operator": "ROMANO LUCA"
            },
            "geometry": {
                "type": "Point",
                "coordinates": [
                    14.526768922805786,
                    41.03634245139165
                ]
            }
        },
        {
            "type": "Feature",
            "properties": {
                "name": "tamoil di pascarella alessandro",
                "id": "13170",
                "brand": "Tamoil",
                "amenity": "fuel",
                "operator": "PASCARELLA ALESSANDRO"
            },
            "geometry": {
                "type": "Point",
                "coordinates": [
                    14.499757066369058,
                    41.08352088030834
                ]
            }
        },
        {
            "type": "Feature",
            "properties": {
                "name": "PAOLISI",
                "id": "30048",
                "brand": "Esso",
                "amenity": "fuel",
                "operator": "PENTA PETROLI SRL"
            },
            "geometry": {
                "type": "Point",
                "coordinates": [
                    14.589049816131592,
                    41.04323747000002
                ]
            }
        },
        {
            "type": "Feature",
            "properties": {
                "name": "F&G SRL",
                "id": "29124",
                "amenity": "fuel",
                "operator": "F & G S.R.L."
            },
            "geometry": {
                "type": "Point",
                "coordinates": [
                    14.437268972396852,
                    41.02466771230423
                ]
            }
        },
        {
            "type": "Feature",
            "properties": {
                "name": "Oroil",
                "id": "23544",
                "amenity": "fuel",
                "operator": "OROPALLO GIUSEPPE S.R.L."
            },
            "geometry": {
                "type": "Point",
                "coordinates": [
                    14.560594260692595,
                    41.077197439741454
                ]
            }
        },
        {
            "type": "Feature",
            "properties": {
                "name": "AIROLA-S.S. 7 APPIA KM 236",
                "id": "11511",
                "brand": "Q8",
                "amenity": "fuel",
                "operator": "SERVIZI & GESTIONI ITALIA S.R.L."
            },
            "geometry": {
                "type": "Point",
                "coordinates": [
                    14.568367813491818,
                    41.04227687365985
                ]
            }
        },
        {
            "type": "Feature",
            "properties": {
                "name": "Centro Gas",
                "id": "22948",
                "amenity": "fuel",
                "operator": "CENTRO GAS S.R.L."
            },
            "geometry": {
                "type": "Point",
                "coordinates": [
                    14.448455125093464,
                    40.983910501492545
                ]
            }
        },
        {
            "type": "Feature",
            "properties": {
                "name": "REPSOL",
                "id": "20604",
                "brand": "Repsol",
                "amenity": "fuel",
                "operator": "FADDIMM  S.R.L."
            },
            "geometry": {
                "type": "Point",
                "coordinates": [
                    14.489720910787582,
                    41.023525216813056
                ]
            }
        },
        {
            "type": "Feature",
            "properties": {
                "name": "PV 8329",
                "id": "25126",
                "brand": "Agip Eni",
                "amenity": "fuel",
                "operator": "GESTIONI INNOVATIVE ITALIA S.R.L."
            },
            "geometry": {
                "type": "Point",
                "coordinates": [
                    14.558764994144438,
                    41.049153145239416
                ]
            }
        },
        {
            "type": "Feature",
            "properties": {
                "name": "Distributore Carburanti Q8 Icolari Vincenzo",
                "id": "29934",
                "brand": "Q8",
                "amenity": "fuel",
                "operator": "ICOLARI VINCENZO"
            },
            "geometry": {
                "type": "Point",
                "coordinates": [
                    14.50336355819695,
                    41.085695956690834
                ]
            }
        },
        {
            "type": "Feature",
            "properties": {
                "name": "Agip",
                "id": "19660",
                "brand": "Agip Eni",
                "amenity": "fuel",
                "operator": "BASILICATA GIOVANNI"
            },
            "geometry": {
                "type": "Point",
                "coordinates": [
                    14.487938582897186,
                    41.01850091508766
                ]
            }
        },
        {
            "type": "Feature",
            "properties": {
                "name": "MADDALONI",
                "id": "5484",
                "brand": "Agip Eni",
                "amenity": "fuel",
                "operator": "enirete oil&nonoil S.p.A."
            },
            "geometry": {
                "type": "Point",
                "coordinates": [
                    14.44040094311697,
                    41.02523141914112
                ]
            }
        },
        {
            "type": "Feature",
            "properties": {
                "name": "DE LUCIA VINCENZA",
                "id": "14765",
                "brand": "Tamoil",
                "amenity": "fuel",
                "operator": "DE LUCIA VINCENZA"
            },
            "geometry": {
                "type": "Point",
                "coordinates": [
                    14.450950250029567,
                    41.01673782614364
                ]
            }
        },
        {
            "type": "Feature",
            "properties": {
                "name": "Eco Fuel",
                "id": "8254",
                "amenity": "fuel",
                "operator": "FALZARANO SERVICE SAS DI FALZARANO ANIELLO & C."
            },
            "geometry": {
                "type": "Point",
                "coordinates": [
                    14.572344422340391,
                    41.06161593266424
                ]
            }
        },
        {
            "type": "Feature",
            "properties": {
                "name": "suppa caterina",
                "id": "28063",
                "amenity": "fuel",
                "operator": "IORIO ALFONSINO"
            },
            "geometry": {
                "type": "Point",
                "coordinates": [
                    14.450726956129078,
                    41.101369246413725
                ]
            }
        },
        {
            "type": "Feature",
            "properties": {
                "name": "MADDALONI FRAZ.MONTEDECORO",
                "id": "19320",
                "brand": "Q8",
                "amenity": "fuel",
                "operator": "SERVIZI & GESTIONI ITALIA S.R.L."
            },
            "geometry": {
                "type": "Point",
                "coordinates": [
                    14.42586285218431,
                    41.02505468896244
                ]
            }
        },
        {
            "type": "Feature",
            "properties": {
                "name": "VALLE DEI MADDALONI VIA SANNITICA 47",
                "id": "6715",
                "brand": "Q8",
                "amenity": "fuel",
                "operator": "SERVIZI & GESTIONI ITALIA srl"
            },
            "geometry": {
                "type": "Point",
                "coordinates": [
                    14.416210680391258,
                    41.07586624812558
                ]
            }
        },
        {
            "type": "Feature",
            "properties": {
                "name": "REPSOL",
                "id": "24647",
                "brand": "Repsol",
                "amenity": "fuel",
                "operator": "FADDIMM  S.R.L."
            },
            "geometry": {
                "type": "Point",
                "coordinates": [
                    14.461217075586317,
                    41.0176723987053
                ]
            }
        },
        {
            "type": "Feature",
            "properties": {
                "name": "GOIL",
                "id": "22350",
                "amenity": "fuel",
                "operator": "FRATELLI PIROZZI DI PIROZZI CARMINE E FRANCESCO S.N.C."
            },
            "geometry": {
                "type": "Point",
                "coordinates": [
                    14.484472263743553,
                    41.01537219707404
                ]
            }
        },
        {
            "type": "Feature",
            "properties": {
                "name": "Gasauto",
                "id": "19949",
                "amenity": "fuel",
                "operator": "BASILICATA AGOSTINO"
            },
            "geometry": {
                "type": "Point",
                "coordinates": [
                    14.43320140242577,
                    41.02483566516711
                ]
            }
        },
        {
            "type": "Feature",
            "properties": {
                "name": "Q8",
                "id": "9923",
                "brand": "Q8",
                "amenity": "fuel",
                "operator": "VIOLA GIUSEPPE"
            },
            "geometry": {
                "type": "Point",
                "coordinates": [
                    14.497388005256653,
                    41.09323574729329
                ]
            }
        },
        {
            "type": "Feature",
            "properties": {
                "name": "Q8",
                "id": "23543",
                "brand": "Q8",
                "amenity": "fuel",
                "operator": "OROPALLO GIUSEPPE S.R.L."
            },
            "geometry": {
                "type": "Point",
                "coordinates": [
                    14.566048012242161,
                    41.07783059797767
                ]
            }
        },
        {
            "type": "Feature",
            "properties": {
                "name": "TAMOIL VERPET SAS",
                "id": "27585",
                "brand": "Tamoil",
                "amenity": "fuel",
                "operator": "VERPET SAS DI VIGLIOTTI MARIA"
            },
            "geometry": {
                "type": "Point",
                "coordinates": [
                    14.467048197984694,
                    41.009219883725116
                ]
            }
        },
        {
            "type": "Feature",
            "properties": {
                "name": "esso",
                "id": "31918",
                "brand": "Esso",
                "amenity": "fuel",
                "operator": "LOMBARDI EDVIGE"
            },
            "geometry": {
                "type": "Point",
                "coordinates": [
                    14.489300474524494,
                    41.01813016841887
                ]
            }
        }
    ]
}