{
    "type": "FeatureCollection",
    "features": [
        {
            "type": "Feature",
            "properties": {
                "name": "GRAGNANO LOC.MADONNA DELLE GRAZIE 143",
                "id": "6703",
                "brand": "Q8",
                "amenity": "fuel",
                "operator": "SERVIZI & GESTIONI ITALIA srl"
            },
            "geometry": {
                "type": "Point",
                "coordinates": [
                    14.50821713313519,
                    40.709689467748994
                ]
            }
        },
        {
            "type": "Feature",
            "properties": {
                "name": "ESSO",
                "id": "15263",
                "brand": "Esso",
                "amenity": "fuel",
                "operator": "ESSO CARBURANTI DI DE GENNARO SALVATORE S.N.C."
            },
            "geometry": {
                "type": "Point",
                "coordinates": [
                    14.417364167736874,
                    40.633196410282316
                ]
            }
        },
        {
            "type": "Feature",
            "properties": {
                "name": "TAMOIL",
                "id": "17861",
                "brand": "Tamoil",
                "amenity": "fuel",
                "operator": "COTICELLI SEBASTIANO"
            },
            "geometry": {
                "type": "Point",
                "coordinates": [
                    14.513602491882468,
                    40.689831724734084
                ]
            }
        },
        {
            "type": "Feature",
            "properties": {
                "name": "Q8 Salvati",
                "id": "19829",
                "brand": "Q8",
                "amenity": "fuel",
                "operator": "SALVATI LAZZARO S.A.S. DI DANIELA PITARELLA E C."
            },
            "geometry": {
                "type": "Point",
                "coordinates": [
                    14.48921670167067,
                    40.70135241170693
                ]
            }
        },
        {
            "type": "Feature",
            "properties": {
                "name": "GRAGNANO VIA DEI PASTAI",
                "id": "20818",
                "brand": "Q8",
                "amenity": "fuel",
                "operator": "SERVIZI & GESTIONI ITALIA S.R.L."
            },
            "geometry": {
                "type": "Point",
                "coordinates": [
                    14.514175396329849,
                    40.70174512517942
                ]
            }
        },
        {
            "type": "Feature",
            "properties": {
                "name": "SANTA MARIA LA CARITA'-VIA MADONNA DELLE GRAZIE 238",
                "id": "11728",
                "brand": "Q8",
                "amenity": "fuel",
                "operator": "SERVIZI & GESTIONI ITALIA S.R.L."
            },
            "geometry": {
                "type": "Point",
                "coordinates": [
                    14.505807288360531,
                    40.70934676337253
                ]
            }
        },
        {
            "type": "Feature",
            "properties": {
                "name": "ESSO",
                "id": "15262",
                "brand": "Esso",
                "amenity": "fuel",
                "operator": "ESSO CARBURANTI DI DE GENNARO SALVATORE S.N.C."
            },
            "geometry": {
                "type": "Point",
                "coordinates": [
                    14.41883529537563,
                    40.63948677678005
                ]
            }
        },
        {
            "type": "Feature",
            "properties": {
                "name": "STAZIONE DI SERVIZIO SANT'ANNA S.A..S DI RAFFAELE SOMMA & C.",
                "id": "25382",
                "amenity": "fuel",
                "operator": "STAZIONE DI SERVIZIO SANT'ANNA S.A.S. DI RAFFAELE SOMMA & C."
            },
            "geometry": {
                "type": "Point",
                "coordinates": [
                    14.53905887517624,
                    40.703416268503894
                ]
            }
        },
        {
            "type": "Feature",
            "properties": {
                "name": "Stazione di servizio di Rossi Salvatore",
                "id": "16638",
                "amenity": "fuel",
                "operator": "ROSSI SALVATORE"
            },
            "geometry": {
                "type": "Point",
                "coordinates": [
                    14.415968682773382,
                    40.62870630004215
                ]
            }
        },
        {
            "type": "Feature",
            "properties": {
                "name": "VITIELLO GENNARO",
                "id": "20600",
                "brand": "Esso",
                "amenity": "fuel",
                "operator": "VITIELLO GENNARO"
            },
            "geometry": {
                "type": "Point",
                "coordinates": [
                    14.506053992729223,
                    40.69410085577189
                ]
            }
        },
        {
            "type": "Feature",
            "properties": {
                "name": "DISTRIBUTORE IP PIMONTE",
                "id": "26220",
                "brand": "Api-Ip",
                "amenity": "fuel",
                "operator": "AMORE S.A.S. DI AMORE ROSA E C."
            },
            "geometry": {
                "type": "Point",
                "coordinates": [
                    14.514075757557295,
                    40.67331970657822
                ]
            }
        },
        {
            "type": "Feature",
            "properties": {
                "name": "agip mandara",
                "id": "25657",
                "brand": "Agip Eni",
                "amenity": "fuel",
                "operator": "MANDARA CRESCENZO"
            },
            "geometry": {
                "type": "Point",
                "coordinates": [
                    14.484706791633581,
                    40.63086367424864
                ]
            }
        },
        {
            "type": "Feature",
            "properties": {
                "name": "tiber",
                "id": "31833",
                "brand": "Loro",
                "amenity": "fuel",
                "operator": "ORVETTI FELICE"
            },
            "geometry": {
                "type": "Point",
                "coordinates": [
                    14.418325184566811,
                    40.6415781628172
                ]
            }
        },
        {
            "type": "Feature",
            "properties": {
                "name": "TotalErg Gallo",
                "id": "16871",
                "brand": "Total Erg",
                "amenity": "fuel",
                "operator": "GALLO DOMENICA"
            },
            "geometry": {
                "type": "Point",
                "coordinates": [
                    14.519500806927681,
                    40.6906203703989
                ]
            }
        },
        {
            "type": "Feature",
            "properties": {
                "name": "TotalErg",
                "id": "27755",
                "brand": "Total Erg",
                "amenity": "fuel",
                "operator": "FUSCO ROMOLO"
            },
            "geometry": {
                "type": "Point",
                "coordinates": [
                    14.490354978879395,
                    40.62784928076704
                ]
            }
        },
        {
            "type": "Feature",
            "properties": {
                "name": "TOTAL ERG",
                "id": "17856",
                "brand": "Total Erg",
                "amenity": "fuel",
                "operator": "ESPOSITO NUNZIO"
            },
            "geometry": {
                "type": "Point",
                "coordinates": [
                    14.529432928951564,
                    40.694625647981105
                ]
            }
        },
        {
            "type": "Feature",
            "properties": {
                "name": "ESSO",
                "id": "14243",
                "brand": "Esso",
                "amenity": "fuel",
                "operator": "GOLFO DISTRIBUTORE S.N.C. BI BARONE VINCENZO, RAIA ALESSANDRO & C ."
            },
            "geometry": {
                "type": "Point",
                "coordinates": [
                    14.543390411639395,
                    40.63218353677544
                ]
            }
        },
        {
            "type": "Feature",
            "properties": {
                "name": "TOTALERG",
                "id": "16081",
                "brand": "Total Erg",
                "amenity": "fuel",
                "operator": "GUIDA GIOVANNI & C. SOCIETA' IN ACCOMANDITA SEMPLICE"
            },
            "geometry": {
                "type": "Point",
                "coordinates": [
                    14.433439448475834,
                    40.66061961044972
                ]
            }
        },
        {
            "type": "Feature",
            "properties": {
                "name": "ASTARITA SAS",
                "id": "27511",
                "brand": "Api-Ip",
                "amenity": "fuel",
                "operator": "ASTARITA SAS DI ASTARITA DARIO"
            },
            "geometry": {
                "type": "Point",
                "coordinates": [
                    14.41628336906433,
                    40.63194485920473
                ]
            }
        },
        {
            "type": "Feature",
            "properties": {
                "name": "Pit Stop Carburanti/Autolavaggio",
                "id": "23345",
                "amenity": "fuel",
                "operator": "PIT STOP S.A.S. DI MARESCA CIRO & C."
            },
            "geometry": {
                "type": "Point",
                "coordinates": [
                    14.458398073911665,
                    40.65591323784459
                ]
            }
        }
    ]
}