{
    "type": "FeatureCollection",
    "features": [
        {
            "type": "Feature",
            "properties": {
                "name": "ECO TRADING AREA SRL",
                "id": "14036",
                "amenity": "fuel",
                "operator": "ECO TRADING AREA S.R.L. - DISTRIBUZIONE CARBURANTI ECOLOGICI"
            },
            "geometry": {
                "type": "Point",
                "coordinates": [
                    14.441697299480436,
                    40.93587326889879
                ]
            }
        },
        {
            "type": "Feature",
            "properties": {
                "name": "DISTRIBUZIONE CARBURANTI MIELE",
                "id": "17289",
                "brand": "Api-Ip",
                "amenity": "fuel",
                "operator": "GUARINO MARIA TERESA"
            },
            "geometry": {
                "type": "Point",
                "coordinates": [
                    14.539321853967294,
                    40.97413892263636
                ]
            }
        },
        {
            "type": "Feature",
            "properties": {
                "name": "ST OIL - Via Feudo",
                "id": "29909",
                "amenity": "fuel",
                "operator": "ST OIL DI GIOVANNI NOTO"
            },
            "geometry": {
                "type": "Point",
                "coordinates": [
                    14.526006953967228,
                    40.91602696746248
                ]
            }
        },
        {
            "type": "Feature",
            "properties": {
                "name": "genovese raffaele",
                "id": "27576",
                "brand": "Q8",
                "amenity": "fuel",
                "operator": "GENOVESE RAFFAELE"
            },
            "geometry": {
                "type": "Point",
                "coordinates": [
                    14.555076956748964,
                    40.94443972820796
                ]
            }
        },
        {
            "type": "Feature",
            "properties": {
                "name": "stazione carburanti esso",
                "id": "15973",
                "brand": "Esso",
                "amenity": "fuel",
                "operator": "DI PALMA ANTONIO"
            },
            "geometry": {
                "type": "Point",
                "coordinates": [
                    14.472474977374077,
                    40.890349482760065
                ]
            }
        },
        {
            "type": "Feature",
            "properties": {
                "name": "Q8",
                "id": "22985",
                "brand": "Q8",
                "amenity": "fuel",
                "operator": "CALVANESE MARIA ROSARIA"
            },
            "geometry": {
                "type": "Point",
                "coordinates": [
                    14.548463097283957,
                    40.86387967363072
                ]
            }
        },
        {
            "type": "Feature",
            "properties": {
                "name": "italfuel",
                "id": "26555",
                "amenity": "fuel",
                "operator": "RA.GA. DI PRISCO GAETANO"
            },
            "geometry": {
                "type": "Point",
                "coordinates": [
                    14.532942026853561,
                    40.9268704007138
                ]
            }
        },
        {
            "type": "Feature",
            "properties": {
                "name": "TAMOIL",
                "id": "24371",
                "brand": "Tamoil",
                "amenity": "fuel",
                "operator": "UDAN PETROLI S.R.L."
            },
            "geometry": {
                "type": "Point",
                "coordinates": [
                    14.529733434319494,
                    40.882667274388936
                ]
            }
        },
        {
            "type": "Feature",
            "properties": {
                "name": "Agip - Stazione di servizio di De Bustis Ficarola Giuseppe",
                "id": "32187",
                "brand": "Agip Eni",
                "amenity": "fuel",
                "operator": "DE BUSTIS FICAROLA GIUSEPPE"
            },
            "geometry": {
                "type": "Point",
                "coordinates": [
                    14.52870011329651,
                    40.932003004561174
                ]
            }
        },
        {
            "type": "Feature",
            "properties": {
                "name": "ROMANO LUIGI",
                "id": "26878",
                "brand": "Total Erg",
                "amenity": "fuel",
                "operator": "ROMANO LUIGI"
            },
            "geometry": {
                "type": "Point",
                "coordinates": [
                    14.465253818489145,
                    40.87325553512512
                ]
            }
        },
        {
            "type": "Feature",
            "properties": {
                "name": "agip franco antonio",
                "id": "18123",
                "brand": "Agip Eni",
                "amenity": "fuel",
                "operator": "FRANCO ANTONIO"
            },
            "geometry": {
                "type": "Point",
                "coordinates": [
                    14.44520146981836,
                    40.87531699383388
                ]
            }
        },
        {
            "type": "Feature",
            "properties": {
                "name": "PV 55607",
                "id": "31615",
                "brand": "Agip Eni",
                "amenity": "fuel",
                "operator": "GESTIONI INNOVATIVE ITALIA S.R.L."
            },
            "geometry": {
                "type": "Point",
                "coordinates": [
                    14.450725615024567,
                    40.93336552562236
                ]
            }
        },
        {
            "type": "Feature",
            "properties": {
                "name": "CELLINI -AGIP-",
                "id": "27132",
                "brand": "Agip Eni",
                "amenity": "fuel",
                "operator": "BML. S.R.L."
            },
            "geometry": {
                "type": "Point",
                "coordinates": [
                    14.478577673435211,
                    40.92755698656064
                ]
            }
        },
        {
            "type": "Feature",
            "properties": {
                "name": "IP",
                "id": "14797",
                "brand": "Api-Ip",
                "amenity": "fuel",
                "operator": "GIOVANNI SCALA & C. S.A.S"
            },
            "geometry": {
                "type": "Point",
                "coordinates": [
                    14.566719755530357,
                    40.9023652248915
                ]
            }
        },
        {
            "type": "Feature",
            "properties": {
                "name": "NOLA",
                "id": "5956",
                "brand": "Total Erg",
                "amenity": "fuel",
                "operator": "GESTIONI EUROPA S.p.A."
            },
            "geometry": {
                "type": "Point",
                "coordinates": [
                    14.485746034393285,
                    40.95376230339099
                ]
            }
        },
        {
            "type": "Feature",
            "properties": {
                "name": "STAR OIL",
                "id": "26712",
                "amenity": "fuel",
                "operator": "VESUVIO PETROLI SERVICE  S.R.L."
            },
            "geometry": {
                "type": "Point",
                "coordinates": [
                    14.436212182044985,
                    40.88685533919222
                ]
            }
        },
        {
            "type": "Feature",
            "properties": {
                "name": "vecchione giuseppe",
                "id": "19449",
                "brand": "Ies",
                "amenity": "fuel",
                "operator": "VECCHIONE GIUSEPPE"
            },
            "geometry": {
                "type": "Point",
                "coordinates": [
                    14.500970765948297,
                    40.91439505044354
                ]
            }
        },
        {
            "type": "Feature",
            "properties": {
                "name": "TRE PONTI OVEST",
                "id": "22319",
                "brand": "Esso",
                "amenity": "fuel",
                "operator": "DS CARBURANTI S.A.S. DI D'ONOFRIO SAVERIO"
            },
            "geometry": {
                "type": "Point",
                "coordinates": [
                    14.471424221992491,
                    40.95146226138661
                ]
            }
        },
        {
            "type": "Feature",
            "properties": {
                "name": "S. VITALIANO S.S. 7BIS KM. 48+354 IMP.Q8",
                "id": "6705",
                "brand": "Q8",
                "amenity": "fuel",
                "operator": "SERVIZI & GESTIONI ITALIA srl"
            },
            "geometry": {
                "type": "Point",
                "coordinates": [
                    14.480775953442391,
                    40.92802067797458
                ]
            }
        },
        {
            "type": "Feature",
            "properties": {
                "name": "STAZIONE Q8 FF.SS.",
                "id": "21370",
                "brand": "Q8",
                "amenity": "fuel",
                "operator": "COZZOLINO S.A.S. DI COZZOLINO MARIA GRAZIA & C."
            },
            "geometry": {
                "type": "Point",
                "coordinates": [
                    14.504360407590866,
                    40.855640148838226
                ]
            }
        },
        {
            "type": "Feature",
            "properties": {
                "name": "INTERPORTO",
                "id": "26658",
                "brand": "Q8",
                "amenity": "fuel",
                "operator": "ZETA GAS S.P.A."
            },
            "geometry": {
                "type": "Point",
                "coordinates": [
                    14.487860798835754,
                    40.960900095315395
                ]
            }
        },
        {
            "type": "Feature",
            "properties": {
                "name": "ITALMARE",
                "id": "30837",
                "amenity": "fuel",
                "operator": "CARBORISTORO SRL"
            },
            "geometry": {
                "type": "Point",
                "coordinates": [
                    14.502781927585602,
                    40.85488120182402
                ]
            }
        },
        {
            "type": "Feature",
            "properties": {
                "name": "ROMANO CARMELA",
                "id": "8156",
                "brand": "Agip Eni",
                "amenity": "fuel",
                "operator": "ROMANO CARMELA"
            },
            "geometry": {
                "type": "Point",
                "coordinates": [
                    14.436773715066462,
                    40.88742476245717
                ]
            }
        },
        {
            "type": "Feature",
            "properties": {
                "name": "MARIGLIANELLA SS. 7BIS KM. 44+847",
                "id": "25791",
                "brand": "Q8",
                "amenity": "fuel",
                "operator": "SERVIZI & GESTIONI ITALIA S.R.L."
            },
            "geometry": {
                "type": "Point",
                "coordinates": [
                    14.432668723417688,
                    40.93310259678763
                ]
            }
        },
        {
            "type": "Feature",
            "properties": {
                "name": "M.B.M. S.R.L.",
                "id": "28058",
                "brand": "Q8",
                "amenity": "fuel",
                "operator": "M.B.M. S.R.L."
            },
            "geometry": {
                "type": "Point",
                "coordinates": [
                    14.51154698280334,
                    40.88146367888589
                ]
            }
        },
        {
            "type": "Feature",
            "properties": {
                "name": "sodano eni",
                "id": "26864",
                "brand": "Agip Eni",
                "amenity": "fuel",
                "operator": "SODANO GIOVANNI"
            },
            "geometry": {
                "type": "Point",
                "coordinates": [
                    14.433122534171048,
                    40.88322096198227
                ]
            }
        },
        {
            "type": "Feature",
            "properties": {
                "name": "stazione di servizio agip di terracciano salvatore",
                "id": "8285",
                "brand": "Agip Eni",
                "amenity": "fuel",
                "operator": "TERRACCIANO SALVATORE"
            },
            "geometry": {
                "type": "Point",
                "coordinates": [
                    14.463914036750795,
                    40.92408304823447
                ]
            }
        },
        {
            "type": "Feature",
            "properties": {
                "name": "ESSO Lombardi",
                "id": "14439",
                "brand": "Esso",
                "amenity": "fuel",
                "operator": "LOMBARDI RAFFAELA"
            },
            "geometry": {
                "type": "Point",
                "coordinates": [
                    14.473042680938645,
                    40.923455679038305
                ]
            }
        },
        {
            "type": "Feature",
            "properties": {
                "name": "COMIZIANO",
                "id": "26258",
                "brand": "Tamoil",
                "amenity": "fuel",
                "operator": "ENERGY PLANTS MANAGEMENT SERVICE S.R.L."
            },
            "geometry": {
                "type": "Point",
                "coordinates": [
                    14.556095049737563,
                    40.95048589108038
                ]
            }
        },
        {
            "type": "Feature",
            "properties": {
                "name": "S.GENNARO VES. S.P.NOLA CASTELLAMMARE",
                "id": "25377",
                "brand": "Q8",
                "amenity": "fuel",
                "operator": "SERVIZI & GESTIONI ITALIA S.R.L."
            },
            "geometry": {
                "type": "Point",
                "coordinates": [
                    14.511995315551756,
                    40.87031871725507
                ]
            }
        },
        {
            "type": "Feature",
            "properties": {
                "name": "Lincar gas",
                "id": "10968",
                "amenity": "fuel",
                "operator": "LINCAR GAS S.R.L."
            },
            "geometry": {
                "type": "Point",
                "coordinates": [
                    14.502784523468337,
                    40.85485586043542
                ]
            }
        },
        {
            "type": "Feature",
            "properties": {
                "name": "F.LLI BOCCIA SNC DI BOCCIA M.E C.",
                "id": "12938",
                "brand": "Agip Eni",
                "amenity": "fuel",
                "operator": "F.LLI BOCCIA DI BOCCIA MASSIMO E C. S.N.C."
            },
            "geometry": {
                "type": "Point",
                "coordinates": [
                    14.51103176997526,
                    40.855096479240586
                ]
            }
        },
        {
            "type": "Feature",
            "properties": {
                "name": "COP. AR. CARBURANTI",
                "id": "29178",
                "amenity": "fuel",
                "operator": "COP. AR. CARBURANTI S.R.L."
            },
            "geometry": {
                "type": "Point",
                "coordinates": [
                    14.512032866477965,
                    40.85829751065007
                ]
            }
        },
        {
            "type": "Feature",
            "properties": {
                "name": "DE STEFANO VINCENZO",
                "id": "18430",
                "brand": "Total Erg",
                "amenity": "fuel",
                "operator": "DE STEFANO VINCENZO"
            },
            "geometry": {
                "type": "Point",
                "coordinates": [
                    14.433898106217388,
                    40.87224209440009
                ]
            }
        },
        {
            "type": "Feature",
            "properties": {
                "name": "STAZIONE DI SERVIZIO TOTAL ERG",
                "id": "13250",
                "brand": "Total Erg",
                "amenity": "fuel",
                "operator": "STAZIONE ERG DI PALUMBO BRUNO"
            },
            "geometry": {
                "type": "Point",
                "coordinates": [
                    14.530792906880377,
                    40.94528213130663
                ]
            }
        },
        {
            "type": "Feature",
            "properties": {
                "name": "aquila carburanti di guercia vincenzo",
                "id": "26725",
                "amenity": "fuel",
                "operator": "AQUILA CARBURANTI DI GUERCIA VINCENZO"
            },
            "geometry": {
                "type": "Point",
                "coordinates": [
                    14.449509188543741,
                    40.89600409429793
                ]
            }
        },
        {
            "type": "Feature",
            "properties": {
                "name": "Acerra",
                "id": "16789",
                "brand": "Api-Ip",
                "amenity": "fuel",
                "operator": "TRE PONTI FOOD OIL S.R.L."
            },
            "geometry": {
                "type": "Point",
                "coordinates": [
                    14.428237974643705,
                    40.962290376521054
                ]
            }
        },
        {
            "type": "Feature",
            "properties": {
                "name": "WORLD PETROLI SAS",
                "id": "28117",
                "brand": "Api-Ip",
                "amenity": "fuel",
                "operator": "WORLD PETROLI S.A.S. DI NAPOLITANO GIANPAOLO"
            },
            "geometry": {
                "type": "Point",
                "coordinates": [
                    14.539622068405153,
                    40.972623395863955
                ]
            }
        },
        {
            "type": "Feature",
            "properties": {
                "name": "REPSOL",
                "id": "24515",
                "brand": "Repsol",
                "amenity": "fuel",
                "operator": "FADDIMM  S.R.L."
            },
            "geometry": {
                "type": "Point",
                "coordinates": [
                    14.525086507201195,
                    40.90024328285186
                ]
            }
        },
        {
            "type": "Feature",
            "properties": {
                "name": "CANTONE CASA",
                "id": "26702",
                "amenity": "fuel",
                "operator": "S.ENERGY  S.R.L."
            },
            "geometry": {
                "type": "Point",
                "coordinates": [
                    14.55964202747805,
                    40.96432456034619
                ]
            }
        },
        {
            "type": "Feature",
            "properties": {
                "name": "DISTRUTORI ECOS Q8",
                "id": "21965",
                "brand": "Q8",
                "amenity": "fuel",
                "operator": "DISTRIBUTORI ECOS S.R.L."
            },
            "geometry": {
                "type": "Point",
                "coordinates": [
                    14.516716003417969,
                    40.91853920307452
                ]
            }
        },
        {
            "type": "Feature",
            "properties": {
                "name": "VIA ALDO MORO -  SOMMA VESUVIANA",
                "id": "28360",
                "brand": "Q8",
                "amenity": "fuel",
                "operator": "SERVIZI & GESTIONI ITALIA S.R.L."
            },
            "geometry": {
                "type": "Point",
                "coordinates": [
                    14.449319785388981,
                    40.86903902848026
                ]
            }
        },
        {
            "type": "Feature",
            "properties": {
                "name": "ESPOSITO CLAUDIO",
                "id": "31913",
                "amenity": "fuel",
                "operator": "ESPOSITO CLAUDIO"
            },
            "geometry": {
                "type": "Point",
                "coordinates": [
                    14.540188685059547,
                    40.88077299694351
                ]
            }
        },
        {
            "type": "Feature",
            "properties": {
                "name": "ST OIL - Via Circumvallazione",
                "id": "29908",
                "amenity": "fuel",
                "operator": "ST OIL DI GIOVANNI NOTO"
            },
            "geometry": {
                "type": "Point",
                "coordinates": [
                    14.53475711656756,
                    40.92032872445766
                ]
            }
        },
        {
            "type": "Feature",
            "properties": {
                "name": "area di servizio cr s.n.c. di genovese raffaele e di palma carmen",
                "id": "27381",
                "brand": "Q8",
                "amenity": "fuel",
                "operator": "AREA DI SERVIZIO CR S.N.C. DI GENOVESE RAFFAELE E DI PALMA CARMEN"
            },
            "geometry": {
                "type": "Point",
                "coordinates": [
                    14.48026478290558,
                    40.87092820847671
                ]
            }
        },
        {
            "type": "Feature",
            "properties": {
                "name": "CARBURANTI TUORTO",
                "id": "26792",
                "amenity": "fuel",
                "operator": "GESTION PETROL S.A.S. DI TUORTO DONATO & C."
            },
            "geometry": {
                "type": "Point",
                "coordinates": [
                    14.422190129789666,
                    40.87058306749299
                ]
            }
        },
        {
            "type": "Feature",
            "properties": {
                "name": "ip api",
                "id": "29325",
                "brand": "Api-Ip",
                "amenity": "fuel",
                "operator": "DE LUCA ANTONIO"
            },
            "geometry": {
                "type": "Point",
                "coordinates": [
                    14.537660032510754,
                    40.95476500856712
                ]
            }
        },
        {
            "type": "Feature",
            "properties": {
                "name": "GESTIONE & SERVIZI SRL",
                "id": "17927",
                "amenity": "fuel",
                "operator": "GESTIONE & SERVIZI S.R.L."
            },
            "geometry": {
                "type": "Point",
                "coordinates": [
                    14.588309526443481,
                    40.951269406936476
                ]
            }
        },
        {
            "type": "Feature",
            "properties": {
                "name": "ANDREA NAPOLITANO",
                "id": "26716",
                "brand": "Tamoil",
                "amenity": "fuel",
                "operator": "ANDREA NAPOLITANO"
            },
            "geometry": {
                "type": "Point",
                "coordinates": [
                    14.449605077679735,
                    40.897831908974894
                ]
            }
        },
        {
            "type": "Feature",
            "properties": {
                "name": "NOLANA PETROLI SRL",
                "id": "18856",
                "brand": "Api-Ip",
                "amenity": "fuel",
                "operator": "NOLANA PETROLI S.R.L."
            },
            "geometry": {
                "type": "Point",
                "coordinates": [
                    14.523843973875044,
                    40.93335904132861
                ]
            }
        },
        {
            "type": "Feature",
            "properties": {
                "name": "DISTRIBUTORI ECOS",
                "id": "13088",
                "amenity": "fuel",
                "operator": "DISTRIBUTORI ECOS S.R.L."
            },
            "geometry": {
                "type": "Point",
                "coordinates": [
                    14.49445366859436,
                    40.95737119376574
                ]
            }
        },
        {
            "type": "Feature",
            "properties": {
                "name": "STAZIONE DI SERVIZIO ENI",
                "id": "20334",
                "brand": "Agip Eni",
                "amenity": "fuel",
                "operator": "AP CARBURANTI S.R.L."
            },
            "geometry": {
                "type": "Point",
                "coordinates": [
                    14.422374665737152,
                    40.89165649482885
                ]
            }
        },
        {
            "type": "Feature",
            "properties": {
                "name": "Saviano",
                "id": "31268",
                "brand": "Total Erg",
                "amenity": "fuel",
                "operator": "GESTIONI EUROPA - SOCIETA' PER AZIONI"
            },
            "geometry": {
                "type": "Point",
                "coordinates": [
                    14.510554808761297,
                    40.91204175156891
                ]
            }
        },
        {
            "type": "Feature",
            "properties": {
                "name": "VITALE BARBATO",
                "id": "30720",
                "brand": "Esso",
                "amenity": "fuel",
                "operator": "VITALE BARBATO"
            },
            "geometry": {
                "type": "Point",
                "coordinates": [
                    14.444515712937463,
                    40.92742230614374
                ]
            }
        },
        {
            "type": "Feature",
            "properties": {
                "name": "SAN VITALIANO-SS. 7BIS KM.49+615",
                "id": "11730",
                "brand": "Q8",
                "amenity": "fuel",
                "operator": "SERVIZI & GESTIONI ITALIA S.R.L."
            },
            "geometry": {
                "type": "Point",
                "coordinates": [
                    14.494183906745889,
                    40.93270678777371
                ]
            }
        },
        {
            "type": "Feature",
            "properties": {
                "name": "C.A.M.",
                "id": "5654",
                "amenity": "fuel",
                "operator": "C.A.M. S.A.S. DI RAINONE MICHELE & C."
            },
            "geometry": {
                "type": "Point",
                "coordinates": [
                    14.539436995983127,
                    40.8550171272163
                ]
            }
        },
        {
            "type": "Feature",
            "properties": {
                "name": "Simonetti Biagio",
                "id": "16385",
                "brand": "Total Erg",
                "amenity": "fuel",
                "operator": "SIMONETTI BIAGIO"
            },
            "geometry": {
                "type": "Point",
                "coordinates": [
                    14.519558474421501,
                    40.917229681947724
                ]
            }
        },
        {
            "type": "Feature",
            "properties": {
                "name": "ORANGE",
                "id": "22774",
                "amenity": "fuel",
                "operator": "SAMAGAS ITALIA S.R.L."
            },
            "geometry": {
                "type": "Point",
                "coordinates": [
                    14.414818882942198,
                    40.897441831752786
                ]
            }
        },
        {
            "type": "Feature",
            "properties": {
                "name": "stazione di servizio tamoil",
                "id": "18113",
                "brand": "Tamoil",
                "amenity": "fuel",
                "operator": "SALSEDO CIRO"
            },
            "geometry": {
                "type": "Point",
                "coordinates": [
                    14.513946832368676,
                    40.88727027071178
                ]
            }
        },
        {
            "type": "Feature",
            "properties": {
                "name": "Fratelli Menna",
                "id": "20354",
                "brand": "Q8",
                "amenity": "fuel",
                "operator": "GOOD OIL S.A.S. DI ANGELA DE GREGORIO & C."
            },
            "geometry": {
                "type": "Point",
                "coordinates": [
                    14.519592672586436,
                    40.93227697002072
                ]
            }
        },
        {
            "type": "Feature",
            "properties": {
                "name": "EP FUEL",
                "id": "24555",
                "amenity": "fuel",
                "operator": "PEGASO PETROLI S.R.L."
            },
            "geometry": {
                "type": "Point",
                "coordinates": [
                    14.552164077758787,
                    40.943376477878914
                ]
            }
        },
        {
            "type": "Feature",
            "properties": {
                "name": "ERG",
                "id": "21229",
                "brand": "Total Erg",
                "amenity": "fuel",
                "operator": "SATEGAS S.R.L."
            },
            "geometry": {
                "type": "Point",
                "coordinates": [
                    14.502277672290806,
                    40.934633187943014
                ]
            }
        },
        {
            "type": "Feature",
            "properties": {
                "name": "Q8 di Piccolo Francesco",
                "id": "15319",
                "brand": "Q8",
                "amenity": "fuel",
                "operator": "PICCOLO FRANCESCO"
            },
            "geometry": {
                "type": "Point",
                "coordinates": [
                    14.440276399254799,
                    40.87196220118229
                ]
            }
        },
        {
            "type": "Feature",
            "properties": {
                "name": "energi",
                "id": "27586",
                "amenity": "fuel",
                "operator": "GENOVESE RAFFAELE"
            },
            "geometry": {
                "type": "Point",
                "coordinates": [
                    14.500964730978012,
                    40.90316179082867
                ]
            }
        },
        {
            "type": "Feature",
            "properties": {
                "name": "ESSO MARIGLIANELLA",
                "id": "25243",
                "brand": "Esso",
                "amenity": "fuel",
                "operator": "DISTRIBUTORI PAPA DI PAPA GIOVANNI & C. S.A.S."
            },
            "geometry": {
                "type": "Point",
                "coordinates": [
                    14.441366792976394,
                    40.924862041785886
                ]
            }
        },
        {
            "type": "Feature",
            "properties": {
                "name": "Comiziano",
                "id": "25660",
                "brand": "Total Erg",
                "amenity": "fuel",
                "operator": "GESTIONI EUROPA - SOCIETA' PER AZIONI"
            },
            "geometry": {
                "type": "Point",
                "coordinates": [
                    14.541735649108885,
                    40.94150440252947
                ]
            }
        },
        {
            "type": "Feature",
            "properties": {
                "name": "STAR OIL",
                "id": "26502",
                "amenity": "fuel",
                "operator": "ZOPPINO FRANCESCO"
            },
            "geometry": {
                "type": "Point",
                "coordinates": [
                    14.52618420124054,
                    40.92326611321092
                ]
            }
        },
        {
            "type": "Feature",
            "properties": {
                "name": "ESPOSITO ALFONSO",
                "id": "20396",
                "amenity": "fuel",
                "operator": "ESPOSITO ALFONSO"
            },
            "geometry": {
                "type": "Point",
                "coordinates": [
                    14.455851987004277,
                    40.884282467610504
                ]
            }
        },
        {
            "type": "Feature",
            "properties": {
                "name": "SAVIANO TORRE 39 IMP.Q8",
                "id": "6701",
                "brand": "Q8",
                "amenity": "fuel",
                "operator": "SERVIZI & GESTIONI ITALIA srl"
            },
            "geometry": {
                "type": "Point",
                "coordinates": [
                    14.511427786508191,
                    40.90266336687782
                ]
            }
        },
        {
            "type": "Feature",
            "properties": {
                "name": "TAMOIL",
                "id": "9437",
                "brand": "Tamoil",
                "amenity": "fuel",
                "operator": "F.LLI DI PALMA S.A.S. DI DI PALMA ANIELLO & C."
            },
            "geometry": {
                "type": "Point",
                "coordinates": [
                    14.544208645820616,
                    40.915603131827524
                ]
            }
        },
        {
            "type": "Feature",
            "properties": {
                "name": "ESSO",
                "id": "20513",
                "brand": "Esso",
                "amenity": "fuel",
                "operator": "3/12 PETROLI S.R.L."
            },
            "geometry": {
                "type": "Point",
                "coordinates": [
                    14.52316033586567,
                    40.92850653474145
                ]
            }
        },
        {
            "type": "Feature",
            "properties": {
                "name": "DISTRIBUTORE DARIA SAS",
                "id": "32186",
                "brand": "Esso",
                "amenity": "fuel",
                "operator": "DARIA S.A.S. DI MIRANDA MARIA"
            },
            "geometry": {
                "type": "Point",
                "coordinates": [
                    14.480352518757627,
                    40.85110882491288
                ]
            }
        },
        {
            "type": "Feature",
            "properties": {
                "name": "Enrico q8",
                "id": "14200",
                "brand": "Q8",
                "amenity": "fuel",
                "operator": "ALTAMURA ENRICO IMPIANTO Q8"
            },
            "geometry": {
                "type": "Point",
                "coordinates": [
                    14.533451650926168,
                    40.92216167268428
                ]
            }
        },
        {
            "type": "Feature",
            "properties": {
                "name": "PICCOLO ENERGIE SRL",
                "id": "31050",
                "brand": "Q8",
                "amenity": "fuel",
                "operator": "PICCOLO ENERGIE S.R.L."
            },
            "geometry": {
                "type": "Point",
                "coordinates": [
                    14.44741979241371,
                    40.8853941194394
                ]
            }
        }
    ]
}