{
    "type": "FeatureCollection",
    "features": [
        {
            "type": "Feature",
            "properties": {
                "name": "DISTRIBUTORE IP di BERARDI DANIELE",
                "id": "27045",
                "brand": "Api-Ip",
                "amenity": "fuel",
                "operator": "BERARDI DANIELE"
            },
            "geometry": {
                "type": "Point",
                "coordinates": [
                    14.461528327824908,
                    42.07006171240348
                ]
            }
        },
        {
            "type": "Feature",
            "properties": {
                "name": "Marrone",
                "id": "22050",
                "brand": "Api-Ip",
                "amenity": "fuel",
                "operator": "MARRONE GIANPIERO"
            },
            "geometry": {
                "type": "Point",
                "coordinates": [
                    14.565018564462658,
                    42.10962318512206
                ]
            }
        },
        {
            "type": "Feature",
            "properties": {
                "name": "DEUPA DI GIZZARELLI EUFEMIA E. C, SNC",
                "id": "21578",
                "amenity": "fuel",
                "operator": "DEUPA DI GIZZARELLI EUFEMIA E C. S.N.C."
            },
            "geometry": {
                "type": "Point",
                "coordinates": [
                    14.588528797030447,
                    42.13775098057563
                ]
            }
        },
        {
            "type": "Feature",
            "properties": {
                "name": "ATESSA",
                "id": "5935",
                "brand": "Total Erg",
                "amenity": "fuel",
                "operator": "GESTIONI EUROPA - SOCIETA' PER AZIONI"
            },
            "geometry": {
                "type": "Point",
                "coordinates": [
                    14.432293860118873,
                    42.12904487067406
                ]
            }
        },
        {
            "type": "Feature",
            "properties": {
                "name": "BOSCHETTI ANTONIO",
                "id": "14509",
                "amenity": "fuel",
                "operator": "BOSCHETTI ANTONIO"
            },
            "geometry": {
                "type": "Point",
                "coordinates": [
                    14.452757388353346,
                    42.066325976273376
                ]
            }
        },
        {
            "type": "Feature",
            "properties": {
                "name": "ATESSA",
                "id": "5936",
                "brand": "Total Erg",
                "amenity": "fuel",
                "operator": "GESTIONI EUROPA S.p.A."
            },
            "geometry": {
                "type": "Point",
                "coordinates": [
                    14.446454116567569,
                    42.075042999999994
                ]
            }
        }
    ]
}