{
    "type": "FeatureCollection",
    "features": [
        {
            "type": "Feature",
            "properties": {
                "name": "Tancredi",
                "id": "4575",
                "amenity": "fuel",
                "operator": "TANCREDI ANTONIO"
            },
            "geometry": {
                "type": "Point",
                "coordinates": [
                    14.5637646317482,
                    41.20833075760507
                ]
            }
        },
        {
            "type": "Feature",
            "properties": {
                "name": "DI MAURO MICHELE",
                "id": "14229",
                "amenity": "fuel",
                "operator": "DI MAURO MICHELE"
            },
            "geometry": {
                "type": "Point",
                "coordinates": [
                    14.456881284713745,
                    41.2002149578481
                ]
            }
        },
        {
            "type": "Feature",
            "properties": {
                "name": "RUVIANO",
                "id": "31105",
                "brand": "Esso",
                "amenity": "fuel",
                "operator": "EWA OIL S.P.A."
            },
            "geometry": {
                "type": "Point",
                "coordinates": [
                    14.449180662631989,
                    41.19499708323964
                ]
            }
        },
        {
            "type": "Feature",
            "properties": {
                "name": "VERNAOIL",
                "id": "19553",
                "amenity": "fuel",
                "operator": "VERNAGAS GROUP S.R.L."
            },
            "geometry": {
                "type": "Point",
                "coordinates": [
                    14.533620658908147,
                    41.236400879061456
                ]
            }
        },
        {
            "type": "Feature",
            "properties": {
                "name": "Tamoil-Solopaca",
                "id": "28105",
                "brand": "Tamoil",
                "amenity": "fuel",
                "operator": "SALVATORE ALEX"
            },
            "geometry": {
                "type": "Point",
                "coordinates": [
                    14.559989754616481,
                    41.196597102713625
                ]
            }
        },
        {
            "type": "Feature",
            "properties": {
                "name": "ESSO FRASSO TELESINO",
                "id": "29968",
                "brand": "Esso",
                "amenity": "fuel",
                "operator": "PENTA PETROLI SRL"
            },
            "geometry": {
                "type": "Point",
                "coordinates": [
                    14.528543204069136,
                    41.15682477056332
                ]
            }
        },
        {
            "type": "Feature",
            "properties": {
                "name": "impianto EWA",
                "id": "27589",
                "amenity": "fuel",
                "operator": "PACELLI LILIANA"
            },
            "geometry": {
                "type": "Point",
                "coordinates": [
                    14.544592201709749,
                    41.22993945950345
                ]
            }
        },
        {
            "type": "Feature",
            "properties": {
                "name": "ECOS",
                "id": "13114",
                "amenity": "fuel",
                "operator": "DISTRIBUTORI ECOS S.R.L."
            },
            "geometry": {
                "type": "Point",
                "coordinates": [
                    14.503986239433292,
                    41.20687867714638
                ]
            }
        },
        {
            "type": "Feature",
            "properties": {
                "name": "vaccarella",
                "id": "25843",
                "amenity": "fuel",
                "operator": "F.LLI VACCARELLA S.R.L."
            },
            "geometry": {
                "type": "Point",
                "coordinates": [
                    14.494593143463135,
                    41.22874041849152
                ]
            }
        },
        {
            "type": "Feature",
            "properties": {
                "name": "TELESE",
                "id": "28833",
                "brand": "Esso",
                "amenity": "fuel",
                "operator": "PENTA PETROLI SRL"
            },
            "geometry": {
                "type": "Point",
                "coordinates": [
                    14.482877254486084,
                    41.200354813966044
                ]
            }
        },
        {
            "type": "Feature",
            "properties": {
                "name": "area di servizio ricci pasquale e figlio snc",
                "id": "31762",
                "brand": "Agip Eni",
                "amenity": "fuel",
                "operator": "RICCI PASQUALE & FIGLIO S.N.C."
            },
            "geometry": {
                "type": "Point",
                "coordinates": [
                    14.51958194375038,
                    41.21648691223848
                ]
            }
        },
        {
            "type": "Feature",
            "properties": {
                "name": "Tamoil",
                "id": "7462",
                "brand": "Tamoil",
                "amenity": "fuel",
                "operator": "G.T. CAR DI GIORDANO GIOVANNI E C. S.N.C."
            },
            "geometry": {
                "type": "Point",
                "coordinates": [
                    14.450903311371807,
                    41.13000301419216
                ]
            }
        },
        {
            "type": "Feature",
            "properties": {
                "name": "ricci pasquale e figlio snc",
                "id": "12838",
                "brand": "Agip Eni",
                "amenity": "fuel",
                "operator": "RICCI PASQUALE & FIGLIO S.N.C."
            },
            "geometry": {
                "type": "Point",
                "coordinates": [
                    14.53369438648224,
                    41.21839959332872
                ]
            }
        },
        {
            "type": "Feature",
            "properties": {
                "name": "LA PORTA DEL SANNIO",
                "id": "26871",
                "amenity": "fuel",
                "operator": "R.O.A. S.R.L."
            },
            "geometry": {
                "type": "Point",
                "coordinates": [
                    14.439402094722027,
                    41.24467586260777
                ]
            }
        },
        {
            "type": "Feature",
            "properties": {
                "name": "MELIZZANO",
                "id": "30047",
                "brand": "Esso",
                "amenity": "fuel",
                "operator": "PENTA PETROLI SRL"
            },
            "geometry": {
                "type": "Point",
                "coordinates": [
                    14.463251531124113,
                    41.164524133708596
                ]
            }
        },
        {
            "type": "Feature",
            "properties": {
                "name": "ARAGOSA ANGELO",
                "id": "8280",
                "brand": "Agip Eni",
                "amenity": "fuel",
                "operator": "ARAGOSA ANGELO"
            },
            "geometry": {
                "type": "Point",
                "coordinates": [
                    14.461698532104492,
                    41.137299293241156
                ]
            }
        },
        {
            "type": "Feature",
            "properties": {
                "name": "VIA NAZIONALE, 53 DUGENTA",
                "id": "24885",
                "brand": "Giap",
                "amenity": "fuel",
                "operator": "SERVIZI E GESTIONI ZENIT S.R.L. IN SIGLA - ZENIT S.R.L."
            },
            "geometry": {
                "type": "Point",
                "coordinates": [
                    14.45307664524751,
                    41.13494060003096
                ]
            }
        },
        {
            "type": "Feature",
            "properties": {
                "name": "_SUDPETROLI1",
                "id": "4265",
                "amenity": "fuel",
                "operator": "SUD PETROLI DI GAMBUTI ANGELO E SILVIO S.N.C."
            },
            "geometry": {
                "type": "Point",
                "coordinates": [
                    14.481858015060421,
                    41.22592105254809
                ]
            }
        },
        {
            "type": "Feature",
            "properties": {
                "name": "TM03663",
                "id": "31342",
                "brand": "Tamoil",
                "amenity": "fuel",
                "operator": "G.I.S. PETROLI S.A.S. DI VIGLIOTTI NICOLETTA & C."
            },
            "geometry": {
                "type": "Point",
                "coordinates": [
                    14.461575150489809,
                    41.238403127182906
                ]
            }
        },
        {
            "type": "Feature",
            "properties": {
                "name": "area di servizio torello",
                "id": "8732",
                "brand": "Ies",
                "amenity": "fuel",
                "operator": "ASCIERTO STEFANO"
            },
            "geometry": {
                "type": "Point",
                "coordinates": [
                    14.477519541978836,
                    41.177462369439766
                ]
            }
        },
        {
            "type": "Feature",
            "properties": {
                "name": "DISTRIBUTORE IP",
                "id": "29215",
                "brand": "Api-Ip",
                "amenity": "fuel",
                "operator": "GUARINO MICHELE"
            },
            "geometry": {
                "type": "Point",
                "coordinates": [
                    14.44836151800848,
                    41.22193403958113
                ]
            }
        }
    ]
}