{
    "type": "FeatureCollection",
    "features": [
        {
            "type": "Feature",
            "properties": {
                "name": "Stazione di Servizio Q8 Giliberti Carburanti",
                "id": "5379",
                "brand": "Q8",
                "amenity": "fuel",
                "operator": "GILIBERTI CARBURANTI S.R.L."
            },
            "geometry": {
                "type": "Point",
                "coordinates": [
                    14.74803465277864,
                    40.91621597936951
                ]
            }
        },
        {
            "type": "Feature",
            "properties": {
                "name": "Stazione Q8",
                "id": "27913",
                "brand": "Q8",
                "amenity": "fuel",
                "operator": "D.A.P. CARBURANTI DI PASQUALE DE ANGELIS & C. S.N.C."
            },
            "geometry": {
                "type": "Point",
                "coordinates": [
                    14.750781655311584,
                    40.93602483278962
                ]
            }
        },
        {
            "type": "Feature",
            "properties": {
                "name": "MONTEFORTE IRPINO S.S. 7 BIS",
                "id": "6712",
                "brand": "Q8",
                "amenity": "fuel",
                "operator": "SERVIZI & GESTIONI ITALIA srl"
            },
            "geometry": {
                "type": "Point",
                "coordinates": [
                    14.741020473016306,
                    40.90179725280561
                ]
            }
        },
        {
            "type": "Feature",
            "properties": {
                "name": "Eni",
                "id": "10882",
                "brand": "Agip Eni",
                "amenity": "fuel",
                "operator": "DI FALCO MODESTINO"
            },
            "geometry": {
                "type": "Point",
                "coordinates": [
                    14.747369885444643,
                    40.91194613622785
                ]
            }
        },
        {
            "type": "Feature",
            "properties": {
                "name": "TAURANO",
                "id": "28815",
                "brand": "Esso",
                "amenity": "fuel",
                "operator": "PENTA PETROLI SRL"
            },
            "geometry": {
                "type": "Point",
                "coordinates": [
                    14.631438106298445,
                    40.88425103610375
                ]
            }
        },
        {
            "type": "Feature",
            "properties": {
                "name": "SPERONE S.S. 7 BIS KM 58+984  IMP.Q8",
                "id": "6711",
                "brand": "Q8",
                "amenity": "fuel",
                "operator": "SERVIZI & GESTIONI ITALIA srl"
            },
            "geometry": {
                "type": "Point",
                "coordinates": [
                    14.600006639957428,
                    40.95238682036991
                ]
            }
        },
        {
            "type": "Feature",
            "properties": {
                "name": "TORRETTE DI MERCOGLIANO",
                "id": "19167",
                "brand": "Esso",
                "amenity": "fuel",
                "operator": "DE LUCA                            LUIGI"
            },
            "geometry": {
                "type": "Point",
                "coordinates": [
                    14.757987409830093,
                    40.907192266514336
                ]
            }
        },
        {
            "type": "Feature",
            "properties": {
                "name": "TOTAL ERG",
                "id": "16298",
                "brand": "Total Erg",
                "amenity": "fuel",
                "operator": "TOMEO CARMINE"
            },
            "geometry": {
                "type": "Point",
                "coordinates": [
                    14.745369628071783,
                    40.9051263793997
                ]
            }
        },
        {
            "type": "Feature",
            "properties": {
                "name": "Stazione di Servizio Q8 Giliberti Carburanti S.r.l.",
                "id": "5378",
                "brand": "Q8",
                "amenity": "fuel",
                "operator": "GILIBERTI CARBURANTI S.R.L."
            },
            "geometry": {
                "type": "Point",
                "coordinates": [
                    14.753007888793945,
                    40.90735038297428
                ]
            }
        },
        {
            "type": "Feature",
            "properties": {
                "name": "STAZIONE DI SERVIZIO Q8",
                "id": "13355",
                "brand": "Q8",
                "amenity": "fuel",
                "operator": "IOVINO SALVATORE"
            },
            "geometry": {
                "type": "Point",
                "coordinates": [
                    14.643873497843744,
                    40.937132980922556
                ]
            }
        },
        {
            "type": "Feature",
            "properties": {
                "name": "Q8",
                "id": "29675",
                "brand": "Q8",
                "amenity": "fuel",
                "operator": "GIO PETROLI DI PACILIO GIOVANNI"
            },
            "geometry": {
                "type": "Point",
                "coordinates": [
                    14.709549397230147,
                    40.89309202904764
                ]
            }
        },
        {
            "type": "Feature",
            "properties": {
                "name": "TOTALERG",
                "id": "19895",
                "brand": "Total Erg",
                "amenity": "fuel",
                "operator": "SO.I.CO. - SOCIETA' IRPINA COSTRUZIONI - S.A.S. DI ERCOLINO ENRICO E GIOVANNI & C."
            },
            "geometry": {
                "type": "Point",
                "coordinates": [
                    14.750862121582031,
                    40.85911646542432
                ]
            }
        },
        {
            "type": "Feature",
            "properties": {
                "name": "ewa",
                "id": "26289",
                "amenity": "fuel",
                "operator": "FORTINO GIOVANNI PIETRO"
            },
            "geometry": {
                "type": "Point",
                "coordinates": [
                    14.647438824176785,
                    40.87325253971483
                ]
            }
        },
        {
            "type": "Feature",
            "properties": {
                "name": "k8",
                "id": "16053",
                "brand": "Q8",
                "amenity": "fuel",
                "operator": "SEPE S.A.S. DI SEPE MICHELE E C."
            },
            "geometry": {
                "type": "Point",
                "coordinates": [
                    14.633635506033896,
                    40.87879592268405
                ]
            }
        },
        {
            "type": "Feature",
            "properties": {
                "name": "CENTRO FLAME",
                "id": "31936",
                "amenity": "fuel",
                "operator": "*\"CENTRO FLAME S.R.L.\""
            },
            "geometry": {
                "type": "Point",
                "coordinates": [
                    14.748700261116031,
                    40.91510330164608
                ]
            }
        }
    ]
}