{
    "type": "FeatureCollection",
    "features": [
        {
            "type": "Feature",
            "properties": {
                "name": "ENI CONSOLO CARLO",
                "id": "25124",
                "brand": "Agip Eni",
                "amenity": "fuel",
                "operator": "CONSOLO CARLO"
            },
            "geometry": {
                "type": "Point",
                "coordinates": [
                    14.593912661075594,
                    38.05808204419528
                ]
            }
        },
        {
            "type": "Feature",
            "properties": {
                "name": "DOTTORE  ANTONIO",
                "id": "26287",
                "amenity": "fuel",
                "operator": "DOTTORE  ANTONIO"
            },
            "geometry": {
                "type": "Point",
                "coordinates": [
                    14.704120075836268,
                    38.01875186824531
                ]
            }
        },
        {
            "type": "Feature",
            "properties": {
                "name": "ENI CONSOLO CARLO",
                "id": "25125",
                "brand": "Agip Eni",
                "amenity": "fuel",
                "operator": "CONSOLO CARLO"
            },
            "geometry": {
                "type": "Point",
                "coordinates": [
                    14.644497781991959,
                    38.07025717815299
                ]
            }
        },
        {
            "type": "Feature",
            "properties": {
                "name": "ACQUEDOLCI",
                "id": "3777",
                "brand": "Esso",
                "amenity": "fuel",
                "operator": "V.G.F. IDROCARBURI S.R.L."
            },
            "geometry": {
                "type": "Point",
                "coordinates": [
                    14.602208733558655,
                    38.05362995085992
                ]
            }
        },
        {
            "type": "Feature",
            "properties": {
                "name": "Stazione di Servizio Q8",
                "id": "27080",
                "brand": "Q8",
                "amenity": "fuel",
                "operator": "REALE TERESA"
            },
            "geometry": {
                "type": "Point",
                "coordinates": [
                    14.7274242687256,
                    38.13445174489475
                ]
            }
        },
        {
            "type": "Feature",
            "properties": {
                "name": "Me006",
                "id": "25456",
                "amenity": "fuel",
                "operator": "SCARAVILLI ALFREDO BASILIO"
            },
            "geometry": {
                "type": "Point",
                "coordinates": [
                    14.699213062623132,
                    38.074972933115596
                ]
            }
        },
        {
            "type": "Feature",
            "properties": {
                "name": "ENI",
                "id": "24854",
                "brand": "Agip Eni",
                "amenity": "fuel",
                "operator": "MADDALENA CARBURANTI DI MADDALENA ANTONINO & C.S.N.C."
            },
            "geometry": {
                "type": "Point",
                "coordinates": [
                    14.724364578723906,
                    38.13049482020387
                ]
            }
        },
        {
            "type": "Feature",
            "properties": {
                "name": "STAZIONE SERVIZIO ESSO",
                "id": "21051",
                "brand": "Esso",
                "amenity": "fuel",
                "operator": "FREE S.A.S. DI TOMASI SCIANO' BENEDETTA & C."
            },
            "geometry": {
                "type": "Point",
                "coordinates": [
                    14.600976929068565,
                    38.06016459308956
                ]
            }
        },
        {
            "type": "Feature",
            "properties": {
                "name": "rivendita carburanti conti taguali sonia",
                "id": "15059",
                "amenity": "fuel",
                "operator": "CONTI TAGUALI SONIA"
            },
            "geometry": {
                "type": "Point",
                "coordinates": [
                    14.757564961910248,
                    38.098846224292
                ]
            }
        },
        {
            "type": "Feature",
            "properties": {
                "name": "ENI",
                "id": "8587",
                "brand": "Agip Eni",
                "amenity": "fuel",
                "operator": "MONASTRA ROBERTO"
            },
            "geometry": {
                "type": "Point",
                "coordinates": [
                    14.62713437993409,
                    38.0666997111544
                ]
            }
        },
        {
            "type": "Feature",
            "properties": {
                "name": "michele giuffre coco",
                "id": "17208",
                "amenity": "fuel",
                "operator": "GIUFFRE' COCO MICHELE"
            },
            "geometry": {
                "type": "Point",
                "coordinates": [
                    14.649925709631361,
                    38.07708931018534
                ]
            }
        },
        {
            "type": "Feature",
            "properties": {
                "name": "KUWAIT PETROLEUM ITALIA S.P.A.",
                "id": "9140",
                "brand": "Q8",
                "amenity": "fuel",
                "operator": "LOPIS FERDINANDO"
            },
            "geometry": {
                "type": "Point",
                "coordinates": [
                    14.640312699116402,
                    38.069450331419326
                ]
            }
        },
        {
            "type": "Feature",
            "properties": {
                "name": "Q8 Manzo Santo",
                "id": "28926",
                "brand": "Q8",
                "amenity": "fuel",
                "operator": "MANZO SANTO"
            },
            "geometry": {
                "type": "Point",
                "coordinates": [
                    14.705917500015405,
                    38.10788157581515
                ]
            }
        },
        {
            "type": "Feature",
            "properties": {
                "name": "STAZIONE SERVIZIO ESSO",
                "id": "26389",
                "brand": "Esso",
                "amenity": "fuel",
                "operator": "GASOIL  S.A.S. DI CALTABIANO GIOVANNA & C."
            },
            "geometry": {
                "type": "Point",
                "coordinates": [
                    14.64353621006012,
                    38.06997464778712
                ]
            }
        },
        {
            "type": "Feature",
            "properties": {
                "name": "Q8",
                "id": "28920",
                "brand": "Q8",
                "amenity": "fuel",
                "operator": "SCAFFIDI LUIGIA"
            },
            "geometry": {
                "type": "Point",
                "coordinates": [
                    14.59607720375061,
                    38.02603191517461
                ]
            }
        },
        {
            "type": "Feature",
            "properties": {
                "name": "Petrisi & Gentile snc",
                "id": "18987",
                "brand": "Api-Ip",
                "amenity": "fuel",
                "operator": "PETRISI E GENTILE S.N.C. DI PETRISI MARIA E GENTILE ANTONINO"
            },
            "geometry": {
                "type": "Point",
                "coordinates": [
                    14.681762382388117,
                    38.08920955871321
                ]
            }
        }
    ]
}