{
    "type": "FeatureCollection",
    "features": [
        {
            "type": "Feature",
            "properties": {
                "name": "Staz. di Servizio Esso di Agosta Bartolomeo",
                "id": "18922",
                "brand": "Esso",
                "amenity": "fuel",
                "operator": "AGOSTA BARTOLOMEO"
            },
            "geometry": {
                "type": "Point",
                "coordinates": [
                    14.609486907720564,
                    36.772351796459986
                ]
            }
        },
        {
            "type": "Feature",
            "properties": {
                "name": "VIALE D.OLEANDRI",
                "id": "17717",
                "brand": "Giap",
                "amenity": "fuel",
                "operator": "SERVIZI E GESTIONI ZENIT S.R.L. IN SIGLA - ZENIT S.R.L."
            },
            "geometry": {
                "type": "Point",
                "coordinates": [
                    14.76559736309048,
                    36.84458840312436
                ]
            }
        },
        {
            "type": "Feature",
            "properties": {
                "name": "Esso Gas Auto",
                "id": "20333",
                "brand": "Esso",
                "amenity": "fuel",
                "operator": "RENDO ANGELO"
            },
            "geometry": {
                "type": "Point",
                "coordinates": [
                    14.609561667459044,
                    36.77279465764076
                ]
            }
        },
        {
            "type": "Feature",
            "properties": {
                "name": "VIA ROMA MODICA ALTA",
                "id": "30451",
                "brand": "Esso",
                "amenity": "fuel",
                "operator": "SERVIZI E GESTIONI ZENIT S.R.L. IN SIGLA - ZENIT S.R.L."
            },
            "geometry": {
                "type": "Point",
                "coordinates": [
                    14.762903898954393,
                    36.87114071254748
                ]
            }
        },
        {
            "type": "Feature",
            "properties": {
                "name": "ESSO",
                "id": "31843",
                "brand": "Esso",
                "amenity": "fuel",
                "operator": "G.R. SNC DI CAVALLARO GABRIELE & C."
            },
            "geometry": {
                "type": "Point",
                "coordinates": [
                    14.690076332087074,
                    36.782247228627845
                ]
            }
        },
        {
            "type": "Feature",
            "properties": {
                "name": "ENI",
                "id": "10449",
                "brand": "Agip Eni",
                "amenity": "fuel",
                "operator": "POLARA GIUSEPPE"
            },
            "geometry": {
                "type": "Point",
                "coordinates": [
                    14.758326134020079,
                    36.864877156970394
                ]
            }
        },
        {
            "type": "Feature",
            "properties": {
                "name": "VIA GARIBALDI SC",
                "id": "12361",
                "brand": "Q8",
                "amenity": "fuel",
                "operator": "SERVIZI E GESTIONI ZENIT S.R.L. IN SIGLA - ZENIT S.R.L."
            },
            "geometry": {
                "type": "Point",
                "coordinates": [
                    14.697154507934554,
                    36.787558274050525
                ]
            }
        },
        {
            "type": "Feature",
            "properties": {
                "name": "STAZIONE SERVIZIO ESSO SAGIP SRL",
                "id": "25441",
                "brand": "Esso",
                "amenity": "fuel",
                "operator": "SAGIP S.R.L."
            },
            "geometry": {
                "type": "Point",
                "coordinates": [
                    14.731891354935442,
                    36.813251257855704
                ]
            }
        },
        {
            "type": "Feature",
            "properties": {
                "name": "SS 115 KM335+800",
                "id": "7694",
                "brand": "Agip Eni",
                "amenity": "fuel",
                "operator": "SERVIZI E GESTIONI ZENIT S.R.L. IN SIGLA - ZENIT S.R.L."
            },
            "geometry": {
                "type": "Point",
                "coordinates": [
                    14.748712114086176,
                    36.85344083960141
                ]
            }
        },
        {
            "type": "Feature",
            "properties": {
                "name": "PETROL TRINACRIA",
                "id": "14194",
                "amenity": "fuel",
                "operator": "M.G. S.R.L."
            },
            "geometry": {
                "type": "Point",
                "coordinates": [
                    14.682197570800781,
                    36.747487856508634
                ]
            }
        },
        {
            "type": "Feature",
            "properties": {
                "name": "C.DA S. ANTONIO MODICA",
                "id": "22650",
                "brand": "Agip Eni",
                "amenity": "fuel",
                "operator": "SERVIZI E GESTIONI ZENIT S.R.L. IN SIGLA - ZENIT S.R.L."
            },
            "geometry": {
                "type": "Point",
                "coordinates": [
                    14.747528991401628,
                    36.86743274992708
                ]
            }
        },
        {
            "type": "Feature",
            "properties": {
                "name": "SCICLI",
                "id": "29001",
                "brand": "Lukoil",
                "amenity": "fuel",
                "operator": "ND PETROLI DI DIBENNARDO NUNZIO & C. S.R.L."
            },
            "geometry": {
                "type": "Point",
                "coordinates": [
                    14.696185409776945,
                    36.78619286800969
                ]
            }
        },
        {
            "type": "Feature",
            "properties": {
                "name": "SS 115 KM335+650",
                "id": "7698",
                "brand": "Agip Eni",
                "amenity": "fuel",
                "operator": "SERVIZI E GESTIONI ZENIT S.R.L. IN SIGLA - ZENIT S.R.L."
            },
            "geometry": {
                "type": "Point",
                "coordinates": [
                    14.749362139881102,
                    36.85318741505457
                ]
            }
        },
        {
            "type": "Feature",
            "properties": {
                "name": "P.ZZA BUOZZI MOD",
                "id": "12340",
                "brand": "Giap",
                "amenity": "fuel",
                "operator": "SERVIZI E GESTIONI ZENIT S.R.L. IN SIGLA - ZENIT S.R.L."
            },
            "geometry": {
                "type": "Point",
                "coordinates": [
                    14.759779831115567,
                    36.856203330748016
                ]
            }
        },
        {
            "type": "Feature",
            "properties": {
                "name": "P.ZZA CADORNA SCICLI",
                "id": "20982",
                "brand": "Giap",
                "amenity": "fuel",
                "operator": "SERVIZI E GESTIONI ZENIT S.R.L. IN SIGLA - ZENIT S.R.L."
            },
            "geometry": {
                "type": "Point",
                "coordinates": [
                    14.702276587486267,
                    36.789615230186165
                ]
            }
        },
        {
            "type": "Feature",
            "properties": {
                "name": "VIALE I MAGGIO",
                "id": "12332",
                "brand": "Esso",
                "amenity": "fuel",
                "operator": "SERVIZI E GESTIONI ZENIT S.R.L. IN SIGLA - ZENIT S.R.L."
            },
            "geometry": {
                "type": "Point",
                "coordinates": [
                    14.686939796295178,
                    36.78031992407679
                ]
            }
        },
        {
            "type": "Feature",
            "properties": {
                "name": "PIAZZA MATTEOTTI SCICLI",
                "id": "21854",
                "brand": "Q8",
                "amenity": "fuel",
                "operator": "SERVIZI E GESTIONI ZENIT S.R.L. IN SIGLA - ZENIT S.R.L."
            },
            "geometry": {
                "type": "Point",
                "coordinates": [
                    14.70415476275059,
                    36.79081089504383
                ]
            }
        },
        {
            "type": "Feature",
            "properties": {
                "name": "IBLEA PETROLI",
                "id": "14300",
                "amenity": "fuel",
                "operator": "F.LLI PLUCHINO S.R.L."
            },
            "geometry": {
                "type": "Point",
                "coordinates": [
                    14.76462289653034,
                    36.852540064311604
                ]
            }
        },
        {
            "type": "Feature",
            "properties": {
                "name": "SP ENERGIA SICILIANA",
                "id": "30984",
                "brand": "SP Energia Siciliana",
                "amenity": "fuel",
                "operator": "APRILE ANGELO"
            },
            "geometry": {
                "type": "Point",
                "coordinates": [
                    14.643904008512896,
                    36.7626493101595
                ]
            }
        },
        {
            "type": "Feature",
            "properties": {
                "name": "STAZIONE DI SERVIZIO ENI",
                "id": "7868",
                "brand": "Agip Eni",
                "amenity": "fuel",
                "operator": "BURGALETTA GIANNA"
            },
            "geometry": {
                "type": "Point",
                "coordinates": [
                    14.703966849351445,
                    36.796802441619384
                ]
            }
        },
        {
            "type": "Feature",
            "properties": {
                "name": "TERRANOVA SALVATORE",
                "id": "6276",
                "brand": "Giap",
                "amenity": "fuel",
                "operator": "TERRANOVA SALVATORE"
            },
            "geometry": {
                "type": "Point",
                "coordinates": [
                    14.763363123145382,
                    36.8717550297929
                ]
            }
        },
        {
            "type": "Feature",
            "properties": {
                "name": "BAGLIERI ANTONIO",
                "id": "10706",
                "brand": "Giap",
                "amenity": "fuel",
                "operator": "BAGLIERI  ANTONIO"
            },
            "geometry": {
                "type": "Point",
                "coordinates": [
                    14.763855144651531,
                    36.86598747572037
                ]
            }
        },
        {
            "type": "Feature",
            "properties": {
                "name": "SP 39 X DONNALUCATA SCICLI",
                "id": "20983",
                "brand": "Agip Eni",
                "amenity": "fuel",
                "operator": "SERVIZI E GESTIONI ZENIT S.R.L. IN SIGLA - ZENIT S.R.L."
            },
            "geometry": {
                "type": "Point",
                "coordinates": [
                    14.669515676609993,
                    36.76580749212958
                ]
            }
        }
    ]
}