{
    "type": "FeatureCollection",
    "features": [
        {
            "type": "Feature",
            "properties": {
                "name": "TOTALERG",
                "id": "26535",
                "brand": "Total Erg",
                "amenity": "fuel",
                "operator": "CARBURANTI MILONE DI MILONE ULDERICO"
            },
            "geometry": {
                "type": "Point",
                "coordinates": [
                    14.607441723346705,
                    40.81529029949321
                ]
            }
        },
        {
            "type": "Feature",
            "properties": {
                "name": "GTC",
                "id": "28452",
                "amenity": "fuel",
                "operator": "G.T.C. S.R.L."
            },
            "geometry": {
                "type": "Point",
                "coordinates": [
                    14.637008767736802,
                    40.73965507952898
                ]
            }
        },
        {
            "type": "Feature",
            "properties": {
                "name": "IP",
                "id": "13494",
                "brand": "Api-Ip",
                "amenity": "fuel",
                "operator": "CRISPO PETROL SERVICE S.N.C. DI CRISPO P. & E."
            },
            "geometry": {
                "type": "Point",
                "coordinates": [
                    14.601537752675544,
                    40.79552600094498
                ]
            }
        },
        {
            "type": "Feature",
            "properties": {
                "name": "Fuel Ruggiero",
                "id": "12673",
                "amenity": "fuel",
                "operator": "RUGGIERO DISTRIBUZIONE S.A.S. DI RUGGIERO ANGELINA & C."
            },
            "geometry": {
                "type": "Point",
                "coordinates": [
                    14.751823908073447,
                    40.78033756396644
                ]
            }
        },
        {
            "type": "Feature",
            "properties": {
                "name": "DISTRIBUTORE ESSO MIAN PETROLI DI CANZANELLI LUCIA",
                "id": "28255",
                "brand": "Esso",
                "amenity": "fuel",
                "operator": "MIAN PETROLI DI CANZANELLI LUCIA"
            },
            "geometry": {
                "type": "Point",
                "coordinates": [
                    14.639496803283693,
                    40.753668119387704
                ]
            }
        },
        {
            "type": "Feature",
            "properties": {
                "name": "ip",
                "id": "27448",
                "brand": "Api-Ip",
                "amenity": "fuel",
                "operator": "GASOPOLI DI CARDAROPOLI LUIGI & C. S.A.S."
            },
            "geometry": {
                "type": "Point",
                "coordinates": [
                    14.709942340850828,
                    40.82089841158606
                ]
            }
        },
        {
            "type": "Feature",
            "properties": {
                "name": "CAVA DE TIRRENI-SS. 18 KM.43+350 LOC. S.GIUSEPPE",
                "id": "11831",
                "brand": "Q8",
                "amenity": "fuel",
                "operator": "SERVIZI & GESTIONI ITALIA S.R.L."
            },
            "geometry": {
                "type": "Point",
                "coordinates": [
                    14.696128964424133,
                    40.72224974152966
                ]
            }
        },
        {
            "type": "Feature",
            "properties": {
                "name": "FACOMGAS S.r.l. (SIANO)",
                "id": "24953",
                "amenity": "fuel",
                "operator": "FACOMGAS S.R.L."
            },
            "geometry": {
                "type": "Point",
                "coordinates": [
                    14.704547767211919,
                    40.796223923955765
                ]
            }
        },
        {
            "type": "Feature",
            "properties": {
                "name": "SARNO",
                "id": "25994",
                "brand": "Tamoil",
                "amenity": "fuel",
                "operator": "ENERGY PLANTS MANAGEMENT SERVICE S.R.L."
            },
            "geometry": {
                "type": "Point",
                "coordinates": [
                    14.619248807430267,
                    40.81222764143664
                ]
            }
        },
        {
            "type": "Feature",
            "properties": {
                "name": "ALFATERNA EST",
                "id": "3832",
                "brand": "Esso",
                "amenity": "fuel",
                "operator": "PETROLI S.N.C. DI STINGO VITTORIA & C."
            },
            "geometry": {
                "type": "Point",
                "coordinates": [
                    14.679834544658663,
                    40.733328773816936
                ]
            }
        },
        {
            "type": "Feature",
            "properties": {
                "name": "PV 18907",
                "id": "27845",
                "brand": "Agip Eni",
                "amenity": "fuel",
                "operator": "GESTIONI INNOVATIVE ITALIA S.R.L."
            },
            "geometry": {
                "type": "Point",
                "coordinates": [
                    14.737536907196041,
                    40.774606137399815
                ]
            }
        },
        {
            "type": "Feature",
            "properties": {
                "name": "SARNO 2",
                "id": "30609",
                "amenity": "fuel",
                "operator": "PETROLCHIMICA SUD - S.R.L."
            },
            "geometry": {
                "type": "Point",
                "coordinates": [
                    14.613722115755081,
                    40.80581543484561
                ]
            }
        },
        {
            "type": "Feature",
            "properties": {
                "name": "FACOMGAS S.r.l. (Nocera Inf.)",
                "id": "24952",
                "amenity": "fuel",
                "operator": "FACOMGAS S.R.L."
            },
            "geometry": {
                "type": "Point",
                "coordinates": [
                    14.653138518333433,
                    40.763807424502495
                ]
            }
        },
        {
            "type": "Feature",
            "properties": {
                "name": "CALIFANO SERVICE S.PIETRO",
                "id": "30494",
                "amenity": "fuel",
                "operator": "CALIFANO SERVICE S.R.L."
            },
            "geometry": {
                "type": "Point",
                "coordinates": [
                    14.663700386881834,
                    40.74600603246633
                ]
            }
        },
        {
            "type": "Feature",
            "properties": {
                "name": "DELLA PORTA CARMINE",
                "id": "28788",
                "amenity": "fuel",
                "operator": "DELLA PORTA CARMINE"
            },
            "geometry": {
                "type": "Point",
                "coordinates": [
                    14.626154344844055,
                    40.7744819874325
                ]
            }
        },
        {
            "type": "Feature",
            "properties": {
                "name": "PASCALE SERVICE S.R.L.",
                "id": "20447",
                "brand": "Api-Ip",
                "amenity": "fuel",
                "operator": "PASCALE SERVICE S.R.L."
            },
            "geometry": {
                "type": "Point",
                "coordinates": [
                    14.69148471951485,
                    40.77584678008357
                ]
            }
        },
        {
            "type": "Feature",
            "properties": {
                "name": "Eni",
                "id": "27750",
                "brand": "Agip Eni",
                "amenity": "fuel",
                "operator": "EFFEBI S.R.L."
            },
            "geometry": {
                "type": "Point",
                "coordinates": [
                    14.624056667089462,
                    40.74023348483865
                ]
            }
        },
        {
            "type": "Feature",
            "properties": {
                "name": "totalerg di amendola ferdinando",
                "id": "28646",
                "brand": "Total Erg",
                "amenity": "fuel",
                "operator": "AMENDOLA FERDINANDO"
            },
            "geometry": {
                "type": "Point",
                "coordinates": [
                    14.63225819170475,
                    40.74702307557615
                ]
            }
        },
        {
            "type": "Feature",
            "properties": {
                "name": "Roburgas spa",
                "id": "10166",
                "amenity": "fuel",
                "operator": "G. & O. DE PISAPIA - ROBURGAS - S.P.A."
            },
            "geometry": {
                "type": "Point",
                "coordinates": [
                    14.702839449073734,
                    40.721599048770265
                ]
            }
        },
        {
            "type": "Feature",
            "properties": {
                "name": "IP di Langella Giuseppe",
                "id": "18238",
                "brand": "Api-Ip",
                "amenity": "fuel",
                "operator": "LANGELLA GIUSEPPE"
            },
            "geometry": {
                "type": "Point",
                "coordinates": [
                    14.608847321495887,
                    40.75501383695203
                ]
            }
        },
        {
            "type": "Feature",
            "properties": {
                "name": "NOCERA INFERIORE",
                "id": "17548",
                "amenity": "fuel",
                "operator": "PETROLCHIMICA SUD - S.R.L."
            },
            "geometry": {
                "type": "Point",
                "coordinates": [
                    14.629926010966297,
                    40.744977594071685
                ]
            }
        },
        {
            "type": "Feature",
            "properties": {
                "name": "AGIP DI BELLACOSA VITTORIO",
                "id": "19385",
                "brand": "Agip Eni",
                "amenity": "fuel",
                "operator": "BELLACOSA VITTORIO"
            },
            "geometry": {
                "type": "Point",
                "coordinates": [
                    14.591384008526802,
                    40.77704779269182
                ]
            }
        },
        {
            "type": "Feature",
            "properties": {
                "name": "ALFATERNA OVEST",
                "id": "3771",
                "brand": "Esso",
                "amenity": "fuel",
                "operator": "ALFATERNA SERVICE S.A.S. DI MADDALENA TRANZILLO & C."
            },
            "geometry": {
                "type": "Point",
                "coordinates": [
                    14.678657054901123,
                    40.73288650981943
                ]
            }
        },
        {
            "type": "Feature",
            "properties": {
                "name": "CALIFANO SERVICE V.GUERRASIO",
                "id": "30493",
                "amenity": "fuel",
                "operator": "CALIFANO SERVICE S.R.L."
            },
            "geometry": {
                "type": "Point",
                "coordinates": [
                    14.694996595070053,
                    40.77265094728201
                ]
            }
        },
        {
            "type": "Feature",
            "properties": {
                "name": "Impianto Carburanti di Caputo Emiddio",
                "id": "14426",
                "amenity": "fuel",
                "operator": "IMPIANTO MONTESHELL DI CAPUTO EMIDDIO"
            },
            "geometry": {
                "type": "Point",
                "coordinates": [
                    14.710102242388984,
                    40.78027755922204
                ]
            }
        },
        {
            "type": "Feature",
            "properties": {
                "name": "Stazione di servizio IP",
                "id": "15938",
                "brand": "Api-Ip",
                "amenity": "fuel",
                "operator": "CARUSO TOMMASO"
            },
            "geometry": {
                "type": "Point",
                "coordinates": [
                    14.691230161901785,
                    40.727043130596414
                ]
            }
        },
        {
            "type": "Feature",
            "properties": {
                "name": "Corporation Fuels",
                "id": "18901",
                "amenity": "fuel",
                "operator": "CORPORATION FUELS S.R.L."
            },
            "geometry": {
                "type": "Point",
                "coordinates": [
                    14.621571600437164,
                    40.74700011348337
                ]
            }
        },
        {
            "type": "Feature",
            "properties": {
                "name": "SAVINO ANTONIO & C. S.A.S.",
                "id": "26791",
                "amenity": "fuel",
                "operator": "SAVINO ANTONIO & C. - SOCIETA' IN ACCOMANDITA SEMPLICE"
            },
            "geometry": {
                "type": "Point",
                "coordinates": [
                    14.620964307971915,
                    40.717880684315396
                ]
            }
        },
        {
            "type": "Feature",
            "properties": {
                "name": "NOCERA PETROLI",
                "id": "29297",
                "amenity": "fuel",
                "operator": "LOGISTICA & PETROLI S.R.L."
            },
            "geometry": {
                "type": "Point",
                "coordinates": [
                    14.65421140193939,
                    40.74575486819911
                ]
            }
        },
        {
            "type": "Feature",
            "properties": {
                "name": "F.S. PETROLI S.R.L.",
                "id": "20971",
                "brand": "Agip Eni",
                "amenity": "fuel",
                "operator": "F.S. PETROLI S.R.L. A CAPITALE RIDOTTO"
            },
            "geometry": {
                "type": "Point",
                "coordinates": [
                    14.61111232638359,
                    40.753512886921904
                ]
            }
        },
        {
            "type": "Feature",
            "properties": {
                "name": "Nocera Inferiore",
                "id": "10119",
                "brand": "Total Erg",
                "amenity": "fuel",
                "operator": "GESTIONI EUROPA - SOCIETA' PER AZIONI"
            },
            "geometry": {
                "type": "Point",
                "coordinates": [
                    14.649429023265835,
                    40.750017217025785
                ]
            }
        },
        {
            "type": "Feature",
            "properties": {
                "name": "FACOMGAS S.r.l. (Nocera Sup. Via V. Russo)",
                "id": "30463",
                "brand": "Esso",
                "amenity": "fuel",
                "operator": "FACOMGAS S.R.L."
            },
            "geometry": {
                "type": "Point",
                "coordinates": [
                    14.675654872576386,
                    40.742443498883944
                ]
            }
        },
        {
            "type": "Feature",
            "properties": {
                "name": "CALIFANO SERVICE V.CIANCIO",
                "id": "30496",
                "amenity": "fuel",
                "operator": "CALIFANO SERVICE S.R.L."
            },
            "geometry": {
                "type": "Point",
                "coordinates": [
                    14.687380939722061,
                    40.77213006393903
                ]
            }
        },
        {
            "type": "Feature",
            "properties": {
                "name": "Coccurullo Cosimo",
                "id": "17111",
                "amenity": "fuel",
                "operator": "COCCURULLO COSIMO"
            },
            "geometry": {
                "type": "Point",
                "coordinates": [
                    14.597206204893498,
                    40.72227233103176
                ]
            }
        },
        {
            "type": "Feature",
            "properties": {
                "name": "STAROIL",
                "id": "27407",
                "amenity": "fuel",
                "operator": "RINALDI GESTIONE S.A.S. DI RINALDI FABIO & C."
            },
            "geometry": {
                "type": "Point",
                "coordinates": [
                    14.69890370965004,
                    40.79480533652446
                ]
            }
        },
        {
            "type": "Feature",
            "properties": {
                "name": "NOCERA INFERIORE 2",
                "id": "24240",
                "amenity": "fuel",
                "operator": "PETROLCHIMICA SUD - S.R.L."
            },
            "geometry": {
                "type": "Point",
                "coordinates": [
                    14.648695439100266,
                    40.74347626082992
                ]
            }
        },
        {
            "type": "Feature",
            "properties": {
                "name": "ADINOLFI SRL STAZ. SERVIZIO IP",
                "id": "29345",
                "brand": "Api-Ip",
                "amenity": "fuel",
                "operator": "ADINOLFI S.R.L."
            },
            "geometry": {
                "type": "Point",
                "coordinates": [
                    14.621578339978443,
                    40.78672217336833
                ]
            }
        },
        {
            "type": "Feature",
            "properties": {
                "name": "Esso",
                "id": "28792",
                "brand": "Esso",
                "amenity": "fuel",
                "operator": "LUIGI TERRONE S.R.L."
            },
            "geometry": {
                "type": "Point",
                "coordinates": [
                    14.706541299819946,
                    40.76933091322356
                ]
            }
        },
        {
            "type": "Feature",
            "properties": {
                "name": "ditta luigi picarella",
                "id": "4246",
                "brand": "Api-Ip",
                "amenity": "fuel",
                "operator": "PICARELLA LUIGI"
            },
            "geometry": {
                "type": "Point",
                "coordinates": [
                    14.749284982681273,
                    40.774974595297074
                ]
            }
        },
        {
            "type": "Feature",
            "properties": {
                "name": "PAGANI",
                "id": "13167",
                "brand": "Esso",
                "amenity": "fuel",
                "operator": "C.M.M. S.A.S. DI MAURO ALESSANDRO PELLONE"
            },
            "geometry": {
                "type": "Point",
                "coordinates": [
                    14.625659286975864,
                    40.743313892101355
                ]
            }
        },
        {
            "type": "Feature",
            "properties": {
                "name": "Ip via della libert√†",
                "id": "27780",
                "brand": "Api-Ip",
                "amenity": "fuel",
                "operator": "CARUSO TOMMASO"
            },
            "geometry": {
                "type": "Point",
                "coordinates": [
                    14.686969220638273,
                    40.737078957707006
                ]
            }
        },
        {
            "type": "Feature",
            "properties": {
                "name": "IMPIANTO",
                "id": "18849",
                "amenity": "fuel",
                "operator": "F.LLI RUSSO S.N.C. DI RUSSO LUIGI E GIOVANNI"
            },
            "geometry": {
                "type": "Point",
                "coordinates": [
                    14.619951620376584,
                    40.81181822198798
                ]
            }
        },
        {
            "type": "Feature",
            "properties": {
                "name": "SHELL FRATELLI SANTONASTASIO",
                "id": "27207",
                "brand": "Shell",
                "amenity": "fuel",
                "operator": "FRATELLI SANTONASTASIO SOCIETA' A RESPONSABILITA' LIMITATA SEMPLI FICATA"
            },
            "geometry": {
                "type": "Point",
                "coordinates": [
                    14.595017000733147,
                    40.77100762040744
                ]
            }
        },
        {
            "type": "Feature",
            "properties": {
                "name": "ENI PV 54737",
                "id": "9326",
                "brand": "Agip Eni",
                "amenity": "fuel",
                "operator": "CATTOLICO SERGIO"
            },
            "geometry": {
                "type": "Point",
                "coordinates": [
                    14.685555696487427,
                    40.73364014552279
                ]
            }
        },
        {
            "type": "Feature",
            "properties": {
                "name": "ACP",
                "id": "21102",
                "amenity": "fuel",
                "operator": "BRUNO BATTIPAGLIA GIUSEPPE"
            },
            "geometry": {
                "type": "Point",
                "coordinates": [
                    14.64847214519978,
                    40.79057266511274
                ]
            }
        },
        {
            "type": "Feature",
            "properties": {
                "name": "EDIL NOVA SAS",
                "id": "30449",
                "amenity": "fuel",
                "operator": "EDIL NOVA DI TORINO ANTONELLA & C. S.A.S."
            },
            "geometry": {
                "type": "Point",
                "coordinates": [
                    14.680653673610665,
                    40.77338137480017
                ]
            }
        },
        {
            "type": "Feature",
            "properties": {
                "name": "SAN GIORGIO PETROLI",
                "id": "25579",
                "amenity": "fuel",
                "operator": "SAN GIORGIO PETROLI S.R.L."
            },
            "geometry": {
                "type": "Point",
                "coordinates": [
                    14.695313364418098,
                    40.77865952640569
                ]
            }
        },
        {
            "type": "Feature",
            "properties": {
                "name": "SIX PETROLEUM SRL",
                "id": "28466",
                "brand": "Q8",
                "amenity": "fuel",
                "operator": "SIX PETROLEUM S.R.L."
            },
            "geometry": {
                "type": "Point",
                "coordinates": [
                    14.649731312897531,
                    40.7538444214817
                ]
            }
        },
        {
            "type": "Feature",
            "properties": {
                "name": "efuel srl",
                "id": "9630",
                "brand": "Ies",
                "amenity": "fuel",
                "operator": "EFUEL - S.R.L."
            },
            "geometry": {
                "type": "Point",
                "coordinates": [
                    14.732687473297117,
                    40.77876711432966
                ]
            }
        },
        {
            "type": "Feature",
            "properties": {
                "name": "Capaldo Arcangelo",
                "id": "18683",
                "brand": "Esso",
                "amenity": "fuel",
                "operator": "CAPALDO ARCANGELO"
            },
            "geometry": {
                "type": "Point",
                "coordinates": [
                    14.654372334480284,
                    40.76749779160396
                ]
            }
        },
        {
            "type": "Feature",
            "properties": {
                "name": "Multicarburante di Maresca Anna & C. s.n.c.",
                "id": "5643",
                "brand": "Agip Eni",
                "amenity": "fuel",
                "operator": "MULTICARBURANTE DI MARESCA ANNA & C. S.N.C."
            },
            "geometry": {
                "type": "Point",
                "coordinates": [
                    14.59218800067902,
                    40.755152155426124
                ]
            }
        },
        {
            "type": "Feature",
            "properties": {
                "name": "DISTRIBUTORE ESSO",
                "id": "13697",
                "brand": "Esso",
                "amenity": "fuel",
                "operator": "TRAMONTANO S.R.L."
            },
            "geometry": {
                "type": "Point",
                "coordinates": [
                    14.592645317316055,
                    40.80898497152845
                ]
            }
        },
        {
            "type": "Feature",
            "properties": {
                "name": "stazione di servizio Alfonso Santonicola",
                "id": "21864",
                "brand": "Repsol",
                "amenity": "fuel",
                "operator": "SANTONICOLA ALFONSO"
            },
            "geometry": {
                "type": "Point",
                "coordinates": [
                    14.646015912294388,
                    40.773101004462035
                ]
            }
        },
        {
            "type": "Feature",
            "properties": {
                "name": "CALIFANO SERVICE V.TRIESTE",
                "id": "30495",
                "amenity": "fuel",
                "operator": "CALIFANO SERVICE S.R.L."
            },
            "geometry": {
                "type": "Point",
                "coordinates": [
                    14.675565138459206,
                    40.777520026633574
                ]
            }
        },
        {
            "type": "Feature",
            "properties": {
                "name": "PAGANI SS. 18 KM. 36+450 LOC.S.CHIARA",
                "id": "6737",
                "brand": "Q8",
                "amenity": "fuel",
                "operator": "SERVIZI & GESTIONI ITALIA srl"
            },
            "geometry": {
                "type": "Point",
                "coordinates": [
                    14.627369150530285,
                    40.74300419140757
                ]
            }
        },
        {
            "type": "Feature",
            "properties": {
                "name": "ISMAN PETROLEUM",
                "id": "31815",
                "amenity": "fuel",
                "operator": "ISMAN PETROLEUM S.R.L."
            },
            "geometry": {
                "type": "Point",
                "coordinates": [
                    14.593898510689542,
                    40.79242573664654
                ]
            }
        },
        {
            "type": "Feature",
            "properties": {
                "name": "Mercato San Severino",
                "id": "10136",
                "brand": "Total Erg",
                "amenity": "fuel",
                "operator": "GESTIONI EUROPA - SOCIETA' PER AZIONI"
            },
            "geometry": {
                "type": "Point",
                "coordinates": [
                    14.754300713539125,
                    40.78200740163769
                ]
            }
        },
        {
            "type": "Feature",
            "properties": {
                "name": "CAVA DE' TIRRENI VIA XXV LUGLIO ANG. CORSO MAZZINI",
                "id": "27796",
                "brand": "Q8",
                "amenity": "fuel",
                "operator": "SERVIZI & GESTIONI ITALIA S.R.L."
            },
            "geometry": {
                "type": "Point",
                "coordinates": [
                    14.702678974205014,
                    40.7144752928051
                ]
            }
        },
        {
            "type": "Feature",
            "properties": {
                "name": "API IP",
                "id": "28298",
                "brand": "Shell",
                "amenity": "fuel",
                "operator": "PETROL SERVICE S.A.S. DI CASCONE VINCENZO"
            },
            "geometry": {
                "type": "Point",
                "coordinates": [
                    14.619114696979523,
                    40.75153343863095
                ]
            }
        },
        {
            "type": "Feature",
            "properties": {
                "name": "SARNO",
                "id": "20297",
                "amenity": "fuel",
                "operator": "PETROLCHIMICA SUD - S.R.L."
            },
            "geometry": {
                "type": "Point",
                "coordinates": [
                    14.617112054027414,
                    40.806991418981085
                ]
            }
        },
        {
            "type": "Feature",
            "properties": {
                "name": "STAZIONE DI RIFORNIMENTO IP PA.SA.",
                "id": "28525",
                "brand": "Api-Ip",
                "amenity": "fuel",
                "operator": "PA.SA S.N.C. DI PAGANO V. E SALVATI F."
            },
            "geometry": {
                "type": "Point",
                "coordinates": [
                    14.652384817600247,
                    40.76252714468493
                ]
            }
        }
    ]
}