{
    "type": "FeatureCollection",
    "features": [
        {
            "type": "Feature",
            "properties": {
                "name": "Adolfo Cieri",
                "id": "8178",
                "brand": "Agip Eni",
                "amenity": "fuel",
                "operator": "CIERI ADOLFO"
            },
            "geometry": {
                "type": "Point",
                "coordinates": [
                    14.709827005863191,
                    42.15892497326987
                ]
            }
        },
        {
            "type": "Feature",
            "properties": {
                "name": "Esso di Granata Gianfranco Vasto (ch) SS16 Km 521+716",
                "id": "24966",
                "brand": "Esso",
                "amenity": "fuel",
                "operator": "GRANATA GIANFRANCO"
            },
            "geometry": {
                "type": "Point",
                "coordinates": [
                    14.746779799461367,
                    42.07980809197023
                ]
            }
        },
        {
            "type": "Feature",
            "properties": {
                "name": "AGIP GOLDENGAS",
                "id": "9774",
                "brand": "Agip Eni",
                "amenity": "fuel",
                "operator": "BEB S.R.L."
            },
            "geometry": {
                "type": "Point",
                "coordinates": [
                    14.701091051101686,
                    42.09783591510486
                ]
            }
        },
        {
            "type": "Feature",
            "properties": {
                "name": "Punto Vendita TotalErg CH034",
                "id": "15894",
                "brand": "Total Erg",
                "amenity": "fuel",
                "operator": "MED OIL - SOCIETA' A RESPONSABILITA' LIMITATA"
            },
            "geometry": {
                "type": "Point",
                "coordinates": [
                    14.762739830688473,
                    42.058175119756115
                ]
            }
        },
        {
            "type": "Feature",
            "properties": {
                "name": "Esso Di Granata Gianfranco",
                "id": "31550",
                "brand": "Esso",
                "amenity": "fuel",
                "operator": "GRANATA GIANFRANCO"
            },
            "geometry": {
                "type": "Point",
                "coordinates": [
                    14.764448851346966,
                    42.07068812718479
                ]
            }
        },
        {
            "type": "Feature",
            "properties": {
                "name": "FLL.BOSCHETTI ENERGIE S.R.L.",
                "id": "21301",
                "amenity": "fuel",
                "operator": "F.LLI BOSCHETTI ENERGIE S.R.L."
            },
            "geometry": {
                "type": "Point",
                "coordinates": [
                    14.682736694812773,
                    42.06643429694849
                ]
            }
        },
        {
            "type": "Feature",
            "properties": {
                "name": "PORTOBELLO VASTO",
                "id": "27580",
                "amenity": "fuel",
                "operator": "VASTO ENERGY S.R.L."
            },
            "geometry": {
                "type": "Point",
                "coordinates": [
                    14.700513035058975,
                    42.120048551131184
                ]
            }
        },
        {
            "type": "Feature",
            "properties": {
                "name": "Totalerg D'Amario Giovanni",
                "id": "21600",
                "brand": "Total Erg",
                "amenity": "fuel",
                "operator": "D'AMARIO GIOVANNI"
            },
            "geometry": {
                "type": "Point",
                "coordinates": [
                    14.608234316110613,
                    42.15575616588774
                ]
            }
        },
        {
            "type": "Feature",
            "properties": {
                "name": "TOTALERG",
                "id": "26665",
                "brand": "Total Erg",
                "amenity": "fuel",
                "operator": "BORDONI PIETRO & C. S.N.C."
            },
            "geometry": {
                "type": "Point",
                "coordinates": [
                    14.70568030555728,
                    42.12209159141323
                ]
            }
        },
        {
            "type": "Feature",
            "properties": {
                "name": "ENI",
                "id": "9753",
                "brand": "Agip Eni",
                "amenity": "fuel",
                "operator": "CLD DI CANNONE LEONARDO & C. S.A.S."
            },
            "geometry": {
                "type": "Point",
                "coordinates": [
                    14.70352551904909,
                    42.12485702599276
                ]
            }
        },
        {
            "type": "Feature",
            "properties": {
                "name": "SAN SALVO - S.S. 650",
                "id": "30677",
                "brand": "Api-Ip",
                "amenity": "fuel",
                "operator": "IP SERVICES S.R.L."
            },
            "geometry": {
                "type": "Point",
                "coordinates": [
                    14.74850804662708,
                    42.033831875362324
                ]
            }
        },
        {
            "type": "Feature",
            "properties": {
                "name": "Stazione Esso",
                "id": "19174",
                "brand": "Esso",
                "amenity": "fuel",
                "operator": "F.LLI COSTANTINI - S.N.C. DI COSTANTINI CESARE & CO."
            },
            "geometry": {
                "type": "Point",
                "coordinates": [
                    14.696960449218752,
                    42.09822241118974
                ]
            }
        },
        {
            "type": "Feature",
            "properties": {
                "name": "Stazione ENI - Gestore: Tinari Pietro",
                "id": "11021",
                "brand": "Agip Eni",
                "amenity": "fuel",
                "operator": "TINARI     PIETRO"
            },
            "geometry": {
                "type": "Point",
                "coordinates": [
                    14.740090370178224,
                    42.0513018590532
                ]
            }
        },
        {
            "type": "Feature",
            "properties": {
                "name": "SAN SALVO",
                "id": "8621",
                "brand": "Total Erg",
                "amenity": "fuel",
                "operator": "GESTIONI EUROPA - SOCIETA' PER AZIONI"
            },
            "geometry": {
                "type": "Point",
                "coordinates": [
                    14.738045247850437,
                    42.058194781888545
                ]
            }
        },
        {
            "type": "Feature",
            "properties": {
                "name": "stazione di servizio ip",
                "id": "16623",
                "brand": "Api-Ip",
                "amenity": "fuel",
                "operator": "VICOLI ANTONIO"
            },
            "geometry": {
                "type": "Point",
                "coordinates": [
                    14.752922058105469,
                    42.05663689898408
                ]
            }
        },
        {
            "type": "Feature",
            "properties": {
                "name": "Vasto Via del Porto",
                "id": "23379",
                "brand": "Total Erg",
                "amenity": "fuel",
                "operator": "T.D.P. CARBURANTI S.R.L."
            },
            "geometry": {
                "type": "Point",
                "coordinates": [
                    14.71304565668106,
                    42.146689879969145
                ]
            }
        },
        {
            "type": "Feature",
            "properties": {
                "name": "fantacuzzi carburanti",
                "id": "28944",
                "amenity": "fuel",
                "operator": "FANTACUZZI ROBERTO"
            },
            "geometry": {
                "type": "Point",
                "coordinates": [
                    14.596661434986347,
                    42.138521839366554
                ]
            }
        },
        {
            "type": "Feature",
            "properties": {
                "name": "AGIP FRASCA MARIA",
                "id": "13781",
                "brand": "Agip Eni",
                "amenity": "fuel",
                "operator": "FRASCA MARIA"
            },
            "geometry": {
                "type": "Point",
                "coordinates": [
                    14.749603495001793,
                    42.07667474506305
                ]
            }
        },
        {
            "type": "Feature",
            "properties": {
                "name": "colella tonino",
                "id": "11980",
                "brand": "Agip Eni",
                "amenity": "fuel",
                "operator": "COLELLA TONINO"
            },
            "geometry": {
                "type": "Point",
                "coordinates": [
                    14.736612203492315,
                    42.03912985228581
                ]
            }
        }
    ]
}