{
    "type": "FeatureCollection",
    "features": [
        {
            "type": "Feature",
            "properties": {
                "name": "DELMA SNC",
                "id": "17583",
                "brand": "Q8",
                "amenity": "fuel",
                "operator": "DELMA S.N.C. DEL GEOM. GIOVANNI DEL BALSO & C."
            },
            "geometry": {
                "type": "Point",
                "coordinates": [
                    14.672232577584849,
                    41.58637605709719
                ]
            }
        },
        {
            "type": "Feature",
            "properties": {
                "name": "Carburanti Mastrofrancesco di Zappone Costanza",
                "id": "22057",
                "brand": "Tamoil",
                "amenity": "fuel",
                "operator": "CARBURANTI MASTROFRANCESCO DI ZAPPONE COSTANZA"
            },
            "geometry": {
                "type": "Point",
                "coordinates": [
                    14.617846012115479,
                    41.53850639693946
                ]
            }
        },
        {
            "type": "Feature",
            "properties": {
                "name": "SOPEA CARBURANTI",
                "id": "10896",
                "amenity": "fuel",
                "operator": "SO.PE.A. - SOCIETA' PETROLI ABRUZZO - DI PARTENZA PAOLA & C. S.A.S."
            },
            "geometry": {
                "type": "Point",
                "coordinates": [
                    14.669054746627808,
                    41.59103837742186
                ]
            }
        },
        {
            "type": "Feature",
            "properties": {
                "name": "S.Giovanni",
                "id": "31308",
                "brand": "Total Erg",
                "amenity": "fuel",
                "operator": "MALBO DISTRIBUZIONE S.A.S.DI BOCCAMAZZO M. & C."
            },
            "geometry": {
                "type": "Point",
                "coordinates": [
                    14.670551429703888,
                    41.55963500668553
                ]
            }
        },
        {
            "type": "Feature",
            "properties": {
                "name": "DELMA SNC",
                "id": "17577",
                "brand": "Q8",
                "amenity": "fuel",
                "operator": "DELMA S.N.C. DEL GEOM. GIOVANNI DEL BALSO & C."
            },
            "geometry": {
                "type": "Point",
                "coordinates": [
                    14.670440927599657,
                    41.56301628038743
                ]
            }
        },
        {
            "type": "Feature",
            "properties": {
                "name": "TOTALERG",
                "id": "21086",
                "brand": "Total Erg",
                "amenity": "fuel",
                "operator": "MARINELLI S.N.C. DI MARINELLI NICOLA, GIULIO E GIOVANNI"
            },
            "geometry": {
                "type": "Point",
                "coordinates": [
                    14.661289751529692,
                    41.56477130394599
                ]
            }
        },
        {
            "type": "Feature",
            "properties": {
                "name": "CAMPOBASSO VIA S.ANTONIO DEI LAZZARI",
                "id": "6708",
                "brand": "Q8",
                "amenity": "fuel",
                "operator": "SERVIZI & GESTIONI ITALIA srl"
            },
            "geometry": {
                "type": "Point",
                "coordinates": [
                    14.665922289591666,
                    41.56737280712993
                ]
            }
        },
        {
            "type": "Feature",
            "properties": {
                "name": "Q8",
                "id": "12907",
                "brand": "Q8",
                "amenity": "fuel",
                "operator": "D'AMORE LUCIO"
            },
            "geometry": {
                "type": "Point",
                "coordinates": [
                    14.656696472533895,
                    41.5515993290296
                ]
            }
        },
        {
            "type": "Feature",
            "properties": {
                "name": "distributore carburanti CB035 Campobasso",
                "id": "30398",
                "brand": "Total Erg",
                "amenity": "fuel",
                "operator": "MED OIL - SOCIETA' A RESPONSABILITA' LIMITATA"
            },
            "geometry": {
                "type": "Point",
                "coordinates": [
                    14.682558417298424,
                    41.588855981282684
                ]
            }
        },
        {
            "type": "Feature",
            "properties": {
                "name": "totalerg",
                "id": "28931",
                "brand": "Total Erg",
                "amenity": "fuel",
                "operator": "COLINO DOMENICO"
            },
            "geometry": {
                "type": "Point",
                "coordinates": [
                    14.682530164718628,
                    41.58887102700922
                ]
            }
        },
        {
            "type": "Feature",
            "properties": {
                "name": "ENI",
                "id": "9751",
                "brand": "Agip Eni",
                "amenity": "fuel",
                "operator": "CLD DI CANNONE LEONARDO & C. S.A.S."
            },
            "geometry": {
                "type": "Point",
                "coordinates": [
                    14.671463370323183,
                    41.56745118967207
                ]
            }
        },
        {
            "type": "Feature",
            "properties": {
                "name": "DISCENZA ANTONIO CARBURANTI ESSO",
                "id": "20846",
                "brand": "Esso",
                "amenity": "fuel",
                "operator": "DISCENZA ANTONIO"
            },
            "geometry": {
                "type": "Point",
                "coordinates": [
                    14.675274081280579,
                    41.571088623644265
                ]
            }
        },
        {
            "type": "Feature",
            "properties": {
                "name": "TRONCA ANGELO",
                "id": "25386",
                "brand": "Total Erg",
                "amenity": "fuel",
                "operator": "TRONCA ANGELO"
            },
            "geometry": {
                "type": "Point",
                "coordinates": [
                    14.744445837401596,
                    41.557892383089644
                ]
            }
        },
        {
            "type": "Feature",
            "properties": {
                "name": "Energy Distribuzione srl",
                "id": "30221",
                "amenity": "fuel",
                "operator": "ENERGY DISTRIBUZIONE S.R.L."
            },
            "geometry": {
                "type": "Point",
                "coordinates": [
                    14.657617990074186,
                    41.55371092955796
                ]
            }
        },
        {
            "type": "Feature",
            "properties": {
                "name": "Via Garibaldi",
                "id": "31309",
                "brand": "Total Erg",
                "amenity": "fuel",
                "operator": "MALBO DISTRIBUZIONE S.A.S.DI BOCCAMAZZO M. & C."
            },
            "geometry": {
                "type": "Point",
                "coordinates": [
                    14.648339450359344,
                    41.566187931889296
                ]
            }
        },
        {
            "type": "Feature",
            "properties": {
                "name": "POTITO CARBURANTI srl IP SELF AREA  EX GILDONESE CB",
                "id": "32064",
                "brand": "Api-Ip",
                "amenity": "fuel",
                "operator": "POTITO CARBURANTI S.R.L."
            },
            "geometry": {
                "type": "Point",
                "coordinates": [
                    14.69142839312553,
                    41.55020728951899
                ]
            }
        },
        {
            "type": "Feature",
            "properties": {
                "name": "METANAUTOMOLISE SNC",
                "id": "5687",
                "amenity": "fuel",
                "operator": "METANAUTO MOLISE DI NICOLA DE SOCIO & C. S.N.C."
            },
            "geometry": {
                "type": "Point",
                "coordinates": [
                    14.647030466270511,
                    41.57076203995664
                ]
            }
        },
        {
            "type": "Feature",
            "properties": {
                "name": "agip di ferrara antonio",
                "id": "8892",
                "brand": "Agip Eni",
                "amenity": "fuel",
                "operator": "FERRARA ANTONIO"
            },
            "geometry": {
                "type": "Point",
                "coordinates": [
                    14.647887624289412,
                    41.54956831677021
                ]
            }
        },
        {
            "type": "Feature",
            "properties": {
                "name": "Q8",
                "id": "12905",
                "brand": "Q8",
                "amenity": "fuel",
                "operator": "D'AMORE LUCIO"
            },
            "geometry": {
                "type": "Point",
                "coordinates": [
                    14.663843188832749,
                    41.55844027282877
                ]
            }
        },
        {
            "type": "Feature",
            "properties": {
                "name": "IP  SELF AREA  C.da Selva Piana (CB)",
                "id": "29236",
                "brand": "Api-Ip",
                "amenity": "fuel",
                "operator": "POTITO CARBURANTI S.R.L."
            },
            "geometry": {
                "type": "Point",
                "coordinates": [
                    14.638155333377654,
                    41.56855040654962
                ]
            }
        },
        {
            "type": "Feature",
            "properties": {
                "name": "3925",
                "id": "29813",
                "brand": "Tamoil",
                "amenity": "fuel",
                "operator": "T.D.M. S.R.L."
            },
            "geometry": {
                "type": "Point",
                "coordinates": [
                    14.673340916633604,
                    41.56855409665569
                ]
            }
        },
        {
            "type": "Feature",
            "properties": {
                "name": "PETROLSUD",
                "id": "10590",
                "amenity": "fuel",
                "operator": "PETROL SUD - S.R.L."
            },
            "geometry": {
                "type": "Point",
                "coordinates": [
                    14.682874828577043,
                    41.560992303686454
                ]
            }
        },
        {
            "type": "Feature",
            "properties": {
                "name": "Ies di Palazzo Giorgio",
                "id": "21014",
                "brand": "Ies",
                "amenity": "fuel",
                "operator": "STAZIONE DI SERVIZIO IES DI PALAZZO GIORGIO"
            },
            "geometry": {
                "type": "Point",
                "coordinates": [
                    14.594656974077225,
                    41.516824041442554
                ]
            }
        }
    ]
}