{
    "type": "FeatureCollection",
    "features": [
        {
            "type": "Feature",
            "properties": {
                "name": "Sp \"24 ore\"di Rosa Branchina",
                "id": "13400",
                "brand": "SP Energia Siciliana",
                "amenity": "fuel",
                "operator": "24 ORE DI ROSA BRANCHINA E C. SOCIETA' IN NOME COLLETTIVO"
            },
            "geometry": {
                "type": "Point",
                "coordinates": [
                    14.83760532009887,
                    37.66029872601433
                ]
            }
        },
        {
            "type": "Feature",
            "properties": {
                "name": "stazione di servizio di DONATO NICOLO'",
                "id": "31510",
                "brand": "Agip Eni",
                "amenity": "fuel",
                "operator": "DONATO NICOLO'"
            },
            "geometry": {
                "type": "Point",
                "coordinates": [
                    14.838143158860815,
                    37.65985226103448
                ]
            }
        },
        {
            "type": "Feature",
            "properties": {
                "name": "esso",
                "id": "28456",
                "brand": "Esso",
                "amenity": "fuel",
                "operator": "F.P. SOCIETA' A RESPONSABILITA' LIMITATA O PIU' BREVEMENTE F.P. S.R.L."
            },
            "geometry": {
                "type": "Point",
                "coordinates": [
                    14.903056025505068,
                    37.612082058196364
                ]
            }
        },
        {
            "type": "Feature",
            "properties": {
                "name": "Rifornimento Esso",
                "id": "14985",
                "brand": "Esso",
                "amenity": "fuel",
                "operator": "BONANNO GIOVANNI"
            },
            "geometry": {
                "type": "Point",
                "coordinates": [
                    14.866222230400579,
                    37.63941460496612
                ]
            }
        },
        {
            "type": "Feature",
            "properties": {
                "name": "santangelo arturo",
                "id": "17645",
                "brand": "Giap",
                "amenity": "fuel",
                "operator": "SANTANGELO ARTURO"
            },
            "geometry": {
                "type": "Point",
                "coordinates": [
                    14.835880771279337,
                    37.662625211748654
                ]
            }
        },
        {
            "type": "Feature",
            "properties": {
                "name": "Stazione di servizio Q8",
                "id": "16243",
                "brand": "Q8",
                "amenity": "fuel",
                "operator": "CONSOLI ANGELA"
            },
            "geometry": {
                "type": "Point",
                "coordinates": [
                    14.892621561884882,
                    37.61914861192291
                ]
            }
        },
        {
            "type": "Feature",
            "properties": {
                "name": "S.B. GAS AUTO CIANCIANELLA S.R.L.",
                "id": "26505",
                "amenity": "fuel",
                "operator": "S.B. GAS  AUTO CIANCIANELLA S.R.L."
            },
            "geometry": {
                "type": "Point",
                "coordinates": [
                    14.846971035003662,
                    37.648058818568444
                ]
            }
        },
        {
            "type": "Feature",
            "properties": {
                "name": "Q8",
                "id": "22025",
                "brand": "Q8",
                "amenity": "fuel",
                "operator": "RUSSO FABIO"
            },
            "geometry": {
                "type": "Point",
                "coordinates": [
                    14.874513349515496,
                    37.59229693898341
                ]
            }
        },
        {
            "type": "Feature",
            "properties": {
                "name": "stazione di servizio di DONATO NICOLO'",
                "id": "29684",
                "brand": "Agip Eni",
                "amenity": "fuel",
                "operator": "DONATO NICOLO'"
            },
            "geometry": {
                "type": "Point",
                "coordinates": [
                    14.845289289951321,
                    37.67287492967195
                ]
            }
        },
        {
            "type": "Feature",
            "properties": {
                "name": "GIAP",
                "id": "25249",
                "amenity": "fuel",
                "operator": "IL GIRASOLE DI TOMASELLO VINCENZO E INGRASSIA LUIGI - S.N.C."
            },
            "geometry": {
                "type": "Point",
                "coordinates": [
                    14.871783808598364,
                    37.64076791294718
                ]
            }
        },
        {
            "type": "Feature",
            "properties": {
                "name": "RIFORNIMENTO ESSO ASERO SALVATORE",
                "id": "25627",
                "brand": "Esso",
                "amenity": "fuel",
                "operator": "ASERO SALVATORE ROSARIO"
            },
            "geometry": {
                "type": "Point",
                "coordinates": [
                    14.859196543693546,
                    37.64747968019394
                ]
            }
        },
        {
            "type": "Feature",
            "properties": {
                "name": "Stazione di Servizio Q8 di Strano Salvatore",
                "id": "13231",
                "brand": "Q8",
                "amenity": "fuel",
                "operator": "STRANO SALVATORE"
            },
            "geometry": {
                "type": "Point",
                "coordinates": [
                    14.825663566589355,
                    37.664751662628596
                ]
            }
        },
        {
            "type": "Feature",
            "properties": {
                "name": "CASTRO",
                "id": "20203",
                "brand": "Esso",
                "amenity": "fuel",
                "operator": "CASTRO SALVATORE"
            },
            "geometry": {
                "type": "Point",
                "coordinates": [
                    14.93704227830847,
                    37.617054256985035
                ]
            }
        },
        {
            "type": "Feature",
            "properties": {
                "name": "tamoil",
                "id": "26465",
                "brand": "Tamoil",
                "amenity": "fuel",
                "operator": "SCHILIRO' SALVATORE"
            },
            "geometry": {
                "type": "Point",
                "coordinates": [
                    14.865347933050087,
                    37.6400496219339
                ]
            }
        },
        {
            "type": "Feature",
            "properties": {
                "name": "STAZIONE DI SERVIZIO IMMANUEL sas",
                "id": "26180",
                "brand": "Esso",
                "amenity": "fuel",
                "operator": "IMMA-NU-EL S.A.S. DI LA MELA NICOLINA"
            },
            "geometry": {
                "type": "Point",
                "coordinates": [
                    14.836676716804504,
                    37.661252487921885
                ]
            }
        },
        {
            "type": "Feature",
            "properties": {
                "name": "eni adrano",
                "id": "12881",
                "brand": "Agip Eni",
                "amenity": "fuel",
                "operator": "BRUNO FRANCESCO"
            },
            "geometry": {
                "type": "Point",
                "coordinates": [
                    14.836279297514352,
                    37.67900115732448
                ]
            }
        },
        {
            "type": "Feature",
            "properties": {
                "name": "eni",
                "id": "25554",
                "brand": "Agip Eni",
                "amenity": "fuel",
                "operator": "FRA.MA. DI RIZZO FRANCESCO & C. S.A.S."
            },
            "geometry": {
                "type": "Point",
                "coordinates": [
                    14.89513278007507,
                    37.61352261882959
                ]
            }
        },
        {
            "type": "Feature",
            "properties": {
                "name": "stazione Q8 antonio carbonaro",
                "id": "29821",
                "brand": "Q8",
                "amenity": "fuel",
                "operator": "CARBONARO ANTONIO"
            },
            "geometry": {
                "type": "Point",
                "coordinates": [
                    14.860271436770631,
                    37.647170226394124
                ]
            }
        },
        {
            "type": "Feature",
            "properties": {
                "name": "PULVIRENTI ANGELO",
                "id": "21731",
                "brand": "Esso",
                "amenity": "fuel",
                "operator": "PULVIRENTI ANGELO"
            },
            "geometry": {
                "type": "Point",
                "coordinates": [
                    14.827533736824988,
                    37.66562961532756
                ]
            }
        },
        {
            "type": "Feature",
            "properties": {
                "name": "8401",
                "id": "31327",
                "brand": "Tamoil",
                "amenity": "fuel",
                "operator": "T.D.M. S.R.L."
            },
            "geometry": {
                "type": "Point",
                "coordinates": [
                    14.865301251411436,
                    37.640013801067234
                ]
            }
        },
        {
            "type": "Feature",
            "properties": {
                "name": "IP",
                "id": "17463",
                "brand": "Api-Ip",
                "amenity": "fuel",
                "operator": "SANFILIPPO SALVATORE"
            },
            "geometry": {
                "type": "Point",
                "coordinates": [
                    14.826625138521194,
                    37.66506292830703
                ]
            }
        },
        {
            "type": "Feature",
            "properties": {
                "name": "SP energia siciliana",
                "id": "16125",
                "brand": "Ies",
                "amenity": "fuel",
                "operator": "PATTI SALVATORE & C. S.A.S."
            },
            "geometry": {
                "type": "Point",
                "coordinates": [
                    14.889489616532957,
                    37.61330104472593
                ]
            }
        }
    ]
}