{
    "type": "FeatureCollection",
    "features": [
        {
            "type": "Feature",
            "properties": {
                "name": "IQ CARBURANTI TUFO",
                "id": "27824",
                "amenity": "fuel",
                "operator": "R.O.C.L.A. (ROMAGNOLO - OLII - CARBURANTI - LUBRIFICANTI AUTOSERVIZI) S.R.L."
            },
            "geometry": {
                "type": "Point",
                "coordinates": [
                    14.823003485798838,
                    41.009916542780445
                ]
            }
        },
        {
            "type": "Feature",
            "properties": {
                "name": "TORRIONI",
                "id": "28814",
                "brand": "Esso",
                "amenity": "fuel",
                "operator": "PENTA PETROLI SRL"
            },
            "geometry": {
                "type": "Point",
                "coordinates": [
                    14.80921894311905,
                    41.03442202823531
                ]
            }
        },
        {
            "type": "Feature",
            "properties": {
                "name": "stazione di servizio",
                "id": "18635",
                "amenity": "fuel",
                "operator": "COLELLA CARLO & C. S.N.C."
            },
            "geometry": {
                "type": "Point",
                "coordinates": [
                    14.9411541223526,
                    41.05232660592328
                ]
            }
        },
        {
            "type": "Feature",
            "properties": {
                "name": "SAN NAZZARO",
                "id": "28834",
                "amenity": "fuel",
                "operator": "PENTA PETROLI SRL"
            },
            "geometry": {
                "type": "Point",
                "coordinates": [
                    14.857825934886934,
                    41.05308793862064
                ]
            }
        },
        {
            "type": "Feature",
            "properties": {
                "name": "dina gas",
                "id": "27790",
                "amenity": "fuel",
                "operator": "LUME MARIA"
            },
            "geometry": {
                "type": "Point",
                "coordinates": [
                    14.85295504331589,
                    41.08012510912947
                ]
            }
        },
        {
            "type": "Feature",
            "properties": {
                "name": "stazione di servizio q8 di colella carlo & c. snc",
                "id": "5372",
                "brand": "Q8",
                "amenity": "fuel",
                "operator": "COLELLA CARLO & C. S.N.C."
            },
            "geometry": {
                "type": "Point",
                "coordinates": [
                    14.89971935749054,
                    40.99456080934492
                ]
            }
        },
        {
            "type": "Feature",
            "properties": {
                "name": "SILVESTRO CAROLINA",
                "id": "25440",
                "amenity": "fuel",
                "operator": "SILVESTRO CAROLINA"
            },
            "geometry": {
                "type": "Point",
                "coordinates": [
                    14.8529577255249,
                    40.993825725304006
                ]
            }
        },
        {
            "type": "Feature",
            "properties": {
                "name": "Impianto carburante di Addonizio Ciriaco Antonio",
                "id": "9169",
                "brand": "Q8",
                "amenity": "fuel",
                "operator": "*ADDONIZIO CIRIACO ANTONIO"
            },
            "geometry": {
                "type": "Point",
                "coordinates": [
                    14.915308356285093,
                    41.04229415281151
                ]
            }
        },
        {
            "type": "Feature",
            "properties": {
                "name": "AREA DI SERVIZIO TAMOIL",
                "id": "16941",
                "brand": "Tamoil",
                "amenity": "fuel",
                "operator": "FEDELE GIGINO"
            },
            "geometry": {
                "type": "Point",
                "coordinates": [
                    14.853466004133224,
                    41.078156225352046
                ]
            }
        },
        {
            "type": "Feature",
            "properties": {
                "name": "ALL RENT SAN NICOLA MANFREDI",
                "id": "25150",
                "amenity": "fuel",
                "operator": "ALL RENT SERVICE S.P.A."
            },
            "geometry": {
                "type": "Point",
                "coordinates": [
                    14.824936999999977,
                    41.07692513154792
                ]
            }
        },
        {
            "type": "Feature",
            "properties": {
                "name": "REPSOL",
                "id": "32170",
                "brand": "Repsol",
                "amenity": "fuel",
                "operator": "FADDIMM  S.R.L."
            },
            "geometry": {
                "type": "Point",
                "coordinates": [
                    14.898338019847872,
                    41.02739982727437
                ]
            }
        },
        {
            "type": "Feature",
            "properties": {
                "name": "San Giorgio del Sannio",
                "id": "20779",
                "brand": "Total Erg",
                "amenity": "fuel",
                "operator": "GESTIONI EUROPA - SOCIETA' PER AZIONI"
            },
            "geometry": {
                "type": "Point",
                "coordinates": [
                    14.85444635152817,
                    41.074510460577685
                ]
            }
        },
        {
            "type": "Feature",
            "properties": {
                "name": "Ghepardoil (AV)",
                "id": "28196",
                "amenity": "fuel",
                "operator": "DELTA PETROLI S.A.S. DI FELACO ANTONIO & C."
            },
            "geometry": {
                "type": "Point",
                "coordinates": [
                    14.798027426004406,
                    40.99001939347394
                ]
            }
        },
        {
            "type": "Feature",
            "properties": {
                "name": "stazione di rifornimento ip",
                "id": "28111",
                "brand": "Api-Ip",
                "amenity": "fuel",
                "operator": "MARINO VIRGILIO"
            },
            "geometry": {
                "type": "Point",
                "coordinates": [
                    14.776031970977781,
                    41.00384754887801
                ]
            }
        },
        {
            "type": "Feature",
            "properties": {
                "name": "Stazione di servizio Venticano",
                "id": "16676",
                "brand": "Beneco",
                "amenity": "fuel",
                "operator": "BENECO S.R.L."
            },
            "geometry": {
                "type": "Point",
                "coordinates": [
                    14.90935787558556,
                    41.055279856063855
                ]
            }
        },
        {
            "type": "Feature",
            "properties": {
                "name": "ESSO",
                "id": "31806",
                "brand": "Esso",
                "amenity": "fuel",
                "operator": "CAPONE DANTE"
            },
            "geometry": {
                "type": "Point",
                "coordinates": [
                    14.85130213201046,
                    41.06703268395109
                ]
            }
        },
        {
            "type": "Feature",
            "properties": {
                "name": "IP-GAS AUTO",
                "id": "17772",
                "brand": "Api-Ip",
                "amenity": "fuel",
                "operator": "LANDOLFI SAVERIO"
            },
            "geometry": {
                "type": "Point",
                "coordinates": [
                    14.77976828813553,
                    40.98815835921396
                ]
            }
        },
        {
            "type": "Feature",
            "properties": {
                "name": "ESSO",
                "id": "8240",
                "brand": "Esso",
                "amenity": "fuel",
                "operator": "FERRARA CARMINE"
            },
            "geometry": {
                "type": "Point",
                "coordinates": [
                    14.89947259426117,
                    41.0069169298468
                ]
            }
        },
        {
            "type": "Feature",
            "properties": {
                "name": "Car Wash",
                "id": "30869",
                "brand": "Q8",
                "amenity": "fuel",
                "operator": "CAR WASH S.A.S DI IANNUNZIO FABIOLA E C."
            },
            "geometry": {
                "type": "Point",
                "coordinates": [
                    14.921350032091135,
                    41.1090189383523
                ]
            }
        },
        {
            "type": "Feature",
            "properties": {
                "name": "Stazione di servizio Calvi",
                "id": "29569",
                "brand": "Beneco",
                "amenity": "fuel",
                "operator": "BENECO S.R.L."
            },
            "geometry": {
                "type": "Point",
                "coordinates": [
                    14.868007600307466,
                    41.06952665136098
                ]
            }
        }
    ]
}