{
    "type": "FeatureCollection",
    "features": [
        {
            "type": "Feature",
            "properties": {
                "name": "C. Galdieri & Figli SpA",
                "id": "4363",
                "brand": "Api-Ip",
                "amenity": "fuel",
                "operator": "CARMINE GALDIERI & FIGLI - S.P.A. (IN BREVE C.GALDIERI & FIGLI - S.P.A.)"
            },
            "geometry": {
                "type": "Point",
                "coordinates": [
                    14.775000558370607,
                    40.760558399137096
                ]
            }
        },
        {
            "type": "Feature",
            "properties": {
                "name": "Demav petroli",
                "id": "18695",
                "brand": "Q8",
                "amenity": "fuel",
                "operator": "DEM. AV. PETROLI DI BARONE VINCENZO PANTALEONE"
            },
            "geometry": {
                "type": "Point",
                "coordinates": [
                    14.779516160488129,
                    40.826716519464625
                ]
            }
        },
        {
            "type": "Feature",
            "properties": {
                "name": "StarOil",
                "id": "31951",
                "amenity": "fuel",
                "operator": "BENE DOMENICO SOCIETA' A RESPONSABILITA' LIMITATA SEMPLIFICATA"
            },
            "geometry": {
                "type": "Point",
                "coordinates": [
                    14.814451262354853,
                    40.826229514806855
                ]
            }
        },
        {
            "type": "Feature",
            "properties": {
                "name": "eni",
                "id": "28498",
                "brand": "Agip Eni",
                "amenity": "fuel",
                "operator": "STANZIONE ANTONIETTA"
            },
            "geometry": {
                "type": "Point",
                "coordinates": [
                    14.772380143404005,
                    40.7511274636423
                ]
            }
        },
        {
            "type": "Feature",
            "properties": {
                "name": "ADS Baronissi OVEST",
                "id": "4366",
                "brand": "Api-Ip",
                "amenity": "fuel",
                "operator": "CARMINE GALDIERI & FIGLI - S.P.A. (IN BREVE C.GALDIERI & FIGLI - S.P.A.)"
            },
            "geometry": {
                "type": "Point",
                "coordinates": [
                    14.785441160202026,
                    40.74789583047278
                ]
            }
        },
        {
            "type": "Feature",
            "properties": {
                "name": "Q8",
                "id": "31710",
                "brand": "Q8",
                "amenity": "fuel",
                "operator": "GA TRADE DI ANGIUONI GIULIA"
            },
            "geometry": {
                "type": "Point",
                "coordinates": [
                    14.804164320230484,
                    40.822307875469185
                ]
            }
        },
        {
            "type": "Feature",
            "properties": {
                "name": "Sica & c. srl",
                "id": "27362",
                "brand": "Q8",
                "amenity": "fuel",
                "operator": "SICA & C. - SOCIETA' A RESPONSABILITA' LIMITATA"
            },
            "geometry": {
                "type": "Point",
                "coordinates": [
                    14.768837487622019,
                    40.77498096602795
                ]
            }
        },
        {
            "type": "Feature",
            "properties": {
                "name": "CENTRO ARGO",
                "id": "17917",
                "brand": "Agip Eni",
                "amenity": "fuel",
                "operator": "ARGO SERVICE - SOCIETA' A RESPONSABILITA' LIMITATA"
            },
            "geometry": {
                "type": "Point",
                "coordinates": [
                    14.774849116802214,
                    40.74260751232707
                ]
            }
        },
        {
            "type": "Feature",
            "properties": {
                "name": "ADS Baronissi EST",
                "id": "4365",
                "brand": "Api-Ip",
                "amenity": "fuel",
                "operator": "CARMINE GALDIERI & FIGLI - S.P.A. (IN BREVE C.GALDIERI & FIGLI - S.P.A.)"
            },
            "geometry": {
                "type": "Point",
                "coordinates": [
                    14.78671088095098,
                    40.74886404699709
                ]
            }
        },
        {
            "type": "Feature",
            "properties": {
                "name": "Stazione di Servizio IP GPL di Galdieri Alfonso",
                "id": "23906",
                "brand": "Api-Ip",
                "amenity": "fuel",
                "operator": "GALDIERI ALFONSO"
            },
            "geometry": {
                "type": "Point",
                "coordinates": [
                    14.768210649490355,
                    40.801765386358504
                ]
            }
        },
        {
            "type": "Feature",
            "properties": {
                "name": "Stazione di Servizio ENI di Carrat√π Gerardo",
                "id": "17556",
                "brand": "Agip Eni",
                "amenity": "fuel",
                "operator": "CARRATU'  GERARDO"
            },
            "geometry": {
                "type": "Point",
                "coordinates": [
                    14.77305471897125,
                    40.810712195684104
                ]
            }
        },
        {
            "type": "Feature",
            "properties": {
                "name": "stazione di servizio Eni di Nicola Pecoraro",
                "id": "15924",
                "brand": "Agip Eni",
                "amenity": "fuel",
                "operator": "PECORARO NICOLA"
            },
            "geometry": {
                "type": "Point",
                "coordinates": [
                    14.77269798517227,
                    40.726882727533614
                ]
            }
        },
        {
            "type": "Feature",
            "properties": {
                "name": "Stazione di Servizio IP di Galdieri Alfonso",
                "id": "6050",
                "brand": "Api-Ip",
                "amenity": "fuel",
                "operator": "GALDIERI ALFONSO"
            },
            "geometry": {
                "type": "Point",
                "coordinates": [
                    14.787303060511478,
                    40.777124501242525
                ]
            }
        },
        {
            "type": "Feature",
            "properties": {
                "name": "Staz. Serv. ESSO (D. Moffa & C. srl)",
                "id": "27459",
                "brand": "Esso",
                "amenity": "fuel",
                "operator": "D. MOFFA & C. S.R.L."
            },
            "geometry": {
                "type": "Point",
                "coordinates": [
                    14.775702059268951,
                    40.81732927302566
                ]
            }
        },
        {
            "type": "Feature",
            "properties": {
                "name": "Stazione di servizio Baronissi",
                "id": "28939",
                "brand": "Beneco",
                "amenity": "fuel",
                "operator": "BENECO S.R.L."
            },
            "geometry": {
                "type": "Point",
                "coordinates": [
                    14.776836633682253,
                    40.73480127262118
                ]
            }
        },
        {
            "type": "Feature",
            "properties": {
                "name": "PETROL MOTOR SRL",
                "id": "27109",
                "amenity": "fuel",
                "operator": "PETROL MOTOR S.R.L."
            },
            "geometry": {
                "type": "Point",
                "coordinates": [
                    14.892867872526155,
                    40.72573617344987
                ]
            }
        },
        {
            "type": "Feature",
            "properties": {
                "name": "SOLOFRA SAMBUCO",
                "id": "20205",
                "brand": "Q8",
                "amenity": "fuel",
                "operator": "SERVIZI & GESTIONI ITALIA S.R.L."
            },
            "geometry": {
                "type": "Point",
                "coordinates": [
                    14.841050023942557,
                    40.83402212493339
                ]
            }
        },
        {
            "type": "Feature",
            "properties": {
                "name": "Stazione di servizio IP Aliberti Luigi & figli s.n.c.",
                "id": "27189",
                "brand": "Api-Ip",
                "amenity": "fuel",
                "operator": "ALIBERTI LUIGI & FIGLI - S.N.C."
            },
            "geometry": {
                "type": "Point",
                "coordinates": [
                    14.784502387046812,
                    40.75494328709198
                ]
            }
        },
        {
            "type": "Feature",
            "properties": {
                "name": "DISTRIBUTORE IP",
                "id": "17409",
                "brand": "Api-Ip",
                "amenity": "fuel",
                "operator": "CALIFRI PRIMO"
            },
            "geometry": {
                "type": "Point",
                "coordinates": [
                    14.907025024294853,
                    40.71657312169074
                ]
            }
        },
        {
            "type": "Feature",
            "properties": {
                "name": "Q8",
                "id": "31995",
                "brand": "Q8",
                "amenity": "fuel",
                "operator": "DE MAIO GIUSEPPE"
            },
            "geometry": {
                "type": "Point",
                "coordinates": [
                    14.836615025997162,
                    40.83283812397727
                ]
            }
        }
    ]
}