{
    "type": "FeatureCollection",
    "features": [
        {
            "type": "Feature",
            "properties": {
                "name": "BLANCO PETROLI - MODICA C.DA MUSEBBI",
                "id": "21094",
                "brand": "Blanco petroli",
                "amenity": "fuel",
                "operator": "BLANCO PETROLI S.R.L."
            },
            "geometry": {
                "type": "Point",
                "coordinates": [
                    14.818171077287273,
                    36.834667179822056
                ]
            }
        },
        {
            "type": "Feature",
            "properties": {
                "name": "MODICA",
                "id": "5433",
                "brand": "Agip Eni",
                "amenity": "fuel",
                "operator": "enirete oil&nonoil S.p.A."
            },
            "geometry": {
                "type": "Point",
                "coordinates": [
                    14.77309311904901,
                    36.84157525292034
                ]
            }
        },
        {
            "type": "Feature",
            "properties": {
                "name": "VIA SANT'ALESSANDRA ROSOLINI",
                "id": "20363",
                "brand": "Agip Eni",
                "amenity": "fuel",
                "operator": "SERVIZI E GESTIONI ZENIT S.R.L. IN SIGLA - ZENIT S.R.L."
            },
            "geometry": {
                "type": "Point",
                "coordinates": [
                    14.93473308102034,
                    36.823631382534884
                ]
            }
        },
        {
            "type": "Feature",
            "properties": {
                "name": "VIA DUCA D.ABRUZ",
                "id": "12345",
                "brand": "Giap",
                "amenity": "fuel",
                "operator": "SERVIZI E GESTIONI ZENIT S.R.L. IN SIGLA - ZENIT S.R.L."
            },
            "geometry": {
                "type": "Point",
                "coordinates": [
                    14.910506378677383,
                    36.785086170769205
                ]
            }
        },
        {
            "type": "Feature",
            "properties": {
                "name": "IMPIANTI DI GUGLIOTTA GIOVANNA",
                "id": "7715",
                "brand": "Agip Eni",
                "amenity": "fuel",
                "operator": "GESTIONE IMPIANTI DI GUGLIOTTA GIOVANNA & C. S.A.S."
            },
            "geometry": {
                "type": "Point",
                "coordinates": [
                    14.767169952392576,
                    36.828136294955264
                ]
            }
        },
        {
            "type": "Feature",
            "properties": {
                "name": "BLANCO PETROLI - ISPICA S.C. ISPICA POZZALLO KM 1,620 LATO SX",
                "id": "25210",
                "brand": "Blanco petroli",
                "amenity": "fuel",
                "operator": "BLANCO PETROLI S.R.L."
            },
            "geometry": {
                "type": "Point",
                "coordinates": [
                    14.905235313690131,
                    36.770197779166836
                ]
            }
        },
        {
            "type": "Feature",
            "properties": {
                "name": "C.DA MICHELICA",
                "id": "7693",
                "brand": "Q8",
                "amenity": "fuel",
                "operator": "SERVIZI E GESTIONI ZENIT S.R.L. IN SIGLA - ZENIT S.R.L."
            },
            "geometry": {
                "type": "Point",
                "coordinates": [
                    14.782644038028709,
                    36.83834507972914
                ]
            }
        },
        {
            "type": "Feature",
            "properties": {
                "name": "Eni di Boncoraglio Giuseppe",
                "id": "16970",
                "brand": "Agip Eni",
                "amenity": "fuel",
                "operator": "BONCORAGLIO GIUSEPPE"
            },
            "geometry": {
                "type": "Point",
                "coordinates": [
                    14.907038624956384,
                    36.785192676537804
                ]
            }
        },
        {
            "type": "Feature",
            "properties": {
                "name": "PUCCIA MARIA",
                "id": "13611",
                "brand": "Agip Eni",
                "amenity": "fuel",
                "operator": "PUCCIA MARIA"
            },
            "geometry": {
                "type": "Point",
                "coordinates": [
                    14.914356172084808,
                    36.78026175025025
                ]
            }
        },
        {
            "type": "Feature",
            "properties": {
                "name": "SS115 MODICA-ISPICA KM 342+856",
                "id": "7692",
                "brand": "Agip Eni",
                "amenity": "fuel",
                "operator": "SERVIZI E GESTIONI ZENIT S.R.L. IN SIGLA - ZENIT S.R.L."
            },
            "geometry": {
                "type": "Point",
                "coordinates": [
                    14.800464504299159,
                    36.828185559185506
                ]
            }
        },
        {
            "type": "Feature",
            "properties": {
                "name": "VIA R.PARTIGIANA",
                "id": "12304",
                "brand": "Agip Eni",
                "amenity": "fuel",
                "operator": "SERVIZI E GESTIONI ZENIT S.R.L. IN SIGLA - ZENIT S.R.L."
            },
            "geometry": {
                "type": "Point",
                "coordinates": [
                    14.769621550926214,
                    36.83802124005764
                ]
            }
        },
        {
            "type": "Feature",
            "properties": {
                "name": "ESSO",
                "id": "28694",
                "brand": "Esso",
                "amenity": "fuel",
                "operator": "LEADER CARBURANTI S.R.L."
            },
            "geometry": {
                "type": "Point",
                "coordinates": [
                    14.76628380383886,
                    36.84378680105589
                ]
            }
        },
        {
            "type": "Feature",
            "properties": {
                "name": "ISPICA SS.115",
                "id": "23877",
                "brand": "Q8",
                "amenity": "fuel",
                "operator": "SERVIZI & GESTIONI ITALIA S.R.L."
            },
            "geometry": {
                "type": "Point",
                "coordinates": [
                    14.898101197553276,
                    36.790014543364265
                ]
            }
        },
        {
            "type": "Feature",
            "properties": {
                "name": "SS115 KM 338+832",
                "id": "12370",
                "brand": "Agip Eni",
                "amenity": "fuel",
                "operator": "SERVIZI E GESTIONI ZENIT S.R.L. IN SIGLA - ZENIT S.R.L."
            },
            "geometry": {
                "type": "Point",
                "coordinates": [
                    14.767022126319942,
                    36.832333836981654
                ]
            }
        },
        {
            "type": "Feature",
            "properties": {
                "name": "F.LLIDINATALE",
                "id": "14237",
                "amenity": "fuel",
                "operator": "F.LLI DI NATALE & C. SNC"
            },
            "geometry": {
                "type": "Point",
                "coordinates": [
                    14.773952341069501,
                    36.83136193367519
                ]
            }
        },
        {
            "type": "Feature",
            "properties": {
                "name": "C.DA BUSITASS115",
                "id": "5067",
                "brand": "Agip Eni",
                "amenity": "fuel",
                "operator": "SERVIZI E GESTIONI ZENIT S.R.L. IN SIGLA - ZENIT S.R.L."
            },
            "geometry": {
                "type": "Point",
                "coordinates": [
                    14.818381880950934,
                    36.80888811512329
                ]
            }
        },
        {
            "type": "Feature",
            "properties": {
                "name": "IMPIANTO ZONA 167",
                "id": "30713",
                "brand": "Esso",
                "amenity": "fuel",
                "operator": "GESTIONE IMPIANTI DI GUGLIOTTA GIOVANNA & C. S.A.S."
            },
            "geometry": {
                "type": "Point",
                "coordinates": [
                    14.77546066045761,
                    36.83525779170534
                ]
            }
        }
    ]
}