{
    "type": "FeatureCollection",
    "features": [
        {
            "type": "Feature",
            "properties": {
                "name": "Area di servizio Trecastagni Via Capuana",
                "id": "25654",
                "brand": "Agip Eni",
                "amenity": "fuel",
                "operator": "SERVIZI INTEGRATI S.R.L."
            },
            "geometry": {
                "type": "Point",
                "coordinates": [
                    15.075061720511144,
                    37.62212677011072
                ]
            }
        },
        {
            "type": "Feature",
            "properties": {
                "name": "Distributore Carburanti Sant'Antonio",
                "id": "15182",
                "brand": "Esso",
                "amenity": "fuel",
                "operator": "DISTRIBUTORE CARBURANTI SANT'ANTONIO DI D'AGATA ROSARIA & C. S.A. S."
            },
            "geometry": {
                "type": "Point",
                "coordinates": [
                    15.116424359192367,
                    37.60688554051238
                ]
            }
        },
        {
            "type": "Feature",
            "properties": {
                "name": "DISTRIBUTORE GRS DI SERRA GIUSEPPE",
                "id": "26398",
                "amenity": "fuel",
                "operator": "SERRA GIUSEPPE"
            },
            "geometry": {
                "type": "Point",
                "coordinates": [
                    14.978047728912085,
                    37.59090957950121
                ]
            }
        },
        {
            "type": "Feature",
            "properties": {
                "name": "Q8 di Lauricella Beniamino",
                "id": "12603",
                "brand": "Q8",
                "amenity": "fuel",
                "operator": "LAURICELLA BENIAMINO"
            },
            "geometry": {
                "type": "Point",
                "coordinates": [
                    15.066445469856262,
                    37.6179354900329
                ]
            }
        },
        {
            "type": "Feature",
            "properties": {
                "name": "VIA F. CRISPI TRECASTAGNI",
                "id": "28908",
                "brand": "Giap",
                "amenity": "fuel",
                "operator": "SERVIZI E GESTIONI ZENIT S.R.L. IN SIGLA - ZENIT S.R.L."
            },
            "geometry": {
                "type": "Point",
                "coordinates": [
                    15.072051286697388,
                    37.61614955164254
                ]
            }
        },
        {
            "type": "Feature",
            "properties": {
                "name": "Area di servizio S.G. La Punta Via S. Lucia",
                "id": "24412",
                "brand": "SP Energia Siciliana",
                "amenity": "fuel",
                "operator": "SERVIZI INTEGRATI S.R.L."
            },
            "geometry": {
                "type": "Point",
                "coordinates": [
                    15.09720344355037,
                    37.58876852997889
                ]
            }
        },
        {
            "type": "Feature",
            "properties": {
                "name": "Zafferana",
                "id": "28040",
                "brand": "Esso",
                "amenity": "fuel",
                "operator": "BIESSE CARBURANTI SOCIETA' A RESPONSABILITA' LIMITATA SEMPLIFICATA"
            },
            "geometry": {
                "type": "Point",
                "coordinates": [
                    15.104039984655742,
                    37.68561296619002
                ]
            }
        },
        {
            "type": "Feature",
            "properties": {
                "name": "Area di servizio Trecastagni Via Buonarroti",
                "id": "30881",
                "brand": "SP Energia Siciliana",
                "amenity": "fuel",
                "operator": "SERVIZI INTEGRATI S.R.L."
            },
            "geometry": {
                "type": "Point",
                "coordinates": [
                    15.081181574716993,
                    37.62619846313059
                ]
            }
        },
        {
            "type": "Feature",
            "properties": {
                "name": "D'AGATA GABRIELE",
                "id": "29309",
                "amenity": "fuel",
                "operator": "D'AGATA GABRIELE"
            },
            "geometry": {
                "type": "Point",
                "coordinates": [
                    14.957933840264902,
                    37.63206633599487
                ]
            }
        },
        {
            "type": "Feature",
            "properties": {
                "name": "Rifornimento Esso",
                "id": "19103",
                "brand": "Api-Ip",
                "amenity": "fuel",
                "operator": "URZI' GIOVANNI"
            },
            "geometry": {
                "type": "Point",
                "coordinates": [
                    15.078606605529787,
                    37.603681631661544
                ]
            }
        },
        {
            "type": "Feature",
            "properties": {
                "name": "SAN GIOVANNI LA PUNTA",
                "id": "14544",
                "brand": "Tamoil",
                "amenity": "fuel",
                "operator": "ND PETROLI DI DIBENNARDO NUNZIO & C. S.R.L."
            },
            "geometry": {
                "type": "Point",
                "coordinates": [
                    15.103398263454437,
                    37.58135492940338
                ]
            }
        },
        {
            "type": "Feature",
            "properties": {
                "name": "ESSO",
                "id": "29093",
                "brand": "Esso",
                "amenity": "fuel",
                "operator": "SALAMANCA MICHELE EMANUELE"
            },
            "geometry": {
                "type": "Point",
                "coordinates": [
                    15.1074081659317,
                    37.606080484314965
                ]
            }
        },
        {
            "type": "Feature",
            "properties": {
                "name": "ENI",
                "id": "12716",
                "brand": "Agip Eni",
                "amenity": "fuel",
                "operator": "SAPE S.R.L."
            },
            "geometry": {
                "type": "Point",
                "coordinates": [
                    15.002598264215065,
                    37.61146129356105
                ]
            }
        },
        {
            "type": "Feature",
            "properties": {
                "name": "ral sas di arcidiacono",
                "id": "21606",
                "brand": "Agip Eni",
                "amenity": "fuel",
                "operator": "RAL S.A.S. DI ARCIDIACONO FABIO GIUSEPPE & C."
            },
            "geometry": {
                "type": "Point",
                "coordinates": [
                    15.103809311985971,
                    37.684122597120144
                ]
            }
        },
        {
            "type": "Feature",
            "properties": {
                "name": "T.A. SERVIZI",
                "id": "22958",
                "brand": "Api-Ip",
                "amenity": "fuel",
                "operator": "T.A. SERVIZI S.R.L."
            },
            "geometry": {
                "type": "Point",
                "coordinates": [
                    14.942231029272076,
                    37.62391252635971
                ]
            }
        },
        {
            "type": "Feature",
            "properties": {
                "name": "eni station 58304 di d'urso salvatore",
                "id": "15650",
                "brand": "Agip Eni",
                "amenity": "fuel",
                "operator": "D'URSO SALVATORE"
            },
            "geometry": {
                "type": "Point",
                "coordinates": [
                    15.070404649737611,
                    37.5810188349678
                ]
            }
        },
        {
            "type": "Feature",
            "properties": {
                "name": "Area di servizio Belpasso",
                "id": "23960",
                "brand": "SP Energia Siciliana",
                "amenity": "fuel",
                "operator": "SERVIZI INTEGRATI S.R.L."
            },
            "geometry": {
                "type": "Point",
                "coordinates": [
                    14.988083560149109,
                    37.60357892116461
                ]
            }
        },
        {
            "type": "Feature",
            "properties": {
                "name": "ZAFARANA ALFIO GIUSEPPE",
                "id": "14189",
                "brand": "Api-Ip",
                "amenity": "fuel",
                "operator": "ZAFARANA ALFIO GIUSEPPE"
            },
            "geometry": {
                "type": "Point",
                "coordinates": [
                    15.08108228445053,
                    37.62521010053165
                ]
            }
        },
        {
            "type": "Feature",
            "properties": {
                "name": "FIZZAR",
                "id": "26920",
                "brand": "Api-Ip",
                "amenity": "fuel",
                "operator": "FIZZAR S.A.S. DI MORABITO AGATINO & C."
            },
            "geometry": {
                "type": "Point",
                "coordinates": [
                    15.048993175888087,
                    37.61563489639988
                ]
            }
        },
        {
            "type": "Feature",
            "properties": {
                "name": "SP",
                "id": "21732",
                "brand": "Tamoil",
                "amenity": "fuel",
                "operator": "MASSIMINO CONCETTO"
            },
            "geometry": {
                "type": "Point",
                "coordinates": [
                    15.09055590793457,
                    37.58153246168352
                ]
            }
        },
        {
            "type": "Feature",
            "properties": {
                "name": "AUTORIFORNIMENTO IP",
                "id": "14317",
                "brand": "Api-Ip",
                "amenity": "fuel",
                "operator": "SANTONOCITO ANTONINO"
            },
            "geometry": {
                "type": "Point",
                "coordinates": [
                    14.972405978438928,
                    37.58348358098364
                ]
            }
        },
        {
            "type": "Feature",
            "properties": {
                "name": "privato",
                "id": "31619",
                "amenity": "fuel",
                "operator": "AMT CARBURANTI S.R.L."
            },
            "geometry": {
                "type": "Point",
                "coordinates": [
                    14.957926125607626,
                    37.6320600252904
                ]
            }
        },
        {
            "type": "Feature",
            "properties": {
                "name": "VIA DELLA REGIONE S. G. LA PUNTA",
                "id": "29575",
                "brand": "Giap",
                "amenity": "fuel",
                "operator": "SERVIZI E GESTIONI ZENIT S.R.L. IN SIGLA - ZENIT S.R.L."
            },
            "geometry": {
                "type": "Point",
                "coordinates": [
                    15.093875080347061,
                    37.583276676503296
                ]
            }
        },
        {
            "type": "Feature",
            "properties": {
                "name": "tamoil",
                "id": "26324",
                "brand": "Tamoil",
                "amenity": "fuel",
                "operator": "SCHILIRO' GIUSEPPE"
            },
            "geometry": {
                "type": "Point",
                "coordinates": [
                    15.017381884586367,
                    37.61231128171425
                ]
            }
        },
        {
            "type": "Feature",
            "properties": {
                "name": "SAN GIOVANNI LA PUNTA",
                "id": "5449",
                "brand": "Agip Eni",
                "amenity": "fuel",
                "operator": "enirete oil&nonoil S.p.A."
            },
            "geometry": {
                "type": "Point",
                "coordinates": [
                    15.10394271163943,
                    37.57997073015499
                ]
            }
        },
        {
            "type": "Feature",
            "properties": {
                "name": "Area di servizio Nicolosi",
                "id": "23371",
                "brand": "SP Energia Siciliana",
                "amenity": "fuel",
                "operator": "SERVIZI INTEGRATI S.R.L."
            },
            "geometry": {
                "type": "Point",
                "coordinates": [
                    15.01355892889751,
                    37.61159491592588
                ]
            }
        },
        {
            "type": "Feature",
            "properties": {
                "name": "ENI",
                "id": "19657",
                "brand": "Agip Eni",
                "amenity": "fuel",
                "operator": "MOTORS 90 DI RAPISARDA SEBASTIANO"
            },
            "geometry": {
                "type": "Point",
                "coordinates": [
                    15.092578902840613,
                    37.648348917612246
                ]
            }
        },
        {
            "type": "Feature",
            "properties": {
                "name": "C.DA GROTTA DEL BUE MASCALUCIA",
                "id": "24884",
                "brand": "Q8",
                "amenity": "fuel",
                "operator": "SERVIZI E GESTIONI ZENIT S.R.L. IN SIGLA - ZENIT S.R.L."
            },
            "geometry": {
                "type": "Point",
                "coordinates": [
                    15.033427476882935,
                    37.60430084841633
                ]
            }
        },
        {
            "type": "Feature",
            "properties": {
                "name": "VIA GARIBALDI VIAGRANDE",
                "id": "21852",
                "brand": "Giap",
                "amenity": "fuel",
                "operator": "SERVIZI E GESTIONI ZENIT S.R.L. IN SIGLA - ZENIT S.R.L."
            },
            "geometry": {
                "type": "Point",
                "coordinates": [
                    15.099132846508382,
                    37.611212443198454
                ]
            }
        },
        {
            "type": "Feature",
            "properties": {
                "name": "S.B. GAS AUTO",
                "id": "21763",
                "amenity": "fuel",
                "operator": "BONANNO SALVATORE"
            },
            "geometry": {
                "type": "Point",
                "coordinates": [
                    15.00744491815567,
                    37.611086992721184
                ]
            }
        },
        {
            "type": "Feature",
            "properties": {
                "name": "mobility point srl",
                "id": "13782",
                "brand": "Api-Ip",
                "amenity": "fuel",
                "operator": "MOBILITY POINT S.R.L."
            },
            "geometry": {
                "type": "Point",
                "coordinates": [
                    15.092028379440311,
                    37.58899018580353
                ]
            }
        },
        {
            "type": "Feature",
            "properties": {
                "name": "VIA XIII TRAVER. BELPASSO",
                "id": "21855",
                "brand": "Giap",
                "amenity": "fuel",
                "operator": "SERVIZI E GESTIONI ZENIT S.R.L. IN SIGLA - ZENIT S.R.L."
            },
            "geometry": {
                "type": "Point",
                "coordinates": [
                    14.976960009906406,
                    37.58610825313808
                ]
            }
        }
    ]
}