{
    "type": "FeatureCollection",
    "features": [
        {
            "type": "Feature",
            "properties": {
                "name": "ENI",
                "id": "18147",
                "brand": "Agip Eni",
                "amenity": "fuel",
                "operator": "PUNTILLO ALFIO"
            },
            "geometry": {
                "type": "Point",
                "coordinates": [
                    15.001726504629689,
                    37.2881838689945
                ]
            }
        },
        {
            "type": "Feature",
            "properties": {
                "name": "ESSO - CARLENTINI (SR)",
                "id": "26222",
                "brand": "Esso",
                "amenity": "fuel",
                "operator": "ROMANO GAETANO DI ROMANO ALBERTO & C. S.A.S."
            },
            "geometry": {
                "type": "Point",
                "coordinates": [
                    15.00224473862306,
                    37.299564080749434
                ]
            }
        },
        {
            "type": "Feature",
            "properties": {
                "name": "STAZIONE DI SERVIZIO AGIP",
                "id": "17571",
                "brand": "Agip Eni",
                "amenity": "fuel",
                "operator": "F.LLI CANNIZZO GIACOMO & ALFIO S.N.C."
            },
            "geometry": {
                "type": "Point",
                "coordinates": [
                    14.998188614845278,
                    37.29587989915434
                ]
            }
        },
        {
            "type": "Feature",
            "properties": {
                "name": "API IP",
                "id": "10870",
                "brand": "Api-Ip",
                "amenity": "fuel",
                "operator": "DI PIETRO GIUSEPPE"
            },
            "geometry": {
                "type": "Point",
                "coordinates": [
                    14.998544396476063,
                    37.294268910121446
                ]
            }
        },
        {
            "type": "Feature",
            "properties": {
                "name": "Q8 DI BOSCO DANIELE",
                "id": "10631",
                "brand": "Q8",
                "amenity": "fuel",
                "operator": "BOSCO DANIELE"
            },
            "geometry": {
                "type": "Point",
                "coordinates": [
                    15.001085322753852,
                    37.29306560943553
                ]
            }
        },
        {
            "type": "Feature",
            "properties": {
                "name": "ESSO",
                "id": "26221",
                "brand": "Esso",
                "amenity": "fuel",
                "operator": "ROMANO GAETANO DI ROMANO ALBERTO & C. S.A.S."
            },
            "geometry": {
                "type": "Point",
                "coordinates": [
                    14.999169019234616,
                    37.290429806493286
                ]
            }
        },
        {
            "type": "Feature",
            "properties": {
                "name": "stazione di servizio Q8",
                "id": "11326",
                "brand": "Q8",
                "amenity": "fuel",
                "operator": "CALAMONIERE GIUSEPPE"
            },
            "geometry": {
                "type": "Point",
                "coordinates": [
                    15.014995336532593,
                    37.28981128924668
                ]
            }
        },
        {
            "type": "Feature",
            "properties": {
                "name": "C.SO UMBERTO I SORTINO",
                "id": "27982",
                "brand": "Q8",
                "amenity": "fuel",
                "operator": "SERVIZI E GESTIONI ZENIT S.R.L. IN SIGLA - ZENIT S.R.L."
            },
            "geometry": {
                "type": "Point",
                "coordinates": [
                    15.028002709150314,
                    37.160807761547424
                ]
            }
        },
        {
            "type": "Feature",
            "properties": {
                "name": "Q8",
                "id": "25940",
                "brand": "Q8",
                "amenity": "fuel",
                "operator": "LAZZARA PITITTO VINCENZO"
            },
            "geometry": {
                "type": "Point",
                "coordinates": [
                    15.014296333483344,
                    37.2695195332041
                ]
            }
        },
        {
            "type": "Feature",
            "properties": {
                "name": "RANNO LINO",
                "id": "7253",
                "brand": "Esso",
                "amenity": "fuel",
                "operator": "RANNO LINO"
            },
            "geometry": {
                "type": "Point",
                "coordinates": [
                    15.037114173173904,
                    37.16352905102957
                ]
            }
        },
        {
            "type": "Feature",
            "properties": {
                "name": "ip gruppo api",
                "id": "8659",
                "brand": "Api-Ip",
                "amenity": "fuel",
                "operator": "LATINA ARIANNA"
            },
            "geometry": {
                "type": "Point",
                "coordinates": [
                    15.097400844097134,
                    37.253844093400126
                ]
            }
        },
        {
            "type": "Feature",
            "properties": {
                "name": "Q8 DI CICCULLO PAOLA",
                "id": "9368",
                "brand": "Q8",
                "amenity": "fuel",
                "operator": "CICCULLO S.N.C. DI CICCULLO PAOLA & C."
            },
            "geometry": {
                "type": "Point",
                "coordinates": [
                    14.963711500167848,
                    37.276050546305434
                ]
            }
        },
        {
            "type": "Feature",
            "properties": {
                "name": "eni",
                "id": "6810",
                "brand": "Agip Eni",
                "amenity": "fuel",
                "operator": "SANZARO SEBASTIANO"
            },
            "geometry": {
                "type": "Point",
                "coordinates": [
                    15.034648328172352,
                    37.16311932493388
                ]
            }
        },
        {
            "type": "Feature",
            "properties": {
                "name": "VIA SAVONAROLA V",
                "id": "12282",
                "brand": "Agip Eni",
                "amenity": "fuel",
                "operator": "SERVIZI E GESTIONI ZENIT S.R.L. IN SIGLA - ZENIT S.R.L."
            },
            "geometry": {
                "type": "Point",
                "coordinates": [
                    15.094002507934531,
                    37.252479938891426
                ]
            }
        },
        {
            "type": "Feature",
            "properties": {
                "name": "randazzo filadelfa & c. s.a.s.",
                "id": "30291",
                "brand": "Q8",
                "amenity": "fuel",
                "operator": "RANDAZZO FILADELFA & C. S.A.S."
            },
            "geometry": {
                "type": "Point",
                "coordinates": [
                    14.998992320103527,
                    37.29275410572698
                ]
            }
        },
        {
            "type": "Feature",
            "properties": {
                "name": "Stazione di Servizio Sebastiano Ciavola",
                "id": "31414",
                "brand": "Giap",
                "amenity": "fuel",
                "operator": "CIAVOLA SEBASTIANO"
            },
            "geometry": {
                "type": "Point",
                "coordinates": [
                    15.010865042110936,
                    37.265805416833956
                ]
            }
        }
    ]
}