{
    "type": "FeatureCollection",
    "features": [
        {
            "type": "Feature",
            "properties": {
                "name": "AREA DI SERVIZIO NETTUNIA",
                "id": "10714",
                "brand": "Agip Eni",
                "amenity": "fuel",
                "operator": "SAPONARA ANTONIO & C. - S.R.L."
            },
            "geometry": {
                "type": "Point",
                "coordinates": [
                    15.063816905021667,
                    40.53232111490216
                ]
            }
        },
        {
            "type": "Feature",
            "properties": {
                "name": "GAS AUTO",
                "id": "19905",
                "amenity": "fuel",
                "operator": "FRANCO RAFFAELA"
            },
            "geometry": {
                "type": "Point",
                "coordinates": [
                    15.018881857395174,
                    40.47068995026931
                ]
            }
        },
        {
            "type": "Feature",
            "properties": {
                "name": "CAPACCIO",
                "id": "20774",
                "amenity": "fuel",
                "operator": "PETROLCHIMICA SUD - S.R.L."
            },
            "geometry": {
                "type": "Point",
                "coordinates": [
                    15.056741237640383,
                    40.45888281916986
                ]
            }
        },
        {
            "type": "Feature",
            "properties": {
                "name": "stazione di servizio tamoil",
                "id": "19624",
                "brand": "Tamoil",
                "amenity": "fuel",
                "operator": "STAZIONE DI SERVIZIO TAMOIL DI ALFONSO LONGOBARDI"
            },
            "geometry": {
                "type": "Point",
                "coordinates": [
                    14.989991993532957,
                    40.544336988923575
                ]
            }
        },
        {
            "type": "Feature",
            "properties": {
                "name": "IES",
                "id": "11062",
                "brand": "Ies",
                "amenity": "fuel",
                "operator": "COMMODITY - S.R.L."
            },
            "geometry": {
                "type": "Point",
                "coordinates": [
                    15.011730292993093,
                    40.452679390399894
                ]
            }
        },
        {
            "type": "Feature",
            "properties": {
                "name": "Q8",
                "id": "19248",
                "brand": "Q8",
                "amenity": "fuel",
                "operator": "SAPONARA FRANCESCO"
            },
            "geometry": {
                "type": "Point",
                "coordinates": [
                    15.066328578615868,
                    40.50326961121716
                ]
            }
        },
        {
            "type": "Feature",
            "properties": {
                "name": "PV 55373",
                "id": "29333",
                "brand": "Agip Eni",
                "amenity": "fuel",
                "operator": "GESTIONI INNOVATIVE ITALIA S.R.L."
            },
            "geometry": {
                "type": "Point",
                "coordinates": [
                    15.014673591654626,
                    40.477660620229784
                ]
            }
        },
        {
            "type": "Feature",
            "properties": {
                "name": "EBOLI LOC.S.CECILIA SS.18 KM.83",
                "id": "10073",
                "brand": "Q8",
                "amenity": "fuel",
                "operator": "SERVIZI & GESTIONI ITALIA S.R.L."
            },
            "geometry": {
                "type": "Point",
                "coordinates": [
                    14.998151063919064,
                    40.52784252077819
                ]
            }
        },
        {
            "type": "Feature",
            "properties": {
                "name": "GREGOIL",
                "id": "5240",
                "amenity": "fuel",
                "operator": "IMMOBILIARE GREGORIO - S.R.L."
            },
            "geometry": {
                "type": "Point",
                "coordinates": [
                    14.970343261957163,
                    40.460764018215464
                ]
            }
        },
        {
            "type": "Feature",
            "properties": {
                "name": "Catauro Maria Concetta",
                "id": "22391",
                "brand": "Api-Ip",
                "amenity": "fuel",
                "operator": "CATAURO MARIA CONCETTA"
            },
            "geometry": {
                "type": "Point",
                "coordinates": [
                    15.099621327742511,
                    40.497664281612444
                ]
            }
        },
        {
            "type": "Feature",
            "properties": {
                "name": "MARINO CARBURANTI",
                "id": "25569",
                "brand": "Esso",
                "amenity": "fuel",
                "operator": "MARINO CARBURANTI - S.R.L."
            },
            "geometry": {
                "type": "Point",
                "coordinates": [
                    15.012211203575136,
                    40.456977893255356
                ]
            }
        },
        {
            "type": "Feature",
            "properties": {
                "name": "SAPONARA",
                "id": "10716",
                "amenity": "fuel",
                "operator": "SAPONARA ANTONIO & C. - S.R.L."
            },
            "geometry": {
                "type": "Point",
                "coordinates": [
                    15.105873816835585,
                    40.526168129930106
                ]
            }
        },
        {
            "type": "Feature",
            "properties": {
                "name": "FULL PETROL ALTAVILLA SILENTINA",
                "id": "23401",
                "amenity": "fuel",
                "operator": "ROTRANS - S.R.L."
            },
            "geometry": {
                "type": "Point",
                "coordinates": [
                    15.09095991534423,
                    40.5260079224465
                ]
            }
        },
        {
            "type": "Feature",
            "properties": {
                "name": "Falcone Francesco & F. s.n.c.",
                "id": "9666",
                "amenity": "fuel",
                "operator": "FALCONE FRANCESCO & F. - S.N.C."
            },
            "geometry": {
                "type": "Point",
                "coordinates": [
                    15.009502172470095,
                    40.52883740924297
                ]
            }
        }
    ]
}