{
    "type": "FeatureCollection",
    "features": [
        {
            "type": "Feature",
            "properties": {
                "name": "DISTIBUTORE METANO ZAPPALA' ANNE MARIA-S.FILIPPO DEL MELA",
                "id": "6905",
                "amenity": "fuel",
                "operator": "ZAPPALA' ANNE MARIA"
            },
            "geometry": {
                "type": "Point",
                "coordinates": [
                    15.277009606361386,
                    38.19516742981333
                ]
            }
        },
        {
            "type": "Feature",
            "properties": {
                "name": "BN PETROLI",
                "id": "9241",
                "amenity": "fuel",
                "operator": "B.N. PETROLI S.R.L."
            },
            "geometry": {
                "type": "Point",
                "coordinates": [
                    15.216774782801282,
                    38.14033734192236
                ]
            }
        },
        {
            "type": "Feature",
            "properties": {
                "name": "Eni",
                "id": "24508",
                "brand": "Tamoil",
                "amenity": "fuel",
                "operator": "MUNAFO' ANTONINO"
            },
            "geometry": {
                "type": "Point",
                "coordinates": [
                    15.24650752544403,
                    38.20107035626881
                ]
            }
        },
        {
            "type": "Feature",
            "properties": {
                "name": "BARCELLONA POZZO DI GOT VIA MARCONI, 81",
                "id": "18354",
                "brand": "Q8",
                "amenity": "fuel",
                "operator": "SERVIZI & GESTIONI ITALIA S.R.L."
            },
            "geometry": {
                "type": "Point",
                "coordinates": [
                    15.212107331871946,
                    38.14699647809832
                ]
            }
        },
        {
            "type": "Feature",
            "properties": {
                "name": "esso",
                "id": "8746",
                "brand": "Esso",
                "amenity": "fuel",
                "operator": "MENTO SANTI & C. SNC DI ISAIJA CARMELA"
            },
            "geometry": {
                "type": "Point",
                "coordinates": [
                    15.251737833023071,
                    38.20904246796854
                ]
            }
        },
        {
            "type": "Feature",
            "properties": {
                "name": "Oieni Sas di Oieni Andrea & C.",
                "id": "8859",
                "brand": "Agip Eni",
                "amenity": "fuel",
                "operator": "OIENI S.A.S. DI OIENI ANDREA & C."
            },
            "geometry": {
                "type": "Point",
                "coordinates": [
                    15.21989786624863,
                    38.1489712629476
                ]
            }
        },
        {
            "type": "Feature",
            "properties": {
                "name": "RIFORNIMENTO ESSO DI CELI MARIA CRISTINA",
                "id": "29027",
                "brand": "Esso",
                "amenity": "fuel",
                "operator": "DIDATTICA E INFORMATICA DI CELI MARIACRISTINA"
            },
            "geometry": {
                "type": "Point",
                "coordinates": [
                    15.222716331481934,
                    38.151044329720825
                ]
            }
        },
        {
            "type": "Feature",
            "properties": {
                "name": "OLIVARELLA",
                "id": "3597",
                "brand": "Q8",
                "amenity": "fuel",
                "operator": "AGICOIL S.A.S. DI CELI ANTONIO  &  C."
            },
            "geometry": {
                "type": "Point",
                "coordinates": [
                    15.253620743751528,
                    38.18185816287316
                ]
            }
        },
        {
            "type": "Feature",
            "properties": {
                "name": "BN PETROLI",
                "id": "9240",
                "amenity": "fuel",
                "operator": "B.N. PETROLI DI BERTUCCIO NICOLA & C.SAS"
            },
            "geometry": {
                "type": "Point",
                "coordinates": [
                    15.261879265308382,
                    38.17861206328212
                ]
            }
        },
        {
            "type": "Feature",
            "properties": {
                "name": "I.D.C.ESSO BARCELLONA P.G. (ME) C/DA CALDA'",
                "id": "29514",
                "brand": "Esso",
                "amenity": "fuel",
                "operator": "GD PETROLI  S.R.L."
            },
            "geometry": {
                "type": "Point",
                "coordinates": [
                    15.208300799131393,
                    38.1806382569911
                ]
            }
        },
        {
            "type": "Feature",
            "properties": {
                "name": "q8",
                "id": "26875",
                "brand": "Q8",
                "amenity": "fuel",
                "operator": "FAZIO SEBASTIANO"
            },
            "geometry": {
                "type": "Point",
                "coordinates": [
                    15.199450850486759,
                    38.148311324688
                ]
            }
        },
        {
            "type": "Feature",
            "properties": {
                "name": "GLOBAL  AUTOSERVICE  stazione di servizio EGO",
                "id": "26826",
                "amenity": "fuel",
                "operator": "GLOBAL AUTOSERVICE SOCIETA' A RESPONSABILITA' LIMITATA SEMPLIFICATA"
            },
            "geometry": {
                "type": "Point",
                "coordinates": [
                    15.235582888126373,
                    38.21566078186405
                ]
            }
        },
        {
            "type": "Feature",
            "properties": {
                "name": "area di servizio eni",
                "id": "8514",
                "brand": "Agip Eni",
                "amenity": "fuel",
                "operator": "GUIDO FRANCESCO"
            },
            "geometry": {
                "type": "Point",
                "coordinates": [
                    15.252950191497803,
                    38.200377307941515
                ]
            }
        },
        {
            "type": "Feature",
            "properties": {
                "name": "STAZ.SERVIZIO IP",
                "id": "7186",
                "brand": "Api-Ip",
                "amenity": "fuel",
                "operator": "GUIDO GIUSEPPE"
            },
            "geometry": {
                "type": "Point",
                "coordinates": [
                    15.237500667572023,
                    38.21105221953171
                ]
            }
        },
        {
            "type": "Feature",
            "properties": {
                "name": "SM S.R.L.",
                "id": "18287",
                "brand": "Api-Ip",
                "amenity": "fuel",
                "operator": "SM S.R.L."
            },
            "geometry": {
                "type": "Point",
                "coordinates": [
                    15.216315239667892,
                    38.148276520736154
                ]
            }
        },
        {
            "type": "Feature",
            "properties": {
                "name": "Eni",
                "id": "6283",
                "brand": "Tamoil",
                "amenity": "fuel",
                "operator": "MUNAFO' ANTONINO"
            },
            "geometry": {
                "type": "Point",
                "coordinates": [
                    15.24650752544403,
                    38.20107035626881
                ]
            }
        },
        {
            "type": "Feature",
            "properties": {
                "name": "ALESSI ANTONIO",
                "id": "7809",
                "brand": "Esso",
                "amenity": "fuel",
                "operator": "ALESSI ANTONIO"
            },
            "geometry": {
                "type": "Point",
                "coordinates": [
                    15.221635401248932,
                    38.149577543215315
                ]
            }
        },
        {
            "type": "Feature",
            "properties": {
                "name": "Eni",
                "id": "6282",
                "brand": "Agip Eni",
                "amenity": "fuel",
                "operator": "MUNAFO' ANTONINO"
            },
            "geometry": {
                "type": "Point",
                "coordinates": [
                    15.24650752544403,
                    38.20107035626881
                ]
            }
        },
        {
            "type": "Feature",
            "properties": {
                "name": "Rifornimento IP Carbone Giuseppe",
                "id": "17046",
                "brand": "Api-Ip",
                "amenity": "fuel",
                "operator": "CARBONE GIUSEPPE"
            },
            "geometry": {
                "type": "Point",
                "coordinates": [
                    15.232871174812317,
                    38.15469281723673
                ]
            }
        },
        {
            "type": "Feature",
            "properties": {
                "name": "Eni",
                "id": "24507",
                "brand": "Agip Eni",
                "amenity": "fuel",
                "operator": "MUNAFO' ANTONINO"
            },
            "geometry": {
                "type": "Point",
                "coordinates": [
                    15.24650752544403,
                    38.20107035626881
                ]
            }
        },
        {
            "type": "Feature",
            "properties": {
                "name": "BN PETROLI",
                "id": "9251",
                "amenity": "fuel",
                "operator": "B.N. PETROLI DI BERTUCCIO NICOLA & C.SAS"
            },
            "geometry": {
                "type": "Point",
                "coordinates": [
                    15.258783996105196,
                    38.19226806692587
                ]
            }
        },
        {
            "type": "Feature",
            "properties": {
                "name": "SP ENERGIA SICILIANA",
                "id": "31189",
                "brand": "SP Energia Siciliana",
                "amenity": "fuel",
                "operator": "PETROLCOKE ENERGY S.R.L."
            },
            "geometry": {
                "type": "Point",
                "coordinates": [
                    15.22513275674453,
                    38.15089307239172
                ]
            }
        },
        {
            "type": "Feature",
            "properties": {
                "name": "FAIR OIL Srl di Biondo Michelangelo",
                "id": "4525",
                "brand": "Agip Eni",
                "amenity": "fuel",
                "operator": "FAIROIL S.R.L. DI BIONDO MICHELANGELO-SOCIETA' UNIPERSONALE"
            },
            "geometry": {
                "type": "Point",
                "coordinates": [
                    15.206330716609953,
                    38.14474330915192
                ]
            }
        },
        {
            "type": "Feature",
            "properties": {
                "name": "ENI di Santo Stefano G. & C. sas",
                "id": "24081",
                "brand": "Agip Eni",
                "amenity": "fuel",
                "operator": "SANTO STEFANO G. & C. S.A.S. DI SANTO STEFANO TINDARO"
            },
            "geometry": {
                "type": "Point",
                "coordinates": [
                    15.245465487241747,
                    38.21244147850145
                ]
            }
        },
        {
            "type": "Feature",
            "properties": {
                "name": "BARCELLONA POZZO DI GOTTO KENNEDY,90",
                "id": "20773",
                "brand": "Q8",
                "amenity": "fuel",
                "operator": "SERVIZI & GESTIONI ITALIA S.R.L."
            },
            "geometry": {
                "type": "Point",
                "coordinates": [
                    15.21927677056965,
                    38.149456055770244
                ]
            }
        },
        {
            "type": "Feature",
            "properties": {
                "name": "ESSO ON THE RUN",
                "id": "30267",
                "brand": "Esso",
                "amenity": "fuel",
                "operator": "GASOIL  S.A.S. DI CALTABIANO GIOVANNA & C."
            },
            "geometry": {
                "type": "Point",
                "coordinates": [
                    15.236938426814277,
                    38.211690684841386
                ]
            }
        }
    ]
}