{
    "type": "FeatureCollection",
    "features": [
        {
            "type": "Feature",
            "properties": {
                "name": "FUEL 99 - FARACI -",
                "id": "28527",
                "brand": "Fuel99",
                "amenity": "fuel",
                "operator": "FUEL 99 DI RAFFAELE,  RAFFAELE E RAFFAELE FARACI - S.N.C."
            },
            "geometry": {
                "type": "Point",
                "coordinates": [
                    15.143542289733885,
                    36.915251960271355
                ]
            }
        },
        {
            "type": "Feature",
            "properties": {
                "name": "X OIL",
                "id": "22460",
                "amenity": "fuel",
                "operator": "ORIONE S.R.L."
            },
            "geometry": {
                "type": "Point",
                "coordinates": [
                    15.284775942564009,
                    37.0133430524705
                ]
            }
        },
        {
            "type": "Feature",
            "properties": {
                "name": "Q8",
                "id": "29814",
                "brand": "Q8",
                "amenity": "fuel",
                "operator": "SPADA CORRADO"
            },
            "geometry": {
                "type": "Point",
                "coordinates": [
                    15.129640996456144,
                    36.91201155093279
                ]
            }
        },
        {
            "type": "Feature",
            "properties": {
                "name": "esso sirugo",
                "id": "31493",
                "brand": "Esso",
                "amenity": "fuel",
                "operator": "CIRASA MARIA S.N.C."
            },
            "geometry": {
                "type": "Point",
                "coordinates": [
                    15.140837877988815,
                    36.912074601655455
                ]
            }
        },
        {
            "type": "Feature",
            "properties": {
                "name": "q8",
                "id": "30253",
                "brand": "Q8",
                "amenity": "fuel",
                "operator": "STREET'S BAR DI DE LUCA GRAZIANA &  C. S.A.S."
            },
            "geometry": {
                "type": "Point",
                "coordinates": [
                    15.156821161508558,
                    36.923886473313544
                ]
            }
        },
        {
            "type": "Feature",
            "properties": {
                "name": "S.S.115 AVOLA-SR",
                "id": "9228",
                "brand": "Agip Eni",
                "amenity": "fuel",
                "operator": "SERVIZI E GESTIONI ZENIT S.R.L. IN SIGLA - ZENIT S.R.L."
            },
            "geometry": {
                "type": "Point",
                "coordinates": [
                    15.15174641964336,
                    36.921226103256814
                ]
            }
        },
        {
            "type": "Feature",
            "properties": {
                "name": "SP ENERGIA SICILIANA",
                "id": "9144",
                "brand": "SP Energia Siciliana",
                "amenity": "fuel",
                "operator": "SICILIA S.R.L."
            },
            "geometry": {
                "type": "Point",
                "coordinates": [
                    15.127909630537031,
                    36.90609527284018
                ]
            }
        },
        {
            "type": "Feature",
            "properties": {
                "name": "Q8",
                "id": "32027",
                "brand": "Q8",
                "amenity": "fuel",
                "operator": "RIZZA ALBERTO GIORGIO & C. S.N.C."
            },
            "geometry": {
                "type": "Point",
                "coordinates": [
                    15.156813114881516,
                    36.92388115555024
                ]
            }
        },
        {
            "type": "Feature",
            "properties": {
                "name": "SP",
                "id": "31467",
                "brand": "SP Energia Siciliana",
                "amenity": "fuel",
                "operator": "AUTOCARUSO DI CARUSO SEBASTIANO"
            },
            "geometry": {
                "type": "Point",
                "coordinates": [
                    15.149451792240143,
                    36.92063786563227
                ]
            }
        },
        {
            "type": "Feature",
            "properties": {
                "name": "ESSO",
                "id": "23571",
                "brand": "Esso",
                "amenity": "fuel",
                "operator": "SANTUCCIO GIOVANNI"
            },
            "geometry": {
                "type": "Point",
                "coordinates": [
                    15.12798246770251,
                    36.90513306167854
                ]
            }
        },
        {
            "type": "Feature",
            "properties": {
                "name": "AREA SERVIZIO SP AVOLA",
                "id": "31767",
                "brand": "SP Energia Siciliana",
                "amenity": "fuel",
                "operator": "F.LLI TIRALONGO DI TIRALONGO GIOVANNI E TIRALONGO ANTONIO S.N.C."
            },
            "geometry": {
                "type": "Point",
                "coordinates": [
                    15.141114145517347,
                    36.91244003756624
                ]
            }
        },
        {
            "type": "Feature",
            "properties": {
                "name": "Eni",
                "id": "26305",
                "brand": "Agip Eni",
                "amenity": "fuel",
                "operator": "VACCARELLA CORRADO"
            },
            "geometry": {
                "type": "Point",
                "coordinates": [
                    15.139661729335785,
                    36.91076210623501
                ]
            }
        },
        {
            "type": "Feature",
            "properties": {
                "name": "area di servizio SP",
                "id": "32216",
                "brand": "SP Energia Siciliana",
                "amenity": "fuel",
                "operator": "PIZZI SALVATORE"
            },
            "geometry": {
                "type": "Point",
                "coordinates": [
                    15.13469493410048,
                    36.9059199643308
                ]
            }
        },
        {
            "type": "Feature",
            "properties": {
                "name": "rizzo spurna giuseppe",
                "id": "16575",
                "brand": "Agip Eni",
                "amenity": "fuel",
                "operator": "RIZZO SPURNA GIUSEPPE"
            },
            "geometry": {
                "type": "Point",
                "coordinates": [
                    15.209487676620482,
                    36.984349618460676
                ]
            }
        }
    ]
}