{
    "type": "FeatureCollection",
    "features": [
        {
            "type": "Feature",
            "properties": {
                "name": "ENI DI RAPISARDA FILIPPO",
                "id": "27004",
                "brand": "Agip Eni",
                "amenity": "fuel",
                "operator": "RAPISARDA FILIPPO"
            },
            "geometry": {
                "type": "Point",
                "coordinates": [
                    15.185835957527164,
                    37.24768882489802
                ]
            }
        },
        {
            "type": "Feature",
            "properties": {
                "name": "ESSO DI CASALAINA CARMELO & C. SAS",
                "id": "29302",
                "brand": "Esso",
                "amenity": "fuel",
                "operator": "CASALAINA CARMELO & C. S.A.S."
            },
            "geometry": {
                "type": "Point",
                "coordinates": [
                    15.215121811662469,
                    37.25018366243165
                ]
            }
        },
        {
            "type": "Feature",
            "properties": {
                "name": "ENI DI MASI CARMELO",
                "id": "19039",
                "brand": "Agip Eni",
                "amenity": "fuel",
                "operator": "DI MASI CARMELO"
            },
            "geometry": {
                "type": "Point",
                "coordinates": [
                    15.220050215721132,
                    37.25000538280789
                ]
            }
        },
        {
            "type": "Feature",
            "properties": {
                "name": "S.P. 95 MELILLI",
                "id": "12249",
                "brand": "Giap",
                "amenity": "fuel",
                "operator": "SERVIZI E GESTIONI ZENIT S.R.L. IN SIGLA - ZENIT S.R.L."
            },
            "geometry": {
                "type": "Point",
                "coordinates": [
                    15.145638218246404,
                    37.17777200146694
                ]
            }
        },
        {
            "type": "Feature",
            "properties": {
                "name": "LAURETTA SANTINA Stazione di servizio Q8",
                "id": "17771",
                "brand": "Q8",
                "amenity": "fuel",
                "operator": "LAURETTA SANTINA"
            },
            "geometry": {
                "type": "Point",
                "coordinates": [
                    15.188437057694841,
                    37.280513704950245
                ]
            }
        },
        {
            "type": "Feature",
            "properties": {
                "name": "losa carburanti",
                "id": "26300",
                "brand": "Agip Eni",
                "amenity": "fuel",
                "operator": "LO.SA. CARBURANTI DI SALVIA CHIARA & C. S.A.S."
            },
            "geometry": {
                "type": "Point",
                "coordinates": [
                    15.152351260185242,
                    37.17461818470664
                ]
            }
        },
        {
            "type": "Feature",
            "properties": {
                "name": "S.P. AUGUSTA-VILLASMUNDO",
                "id": "30642",
                "brand": "Giap",
                "amenity": "fuel",
                "operator": "SERVIZI E GESTIONI ZENIT S.R.L. IN SIGLA - ZENIT S.R.L."
            },
            "geometry": {
                "type": "Point",
                "coordinates": [
                    15.204970836639406,
                    37.251313299109874
                ]
            }
        },
        {
            "type": "Feature",
            "properties": {
                "name": "nicolosi",
                "id": "17602",
                "amenity": "fuel",
                "operator": "NICOLOSI SEBASTIANO"
            },
            "geometry": {
                "type": "Point",
                "coordinates": [
                    15.129982718613064,
                    37.17890735295282
                ]
            }
        },
        {
            "type": "Feature",
            "properties": {
                "name": "GRECO GRAZIELLA",
                "id": "26632",
                "brand": "Agip Eni",
                "amenity": "fuel",
                "operator": "GRECO GRAZIELLA"
            },
            "geometry": {
                "type": "Point",
                "coordinates": [
                    15.2212509528656,
                    37.2377247991546
                ]
            }
        },
        {
            "type": "Feature",
            "properties": {
                "name": "SS 114 BAGALI EST PRIOLO",
                "id": "22384",
                "brand": "Agip Eni",
                "amenity": "fuel",
                "operator": "SERVIZI E GESTIONI ZENIT S.R.L. IN SIGLA - ZENIT S.R.L."
            },
            "geometry": {
                "type": "Point",
                "coordinates": [
                    15.158956373016395,
                    37.172123432690626
                ]
            }
        },
        {
            "type": "Feature",
            "properties": {
                "name": "petrol station service",
                "id": "22429",
                "brand": "Q8",
                "amenity": "fuel",
                "operator": "PETROL STATION SERVICE DI A. E A. F.LLI LOMBARDO S.N.C."
            },
            "geometry": {
                "type": "Point",
                "coordinates": [
                    15.222009917028004,
                    37.237973444366276
                ]
            }
        },
        {
            "type": "Feature",
            "properties": {
                "name": "AUGUSTA JUNGI",
                "id": "22373",
                "brand": "Q8",
                "amenity": "fuel",
                "operator": "SERVIZI & GESTIONI ITALIA S.R.L."
            },
            "geometry": {
                "type": "Point",
                "coordinates": [
                    15.221245310450735,
                    37.250161163152455
                ]
            }
        },
        {
            "type": "Feature",
            "properties": {
                "name": "Sicilfuel",
                "id": "27489",
                "amenity": "fuel",
                "operator": "LIBERA HOTEL S.R.L."
            },
            "geometry": {
                "type": "Point",
                "coordinates": [
                    15.14212131500244,
                    37.263797782766666
                ]
            }
        },
        {
            "type": "Feature",
            "properties": {
                "name": "erg",
                "id": "26313",
                "brand": "Total Erg",
                "amenity": "fuel",
                "operator": "MARINO SEBASTIANO"
            },
            "geometry": {
                "type": "Point",
                "coordinates": [
                    15.187938809394836,
                    37.17120674442293
                ]
            }
        },
        {
            "type": "Feature",
            "properties": {
                "name": "VIA SIRACUSA MEL",
                "id": "12251",
                "brand": "Esso",
                "amenity": "fuel",
                "operator": "SERVIZI E GESTIONI ZENIT S.R.L. IN SIGLA - ZENIT S.R.L."
            },
            "geometry": {
                "type": "Point",
                "coordinates": [
                    15.132440659166148,
                    37.178364068439954
                ]
            }
        }
    ]
}