{
    "type": "FeatureCollection",
    "features": [
        {
            "type": "Feature",
            "properties": {
                "name": "Metanauto Foggia sud",
                "id": "17735",
                "brand": "Agip Eni",
                "amenity": "fuel",
                "operator": "METANAUTO FOGGIA SUD S.A.S. DI BANDELLO ROSARIA & C."
            },
            "geometry": {
                "type": "Point",
                "coordinates": [
                    15.575660169124601,
                    41.448025783554044
                ]
            }
        },
        {
            "type": "Feature",
            "properties": {
                "name": "TAMOIL",
                "id": "16997",
                "brand": "Tamoil",
                "amenity": "fuel",
                "operator": "EREDI CIRELLI DI ORAZIO ANTONIO E MARCO CIRELLI - S.N.C."
            },
            "geometry": {
                "type": "Point",
                "coordinates": [
                    15.555788628335675,
                    41.45756064099269
                ]
            }
        },
        {
            "type": "Feature",
            "properties": {
                "name": "FOGGIA - GIUSEPPE DI VITTORIO",
                "id": "30466",
                "brand": "Api-Ip",
                "amenity": "fuel",
                "operator": "IP SERVICES S.R.L."
            },
            "geometry": {
                "type": "Point",
                "coordinates": [
                    15.557255861172962,
                    41.456889634529745
                ]
            }
        },
        {
            "type": "Feature",
            "properties": {
                "name": "MORGANELLA PELLEGRINO & C. SAS",
                "id": "20648",
                "brand": "Agip Eni",
                "amenity": "fuel",
                "operator": "MORGANELLA PELLEGRINO & C. - S.A.S."
            },
            "geometry": {
                "type": "Point",
                "coordinates": [
                    15.529646873474123,
                    41.45888260397201
                ]
            }
        },
        {
            "type": "Feature",
            "properties": {
                "name": "ESSO",
                "id": "32066",
                "brand": "Esso",
                "amenity": "fuel",
                "operator": "SIMONE & D'ERRICO S.R.L."
            },
            "geometry": {
                "type": "Point",
                "coordinates": [
                    15.525894463062285,
                    41.42122916872793
                ]
            }
        },
        {
            "type": "Feature",
            "properties": {
                "name": "AGIP ENI",
                "id": "28279",
                "brand": "Agip Eni",
                "amenity": "fuel",
                "operator": "SAPORITO DI GRASSOTTI POTITO & C. S.A.S."
            },
            "geometry": {
                "type": "Point",
                "coordinates": [
                    15.544019490480423,
                    41.451614368206286
                ]
            }
        },
        {
            "type": "Feature",
            "properties": {
                "name": "TOTALERG",
                "id": "28351",
                "brand": "Total Erg",
                "amenity": "fuel",
                "operator": "ANIELLO ELENA ELISA"
            },
            "geometry": {
                "type": "Point",
                "coordinates": [
                    15.54276958107948,
                    41.466175752042844
                ]
            }
        },
        {
            "type": "Feature",
            "properties": {
                "name": "MARINARI-IP",
                "id": "30424",
                "brand": "Api-Ip",
                "amenity": "fuel",
                "operator": "MARINARI GERARDO E FIGLI DI STANISLAO E ANTONIO MARINARI E C SNC"
            },
            "geometry": {
                "type": "Point",
                "coordinates": [
                    15.530678189935314,
                    41.456903158898356
                ]
            }
        },
        {
            "type": "Feature",
            "properties": {
                "name": "Tamoil 8362",
                "id": "11121",
                "brand": "Tamoil",
                "amenity": "fuel",
                "operator": "DI GENNARO PROSPERO & STRIDI MICHELINA S.N.C."
            },
            "geometry": {
                "type": "Point",
                "coordinates": [
                    15.542308930191664,
                    41.45703892178394
                ]
            }
        },
        {
            "type": "Feature",
            "properties": {
                "name": "FOGGIA",
                "id": "5795",
                "brand": "Total Erg",
                "amenity": "fuel",
                "operator": "TotalErg SpA"
            },
            "geometry": {
                "type": "Point",
                "coordinates": [
                    15.496547093254092,
                    41.44183806395455
                ]
            }
        },
        {
            "type": "Feature",
            "properties": {
                "name": "DAUNIA OVEST",
                "id": "31399",
                "brand": "Tamoil",
                "amenity": "fuel",
                "operator": "INTERSERVICE SRL"
            },
            "geometry": {
                "type": "Point",
                "coordinates": [
                    15.544630199999999,
                    41.4621984
                ]
            }
        },
        {
            "type": "Feature",
            "properties": {
                "name": "CORBO & LANZONE S.N.C.",
                "id": "29693",
                "brand": "Agip Eni",
                "amenity": "fuel",
                "operator": "CORBO & LANZONE SNC"
            },
            "geometry": {
                "type": "Point",
                "coordinates": [
                    15.539182405765583,
                    41.47020377481605
                ]
            }
        },
        {
            "type": "Feature",
            "properties": {
                "name": "TOTAL ERG",
                "id": "29578",
                "brand": "Total Erg",
                "amenity": "fuel",
                "operator": "ZM CARBURANTI S.A.S. DI ZUCARO MARIANGELA ANTONELLA & C."
            },
            "geometry": {
                "type": "Point",
                "coordinates": [
                    15.517058596014975,
                    41.502498517510894
                ]
            }
        },
        {
            "type": "Feature",
            "properties": {
                "name": "TAMOIL",
                "id": "31103",
                "brand": "Tamoil",
                "amenity": "fuel",
                "operator": "LE TRE S DI CAPOTOSTO MASSIMO"
            },
            "geometry": {
                "type": "Point",
                "coordinates": [
                    15.537707232390629,
                    41.46046592146144
                ]
            }
        },
        {
            "type": "Feature",
            "properties": {
                "name": "FOGGIA 238",
                "id": "26473",
                "brand": "Q8",
                "amenity": "fuel",
                "operator": "ENERGAS S.P.A"
            },
            "geometry": {
                "type": "Point",
                "coordinates": [
                    15.60028553009033,
                    41.471509015723264
                ]
            }
        },
        {
            "type": "Feature",
            "properties": {
                "name": "Q8",
                "id": "14989",
                "brand": "Q8",
                "amenity": "fuel",
                "operator": "LA PORTA ANTONIO"
            },
            "geometry": {
                "type": "Point",
                "coordinates": [
                    15.546802282333374,
                    41.467713712862306
                ]
            }
        },
        {
            "type": "Feature",
            "properties": {
                "name": "DAUNIA EST",
                "id": "31400",
                "brand": "Tamoil",
                "amenity": "fuel",
                "operator": "INTERSERVICE SRL"
            },
            "geometry": {
                "type": "Point",
                "coordinates": [
                    15.544630199999999,
                    41.4621984
                ]
            }
        },
        {
            "type": "Feature",
            "properties": {
                "name": "Coop Estense Foggia",
                "id": "19814",
                "amenity": "fuel",
                "operator": "COOP ESTENSE SOCIETA' COOPERATIVA, ABBREVIABILE NELLA SIGLA COOP ESTENSE ."
            },
            "geometry": {
                "type": "Point",
                "coordinates": [
                    15.540921539068218,
                    41.44765826901581
                ]
            }
        },
        {
            "type": "Feature",
            "properties": {
                "name": "SALVATO S.A.S.",
                "id": "18345",
                "brand": "Agip Eni",
                "amenity": "fuel",
                "operator": "SALVATO S.A.S. DI GIUSEPPE ALFONSO SALVATO"
            },
            "geometry": {
                "type": "Point",
                "coordinates": [
                    15.535496414776162,
                    41.45900821547397
                ]
            }
        },
        {
            "type": "Feature",
            "properties": {
                "name": "FOGGIA - LUCERA",
                "id": "30211",
                "brand": "Api-Ip",
                "amenity": "fuel",
                "operator": "IP SERVICES S.R.L."
            },
            "geometry": {
                "type": "Point",
                "coordinates": [
                    15.535362449073773,
                    41.46598995044875
                ]
            }
        },
        {
            "type": "Feature",
            "properties": {
                "name": "Q8",
                "id": "13682",
                "brand": "Q8",
                "amenity": "fuel",
                "operator": "IANNUARIO FELICE"
            },
            "geometry": {
                "type": "Point",
                "coordinates": [
                    15.545488186321789,
                    41.450362726824196
                ]
            }
        },
        {
            "type": "Feature",
            "properties": {
                "name": "Distribuzione carburanti Esso S.a.s. di Biondi Andrea & C.",
                "id": "18618",
                "brand": "Esso",
                "amenity": "fuel",
                "operator": "DISTRIBUZIONE CARBURANTI S.A.S. DI BIONDI ANDREA"
            },
            "geometry": {
                "type": "Point",
                "coordinates": [
                    15.544600188732149,
                    41.441641029770565
                ]
            }
        },
        {
            "type": "Feature",
            "properties": {
                "name": "FOGGIA 248",
                "id": "26474",
                "brand": "Q8",
                "amenity": "fuel",
                "operator": "ENERGAS S.P.A"
            },
            "geometry": {
                "type": "Point",
                "coordinates": [
                    15.599417835474018,
                    41.47106968514712
                ]
            }
        },
        {
            "type": "Feature",
            "properties": {
                "name": "impianto eni 9300",
                "id": "10784",
                "brand": "Agip Eni",
                "amenity": "fuel",
                "operator": "VARANO ANTONIO"
            },
            "geometry": {
                "type": "Point",
                "coordinates": [
                    15.573391020298002,
                    41.44494165348836
                ]
            }
        },
        {
            "type": "Feature",
            "properties": {
                "name": "Valle Ofanto",
                "id": "31751",
                "brand": "Tamoil",
                "amenity": "fuel",
                "operator": "DEMBECH GERARDO E C. S.A.S."
            },
            "geometry": {
                "type": "Point",
                "coordinates": [
                    15.557956919074059,
                    41.41504433613437
                ]
            }
        },
        {
            "type": "Feature",
            "properties": {
                "name": "REFUEL",
                "id": "26605",
                "brand": "Agip Eni",
                "amenity": "fuel",
                "operator": "REFUEL S.R.L."
            },
            "geometry": {
                "type": "Point",
                "coordinates": [
                    15.504482388496397,
                    41.43606923788826
                ]
            }
        },
        {
            "type": "Feature",
            "properties": {
                "name": "ENI 09295  FEDERICO VARANO",
                "id": "15244",
                "brand": "Agip Eni",
                "amenity": "fuel",
                "operator": "VARANO FEDERICO"
            },
            "geometry": {
                "type": "Point",
                "coordinates": [
                    15.569125414767768,
                    41.46298617818899
                ]
            }
        },
        {
            "type": "Feature",
            "properties": {
                "name": "IUMA CARBURANTI SNC",
                "id": "16221",
                "brand": "Esso",
                "amenity": "fuel",
                "operator": "IUMA CARBURANTI DI MAZZEO MARIA AUSILIA & C. S.N.C."
            },
            "geometry": {
                "type": "Point",
                "coordinates": [
                    15.573527819049106,
                    41.44721525803132
                ]
            }
        },
        {
            "type": "Feature",
            "properties": {
                "name": "DISTRIBUTORE TAMOIL",
                "id": "19075",
                "brand": "Tamoil",
                "amenity": "fuel",
                "operator": "IANNUARIO ARTURO"
            },
            "geometry": {
                "type": "Point",
                "coordinates": [
                    15.545459836721419,
                    41.450787302378885
                ]
            }
        },
        {
            "type": "Feature",
            "properties": {
                "name": "Gerardo Pagliarulo TotalErg",
                "id": "19605",
                "brand": "Total Erg",
                "amenity": "fuel",
                "operator": "PAGLIARULO GERARDO"
            },
            "geometry": {
                "type": "Point",
                "coordinates": [
                    15.544250287197881,
                    41.44892987654943
                ]
            }
        },
        {
            "type": "Feature",
            "properties": {
                "name": "Stazione Q8 Viale Ofanto FOGGIA",
                "id": "18225",
                "brand": "Q8",
                "amenity": "fuel",
                "operator": "TAMBASCO GIUSEPPE"
            },
            "geometry": {
                "type": "Point",
                "coordinates": [
                    15.536207439013424,
                    41.4583453973907
                ]
            }
        },
        {
            "type": "Feature",
            "properties": {
                "name": "ENI - SA. RA. GESTIONI S.N.C.",
                "id": "28426",
                "brand": "Agip Eni",
                "amenity": "fuel",
                "operator": "SA.RA. GESTIONI S.N.C. DI PISCITELLI SALVATORE"
            },
            "geometry": {
                "type": "Point",
                "coordinates": [
                    15.553576201200485,
                    41.47464935825786
                ]
            }
        },
        {
            "type": "Feature",
            "properties": {
                "name": "IP Viale Fortore",
                "id": "14896",
                "brand": "Api-Ip",
                "amenity": "fuel",
                "operator": "LA TORRE CARMELA"
            },
            "geometry": {
                "type": "Point",
                "coordinates": [
                    15.561846423278782,
                    41.466065406745955
                ]
            }
        },
        {
            "type": "Feature",
            "properties": {
                "name": "TAMOIL",
                "id": "22337",
                "brand": "Tamoil",
                "amenity": "fuel",
                "operator": "SCIOTTI ANGELO"
            },
            "geometry": {
                "type": "Point",
                "coordinates": [
                    15.502068400382997,
                    41.44395365544856
                ]
            }
        },
        {
            "type": "Feature",
            "properties": {
                "name": "gas auto carburanti",
                "id": "20373",
                "amenity": "fuel",
                "operator": "LAQUINTANA S.N.C. DI ANTONIO LAQUINTANA & C."
            },
            "geometry": {
                "type": "Point",
                "coordinates": [
                    15.489126741886139,
                    41.43856423724493
                ]
            }
        },
        {
            "type": "Feature",
            "properties": {
                "name": "AERRE PETROLI",
                "id": "16655",
                "amenity": "fuel",
                "operator": "AERRE PETROLI - S.N.C. DI LAQUINTANA ANTONIO"
            },
            "geometry": {
                "type": "Point",
                "coordinates": [
                    15.576660633087158,
                    41.42787013287302
                ]
            }
        },
        {
            "type": "Feature",
            "properties": {
                "name": "Stazione di Servizio ESSO di Vadurro F.",
                "id": "21912",
                "brand": "Esso",
                "amenity": "fuel",
                "operator": "VADURRO FELICE"
            },
            "geometry": {
                "type": "Point",
                "coordinates": [
                    15.564183503718596,
                    41.45274253928973
                ]
            }
        },
        {
            "type": "Feature",
            "properties": {
                "name": "FOGGIA",
                "id": "5794",
                "brand": "Total Erg",
                "amenity": "fuel",
                "operator": "TotalErg SpA"
            },
            "geometry": {
                "type": "Point",
                "coordinates": [
                    15.512343457672157,
                    41.47080196095556
                ]
            }
        },
        {
            "type": "Feature",
            "properties": {
                "name": "AREA DI SERVIZIO \"Q8\"",
                "id": "28439",
                "brand": "Q8",
                "amenity": "fuel",
                "operator": "LIVINI CARMINE NICOLA"
            },
            "geometry": {
                "type": "Point",
                "coordinates": [
                    15.574885010719301,
                    41.498644461279866
                ]
            }
        }
    ]
}