{
    "type": "FeatureCollection",
    "features": [
        {
            "type": "Feature",
            "properties": {
                "name": "esso eredi ruggieri",
                "id": "22087",
                "brand": "Esso",
                "amenity": "fuel",
                "operator": "EREDI RUGGIERI DI RUGGIERI MARIA & C. - S.N.C."
            },
            "geometry": {
                "type": "Point",
                "coordinates": [
                    15.787835642695429,
                    40.639670345411986
                ]
            }
        },
        {
            "type": "Feature",
            "properties": {
                "name": "TAMOIL",
                "id": "13615",
                "brand": "Tamoil",
                "amenity": "fuel",
                "operator": "MACRIFUGI  DONATO"
            },
            "geometry": {
                "type": "Point",
                "coordinates": [
                    15.803984045754985,
                    40.63504959427316
                ]
            }
        },
        {
            "type": "Feature",
            "properties": {
                "name": "STAZIONE DI SERVIZIO ENI",
                "id": "14465",
                "brand": "Agip Eni",
                "amenity": "fuel",
                "operator": "GARRAMONE ANTONIO"
            },
            "geometry": {
                "type": "Point",
                "coordinates": [
                    15.802052691578861,
                    40.63215146730992
                ]
            }
        },
        {
            "type": "Feature",
            "properties": {
                "name": "GUARINO LILIANA",
                "id": "23557",
                "brand": "Esso",
                "amenity": "fuel",
                "operator": "GUARINO LILIANA"
            },
            "geometry": {
                "type": "Point",
                "coordinates": [
                    15.802671611309052,
                    40.648746013451984
                ]
            }
        },
        {
            "type": "Feature",
            "properties": {
                "name": "POTENZA RIONE SANTA MARIA VIA CICCOTTI",
                "id": "6770",
                "brand": "Q8",
                "amenity": "fuel",
                "operator": "SERVIZI & GESTIONI ITALIA srl"
            },
            "geometry": {
                "type": "Point",
                "coordinates": [
                    15.804107700034706,
                    40.64575131241796
                ]
            }
        },
        {
            "type": "Feature",
            "properties": {
                "name": "FUELS SERVICES SRL 08794",
                "id": "31047",
                "brand": "Agip Eni",
                "amenity": "fuel",
                "operator": "FUELS SERVICES S.R.L."
            },
            "geometry": {
                "type": "Point",
                "coordinates": [
                    15.79671174287796,
                    40.62272093783065
                ]
            }
        },
        {
            "type": "Feature",
            "properties": {
                "name": "TotalErg di Zaccagnino Giuseppe",
                "id": "13155",
                "brand": "Total Erg",
                "amenity": "fuel",
                "operator": "ZACCAGNINO GIUSEPPE"
            },
            "geometry": {
                "type": "Point",
                "coordinates": [
                    15.801358163129407,
                    40.6484028866247
                ]
            }
        },
        {
            "type": "Feature",
            "properties": {
                "name": "IMPIANTO IP",
                "id": "13417",
                "brand": "Api-Ip",
                "amenity": "fuel",
                "operator": "LIOI CLEMENTE"
            },
            "geometry": {
                "type": "Point",
                "coordinates": [
                    15.80943815410137,
                    40.64163032528941
                ]
            }
        },
        {
            "type": "Feature",
            "properties": {
                "name": "api-ip",
                "id": "21696",
                "brand": "Api-Ip",
                "amenity": "fuel",
                "operator": "BISACCIA E PALLADINO - S.N.C."
            },
            "geometry": {
                "type": "Point",
                "coordinates": [
                    15.798225007412496,
                    40.64429017912663
                ]
            }
        },
        {
            "type": "Feature",
            "properties": {
                "name": "Metanauto Lucana",
                "id": "5301",
                "amenity": "fuel",
                "operator": "METANAUTO LUCANA S.R.L."
            },
            "geometry": {
                "type": "Point",
                "coordinates": [
                    15.686328113079073,
                    40.614952158406666
                ]
            }
        },
        {
            "type": "Feature",
            "properties": {
                "name": "POTENZA VIA VIVIANI - DISTR. Q8",
                "id": "6769",
                "brand": "Q8",
                "amenity": "fuel",
                "operator": "SERVIZI & GESTIONI ITALIA srl"
            },
            "geometry": {
                "type": "Point",
                "coordinates": [
                    15.806315147885128,
                    40.63407456496594
                ]
            }
        },
        {
            "type": "Feature",
            "properties": {
                "name": "ACCA RADISTE  & C. S.N.C.",
                "id": "19991",
                "brand": "Agip Eni",
                "amenity": "fuel",
                "operator": "ACCA RADISTE DI LICHINCHI GIUSEPPE & C. - S.N.C."
            },
            "geometry": {
                "type": "Point",
                "coordinates": [
                    15.799565613269808,
                    40.62707788337711
                ]
            }
        },
        {
            "type": "Feature",
            "properties": {
                "name": "Area di servizio Citt√† di Tito",
                "id": "27136",
                "brand": "Total Erg",
                "amenity": "fuel",
                "operator": "GATTA GIOVANNA"
            },
            "geometry": {
                "type": "Point",
                "coordinates": [
                    15.695648789405821,
                    40.603223780389484
                ]
            }
        },
        {
            "type": "Feature",
            "properties": {
                "name": "distributore",
                "id": "18652",
                "brand": "Ies",
                "amenity": "fuel",
                "operator": "F.G.S. SERVICE DI SABATINA GENTILESCA & C. S.N.C."
            },
            "geometry": {
                "type": "Point",
                "coordinates": [
                    15.688229128718376,
                    40.713167811964404
                ]
            }
        },
        {
            "type": "Feature",
            "properties": {
                "name": "POTENZA VIA VACCARO",
                "id": "25868",
                "brand": "Q8",
                "amenity": "fuel",
                "operator": "SERVIZI & GESTIONI ITALIA S.R.L."
            },
            "geometry": {
                "type": "Point",
                "coordinates": [
                    15.800590531942591,
                    40.63601415480206
                ]
            }
        },
        {
            "type": "Feature",
            "properties": {
                "name": "GATTA GERARDO 18745",
                "id": "21931",
                "brand": "Agip Eni",
                "amenity": "fuel",
                "operator": "GATTA GERARDO"
            },
            "geometry": {
                "type": "Point",
                "coordinates": [
                    15.698170891715565,
                    40.60685579003158
                ]
            }
        },
        {
            "type": "Feature",
            "properties": {
                "name": "COMMERCIO CARBURANTI SRL",
                "id": "8435",
                "brand": "Agip Eni",
                "amenity": "fuel",
                "operator": "COMMERCIO CARBURANTI S.R.L."
            },
            "geometry": {
                "type": "Point",
                "coordinates": [
                    15.796532034873964,
                    40.62312158840258
                ]
            }
        },
        {
            "type": "Feature",
            "properties": {
                "name": "carburanti q8",
                "id": "27158",
                "brand": "Q8",
                "amenity": "fuel",
                "operator": "IMMOBILIARE E SERVIZI S.A.S. DI SAPIENZA DONATA & C."
            },
            "geometry": {
                "type": "Point",
                "coordinates": [
                    15.68649709224701,
                    40.59349547223939
                ]
            }
        },
        {
            "type": "Feature",
            "properties": {
                "name": "TOTALERG",
                "id": "22772",
                "brand": "Total Erg",
                "amenity": "fuel",
                "operator": "LEPRINI LUIGI"
            },
            "geometry": {
                "type": "Point",
                "coordinates": [
                    15.818803757429121,
                    40.63565271565607
                ]
            }
        }
    ]
}