{
    "type": "FeatureCollection",
    "features": [
        {
            "type": "Feature",
            "properties": {
                "name": "REGGIO SS 18",
                "id": "17692",
                "brand": "Api-Ip",
                "amenity": "fuel",
                "operator": "IP SERVICES S.R.L."
            },
            "geometry": {
                "type": "Point",
                "coordinates": [
                    15.656459008598288,
                    38.13223164689957
                ]
            }
        },
        {
            "type": "Feature",
            "properties": {
                "name": "ENI STATION MASUCCI MASSIMO IMPIANTO 55012",
                "id": "20090",
                "brand": "Agip Eni",
                "amenity": "fuel",
                "operator": "MASUCCI MASSIMO"
            },
            "geometry": {
                "type": "Point",
                "coordinates": [
                    15.649874200770682,
                    38.078062317758935
                ]
            }
        },
        {
            "type": "Feature",
            "properties": {
                "name": "REGGIO DI CALABRIA - SS. 106 TER",
                "id": "31197",
                "brand": "Api-Ip",
                "amenity": "fuel",
                "operator": "IP SERVICES S.R.L."
            },
            "geometry": {
                "type": "Point",
                "coordinates": [
                    15.66474903802873,
                    38.08029701418056
                ]
            }
        },
        {
            "type": "Feature",
            "properties": {
                "name": "FERRANTE GIUSEPPINA",
                "id": "17487",
                "brand": "Q8",
                "amenity": "fuel",
                "operator": "FERRANTE GIUSEPPINA"
            },
            "geometry": {
                "type": "Point",
                "coordinates": [
                    15.736248246783815,
                    38.12378369929998
                ]
            }
        },
        {
            "type": "Feature",
            "properties": {
                "name": "ip",
                "id": "10306",
                "brand": "Api-Ip",
                "amenity": "fuel",
                "operator": "IENUSO LAURA"
            },
            "geometry": {
                "type": "Point",
                "coordinates": [
                    15.65197303891182,
                    38.11654341595652
                ]
            }
        },
        {
            "type": "Feature",
            "properties": {
                "name": "stazione di rifornimento IP Pellican√≤ Antonio",
                "id": "18341",
                "brand": "Api-Ip",
                "amenity": "fuel",
                "operator": "PELLICANO' ANTONIO"
            },
            "geometry": {
                "type": "Point",
                "coordinates": [
                    15.652610763400501,
                    38.0782582793833
                ]
            }
        },
        {
            "type": "Feature",
            "properties": {
                "name": "Distributore carburanti esso di Clemenze Adolfo",
                "id": "12060",
                "brand": "Esso",
                "amenity": "fuel",
                "operator": "CLEMENZE ADOLFO"
            },
            "geometry": {
                "type": "Point",
                "coordinates": [
                    15.660962018785312,
                    38.11581095159668
                ]
            }
        },
        {
            "type": "Feature",
            "properties": {
                "name": "DISTRIBUTORE AGIP 8835 DI LEGATO PIETRO",
                "id": "7499",
                "brand": "Agip Eni",
                "amenity": "fuel",
                "operator": "DISTRIBUTORE AGIP 8835 DI LEGATO PIETRO"
            },
            "geometry": {
                "type": "Point",
                "coordinates": [
                    15.650463132458183,
                    38.02492655347248
                ]
            }
        },
        {
            "type": "Feature",
            "properties": {
                "name": "Impianto ip di Romeo Giuseppe",
                "id": "16262",
                "brand": "Api-Ip",
                "amenity": "fuel",
                "operator": "ROMEO GIUSEPPE"
            },
            "geometry": {
                "type": "Point",
                "coordinates": [
                    15.679400637745854,
                    38.08658760517097
                ]
            }
        },
        {
            "type": "Feature",
            "properties": {
                "name": "ENI DI LUVARA' PASQUALE",
                "id": "10181",
                "brand": "Agip Eni",
                "amenity": "fuel",
                "operator": "LUVARA' PASQUALE"
            },
            "geometry": {
                "type": "Point",
                "coordinates": [
                    15.65174236893654,
                    38.10360751607276
                ]
            }
        },
        {
            "type": "Feature",
            "properties": {
                "name": "myOil Reggio Calabria",
                "id": "30699",
                "brand": "MyOil",
                "amenity": "fuel",
                "operator": "PELLICANO SALVATORE"
            },
            "geometry": {
                "type": "Point",
                "coordinates": [
                    15.65191997046247,
                    38.1150375525027
                ]
            }
        },
        {
            "type": "Feature",
            "properties": {
                "name": "Stazione di servizio ESSO di Gravagna Concetta",
                "id": "10800",
                "brand": "Esso",
                "amenity": "fuel",
                "operator": "GRAVAGNA CONCETTA"
            },
            "geometry": {
                "type": "Point",
                "coordinates": [
                    15.65344624221325,
                    38.12158543642706
                ]
            }
        },
        {
            "type": "Feature",
            "properties": {
                "name": "ENI Pentimele",
                "id": "24126",
                "brand": "Agip Eni",
                "amenity": "fuel",
                "operator": "PENTA SERVICES DI ERRIGO ANTONINO & CO. - S.A.S."
            },
            "geometry": {
                "type": "Point",
                "coordinates": [
                    15.657451539950557,
                    38.134099214984346
                ]
            }
        },
        {
            "type": "Feature",
            "properties": {
                "name": "REGGIO DI CALABRIA - ROMA 19",
                "id": "31029",
                "brand": "Api-Ip",
                "amenity": "fuel",
                "operator": "IP SERVICES S.R.L."
            },
            "geometry": {
                "type": "Point",
                "coordinates": [
                    15.651997244824432,
                    38.11654826948671
                ]
            }
        },
        {
            "type": "Feature",
            "properties": {
                "name": "REGGIO DI CALABRIA - CALOPINACE",
                "id": "22299",
                "brand": "Api-Ip",
                "amenity": "fuel",
                "operator": "IP SERVICES S.R.L."
            },
            "geometry": {
                "type": "Point",
                "coordinates": [
                    15.656148271163943,
                    38.09998455710187
                ]
            }
        },
        {
            "type": "Feature",
            "properties": {
                "name": "eni impianto 18819 di mandalari pasquale",
                "id": "11178",
                "brand": "Agip Eni",
                "amenity": "fuel",
                "operator": "MANDALARI PASQUALE"
            },
            "geometry": {
                "type": "Point",
                "coordinates": [
                    15.65318974495631,
                    38.11628517270294
                ]
            }
        },
        {
            "type": "Feature",
            "properties": {
                "name": "REGGIO DI CALABRIA - CAMPI",
                "id": "25479",
                "brand": "Api-Ip",
                "amenity": "fuel",
                "operator": "IP SERVICES S.R.L."
            },
            "geometry": {
                "type": "Point",
                "coordinates": [
                    15.666316093254064,
                    38.10760844201814
                ]
            }
        },
        {
            "type": "Feature",
            "properties": {
                "name": "q8 via ibico",
                "id": "31666",
                "brand": "Q8",
                "amenity": "fuel",
                "operator": "FAVASULI ANTONINO"
            },
            "geometry": {
                "type": "Point",
                "coordinates": [
                    15.656927414238453,
                    38.1192957582792
                ]
            }
        },
        {
            "type": "Feature",
            "properties": {
                "name": "VIALE LABOCCETTA",
                "id": "28039",
                "amenity": "fuel",
                "operator": "EASY SERVICE S.R.L."
            },
            "geometry": {
                "type": "Point",
                "coordinates": [
                    15.656141191720959,
                    38.09055426673513
                ]
            }
        },
        {
            "type": "Feature",
            "properties": {
                "name": "Distrib.Q8 di Pellicano' Domenico",
                "id": "14264",
                "brand": "Q8",
                "amenity": "fuel",
                "operator": "PELLICANO' DOMENICO"
            },
            "geometry": {
                "type": "Point",
                "coordinates": [
                    15.719409825017804,
                    38.09745049491151
                ]
            }
        },
        {
            "type": "Feature",
            "properties": {
                "name": "Gas Natural",
                "id": "14033",
                "amenity": "fuel",
                "operator": "CANALE S.R.L."
            },
            "geometry": {
                "type": "Point",
                "coordinates": [
                    15.653247088193892,
                    38.10058968928312
                ]
            }
        }
    ]
}