{
    "type": "FeatureCollection",
    "features": [
        {
            "type": "Feature",
            "properties": {
                "name": "stazione di servizio q8",
                "id": "27383",
                "brand": "Q8",
                "amenity": "fuel",
                "operator": "ANGELO TROVATO MAZZA"
            },
            "geometry": {
                "type": "Point",
                "coordinates": [
                    15.986252725124361,
                    38.360219608243966
                ]
            }
        },
        {
            "type": "Feature",
            "properties": {
                "name": "eni station ZOCCALI ROSA",
                "id": "23597",
                "brand": "Agip Eni",
                "amenity": "fuel",
                "operator": "ZOCCALI ROSA"
            },
            "geometry": {
                "type": "Point",
                "coordinates": [
                    15.844737496237142,
                    38.31643505589472
                ]
            }
        },
        {
            "type": "Feature",
            "properties": {
                "name": "tamoil andrea corso",
                "id": "12488",
                "brand": "Tamoil",
                "amenity": "fuel",
                "operator": "CORSO ANDREA"
            },
            "geometry": {
                "type": "Point",
                "coordinates": [
                    15.981880724430086,
                    38.31787556929082
                ]
            }
        },
        {
            "type": "Feature",
            "properties": {
                "name": "Q8 Stazione di servizio",
                "id": "9051",
                "brand": "Q8",
                "amenity": "fuel",
                "operator": "SURACE MASSIMO"
            },
            "geometry": {
                "type": "Point",
                "coordinates": [
                    15.856715440750122,
                    38.364191155506404
                ]
            }
        },
        {
            "type": "Feature",
            "properties": {
                "name": "Impianto Q8 di Vergara Rosario",
                "id": "23277",
                "brand": "Q8",
                "amenity": "fuel",
                "operator": "VERGARA ROSARIO"
            },
            "geometry": {
                "type": "Point",
                "coordinates": [
                    15.983034074306488,
                    38.294506479170536
                ]
            }
        },
        {
            "type": "Feature",
            "properties": {
                "name": "IEROIANNI ROCCO",
                "id": "22162",
                "amenity": "fuel",
                "operator": "IEROIANNI ROCCO"
            },
            "geometry": {
                "type": "Point",
                "coordinates": [
                    15.983728766441345,
                    38.29209147557349
                ]
            }
        },
        {
            "type": "Feature",
            "properties": {
                "name": "esso",
                "id": "17351",
                "brand": "Esso",
                "amenity": "fuel",
                "operator": "PORCINO GIUSEPPA"
            },
            "geometry": {
                "type": "Point",
                "coordinates": [
                    15.994842499494554,
                    38.356933516020156
                ]
            }
        },
        {
            "type": "Feature",
            "properties": {
                "name": "BAGNARA CALABRA - PELLEGRINA",
                "id": "30929",
                "brand": "Api-Ip",
                "amenity": "fuel",
                "operator": "IP SERVICES S.R.L."
            },
            "geometry": {
                "type": "Point",
                "coordinates": [
                    15.830710728836038,
                    38.28623368534559
                ]
            }
        },
        {
            "type": "Feature",
            "properties": {
                "name": "FEDELE FRANCESCO",
                "id": "5072",
                "brand": "Agip Eni",
                "amenity": "fuel",
                "operator": "FEDELE FRANCESCO"
            },
            "geometry": {
                "type": "Point",
                "coordinates": [
                    15.955293327569962,
                    38.368792527484885
                ]
            }
        },
        {
            "type": "Feature",
            "properties": {
                "name": "STAZIONE DI SERVIZIO Q8 & ZETAGAS",
                "id": "6343",
                "brand": "Q8",
                "amenity": "fuel",
                "operator": "PIT STOP S.R.L."
            },
            "geometry": {
                "type": "Point",
                "coordinates": [
                    15.825447913429118,
                    38.29032852688194
                ]
            }
        },
        {
            "type": "Feature",
            "properties": {
                "name": "Q8",
                "id": "19026",
                "brand": "Q8",
                "amenity": "fuel",
                "operator": "BARBERA RENATO"
            },
            "geometry": {
                "type": "Point",
                "coordinates": [
                    15.84867887050018,
                    38.35824008669044
                ]
            }
        },
        {
            "type": "Feature",
            "properties": {
                "name": "PALMI - SAN GIORGIO",
                "id": "25188",
                "brand": "Api-Ip",
                "amenity": "fuel",
                "operator": "IP SERVICES S.R.L."
            },
            "geometry": {
                "type": "Point",
                "coordinates": [
                    15.85004291534426,
                    38.35392944716662
                ]
            }
        },
        {
            "type": "Feature",
            "properties": {
                "name": "zgas q8 di Chirico Giuseppe",
                "id": "27466",
                "brand": "Q8",
                "amenity": "fuel",
                "operator": "CHIRICO GIUSEPPE"
            },
            "geometry": {
                "type": "Point",
                "coordinates": [
                    15.986255407333372,
                    38.36022802098699
                ]
            }
        },
        {
            "type": "Feature",
            "properties": {
                "name": "ip di Pacil√® Giovanni",
                "id": "5060",
                "brand": "Api-Ip",
                "amenity": "fuel",
                "operator": "PACILE' GIOVANNI"
            },
            "geometry": {
                "type": "Point",
                "coordinates": [
                    15.919916331768034,
                    38.40706342198599
                ]
            }
        },
        {
            "type": "Feature",
            "properties": {
                "name": "randazzo",
                "id": "14346",
                "brand": "Tamoil",
                "amenity": "fuel",
                "operator": "RANDAZZO ANNUNZIATA"
            },
            "geometry": {
                "type": "Point",
                "coordinates": [
                    15.828109681606291,
                    38.29884115849827
                ]
            }
        },
        {
            "type": "Feature",
            "properties": {
                "name": "PULEIO PASQUALE",
                "id": "20696",
                "brand": "Agip Eni",
                "amenity": "fuel",
                "operator": "PULEIO PASQUALE"
            },
            "geometry": {
                "type": "Point",
                "coordinates": [
                    15.85891351103783,
                    38.36620208354142
                ]
            }
        }
    ]
}