{
    "type": "FeatureCollection",
    "features": [
        {
            "type": "Feature",
            "properties": {
                "name": "LAMEZIA EST",
                "id": "3526",
                "brand": "Agip Eni",
                "amenity": "fuel",
                "operator": "LA PIANA SERVICE - DI CURCIO MICHELE E VINCENZO -S.N.C."
            },
            "geometry": {
                "type": "Point",
                "coordinates": [
                    16.236682534217838,
                    38.93004825394379
                ]
            }
        },
        {
            "type": "Feature",
            "properties": {
                "name": "ENI 08523 FRANCESCO PROVENZANO",
                "id": "24135",
                "brand": "Agip Eni",
                "amenity": "fuel",
                "operator": "PROVENZANO FRANCESCO"
            },
            "geometry": {
                "type": "Point",
                "coordinates": [
                    16.339016378225438,
                    38.846024133319006
                ]
            }
        },
        {
            "type": "Feature",
            "properties": {
                "name": "TAMOIL 3028",
                "id": "30651",
                "brand": "Tamoil",
                "amenity": "fuel",
                "operator": "MAZZA PIETRO"
            },
            "geometry": {
                "type": "Point",
                "coordinates": [
                    16.288329212011718,
                    38.932740037259066
                ]
            }
        },
        {
            "type": "Feature",
            "properties": {
                "name": "Carburanti Esso",
                "id": "8266",
                "brand": "Esso",
                "amenity": "fuel",
                "operator": "RUBERTO OTTAVIO ENRICO"
            },
            "geometry": {
                "type": "Point",
                "coordinates": [
                    16.226588040590286,
                    38.92809982816879
                ]
            }
        },
        {
            "type": "Feature",
            "properties": {
                "name": "TAMOIL TROVATO UGO",
                "id": "10441",
                "brand": "Tamoil",
                "amenity": "fuel",
                "operator": "TROVATO UGO"
            },
            "geometry": {
                "type": "Point",
                "coordinates": [
                    16.31364256164204,
                    38.82818175044804
                ]
            }
        },
        {
            "type": "Feature",
            "properties": {
                "name": "LAMEZIA OVEST",
                "id": "3737",
                "brand": "Esso",
                "amenity": "fuel",
                "operator": "MARTINO SALVATORE & C. S.A.S."
            },
            "geometry": {
                "type": "Point",
                "coordinates": [
                    16.23705804347992,
                    38.92930377729508
                ]
            }
        },
        {
            "type": "Feature",
            "properties": {
                "name": "LA FORNACE DI TROVATO VINCENZO",
                "id": "18085",
                "brand": "Api-Ip",
                "amenity": "fuel",
                "operator": "TROVATO VINCENZO"
            },
            "geometry": {
                "type": "Point",
                "coordinates": [
                    16.340249876998882,
                    38.93213974542032
                ]
            }
        },
        {
            "type": "Feature",
            "properties": {
                "name": "ENI",
                "id": "19784",
                "brand": "Agip Eni",
                "amenity": "fuel",
                "operator": "DISTRIBUTORE DI CARBURANTE CURCIO DI CURCIO GIUSEPPE & C. S.A.S."
            },
            "geometry": {
                "type": "Point",
                "coordinates": [
                    16.258317232131958,
                    38.91298759128845
                ]
            }
        },
        {
            "type": "Feature",
            "properties": {
                "name": "IL CANNETO",
                "id": "23260",
                "brand": "Tamoil",
                "amenity": "fuel",
                "operator": "IL CANNETO S.A.S. DI POLITO ANTONIO"
            },
            "geometry": {
                "type": "Point",
                "coordinates": [
                    16.244414001703262,
                    38.84968651855599
                ]
            }
        },
        {
            "type": "Feature",
            "properties": {
                "name": "eni 18550  SS18 Gizzeria Lido",
                "id": "7421",
                "brand": "Agip Eni",
                "amenity": "fuel",
                "operator": "COSTABILE ANTONIO GASPARE"
            },
            "geometry": {
                "type": "Point",
                "coordinates": [
                    16.214310228824615,
                    38.931192496265865
                ]
            }
        },
        {
            "type": "Feature",
            "properties": {
                "name": "LAMEZIA8610",
                "id": "31606",
                "brand": "Q8",
                "amenity": "fuel",
                "operator": "CORO S.R.L."
            },
            "geometry": {
                "type": "Point",
                "coordinates": [
                    16.290401816368103,
                    38.91785437589847
                ]
            }
        },
        {
            "type": "Feature",
            "properties": {
                "name": "esso andricciola caterina",
                "id": "20603",
                "brand": "Esso",
                "amenity": "fuel",
                "operator": "ANDRICCIOLA CATERINA"
            },
            "geometry": {
                "type": "Point",
                "coordinates": [
                    16.226602792739868,
                    38.927745525232055
                ]
            }
        },
        {
            "type": "Feature",
            "properties": {
                "name": "PALMIERI CATERINA",
                "id": "10055",
                "brand": "Esso",
                "amenity": "fuel",
                "operator": "PALMIERI FUEL DI CATERINA PALMIERI"
            },
            "geometry": {
                "type": "Point",
                "coordinates": [
                    16.28601908683777,
                    38.931657782792755
                ]
            }
        },
        {
            "type": "Feature",
            "properties": {
                "name": "TAMOIL",
                "id": "15277",
                "brand": "Tamoil",
                "amenity": "fuel",
                "operator": "MAIDA ANTONIO"
            },
            "geometry": {
                "type": "Point",
                "coordinates": [
                    16.212841719388962,
                    38.949759440338674
                ]
            }
        },
        {
            "type": "Feature",
            "properties": {
                "name": "Tamoil Pandolfo Vincenzo",
                "id": "16449",
                "brand": "Tamoil",
                "amenity": "fuel",
                "operator": "DISTRIBUTORE DI CARBURANTI TOTAL PANDOLFO VINCENZO"
            },
            "geometry": {
                "type": "Point",
                "coordinates": [
                    16.326858401298523,
                    38.9577882135987
                ]
            }
        },
        {
            "type": "Feature",
            "properties": {
                "name": "GELSI SRL",
                "id": "21252",
                "brand": "Esso",
                "amenity": "fuel",
                "operator": "GELSI SOCIETA' A RESPONSABILITA' LIMITATA"
            },
            "geometry": {
                "type": "Point",
                "coordinates": [
                    16.322357654571537,
                    38.90807455513591
                ]
            }
        },
        {
            "type": "Feature",
            "properties": {
                "name": "Q8 ZACCHI GIUSEPPE",
                "id": "9180",
                "brand": "Q8",
                "amenity": "fuel",
                "operator": "ZACCHI GIUSEPPE"
            },
            "geometry": {
                "type": "Point",
                "coordinates": [
                    16.253204941749573,
                    38.92144748490723
                ]
            }
        },
        {
            "type": "Feature",
            "properties": {
                "name": "Q8",
                "id": "9846",
                "brand": "Q8",
                "amenity": "fuel",
                "operator": "C.C.M.     S.N.C.  DI   CAMPISANO LUIGI  &  C"
            },
            "geometry": {
                "type": "Point",
                "coordinates": [
                    16.203291714191437,
                    38.93903727799015
                ]
            }
        },
        {
            "type": "Feature",
            "properties": {
                "name": "TAMOIL",
                "id": "10934",
                "brand": "Tamoil",
                "amenity": "fuel",
                "operator": "G3 CARBURANTI DI ROSA ANGELA MARUCA & C. S.A.S."
            },
            "geometry": {
                "type": "Point",
                "coordinates": [
                    16.33177489042282,
                    38.942923461792596
                ]
            }
        },
        {
            "type": "Feature",
            "properties": {
                "name": "ESSO MARTINICA MARTINO SRL",
                "id": "22264",
                "brand": "Esso",
                "amenity": "fuel",
                "operator": "MARTINO S.R.L."
            },
            "geometry": {
                "type": "Point",
                "coordinates": [
                    16.33425459265709,
                    38.91224418769389
                ]
            }
        },
        {
            "type": "Feature",
            "properties": {
                "name": "GOLDEN CAFE' di Cristaudo Luigi",
                "id": "31244",
                "brand": "Esso",
                "amenity": "fuel",
                "operator": "GOLDEN CAFE' DI CRISTAUDO LUIGI"
            },
            "geometry": {
                "type": "Point",
                "coordinates": [
                    16.287260949611664,
                    38.957452413312616
                ]
            }
        }
    ]
}