{
    "type": "FeatureCollection",
    "features": [
        {
            "type": "Feature",
            "properties": {
                "name": "A1 Carburanti",
                "id": "13922",
                "amenity": "fuel",
                "operator": "LOIACONO & CO. S.R.L."
            },
            "geometry": {
                "type": "Point",
                "coordinates": [
                    16.21909260749817,
                    39.82830848762936
                ]
            }
        },
        {
            "type": "Feature",
            "properties": {
                "name": "TAMOIL ITALIA SPA",
                "id": "6992",
                "brand": "Tamoil",
                "amenity": "fuel",
                "operator": "D'AMBRA FRANCESCO"
            },
            "geometry": {
                "type": "Point",
                "coordinates": [
                    16.214996874332428,
                    39.818106124522586
                ]
            }
        },
        {
            "type": "Feature",
            "properties": {
                "name": "PETROLSUD DI SEMINARIO GRAZIA SAS",
                "id": "24510",
                "brand": "Agip Eni",
                "amenity": "fuel",
                "operator": "PETROLSUD DI SEMINARIO GRAZIA S.A.S."
            },
            "geometry": {
                "type": "Point",
                "coordinates": [
                    16.20727077126503,
                    39.815198773216494
                ]
            }
        },
        {
            "type": "Feature",
            "properties": {
                "name": "CASTROVILLARI VIALE DEL LAVORO",
                "id": "10072",
                "brand": "Q8",
                "amenity": "fuel",
                "operator": "SERVIZI & GESTIONI ITALIA S.R.L."
            },
            "geometry": {
                "type": "Point",
                "coordinates": [
                    16.221641327647376,
                    39.819582787626906
                ]
            }
        },
        {
            "type": "Feature",
            "properties": {
                "name": "CASSANO ALL'IONIO - LAUROPOLI",
                "id": "30793",
                "brand": "Api-Ip",
                "amenity": "fuel",
                "operator": "IP SERVICES S.R.L."
            },
            "geometry": {
                "type": "Point",
                "coordinates": [
                    16.34272758035661,
                    39.77700618415783
                ]
            }
        },
        {
            "type": "Feature",
            "properties": {
                "name": "ESSO",
                "id": "17027",
                "brand": "Esso",
                "amenity": "fuel",
                "operator": "OLISTRA S.N.C. DI STRAFACI SALVATORE & C."
            },
            "geometry": {
                "type": "Point",
                "coordinates": [
                    16.23674288392067,
                    39.802293445431154
                ]
            }
        },
        {
            "type": "Feature",
            "properties": {
                "name": "CASTROVILLARI CORSO CALABRIA",
                "id": "23606",
                "brand": "Q8",
                "amenity": "fuel",
                "operator": "SERVIZI & GESTIONI ITALIA S.R.L."
            },
            "geometry": {
                "type": "Point",
                "coordinates": [
                    16.19046539068222,
                    39.82638703392327
                ]
            }
        },
        {
            "type": "Feature",
            "properties": {
                "name": "AGIP DI LOMBARDI OSVALDO",
                "id": "9850",
                "brand": "Agip Eni",
                "amenity": "fuel",
                "operator": "LOMBARDI OSVALDO"
            },
            "geometry": {
                "type": "Point",
                "coordinates": [
                    16.324008554220203,
                    39.778415686508055
                ]
            }
        },
        {
            "type": "Feature",
            "properties": {
                "name": "ENI",
                "id": "20542",
                "brand": "Agip Eni",
                "amenity": "fuel",
                "operator": "FADDIMM  S.R.L."
            },
            "geometry": {
                "type": "Point",
                "coordinates": [
                    16.23567134141922,
                    39.81130480652307
                ]
            }
        },
        {
            "type": "Feature",
            "properties": {
                "name": "Stazione di servizio IP Vincenzo Mastrota",
                "id": "23020",
                "brand": "Api-Ip",
                "amenity": "fuel",
                "operator": "MASTROTA VINCENZO"
            },
            "geometry": {
                "type": "Point",
                "coordinates": [
                    16.259015947580338,
                    39.832189544233614
                ]
            }
        },
        {
            "type": "Feature",
            "properties": {
                "name": "FRASCINETO OVEST",
                "id": "3495",
                "brand": "Tamoil",
                "amenity": "fuel",
                "operator": "LOMBARDI S.R.L."
            },
            "geometry": {
                "type": "Point",
                "coordinates": [
                    16.245275463332522,
                    39.842051712528836
                ]
            }
        },
        {
            "type": "Feature",
            "properties": {
                "name": "MULTISERVICE DI MARIO MIRAGLIA & C.SAS",
                "id": "28136",
                "brand": "Esso",
                "amenity": "fuel",
                "operator": "MULTISERVICE DI MARIO MIRAGLIA & C. S.A.S."
            },
            "geometry": {
                "type": "Point",
                "coordinates": [
                    16.19495540857315,
                    39.82186909940312
                ]
            }
        },
        {
            "type": "Feature",
            "properties": {
                "name": "FRASCINETO EST",
                "id": "3896",
                "brand": "Q8",
                "amenity": "fuel",
                "operator": "OIL SERVICE DI LOIACONO GIOVANNI & C. - SOCIETA' IN ACCOMANDITA SEMPLICE"
            },
            "geometry": {
                "type": "Point",
                "coordinates": [
                    16.24527633190155,
                    39.842773691970855
                ]
            }
        },
        {
            "type": "Feature",
            "properties": {
                "name": "IDC castrovillari",
                "id": "25507",
                "brand": "Esso",
                "amenity": "fuel",
                "operator": "I.D.C. S.R.L."
            },
            "geometry": {
                "type": "Point",
                "coordinates": [
                    16.230937242507938,
                    39.826982756169286
                ]
            }
        },
        {
            "type": "Feature",
            "properties": {
                "name": "CASTROVILLARI - CALDORA",
                "id": "24703",
                "brand": "Api-Ip",
                "amenity": "fuel",
                "operator": "IP SERVICES S.R.L."
            },
            "geometry": {
                "type": "Point",
                "coordinates": [
                    16.20703026256558,
                    39.81894643666331
                ]
            }
        },
        {
            "type": "Feature",
            "properties": {
                "name": "_ESSO",
                "id": "8868",
                "brand": "Esso",
                "amenity": "fuel",
                "operator": "DE PAOLA GIGINO"
            },
            "geometry": {
                "type": "Point",
                "coordinates": [
                    16.2473930965225,
                    39.83117764882273
                ]
            }
        },
        {
            "type": "Feature",
            "properties": {
                "name": "TAMOIL",
                "id": "14053",
                "brand": "Tamoil",
                "amenity": "fuel",
                "operator": "LOMBARDI BATTISTA"
            },
            "geometry": {
                "type": "Point",
                "coordinates": [
                    16.317957490682602,
                    39.7836348106779
                ]
            }
        }
    ]
}