{
    "type": "FeatureCollection",
    "features": [
        {
            "type": "Feature",
            "properties": {
                "name": "SERVICE AREA SAS DI GRAZIANO MICHELE & C.",
                "id": "24548",
                "brand": "Esso",
                "amenity": "fuel",
                "operator": "SERVICE AREA DI GRAZIANO MICHELE & C. S.A.S."
            },
            "geometry": {
                "type": "Point",
                "coordinates": [
                    16.24731428269547,
                    39.30755911103203
                ]
            }
        },
        {
            "type": "Feature",
            "properties": {
                "name": "G1 PETROLI",
                "id": "30808",
                "amenity": "fuel",
                "operator": "MILENA GABRIELE S.R.L."
            },
            "geometry": {
                "type": "Point",
                "coordinates": [
                    16.25489205121994,
                    39.30370058416879
                ]
            }
        },
        {
            "type": "Feature",
            "properties": {
                "name": "RENDE LOC. ARCAVACATA S.S. 107",
                "id": "6728",
                "brand": "Q8",
                "amenity": "fuel",
                "operator": "SERVIZI & GESTIONI ITALIA srl"
            },
            "geometry": {
                "type": "Point",
                "coordinates": [
                    16.191469766270416,
                    39.34726998079117
                ]
            }
        },
        {
            "type": "Feature",
            "properties": {
                "name": "Impianto Lotus",
                "id": "25501",
                "brand": "Api-Ip",
                "amenity": "fuel",
                "operator": "LOTUS S.R.L. - SOCIETA' UNIPERSONALE"
            },
            "geometry": {
                "type": "Point",
                "coordinates": [
                    16.245179772377014,
                    39.28431114881006
                ]
            }
        },
        {
            "type": "Feature",
            "properties": {
                "name": "COSENZA -  NICOLA SERRA",
                "id": "30187",
                "brand": "Api-Ip",
                "amenity": "fuel",
                "operator": "IP SERVICES S.R.L."
            },
            "geometry": {
                "type": "Point",
                "coordinates": [
                    16.250653490424156,
                    39.30637812449416
                ]
            }
        },
        {
            "type": "Feature",
            "properties": {
                "name": "lion petroli sas",
                "id": "20278",
                "brand": "Esso",
                "amenity": "fuel",
                "operator": "LION PETROLI DI MARINO CONCETTA & C. S.A.S."
            },
            "geometry": {
                "type": "Point",
                "coordinates": [
                    16.247725188732144,
                    39.33603922874187
                ]
            }
        },
        {
            "type": "Feature",
            "properties": {
                "name": "STAZIONE DI SERVIZIO ERG DI COSENZA ANDREA",
                "id": "9514",
                "brand": "Total Erg",
                "amenity": "fuel",
                "operator": "DISTRIBUZIONE CARBURANTI DI COSENZA ANDREA"
            },
            "geometry": {
                "type": "Point",
                "coordinates": [
                    16.25198721885681,
                    39.31723895043296
                ]
            }
        },
        {
            "type": "Feature",
            "properties": {
                "name": "COSENZA PIAZZA F.LLI BANDIERA IMP.Q8",
                "id": "6730",
                "brand": "Q8",
                "amenity": "fuel",
                "operator": "SERVIZI & GESTIONI ITALIA srl"
            },
            "geometry": {
                "type": "Point",
                "coordinates": [
                    16.263706618419974,
                    39.289206518436
                ]
            }
        },
        {
            "type": "Feature",
            "properties": {
                "name": "RENDE",
                "id": "26649",
                "brand": "Q8",
                "amenity": "fuel",
                "operator": "ZETA GAS S.P.A."
            },
            "geometry": {
                "type": "Point",
                "coordinates": [
                    16.240609288215637,
                    39.33676033229744
                ]
            }
        },
        {
            "type": "Feature",
            "properties": {
                "name": "TOTALERG",
                "id": "24579",
                "brand": "Total Erg",
                "amenity": "fuel",
                "operator": "GABRIELE GIUSEPPE E C. S.A.S."
            },
            "geometry": {
                "type": "Point",
                "coordinates": [
                    16.251538176023583,
                    39.292428253782646
                ]
            }
        },
        {
            "type": "Feature",
            "properties": {
                "name": "COSENZA",
                "id": "26652",
                "brand": "Q8",
                "amenity": "fuel",
                "operator": "ZETA GAS S.P.A."
            },
            "geometry": {
                "type": "Point",
                "coordinates": [
                    16.26313179731369,
                    39.30322404975866
                ]
            }
        },
        {
            "type": "Feature",
            "properties": {
                "name": "ESSO",
                "id": "31322",
                "brand": "Esso",
                "amenity": "fuel",
                "operator": "FUEL S.A.S. DI MAGNELLI FRANCESCO & C."
            },
            "geometry": {
                "type": "Point",
                "coordinates": [
                    16.263724565505978,
                    39.348880233254214
                ]
            }
        },
        {
            "type": "Feature",
            "properties": {
                "name": "Mele Paolo & c. s.a.s.",
                "id": "9486",
                "brand": "Q8",
                "amenity": "fuel",
                "operator": "MELE PAOLO E C. SAS"
            },
            "geometry": {
                "type": "Point",
                "coordinates": [
                    16.33756846189499,
                    39.28491818795119
                ]
            }
        },
        {
            "type": "Feature",
            "properties": {
                "name": "COSENZA EST",
                "id": "3760",
                "brand": "Agip Eni",
                "amenity": "fuel",
                "operator": "SICAR S.R.L."
            },
            "geometry": {
                "type": "Point",
                "coordinates": [
                    16.23553454875946,
                    39.34531177254666
                ]
            }
        },
        {
            "type": "Feature",
            "properties": {
                "name": "STAZIONE DI SERVIZIO ENI DI TROTTA LEONARDO",
                "id": "9392",
                "brand": "Agip Eni",
                "amenity": "fuel",
                "operator": "TROTTA LEONARDO"
            },
            "geometry": {
                "type": "Point",
                "coordinates": [
                    16.252882757533257,
                    39.31621499331457
                ]
            }
        },
        {
            "type": "Feature",
            "properties": {
                "name": "COSENZA - VIA PANEBIANCO",
                "id": "30117",
                "brand": "Q8",
                "amenity": "fuel",
                "operator": "SERVIZI & GESTIONI ITALIA S.R.L."
            },
            "geometry": {
                "type": "Point",
                "coordinates": [
                    16.246746316532835,
                    39.31259801099555
                ]
            }
        },
        {
            "type": "Feature",
            "properties": {
                "name": "Stazione di servizio di Livadoti",
                "id": "8001",
                "brand": "Q8",
                "amenity": "fuel",
                "operator": "LIVADOTI DANILO"
            },
            "geometry": {
                "type": "Point",
                "coordinates": [
                    16.244234293699265,
                    39.344934567941756
                ]
            }
        },
        {
            "type": "Feature",
            "properties": {
                "name": "DISTRIBUTORE ERG DI COSENZA GIANNINO",
                "id": "9380",
                "brand": "Total Erg",
                "amenity": "fuel",
                "operator": "COSENZA GIANNINO"
            },
            "geometry": {
                "type": "Point",
                "coordinates": [
                    16.243644207715988,
                    39.356150584250884
                ]
            }
        },
        {
            "type": "Feature",
            "properties": {
                "name": "TAMOIL",
                "id": "16966",
                "brand": "Tamoil",
                "amenity": "fuel",
                "operator": "SISTERS SAS DI CRIVARI ANNA & C."
            },
            "geometry": {
                "type": "Point",
                "coordinates": [
                    16.25578540368872,
                    39.32424272564349
                ]
            }
        },
        {
            "type": "Feature",
            "properties": {
                "name": "TAMOIL 2970 DI ANNA PALERMO",
                "id": "30435",
                "brand": "Tamoil",
                "amenity": "fuel",
                "operator": "PALERMO ANNA"
            },
            "geometry": {
                "type": "Point",
                "coordinates": [
                    16.20699182152748,
                    39.32746715116386
                ]
            }
        },
        {
            "type": "Feature",
            "properties": {
                "name": "RENDE VIA BRAILLE",
                "id": "6785",
                "brand": "Q8",
                "amenity": "fuel",
                "operator": "SERVIZI & GESTIONI ITALIA srl"
            },
            "geometry": {
                "type": "Point",
                "coordinates": [
                    16.23660217605743,
                    39.35229749618907
                ]
            }
        },
        {
            "type": "Feature",
            "properties": {
                "name": "COSENZA OVEST",
                "id": "3793",
                "brand": "Tamoil",
                "amenity": "fuel",
                "operator": "RENDESE PETROLI S.R.L."
            },
            "geometry": {
                "type": "Point",
                "coordinates": [
                    16.234665513038635,
                    39.34516242588222
                ]
            }
        },
        {
            "type": "Feature",
            "properties": {
                "name": "G & G DI GABRIELE ANGELINA",
                "id": "26644",
                "brand": "Esso",
                "amenity": "fuel",
                "operator": "G & G DI GABRIELE ANGELINA"
            },
            "geometry": {
                "type": "Point",
                "coordinates": [
                    16.25117316842079,
                    39.292909272371226
                ]
            }
        },
        {
            "type": "Feature",
            "properties": {
                "name": "CS COSMAI",
                "id": "17663",
                "brand": "Api-Ip",
                "amenity": "fuel",
                "operator": "IP SERVICES S.R.L."
            },
            "geometry": {
                "type": "Point",
                "coordinates": [
                    16.250131130218506,
                    39.314939298061326
                ]
            }
        },
        {
            "type": "Feature",
            "properties": {
                "name": "IP",
                "id": "25092",
                "brand": "Api-Ip",
                "amenity": "fuel",
                "operator": "B & A S.R.L."
            },
            "geometry": {
                "type": "Point",
                "coordinates": [
                    16.204536259174347,
                    39.34749717564078
                ]
            }
        },
        {
            "type": "Feature",
            "properties": {
                "name": "ESSO",
                "id": "27104",
                "brand": "Esso",
                "amenity": "fuel",
                "operator": "METRO OIL S.A.S. DI TURANO ARMANDO & C."
            },
            "geometry": {
                "type": "Point",
                "coordinates": [
                    16.244354993104935,
                    39.32867881603096
                ]
            }
        },
        {
            "type": "Feature",
            "properties": {
                "name": "STAZIONE DI SERVIZIO ENI DI TROTTA SALVATORE",
                "id": "9390",
                "brand": "Agip Eni",
                "amenity": "fuel",
                "operator": "TROTTA SALVATORE"
            },
            "geometry": {
                "type": "Point",
                "coordinates": [
                    16.343279797628156,
                    39.29669029236996
                ]
            }
        },
        {
            "type": "Feature",
            "properties": {
                "name": "TAMOIL Santino Petroli Sas",
                "id": "18670",
                "brand": "Tamoil",
                "amenity": "fuel",
                "operator": "SANTINO PETROLI S.A.S. DI FRANCESCO SERRA E C."
            },
            "geometry": {
                "type": "Point",
                "coordinates": [
                    16.23129665851593,
                    39.308576158899434
                ]
            }
        },
        {
            "type": "Feature",
            "properties": {
                "name": "Esso Essegi di Loris Riccio",
                "id": "31592",
                "brand": "Esso",
                "amenity": "fuel",
                "operator": "ESSEGI DI LORIS RICCIO"
            },
            "geometry": {
                "type": "Point",
                "coordinates": [
                    16.24742903433696,
                    39.29847763897178
                ]
            }
        },
        {
            "type": "Feature",
            "properties": {
                "name": "ESSO IANNUZZI PETROLI DI IANNUZZI ANDREA",
                "id": "10991",
                "brand": "Esso",
                "amenity": "fuel",
                "operator": "IANNUZZI PETROLI DI IANNUZZI ANDREA"
            },
            "geometry": {
                "type": "Point",
                "coordinates": [
                    16.215986609458923,
                    39.28641126593634
                ]
            }
        },
        {
            "type": "Feature",
            "properties": {
                "name": "PIANETTE DI ROVITO VIALE DELLA RESISTENZA",
                "id": "6732",
                "brand": "Q8",
                "amenity": "fuel",
                "operator": "SERVIZI & GESTIONI ITALIA srl"
            },
            "geometry": {
                "type": "Point",
                "coordinates": [
                    16.30816308836063,
                    39.299500317272184
                ]
            }
        },
        {
            "type": "Feature",
            "properties": {
                "name": "Area di servizio ENI",
                "id": "17401",
                "brand": "Agip Eni",
                "amenity": "fuel",
                "operator": "TALARICO AMEDEO  & C. S.A.S."
            },
            "geometry": {
                "type": "Point",
                "coordinates": [
                    16.262028068304065,
                    39.36143767477788
                ]
            }
        },
        {
            "type": "Feature",
            "properties": {
                "name": "ESSO",
                "id": "30537",
                "brand": "Esso",
                "amenity": "fuel",
                "operator": "ZECCA GIOVANNI"
            },
            "geometry": {
                "type": "Point",
                "coordinates": [
                    16.23927465158999,
                    39.3414735673712
                ]
            }
        },
        {
            "type": "Feature",
            "properties": {
                "name": "san marco",
                "id": "16469",
                "brand": "Q8",
                "amenity": "fuel",
                "operator": "IXIA PETROLI S.N.C. DI FORLINO ANTONELLA E PULICE DONATELLA"
            },
            "geometry": {
                "type": "Point",
                "coordinates": [
                    16.220436394214627,
                    39.26370440611082
                ]
            }
        },
        {
            "type": "Feature",
            "properties": {
                "name": "ENERGAS PIANO MONELLO",
                "id": "31742",
                "amenity": "fuel",
                "operator": "ENERGAS S.P.A"
            },
            "geometry": {
                "type": "Point",
                "coordinates": [
                    16.23323455452919,
                    39.34469239670901
                ]
            }
        },
        {
            "type": "Feature",
            "properties": {
                "name": "carim carburanti ESSO",
                "id": "6120",
                "brand": "Esso",
                "amenity": "fuel",
                "operator": "CARIM CARBURANTI DI CARELLI FRANCO CARMELO & C. S.A.S."
            },
            "geometry": {
                "type": "Point",
                "coordinates": [
                    16.26268118619919,
                    39.31327458648611
                ]
            }
        },
        {
            "type": "Feature",
            "properties": {
                "name": "Stazione di Rifornimento Ip di Luigi Camillo Lupo",
                "id": "23256",
                "brand": "Api-Ip",
                "amenity": "fuel",
                "operator": "LUPO LUIGI CAMILLO"
            },
            "geometry": {
                "type": "Point",
                "coordinates": [
                    16.23778223991394,
                    39.313580056361396
                ]
            }
        },
        {
            "type": "Feature",
            "properties": {
                "name": "Impinato ENI 18649",
                "id": "23661",
                "brand": "Agip Eni",
                "amenity": "fuel",
                "operator": "STAZIONE DI SERVIZIO DE SANTO DI GIANLUCA MAZZUCA"
            },
            "geometry": {
                "type": "Point",
                "coordinates": [
                    16.256507520832088,
                    39.30673883873097
                ]
            }
        },
        {
            "type": "Feature",
            "properties": {
                "name": "7156",
                "id": "29270",
                "brand": "Tamoil",
                "amenity": "fuel",
                "operator": "T.D.M. S.R.L."
            },
            "geometry": {
                "type": "Point",
                "coordinates": [
                    16.248612999916077,
                    39.32281781499985
                ]
            }
        },
        {
            "type": "Feature",
            "properties": {
                "name": "Q8",
                "id": "9691",
                "brand": "Q8",
                "amenity": "fuel",
                "operator": "RUSSO FRATELLI SNC"
            },
            "geometry": {
                "type": "Point",
                "coordinates": [
                    16.220127944774617,
                    39.32937635226254
                ]
            }
        },
        {
            "type": "Feature",
            "properties": {
                "name": "Stazione Di Servizio Tamoil Mancuso Carmine",
                "id": "7595",
                "brand": "Tamoil",
                "amenity": "fuel",
                "operator": "MANCUSO CARMINE"
            },
            "geometry": {
                "type": "Point",
                "coordinates": [
                    16.31895661354065,
                    39.23750472386629
                ]
            }
        }
    ]
}