{
    "type": "FeatureCollection",
    "features": [
        {
            "type": "Feature",
            "properties": {
                "name": "CANNE BATTAGLIA EST",
                "id": "3514",
                "brand": "Total Erg",
                "amenity": "fuel",
                "operator": "SARNI S.R.L."
            },
            "geometry": {
                "type": "Point",
                "coordinates": [
                    16.219245948410048,
                    41.25159110680133
                ]
            }
        },
        {
            "type": "Feature",
            "properties": {
                "name": "Esso",
                "id": "27546",
                "brand": "Esso",
                "amenity": "fuel",
                "operator": "PARADISO GIUSEPPE"
            },
            "geometry": {
                "type": "Point",
                "coordinates": [
                    16.264511374205085,
                    41.320076286563214
                ]
            }
        },
        {
            "type": "Feature",
            "properties": {
                "name": "TAMOIL FALCETTA LEONARDO",
                "id": "19830",
                "brand": "Tamoil",
                "amenity": "fuel",
                "operator": "FALCETTA LEONARDO"
            },
            "geometry": {
                "type": "Point",
                "coordinates": [
                    16.274917423725128,
                    41.323050027281596
                ]
            }
        },
        {
            "type": "Feature",
            "properties": {
                "name": "IP LUNGOMARE PIETRO PAOLO MENNEA, 30  BARLETTA",
                "id": "18205",
                "brand": "Api-Ip",
                "amenity": "fuel",
                "operator": "MAIORANO ANNA DI VITO E PAOLO PATRUNO S.N.C."
            },
            "geometry": {
                "type": "Point",
                "coordinates": [
                    16.263397336006168,
                    41.32469773255672
                ]
            }
        },
        {
            "type": "Feature",
            "properties": {
                "name": "area di servizio q8 giorgino giuseppe",
                "id": "9256",
                "brand": "Q8",
                "amenity": "fuel",
                "operator": "GIORGINO GIUSEPPE"
            },
            "geometry": {
                "type": "Point",
                "coordinates": [
                    16.310659199953083,
                    41.24588235443074
                ]
            }
        },
        {
            "type": "Feature",
            "properties": {
                "name": "ESSO",
                "id": "19598",
                "brand": "Esso",
                "amenity": "fuel",
                "operator": "D'ORIA NICOLA"
            },
            "geometry": {
                "type": "Point",
                "coordinates": [
                    16.29029452800751,
                    41.29279534908757
                ]
            }
        },
        {
            "type": "Feature",
            "properties": {
                "name": "esso(itasoil srl)",
                "id": "28532",
                "brand": "Esso",
                "amenity": "fuel",
                "operator": "ITASOIL-INDUSTRIA TURISTICO-ALBERGHIERA SPORTIVA OLII ITALIANI LUBRIFICANTI S.R.L."
            },
            "geometry": {
                "type": "Point",
                "coordinates": [
                    16.305457055568695,
                    41.31217251588051
                ]
            }
        },
        {
            "type": "Feature",
            "properties": {
                "name": "MARGHERITA DI SAVOIA - S.P.159",
                "id": "29834",
                "brand": "Api-Ip",
                "amenity": "fuel",
                "operator": "IP SERVICES S.R.L."
            },
            "geometry": {
                "type": "Point",
                "coordinates": [
                    16.19367049570087,
                    41.341642288979656
                ]
            }
        },
        {
            "type": "Feature",
            "properties": {
                "name": "totalerg",
                "id": "25833",
                "brand": "Total Erg",
                "amenity": "fuel",
                "operator": "DI.ERRE DI DI LERNIA RUGGIERO & C. SOCIETA' IN ACCOMANDITA SEMPLICE"
            },
            "geometry": {
                "type": "Point",
                "coordinates": [
                    16.268297731876373,
                    41.31335672885506
                ]
            }
        },
        {
            "type": "Feature",
            "properties": {
                "name": "paradisogiuseppe",
                "id": "18071",
                "brand": "Total Erg",
                "amenity": "fuel",
                "operator": "PARADISO GIUSEPPE"
            },
            "geometry": {
                "type": "Point",
                "coordinates": [
                    16.324064880609512,
                    41.300535944879776
                ]
            }
        },
        {
            "type": "Feature",
            "properties": {
                "name": "CANNE BATTAGLIA OVEST",
                "id": "3810",
                "brand": "Agip Eni",
                "amenity": "fuel",
                "operator": "PAGLIARINO PASQUALE"
            },
            "geometry": {
                "type": "Point",
                "coordinates": [
                    16.21993411045071,
                    41.25085646384645
                ]
            }
        },
        {
            "type": "Feature",
            "properties": {
                "name": "Self Area ENI di Di Luzio Mauro",
                "id": "23926",
                "brand": "Agip Eni",
                "amenity": "fuel",
                "operator": "DI LUZIO S.A.S. DI DI LUZIO MAURO & C."
            },
            "geometry": {
                "type": "Point",
                "coordinates": [
                    16.292241569359252,
                    41.31781570653355
                ]
            }
        },
        {
            "type": "Feature",
            "properties": {
                "name": "LEVANTE PETROLI SRL",
                "id": "24221",
                "amenity": "fuel",
                "operator": "LEVANTE PETROLI SOCIETA' A RESPONSABILITA' LIMITATA UNIPERSONALE"
            },
            "geometry": {
                "type": "Point",
                "coordinates": [
                    16.291823387145996,
                    41.27066151228907
                ]
            }
        },
        {
            "type": "Feature",
            "properties": {
                "name": "UNIONE GAS AUTO",
                "id": "18880",
                "amenity": "fuel",
                "operator": "CARBURECO CALIA  SOCIETA' A RESPONSABILITA' LIMITATA IN SIGLA CARBURECO CALIA S.R.L."
            },
            "geometry": {
                "type": "Point",
                "coordinates": [
                    16.292778275146475,
                    41.24668242404573
                ]
            }
        },
        {
            "type": "Feature",
            "properties": {
                "name": "Q8 KARMA'",
                "id": "8256",
                "brand": "Q8",
                "amenity": "fuel",
                "operator": "KARMA' S.R.L."
            },
            "geometry": {
                "type": "Point",
                "coordinates": [
                    16.243940591812134,
                    41.32272974721461
                ]
            }
        },
        {
            "type": "Feature",
            "properties": {
                "name": "Eni 09059",
                "id": "15605",
                "brand": "Agip Eni",
                "amenity": "fuel",
                "operator": "FALCONE ENRICO EMANUELE"
            },
            "geometry": {
                "type": "Point",
                "coordinates": [
                    16.259795129299164,
                    41.31985601933502
                ]
            }
        },
        {
            "type": "Feature",
            "properties": {
                "name": "BARLETTA - S.S. 16 KM. 748+593",
                "id": "31877",
                "brand": "Q8",
                "amenity": "fuel",
                "operator": "SERVIZI & GESTIONI ITALIA S.R.L."
            },
            "geometry": {
                "type": "Point",
                "coordinates": [
                    16.303431752149553,
                    41.31342205608139
                ]
            }
        },
        {
            "type": "Feature",
            "properties": {
                "name": "STAZIONE DI SERVIZIO ESSO DILEO GIUSEPPE DI DILEO ANTONIO",
                "id": "15007",
                "brand": "Esso",
                "amenity": "fuel",
                "operator": "STAZIONE DI SERVIZIO ESSO DILEO GIUSEPPE DI DILEO ANTONIO"
            },
            "geometry": {
                "type": "Point",
                "coordinates": [
                    16.2885645031929,
                    41.31858006441364
                ]
            }
        },
        {
            "type": "Feature",
            "properties": {
                "name": "Andria SS 170 C.COMM.LA MONGOLFIERA",
                "id": "25665",
                "brand": "Total Erg",
                "amenity": "fuel",
                "operator": "TOTALERG S.P.A."
            },
            "geometry": {
                "type": "Point",
                "coordinates": [
                    16.29666601049223,
                    41.24886822533392
                ]
            }
        },
        {
            "type": "Feature",
            "properties": {
                "name": "BARLETTA - SS 16",
                "id": "25191",
                "brand": "Api-Ip",
                "amenity": "fuel",
                "operator": "IP SERVICES S.R.L."
            },
            "geometry": {
                "type": "Point",
                "coordinates": [
                    16.294693294477497,
                    41.317122159705285
                ]
            }
        },
        {
            "type": "Feature",
            "properties": {
                "name": "TOTALERG",
                "id": "17239",
                "brand": "Total Erg",
                "amenity": "fuel",
                "operator": "D.M.D. OIL S.N.C. DI DI COSOLA PASQUALE"
            },
            "geometry": {
                "type": "Point",
                "coordinates": [
                    16.269673705101013,
                    41.303038565203885
                ]
            }
        },
        {
            "type": "Feature",
            "properties": {
                "name": "BARLETTA - ANDRIA",
                "id": "24594",
                "brand": "Api-Ip",
                "amenity": "fuel",
                "operator": "IP SERVICES S.R.L."
            },
            "geometry": {
                "type": "Point",
                "coordinates": [
                    16.289387941360474,
                    41.30592875056999
                ]
            }
        },
        {
            "type": "Feature",
            "properties": {
                "name": "STAZ.TOTALERG",
                "id": "17667",
                "brand": "Total Erg",
                "amenity": "fuel",
                "operator": "NAPOLITANO VITTORIO DEI FRATELLI VINCENZO E GIOVANNI NAPOLITANO S.A.S."
            },
            "geometry": {
                "type": "Point",
                "coordinates": [
                    16.28914050757885,
                    41.311254020718486
                ]
            }
        }
    ]
}