{
    "type": "FeatureCollection",
    "features": [
        {
            "type": "Feature",
            "properties": {
                "name": "LAMEZIA TERME - MICELI",
                "id": "24229",
                "brand": "Api-Ip",
                "amenity": "fuel",
                "operator": "IP SERVICES S.R.L."
            },
            "geometry": {
                "type": "Point",
                "coordinates": [
                    16.311363790178348,
                    38.96886559115862
                ]
            }
        },
        {
            "type": "Feature",
            "properties": {
                "name": "3754",
                "id": "27577",
                "brand": "Tamoil",
                "amenity": "fuel",
                "operator": "T.D.M. S.R.L."
            },
            "geometry": {
                "type": "Point",
                "coordinates": [
                    16.309268474578854,
                    38.95995940540557
                ]
            }
        },
        {
            "type": "Feature",
            "properties": {
                "name": "tamoil di sesto salvatore",
                "id": "15989",
                "brand": "Tamoil",
                "amenity": "fuel",
                "operator": "SESTO SALVATORE"
            },
            "geometry": {
                "type": "Point",
                "coordinates": [
                    16.280664056539536,
                    38.96553213935286
                ]
            }
        },
        {
            "type": "Feature",
            "properties": {
                "name": "TAMOIL",
                "id": "16659",
                "brand": "Tamoil",
                "amenity": "fuel",
                "operator": "GALLO GIOVANNI"
            },
            "geometry": {
                "type": "Point",
                "coordinates": [
                    16.28066472709179,
                    38.96552869828678
                ]
            }
        },
        {
            "type": "Feature",
            "properties": {
                "name": "IMPIANTO CARBURANTI IP DI STRANGIS COSTANTINO",
                "id": "21389",
                "brand": "Api-Ip",
                "amenity": "fuel",
                "operator": "STRANGES COSTANTINO"
            },
            "geometry": {
                "type": "Point",
                "coordinates": [
                    16.232590153813362,
                    39.07399907010143
                ]
            }
        },
        {
            "type": "Feature",
            "properties": {
                "name": "TAMOIL 3040",
                "id": "30650",
                "brand": "Tamoil",
                "amenity": "fuel",
                "operator": "MAZZA PIETRO"
            },
            "geometry": {
                "type": "Point",
                "coordinates": [
                    16.30741150444851,
                    38.96911669229068
                ]
            }
        },
        {
            "type": "Feature",
            "properties": {
                "name": "EnerGO",
                "id": "22675",
                "amenity": "fuel",
                "operator": "A. & G.  DI GRUTTERIA ALDO S,N.C."
            },
            "geometry": {
                "type": "Point",
                "coordinates": [
                    16.297591196059102,
                    38.959788083742566
                ]
            }
        },
        {
            "type": "Feature",
            "properties": {
                "name": "LAMEZIA TERME VIA SCARPINO C.DA DONNA MAZZA",
                "id": "6727",
                "brand": "Q8",
                "amenity": "fuel",
                "operator": "SERVIZI & GESTIONI ITALIA srl"
            },
            "geometry": {
                "type": "Point",
                "coordinates": [
                    16.31370259510652,
                    38.96182300518135
                ]
            }
        },
        {
            "type": "Feature",
            "properties": {
                "name": "totalerg",
                "id": "19074",
                "brand": "Total Erg",
                "amenity": "fuel",
                "operator": "PALERMO PASQUALE"
            },
            "geometry": {
                "type": "Point",
                "coordinates": [
                    16.27808923044131,
                    38.96473270493585
                ]
            }
        },
        {
            "type": "Feature",
            "properties": {
                "name": "Esse Oil",
                "id": "30315",
                "amenity": "fuel",
                "operator": "ANDREA SCOPPETTA CARBURANTI E SERVIZI S.A.S.DI A. SCOPPETTA"
            },
            "geometry": {
                "type": "Point",
                "coordinates": [
                    16.317430585747047,
                    38.97300514907429
                ]
            }
        },
        {
            "type": "Feature",
            "properties": {
                "name": "Morelli Paolo",
                "id": "10749",
                "brand": "Q8",
                "amenity": "fuel",
                "operator": "MORELLI PAOLO"
            },
            "geometry": {
                "type": "Point",
                "coordinates": [
                    16.304506768539454,
                    38.968928254286475
                ]
            }
        },
        {
            "type": "Feature",
            "properties": {
                "name": "a&m snc",
                "id": "26379",
                "brand": "Q8",
                "amenity": "fuel",
                "operator": "A & M  S.N.C. DI CARPENTIERI MICHELA & C."
            },
            "geometry": {
                "type": "Point",
                "coordinates": [
                    16.346109613067714,
                    39.053192064196004
                ]
            }
        },
        {
            "type": "Feature",
            "properties": {
                "name": "TOTALERG",
                "id": "26484",
                "brand": "Total Erg",
                "amenity": "fuel",
                "operator": "MERCURI S.A.S. DI MERCURI VIVIANA PASQUALINA & C."
            },
            "geometry": {
                "type": "Point",
                "coordinates": [
                    16.313810795545574,
                    38.9710349937642
                ]
            }
        },
        {
            "type": "Feature",
            "properties": {
                "name": "TAMOIL3035",
                "id": "24255",
                "brand": "Tamoil",
                "amenity": "fuel",
                "operator": "CHI.CA S.A.S. DI CARIO VITTORIO & C."
            },
            "geometry": {
                "type": "Point",
                "coordinates": [
                    16.209278033162946,
                    38.980905325347344
                ]
            }
        },
        {
            "type": "Feature",
            "properties": {
                "name": "impianto eni 08554 lamezia terme",
                "id": "13006",
                "brand": "Agip Eni",
                "amenity": "fuel",
                "operator": "GIUDICE PASQUALINO"
            },
            "geometry": {
                "type": "Point",
                "coordinates": [
                    16.28996729850769,
                    38.96589490818041
                ]
            }
        },
        {
            "type": "Feature",
            "properties": {
                "name": "PV 8586",
                "id": "29327",
                "brand": "Agip Eni",
                "amenity": "fuel",
                "operator": "GESTIONI INNOVATIVE ITALIA S.R.L."
            },
            "geometry": {
                "type": "Point",
                "coordinates": [
                    16.30901568584443,
                    38.96218101789926
                ]
            }
        },
        {
            "type": "Feature",
            "properties": {
                "name": "a&m snc",
                "id": "26378",
                "brand": "Q8",
                "amenity": "fuel",
                "operator": "A & M  S.N.C. DI CARPENTIERI MICHELA & C."
            },
            "geometry": {
                "type": "Point",
                "coordinates": [
                    16.321968734264374,
                    38.9676458490896
                ]
            }
        },
        {
            "type": "Feature",
            "properties": {
                "name": "FLLI DERNA",
                "id": "26692",
                "brand": "Esso",
                "amenity": "fuel",
                "operator": "F.LLI DERNA S.N.C."
            },
            "geometry": {
                "type": "Point",
                "coordinates": [
                    16.319690190143547,
                    39.00452067467968
                ]
            }
        },
        {
            "type": "Feature",
            "properties": {
                "name": "Stazione Di Servizio ESSO",
                "id": "26003",
                "brand": "Esso",
                "amenity": "fuel",
                "operator": "ESSO DI SCARPINO MARIA GINEVRA"
            },
            "geometry": {
                "type": "Point",
                "coordinates": [
                    16.321601271629333,
                    38.967688391647286
                ]
            }
        },
        {
            "type": "Feature",
            "properties": {
                "name": "DP",
                "id": "22952",
                "amenity": "fuel",
                "operator": "CL.AID S.R.L."
            },
            "geometry": {
                "type": "Point",
                "coordinates": [
                    16.310624331235886,
                    38.966163516476826
                ]
            }
        }
    ]
}