{
    "type": "FeatureCollection",
    "features": [
        {
            "type": "Feature",
            "properties": {
                "name": "REGALGAS - MAMMOLA",
                "id": "9237",
                "brand": "Esso",
                "amenity": "fuel",
                "operator": "REGALGAS S.R.L."
            },
            "geometry": {
                "type": "Point",
                "coordinates": [
                    16.229738295078278,
                    38.35791742435676
                ]
            }
        },
        {
            "type": "Feature",
            "properties": {
                "name": "AREA DI SERVIZIO SAN NICODEMO S. N. C.",
                "id": "4703",
                "brand": "Tamoil",
                "amenity": "fuel",
                "operator": "AREA DI SERVIZIO SAN NICODEMO S.N.C. DI SALVATORE SEMINARA E VINCENZO PICCOLO"
            },
            "geometry": {
                "type": "Point",
                "coordinates": [
                    16.228335325873218,
                    38.3586456923641
                ]
            }
        },
        {
            "type": "Feature",
            "properties": {
                "name": "Stazione di rifornimento IP gestore Ritorto",
                "id": "7684",
                "brand": "Api-Ip",
                "amenity": "fuel",
                "operator": "RITORTO ROBERTA"
            },
            "geometry": {
                "type": "Point",
                "coordinates": [
                    16.303021609783173,
                    38.32693030377173
                ]
            }
        },
        {
            "type": "Feature",
            "properties": {
                "name": "STAZIONE DI SERVIZIO TOTALERG GESTORE MARTINETTI TERESA",
                "id": "25258",
                "brand": "Total Erg",
                "amenity": "fuel",
                "operator": "MARTINETTI TERESA"
            },
            "geometry": {
                "type": "Point",
                "coordinates": [
                    16.314756274223328,
                    38.31152121874134
                ]
            }
        },
        {
            "type": "Feature",
            "properties": {
                "name": "Petrol Sud",
                "id": "29507",
                "amenity": "fuel",
                "operator": "PETROL SUD - S.A.S. DI FERRARO CARLO E C."
            },
            "geometry": {
                "type": "Point",
                "coordinates": [
                    16.293424822851534,
                    38.28990824531557
                ]
            }
        },
        {
            "type": "Feature",
            "properties": {
                "name": "chiosco esso",
                "id": "25704",
                "brand": "Esso",
                "amenity": "fuel",
                "operator": "AGOSTINO FRANCESCO"
            },
            "geometry": {
                "type": "Point",
                "coordinates": [
                    16.30272832420269,
                    38.33526860346298
                ]
            }
        },
        {
            "type": "Feature",
            "properties": {
                "name": "SIDERNO MARINA S.S.106 KM.110+537",
                "id": "8615",
                "brand": "Q8",
                "amenity": "fuel",
                "operator": "SERVIZI & GESTIONI ITALIA S.R.L."
            },
            "geometry": {
                "type": "Point",
                "coordinates": [
                    16.311240146032787,
                    38.28140344379158
                ]
            }
        },
        {
            "type": "Feature",
            "properties": {
                "name": "TREEFFECENTER ENI",
                "id": "6109",
                "brand": "Agip Eni",
                "amenity": "fuel",
                "operator": "TRE EFFE CENTER S.A.S. DI FRANCESCO FAZZOLARI & FIGLI"
            },
            "geometry": {
                "type": "Point",
                "coordinates": [
                    16.335707008838654,
                    38.30330397415033
                ]
            }
        },
        {
            "type": "Feature",
            "properties": {
                "name": "stazione di servizio lopresti stefano",
                "id": "25956",
                "amenity": "fuel",
                "operator": "LOPRESTI STEFANO"
            },
            "geometry": {
                "type": "Point",
                "coordinates": [
                    16.328317584398974,
                    38.30006284749157
                ]
            }
        },
        {
            "type": "Feature",
            "properties": {
                "name": "LOC.MISS.SIDERNO",
                "id": "12180",
                "brand": "Giap",
                "amenity": "fuel",
                "operator": "SERVIZI E GESTIONI ZENIT S.R.L. IN SIGLA - ZENIT S.R.L."
            },
            "geometry": {
                "type": "Point",
                "coordinates": [
                    16.314064720237752,
                    38.290112264271855
                ]
            }
        }
    ]
}