{
    "type": "FeatureCollection",
    "features": [
        {
            "type": "Feature",
            "properties": {
                "name": "DILL'S RUVO DI PUGLIA",
                "id": "17120",
                "brand": "Dill s",
                "amenity": "fuel",
                "operator": "MODUGNO RICCARDO"
            },
            "geometry": {
                "type": "Point",
                "coordinates": [
                    16.48596167564392,
                    41.12444314002547
                ]
            }
        },
        {
            "type": "Feature",
            "properties": {
                "name": "Papagni Carburanti srl Via G. Bovio 272",
                "id": "31595",
                "brand": "Total Erg",
                "amenity": "fuel",
                "operator": "PAPAGNI CARBURANTI S.R.L."
            },
            "geometry": {
                "type": "Point",
                "coordinates": [
                    16.49151921272278,
                    41.24387689867757
                ]
            }
        },
        {
            "type": "Feature",
            "properties": {
                "name": "Stazione Rifornimento 2272 ESSO",
                "id": "20006",
                "brand": "Esso",
                "amenity": "fuel",
                "operator": "MONTERISI FRANCESCA"
            },
            "geometry": {
                "type": "Point",
                "coordinates": [
                    16.40531837940216,
                    41.14481633698312
                ]
            }
        },
        {
            "type": "Feature",
            "properties": {
                "name": "RUVO DI PUGLIA - TERLIZZI SP2",
                "id": "24593",
                "brand": "Api-Ip",
                "amenity": "fuel",
                "operator": "IP SERVICES S.R.L."
            },
            "geometry": {
                "type": "Point",
                "coordinates": [
                    16.50492213491816,
                    41.1198167510475
                ]
            }
        },
        {
            "type": "Feature",
            "properties": {
                "name": "DEL.CA",
                "id": "27650",
                "amenity": "fuel",
                "operator": "DEL.CA. S.A.S. DI  DELL'OLIO PIETRO E  CANDREVA VALERIO"
            },
            "geometry": {
                "type": "Point",
                "coordinates": [
                    16.514250188360617,
                    41.23547377713916
                ]
            }
        },
        {
            "type": "Feature",
            "properties": {
                "name": "TotalErg",
                "id": "11317",
                "brand": "Total Erg",
                "amenity": "fuel",
                "operator": "ZITOLI LUIGI"
            },
            "geometry": {
                "type": "Point",
                "coordinates": [
                    16.412300169467926,
                    41.14515667825191
                ]
            }
        },
        {
            "type": "Feature",
            "properties": {
                "name": "BISCEGLIE VIA G. BOVIO  214",
                "id": "6751",
                "brand": "Q8",
                "amenity": "fuel",
                "operator": "SERVIZI & GESTIONI ITALIA srl"
            },
            "geometry": {
                "type": "Point",
                "coordinates": [
                    16.49210202090148,
                    41.24377560000001
                ]
            }
        },
        {
            "type": "Feature",
            "properties": {
                "name": "STAZIONE DI SERVIZIO IP",
                "id": "26769",
                "brand": "Api-Ip",
                "amenity": "fuel",
                "operator": "DI LIDDO GIOVANNI"
            },
            "geometry": {
                "type": "Point",
                "coordinates": [
                    16.516795691909806,
                    41.23234260640193
                ]
            }
        },
        {
            "type": "Feature",
            "properties": {
                "name": "STAZIONE DI SERVIZIO AGIP DI MICHELE GAMMARIELLO",
                "id": "11340",
                "brand": "Agip Eni",
                "amenity": "fuel",
                "operator": "GAMMARIELLO MICHELE"
            },
            "geometry": {
                "type": "Point",
                "coordinates": [
                    16.400474309921265,
                    41.160101876103276
                ]
            }
        },
        {
            "type": "Feature",
            "properties": {
                "name": "Totalerg",
                "id": "22042",
                "brand": "Total Erg",
                "amenity": "fuel",
                "operator": "F.D. CARBURANTI DI IANNELLI MARIA & FIGLI S.A.S."
            },
            "geometry": {
                "type": "Point",
                "coordinates": [
                    16.515387743511155,
                    41.123423242031144
                ]
            }
        },
        {
            "type": "Feature",
            "properties": {
                "name": "DEL.CA",
                "id": "27649",
                "amenity": "fuel",
                "operator": "DEL.CA. S.A.S. DI  DELL'OLIO PIETRO E  CANDREVA VALERIO"
            },
            "geometry": {
                "type": "Point",
                "coordinates": [
                    16.514250188360617,
                    41.23547377713916
                ]
            }
        },
        {
            "type": "Feature",
            "properties": {
                "name": "Stazioni di servizio totalErg di Monopoli Livia",
                "id": "17311",
                "brand": "Total Erg",
                "amenity": "fuel",
                "operator": "MONOPOLI  LIVIA"
            },
            "geometry": {
                "type": "Point",
                "coordinates": [
                    16.49298369884491,
                    41.236569291020444
                ]
            }
        },
        {
            "type": "Feature",
            "properties": {
                "name": "TOTALERG",
                "id": "11007",
                "brand": "Total Erg",
                "amenity": "fuel",
                "operator": "GALLO FRANCESCO S.R.L."
            },
            "geometry": {
                "type": "Point",
                "coordinates": [
                    16.397995948791504,
                    41.15628193620004
                ]
            }
        },
        {
            "type": "Feature",
            "properties": {
                "name": "Stazione di Servizio Esso di Nicola Gisondi",
                "id": "22627",
                "brand": "Esso",
                "amenity": "fuel",
                "operator": "GISONDI NICOLA"
            },
            "geometry": {
                "type": "Point",
                "coordinates": [
                    16.50844596326351,
                    41.23559930564602
                ]
            }
        },
        {
            "type": "Feature",
            "properties": {
                "name": "CORATO - VIA RUVO",
                "id": "24098",
                "brand": "Api-Ip",
                "amenity": "fuel",
                "operator": "IP SERVICES S.R.L."
            },
            "geometry": {
                "type": "Point",
                "coordinates": [
                    16.41693755092615,
                    41.15175960759542
                ]
            }
        },
        {
            "type": "Feature",
            "properties": {
                "name": "APPIA ANTICA PETRHOTEL S.R.L.",
                "id": "11038",
                "brand": "Agip Eni",
                "amenity": "fuel",
                "operator": "APPIA ANTICA PETRHOTEL S.R.L."
            },
            "geometry": {
                "type": "Point",
                "coordinates": [
                    16.417343263857674,
                    41.13542030854314
                ]
            }
        },
        {
            "type": "Feature",
            "properties": {
                "name": "Stazione di servizio IP",
                "id": "27401",
                "brand": "Api-Ip",
                "amenity": "fuel",
                "operator": "STASI FRANCESCO"
            },
            "geometry": {
                "type": "Point",
                "coordinates": [
                    16.480678210559063,
                    41.114606979006695
                ]
            }
        },
        {
            "type": "Feature",
            "properties": {
                "name": "DOLMEN DI BISCEGLIE OVEST",
                "id": "3520",
                "brand": "Tamoil",
                "amenity": "fuel",
                "operator": "DOLMEN SUD DI PERERA ROMEO & C. S.N.C."
            },
            "geometry": {
                "type": "Point",
                "coordinates": [
                    16.481875916671697,
                    41.19273321177082
                ]
            }
        },
        {
            "type": "Feature",
            "properties": {
                "name": "STAZIONE DI SERVIZIO TOTALERG DI PA.NI.GI.",
                "id": "20416",
                "brand": "Total Erg",
                "amenity": "fuel",
                "operator": "PA.NI.GI. COSTRUZIONI DI IEVA F.SCO & FIGLI S.R.L."
            },
            "geometry": {
                "type": "Point",
                "coordinates": [
                    16.49825376190188,
                    41.232029944584795
                ]
            }
        },
        {
            "type": "Feature",
            "properties": {
                "name": "Impianto Esso di Pasquale D'Azzeo",
                "id": "21756",
                "brand": "Esso",
                "amenity": "fuel",
                "operator": "D'AZZEO PASQUALE"
            },
            "geometry": {
                "type": "Point",
                "coordinates": [
                    16.503362506628036,
                    41.23338637804639
                ]
            }
        },
        {
            "type": "Feature",
            "properties": {
                "name": "CIMEGAS ADRIATICA S.R.L.",
                "id": "4385",
                "brand": "Agip Eni",
                "amenity": "fuel",
                "operator": "CIMEGAS ADRIATICA S.R.L."
            },
            "geometry": {
                "type": "Point",
                "coordinates": [
                    16.4016330242157,
                    41.15891124841811
                ]
            }
        },
        {
            "type": "Feature",
            "properties": {
                "name": "DOLMEN DI BISCEGLIE EST",
                "id": "3608",
                "brand": "Esso",
                "amenity": "fuel",
                "operator": "VALENTE ANNAROSARIA"
            },
            "geometry": {
                "type": "Point",
                "coordinates": [
                    16.48059766864776,
                    41.19386367019148
                ]
            }
        },
        {
            "type": "Feature",
            "properties": {
                "name": "TOTALERG di De Palma Marcello",
                "id": "15946",
                "brand": "Total Erg",
                "amenity": "fuel",
                "operator": "DE PALMA MARCELLO"
            },
            "geometry": {
                "type": "Point",
                "coordinates": [
                    16.40707282664073,
                    41.155445531782945
                ]
            }
        },
        {
            "type": "Feature",
            "properties": {
                "name": "esso",
                "id": "27428",
                "brand": "Esso",
                "amenity": "fuel",
                "operator": "DI LEO MAURO"
            },
            "geometry": {
                "type": "Point",
                "coordinates": [
                    16.498960737930133,
                    41.24199740977033
                ]
            }
        },
        {
            "type": "Feature",
            "properties": {
                "name": "SCARPA SNC",
                "id": "12190",
                "brand": "Q8",
                "amenity": "fuel",
                "operator": "SCARPA FELICE E FRANCESCO S.N.C."
            },
            "geometry": {
                "type": "Point",
                "coordinates": [
                    16.40717312693596,
                    41.1513516915144
                ]
            }
        },
        {
            "type": "Feature",
            "properties": {
                "name": "TAMOIL",
                "id": "19700",
                "brand": "Tamoil",
                "amenity": "fuel",
                "operator": "P. & P. BROTHERS S.A.S. DI RANA ANTONIO E MASTRODONATO GENNARO & C."
            },
            "geometry": {
                "type": "Point",
                "coordinates": [
                    16.505948156118393,
                    41.2346196239545
                ]
            }
        },
        {
            "type": "Feature",
            "properties": {
                "name": "STAZIONE DI SERVIZIO AGIP DI ARBORE SAVINO",
                "id": "11050",
                "brand": "Agip Eni",
                "amenity": "fuel",
                "operator": "ARBORE SAVINO"
            },
            "geometry": {
                "type": "Point",
                "coordinates": [
                    16.4535391330719,
                    41.14621202792847
                ]
            }
        },
        {
            "type": "Feature",
            "properties": {
                "name": "Papagni Carburanti srl Via Di Vittorio",
                "id": "31593",
                "brand": "Total Erg",
                "amenity": "fuel",
                "operator": "PAPAGNI CARBURANTI S.R.L."
            },
            "geometry": {
                "type": "Point",
                "coordinates": [
                    16.493227779865265,
                    41.239961807114604
                ]
            }
        },
        {
            "type": "Feature",
            "properties": {
                "name": "MNE",
                "id": "29581",
                "amenity": "fuel",
                "operator": "MADOGAS OIL NON OIL S.R.L. UNIPERSONALE"
            },
            "geometry": {
                "type": "Point",
                "coordinates": [
                    16.402101069688797,
                    41.148290764630524
                ]
            }
        },
        {
            "type": "Feature",
            "properties": {
                "name": "STAZIONE DI SERVIZIO ENI ALDO CHIECO",
                "id": "16410",
                "brand": "Agip Eni",
                "amenity": "fuel",
                "operator": "CHIECO ALDO"
            },
            "geometry": {
                "type": "Point",
                "coordinates": [
                    16.509312786655414,
                    41.23476490444824
                ]
            }
        },
        {
            "type": "Feature",
            "properties": {
                "name": "STAZIONE AGIP",
                "id": "17135",
                "brand": "Agip Eni",
                "amenity": "fuel",
                "operator": "COGNETTI MICHELE"
            },
            "geometry": {
                "type": "Point",
                "coordinates": [
                    16.419952511787415,
                    41.132481662430244
                ]
            }
        },
        {
            "type": "Feature",
            "properties": {
                "name": "STAZIONE DI SERVIZIO CHIECO",
                "id": "16399",
                "brand": "Agip Eni",
                "amenity": "fuel",
                "operator": "STAZIONE AGIP DI CHIECO ARCANGELO RAFFAELE"
            },
            "geometry": {
                "type": "Point",
                "coordinates": [
                    16.4786871527092,
                    41.1199700785053
                ]
            }
        }
    ]
}