{
    "type": "FeatureCollection",
    "features": [
        {
            "type": "Feature",
            "properties": {
                "name": "TOTALERG",
                "id": "24748",
                "brand": "Total Erg",
                "amenity": "fuel",
                "operator": "3 COLLI CARBURANTI SOCIETA' A RESPONSABILITA' LIMITATA"
            },
            "geometry": {
                "type": "Point",
                "coordinates": [
                    16.626704563256908,
                    38.88256016047699
                ]
            }
        },
        {
            "type": "Feature",
            "properties": {
                "name": "Esso",
                "id": "20610",
                "brand": "Esso",
                "amenity": "fuel",
                "operator": "DE MARCO SALVATORE"
            },
            "geometry": {
                "type": "Point",
                "coordinates": [
                    16.568230633820463,
                    38.91749180505322
                ]
            }
        },
        {
            "type": "Feature",
            "properties": {
                "name": "Stazione di Servizio Auchan/Tamoil",
                "id": "28685",
                "brand": "Tamoil",
                "amenity": "fuel",
                "operator": "AUCHAN S.P.A."
            },
            "geometry": {
                "type": "Point",
                "coordinates": [
                    16.647533252835274,
                    38.842892291402535
                ]
            }
        },
        {
            "type": "Feature",
            "properties": {
                "name": "ENI",
                "id": "19580",
                "brand": "Agip Eni",
                "amenity": "fuel",
                "operator": "LA PIATTAFORMA S.A.S. DI CONCOLINO DOMENICO & C."
            },
            "geometry": {
                "type": "Point",
                "coordinates": [
                    16.606315076351166,
                    38.85670651043394
                ]
            }
        },
        {
            "type": "Feature",
            "properties": {
                "name": "PV 8530",
                "id": "28955",
                "brand": "Agip Eni",
                "amenity": "fuel",
                "operator": "GESTIONI INNOVATIVE ITALIA S.R.L."
            },
            "geometry": {
                "type": "Point",
                "coordinates": [
                    16.581206917762756,
                    38.90550645054627
                ]
            }
        },
        {
            "type": "Feature",
            "properties": {
                "name": "Esso",
                "id": "20609",
                "brand": "Esso",
                "amenity": "fuel",
                "operator": "DE MARCO SALVATORE"
            },
            "geometry": {
                "type": "Point",
                "coordinates": [
                    16.60204752635616,
                    38.89295465678115
                ]
            }
        },
        {
            "type": "Feature",
            "properties": {
                "name": "STAZIONE DI RIFORNIMENTO F.LLI CRITELLI S.N.C.",
                "id": "19327",
                "brand": "Esso",
                "amenity": "fuel",
                "operator": "STAZIONE DI RIFORNIMENTO F.LLI CRITELLI S.N.C."
            },
            "geometry": {
                "type": "Point",
                "coordinates": [
                    16.606563180685043,
                    38.86995713329988
                ]
            }
        },
        {
            "type": "Feature",
            "properties": {
                "name": "CATANZARO - C.DA BELLINO",
                "id": "31831",
                "brand": "Api-Ip",
                "amenity": "fuel",
                "operator": "IP SERVICES S.R.L."
            },
            "geometry": {
                "type": "Point",
                "coordinates": [
                    16.65505364418027,
                    38.84559268846796
                ]
            }
        },
        {
            "type": "Feature",
            "properties": {
                "name": "Ba.Co. petroli diBarbaro Graziano",
                "id": "24032",
                "brand": "Agip Eni",
                "amenity": "fuel",
                "operator": "BA.CO. PETROLI DI BARBARO GRAZIANO"
            },
            "geometry": {
                "type": "Point",
                "coordinates": [
                    16.586460630832107,
                    38.910080371151984
                ]
            }
        },
        {
            "type": "Feature",
            "properties": {
                "name": "Impianto distributore carburanti Crispi snc di Crispi Salvatore",
                "id": "9754",
                "brand": "Esso",
                "amenity": "fuel",
                "operator": "CRISPI S.N.C. DI CRISPI  SALVATORE & C."
            },
            "geometry": {
                "type": "Point",
                "coordinates": [
                    16.58473938703537,
                    38.84269424547805
                ]
            }
        },
        {
            "type": "Feature",
            "properties": {
                "name": "stazione di servizio esposito raffaele",
                "id": "12742",
                "brand": "Esso",
                "amenity": "fuel",
                "operator": "ESPOSITO RAFFAELE STAZIONE RIFORNIMENTO ESSO"
            },
            "geometry": {
                "type": "Point",
                "coordinates": [
                    16.58865675330162,
                    38.89975083713823
                ]
            }
        },
        {
            "type": "Feature",
            "properties": {
                "name": "Catanzaro",
                "id": "23442",
                "brand": "Total Erg",
                "amenity": "fuel",
                "operator": "GESTIONI EUROPA - SOCIETA' PER AZIONI"
            },
            "geometry": {
                "type": "Point",
                "coordinates": [
                    16.58247647207486,
                    38.90270078814903
                ]
            }
        },
        {
            "type": "Feature",
            "properties": {
                "name": "STAZIONE DI SERVIZIO ESSO  S.G.M. SAS DI SCERBO PIETRUCCIA",
                "id": "30883",
                "brand": "Esso",
                "amenity": "fuel",
                "operator": "S.G.M. S.A.S. DI PIETRUCCIA SCERBO & C."
            },
            "geometry": {
                "type": "Point",
                "coordinates": [
                    16.68474018573761,
                    38.86567119897091
                ]
            }
        },
        {
            "type": "Feature",
            "properties": {
                "name": "KUPIT",
                "id": "26654",
                "brand": "Q8",
                "amenity": "fuel",
                "operator": "ZETA GAS S.P.A."
            },
            "geometry": {
                "type": "Point",
                "coordinates": [
                    16.64362192153931,
                    38.849151760565995
                ]
            }
        },
        {
            "type": "Feature",
            "properties": {
                "name": "PA.LU.PETROLI SRL",
                "id": "24322",
                "brand": "Agip Eni",
                "amenity": "fuel",
                "operator": "PA.LU. PETROLI S.R.L."
            },
            "geometry": {
                "type": "Point",
                "coordinates": [
                    16.66655883193016,
                    38.86775541116051
                ]
            }
        },
        {
            "type": "Feature",
            "properties": {
                "name": "stazione esso tiger bar curcio saverio",
                "id": "11979",
                "brand": "Esso",
                "amenity": "fuel",
                "operator": "CURCIO SAVERIO"
            },
            "geometry": {
                "type": "Point",
                "coordinates": [
                    16.583087146282196,
                    38.902039027966765
                ]
            }
        },
        {
            "type": "Feature",
            "properties": {
                "name": "IIRITANO GIUSEPPE  TAMOIL",
                "id": "13497",
                "brand": "Tamoil",
                "amenity": "fuel",
                "operator": "IIRITANO GIUSEPPE"
            },
            "geometry": {
                "type": "Point",
                "coordinates": [
                    16.561569087244038,
                    38.92130993570783
                ]
            }
        },
        {
            "type": "Feature",
            "properties": {
                "name": "Stazione di servizio Eni",
                "id": "26264",
                "brand": "Agip Eni",
                "amenity": "fuel",
                "operator": "RUSSOMANNO SALVATORE"
            },
            "geometry": {
                "type": "Point",
                "coordinates": [
                    16.623807607583444,
                    38.82859248408386
                ]
            }
        },
        {
            "type": "Feature",
            "properties": {
                "name": "CATANZARO - SANTA MARIA",
                "id": "27032",
                "brand": "Api-Ip",
                "amenity": "fuel",
                "operator": "IP SERVICES S.R.L."
            },
            "geometry": {
                "type": "Point",
                "coordinates": [
                    16.610724139881086,
                    38.85400417752465
                ]
            }
        },
        {
            "type": "Feature",
            "properties": {
                "name": "STATION SERVICE",
                "id": "31003",
                "amenity": "fuel",
                "operator": "STATION SERVICE SOCIETA' A RESPONSABILITA' LIMITATA SEMPLIFICATA"
            },
            "geometry": {
                "type": "Point",
                "coordinates": [
                    16.645353274429908,
                    38.954240507628306
                ]
            }
        },
        {
            "type": "Feature",
            "properties": {
                "name": "IP Germaneto",
                "id": "24803",
                "brand": "Api-Ip",
                "amenity": "fuel",
                "operator": "CAROIL S.R.L."
            },
            "geometry": {
                "type": "Point",
                "coordinates": [
                    16.55577152967453,
                    38.88215631562125
                ]
            }
        },
        {
            "type": "Feature",
            "properties": {
                "name": "IP",
                "id": "11362",
                "brand": "Api-Ip",
                "amenity": "fuel",
                "operator": "CRISTIANO ANTONIO"
            },
            "geometry": {
                "type": "Point",
                "coordinates": [
                    16.55152827501297,
                    38.892731755580236
                ]
            }
        },
        {
            "type": "Feature",
            "properties": {
                "name": "Stazione di Servizio Q8 Strat√≤",
                "id": "24238",
                "brand": "Q8",
                "amenity": "fuel",
                "operator": "F.LLI PROCOPIO S.N.C. DI VINCENZO PROCOPIO & C."
            },
            "geometry": {
                "type": "Point",
                "coordinates": [
                    16.598694920539856,
                    38.90256963059466
                ]
            }
        },
        {
            "type": "Feature",
            "properties": {
                "name": "CATANZARO VIALE DE FILIPPIS  56",
                "id": "6733",
                "brand": "Q8",
                "amenity": "fuel",
                "operator": "SERVIZI & GESTIONI ITALIA srl"
            },
            "geometry": {
                "type": "Point",
                "coordinates": [
                    16.583634298776587,
                    38.89898356605743
                ]
            }
        },
        {
            "type": "Feature",
            "properties": {
                "name": "PV 18551",
                "id": "29328",
                "brand": "Agip Eni",
                "amenity": "fuel",
                "operator": "GESTIONI INNOVATIVE ITALIA S.R.L."
            },
            "geometry": {
                "type": "Point",
                "coordinates": [
                    16.59160852432251,
                    38.897493676036625
                ]
            }
        },
        {
            "type": "Feature",
            "properties": {
                "name": "CATANZARO - DE FILIPPIS",
                "id": "23116",
                "brand": "Api-Ip",
                "amenity": "fuel",
                "operator": "IP SERVICES S.R.L."
            },
            "geometry": {
                "type": "Point",
                "coordinates": [
                    16.583448685844356,
                    38.90162933869928
                ]
            }
        },
        {
            "type": "Feature",
            "properties": {
                "name": "PIAZZA STADIO",
                "id": "31265",
                "brand": "Esso",
                "amenity": "fuel",
                "operator": "CALPETROL S.R.L."
            },
            "geometry": {
                "type": "Point",
                "coordinates": [
                    16.58620419542399,
                    38.919285120645654
                ]
            }
        },
        {
            "type": "Feature",
            "properties": {
                "name": "TOTALERG",
                "id": "9802",
                "brand": "Total Erg",
                "amenity": "fuel",
                "operator": "MANCUSO ANTONIO"
            },
            "geometry": {
                "type": "Point",
                "coordinates": [
                    16.60186535396724,
                    38.89132054275912
                ]
            }
        },
        {
            "type": "Feature",
            "properties": {
                "name": "CATANZARO LIDO SS.106 VIALE CROTONE",
                "id": "23265",
                "brand": "Q8",
                "amenity": "fuel",
                "operator": "SERVIZI & GESTIONI ITALIA S.R.L."
            },
            "geometry": {
                "type": "Point",
                "coordinates": [
                    16.628143171793,
                    38.830354899395374
                ]
            }
        },
        {
            "type": "Feature",
            "properties": {
                "name": "PUGLIESE ALDO",
                "id": "25604",
                "brand": "Esso",
                "amenity": "fuel",
                "operator": "PUGLIESE ALDO"
            },
            "geometry": {
                "type": "Point",
                "coordinates": [
                    16.574812355459017,
                    38.908811307516885
                ]
            }
        },
        {
            "type": "Feature",
            "properties": {
                "name": "PAMIGI SNC DI MINICELLI F. & C",
                "id": "8766",
                "brand": "Agip Eni",
                "amenity": "fuel",
                "operator": "PA.MI.GI. S.N.C. DI  FRANCESCO MINICELLI"
            },
            "geometry": {
                "type": "Point",
                "coordinates": [
                    16.601656079292297,
                    38.877997862167945
                ]
            }
        },
        {
            "type": "Feature",
            "properties": {
                "name": "TAMOIL",
                "id": "18049",
                "brand": "Tamoil",
                "amenity": "fuel",
                "operator": "FISDA S.R.L."
            },
            "geometry": {
                "type": "Point",
                "coordinates": [
                    16.61295603030248,
                    38.905196983394944
                ]
            }
        },
        {
            "type": "Feature",
            "properties": {
                "name": "ENI",
                "id": "24975",
                "brand": "Agip Eni",
                "amenity": "fuel",
                "operator": "C.A.R. DI CAPOLUPO ROSANNA & CAPOLUPO ANGELO S.N.C."
            },
            "geometry": {
                "type": "Point",
                "coordinates": [
                    16.60276056508178,
                    38.889174333568704
                ]
            }
        },
        {
            "type": "Feature",
            "properties": {
                "name": "rinaldo magro tamoil",
                "id": "18756",
                "brand": "Tamoil",
                "amenity": "fuel",
                "operator": "MAGRO RINALDO"
            },
            "geometry": {
                "type": "Point",
                "coordinates": [
                    16.58579029371117,
                    38.913306781886355
                ]
            }
        }
    ]
}