{
    "type": "FeatureCollection",
    "features": [
        {
            "type": "Feature",
            "properties": {
                "name": "Papagni Carburanti srl Contrada Pantano",
                "id": "31594",
                "brand": "Total Erg",
                "amenity": "fuel",
                "operator": "PAPAGNI CARBURANTI S.R.L."
            },
            "geometry": {
                "type": "Point",
                "coordinates": [
                    16.533207446336746,
                    41.230420562456274
                ]
            }
        },
        {
            "type": "Feature",
            "properties": {
                "name": "ROXIENNE SRL",
                "id": "30746",
                "brand": "Q8",
                "amenity": "fuel",
                "operator": "ROXIENNE S.R.L."
            },
            "geometry": {
                "type": "Point",
                "coordinates": [
                    16.684502810239792,
                    41.17334938123169
                ]
            }
        },
        {
            "type": "Feature",
            "properties": {
                "name": "MOLFETTA - PADULA",
                "id": "22883",
                "brand": "Api-Ip",
                "amenity": "fuel",
                "operator": "IP SERVICES S.R.L."
            },
            "geometry": {
                "type": "Point",
                "coordinates": [
                    16.572240187835632,
                    41.21061348080482
                ]
            }
        },
        {
            "type": "Feature",
            "properties": {
                "name": "STAZIONE ESSO di Del Rosso & Sobanska S.N.C.",
                "id": "11132",
                "brand": "Esso",
                "amenity": "fuel",
                "operator": "DEL ROSSO & SOBANSKA S.N.C. DI DEL ROSSO NICOLA JERZY E C."
            },
            "geometry": {
                "type": "Point",
                "coordinates": [
                    16.58657133579254,
                    41.18719250263647
                ]
            }
        },
        {
            "type": "Feature",
            "properties": {
                "name": "Q8",
                "id": "31264",
                "brand": "Q8",
                "amenity": "fuel",
                "operator": "CIPPONE ROBERTO"
            },
            "geometry": {
                "type": "Point",
                "coordinates": [
                    16.66297674179077,
                    41.18851402018233
                ]
            }
        },
        {
            "type": "Feature",
            "properties": {
                "name": "CAMER BITONTO",
                "id": "12301",
                "brand": "Camer",
                "amenity": "fuel",
                "operator": "CAMER PETROLEUM EUROPA S.R.L."
            },
            "geometry": {
                "type": "Point",
                "coordinates": [
                    16.69662114260143,
                    41.13386119236641
                ]
            }
        },
        {
            "type": "Feature",
            "properties": {
                "name": "AGIP",
                "id": "17127",
                "brand": "Agip Eni",
                "amenity": "fuel",
                "operator": "SINISI FRANCESCO"
            },
            "geometry": {
                "type": "Point",
                "coordinates": [
                    16.59158706665039,
                    41.19302942434382
                ]
            }
        },
        {
            "type": "Feature",
            "properties": {
                "name": "ENI",
                "id": "18155",
                "brand": "Agip Eni",
                "amenity": "fuel",
                "operator": "SANTORO & F. S.A.S. DI SANTORO ANTONIO"
            },
            "geometry": {
                "type": "Point",
                "coordinates": [
                    16.53083100914955,
                    41.12801067404926
                ]
            }
        },
        {
            "type": "Feature",
            "properties": {
                "name": "ESSO",
                "id": "23669",
                "brand": "Esso",
                "amenity": "fuel",
                "operator": "PROALTA DI CAPPELLUTI CARMELA & C. S.N.C."
            },
            "geometry": {
                "type": "Point",
                "coordinates": [
                    16.58748798072338,
                    41.20577869864453
                ]
            }
        },
        {
            "type": "Feature",
            "properties": {
                "name": "CAMER TERLIZZI",
                "id": "12297",
                "brand": "Camer",
                "amenity": "fuel",
                "operator": "CAMER PETROLEUM EUROPA S.R.L."
            },
            "geometry": {
                "type": "Point",
                "coordinates": [
                    16.58426150659557,
                    41.115942948718036
                ]
            }
        },
        {
            "type": "Feature",
            "properties": {
                "name": "ESSO BITONTO SP 231",
                "id": "26839",
                "brand": "Esso",
                "amenity": "fuel",
                "operator": "MODI - SOCIETA' A RESPONSABILITA' LIMITATA"
            },
            "geometry": {
                "type": "Point",
                "coordinates": [
                    16.625026166439056,
                    41.1140725008362
                ]
            }
        },
        {
            "type": "Feature",
            "properties": {
                "name": "MASTROPIERRO GIULIO   P.V. ENI",
                "id": "16035",
                "brand": "Agip Eni",
                "amenity": "fuel",
                "operator": "MASTROPIERRO GIULIO"
            },
            "geometry": {
                "type": "Point",
                "coordinates": [
                    16.62138238549232,
                    41.19513291390822
                ]
            }
        },
        {
            "type": "Feature",
            "properties": {
                "name": "ESSO - Maldari Francesco",
                "id": "12362",
                "brand": "Esso",
                "amenity": "fuel",
                "operator": "MALDARI FRANCESCO"
            },
            "geometry": {
                "type": "Point",
                "coordinates": [
                    16.676478385925293,
                    41.18428092319636
                ]
            }
        },
        {
            "type": "Feature",
            "properties": {
                "name": "DILL'S MOLFETTA",
                "id": "26849",
                "brand": "Dill s",
                "amenity": "fuel",
                "operator": "MODI - SOCIETA' A RESPONSABILITA' LIMITATA"
            },
            "geometry": {
                "type": "Point",
                "coordinates": [
                    16.567638963460922,
                    41.16416026794086
                ]
            }
        },
        {
            "type": "Feature",
            "properties": {
                "name": "TAMOIL",
                "id": "13963",
                "brand": "Tamoil",
                "amenity": "fuel",
                "operator": "MULTIENERGIA E SERVIZI SOCIETA' A RESPONSABILITA' LIMITATA"
            },
            "geometry": {
                "type": "Point",
                "coordinates": [
                    16.550219357013702,
                    41.11810989796638
                ]
            }
        },
        {
            "type": "Feature",
            "properties": {
                "name": "MADOGAS",
                "id": "29582",
                "amenity": "fuel",
                "operator": "MADOGAS OIL NON OIL S.R.L. UNIPERSONALE"
            },
            "geometry": {
                "type": "Point",
                "coordinates": [
                    16.57316766679287,
                    41.1707517414221
                ]
            }
        },
        {
            "type": "Feature",
            "properties": {
                "name": "TERLIZZI VIALE ROMA",
                "id": "6748",
                "brand": "Q8",
                "amenity": "fuel",
                "operator": "SERVIZI & GESTIONI ITALIA srl"
            },
            "geometry": {
                "type": "Point",
                "coordinates": [
                    16.55204555092621,
                    41.13003134213563
                ]
            }
        },
        {
            "type": "Feature",
            "properties": {
                "name": "Miccoli Francesco & C. Snc",
                "id": "18257",
                "brand": "Agip Eni",
                "amenity": "fuel",
                "operator": "MICCOLI FRANCESCO & C. S.N.C."
            },
            "geometry": {
                "type": "Point",
                "coordinates": [
                    16.548977494239807,
                    41.11265632198308
                ]
            }
        },
        {
            "type": "Feature",
            "properties": {
                "name": "MOLFETTA VIA DEI LAVORATORI Z.I.",
                "id": "6746",
                "brand": "Q8",
                "amenity": "fuel",
                "operator": "SERVIZI & GESTIONI ITALIA srl"
            },
            "geometry": {
                "type": "Point",
                "coordinates": [
                    16.559286147746207,
                    41.20538490764532
                ]
            }
        },
        {
            "type": "Feature",
            "properties": {
                "name": "AGIP-ENI",
                "id": "4264",
                "brand": "Agip Eni",
                "amenity": "fuel",
                "operator": "MERCURIO S.R.L."
            },
            "geometry": {
                "type": "Point",
                "coordinates": [
                    16.68895404813236,
                    41.11994982249868
                ]
            }
        },
        {
            "type": "Feature",
            "properties": {
                "name": "GIOVINAZZO S.P. 88 KM 4+300",
                "id": "30296",
                "brand": "Api-Ip",
                "amenity": "fuel",
                "operator": "IP SERVICES S.R.L."
            },
            "geometry": {
                "type": "Point",
                "coordinates": [
                    16.6784705221653,
                    41.15957522404576
                ]
            }
        },
        {
            "type": "Feature",
            "properties": {
                "name": "TERLIZZI - FEDERICO II",
                "id": "31141",
                "brand": "Api-Ip",
                "amenity": "fuel",
                "operator": "IP SERVICES S.R.L."
            },
            "geometry": {
                "type": "Point",
                "coordinates": [
                    16.551216093254084,
                    41.1319020202325
                ]
            }
        },
        {
            "type": "Feature",
            "properties": {
                "name": "Viavaicenter",
                "id": "16707",
                "brand": "Agip Eni",
                "amenity": "fuel",
                "operator": "ENERDRIVE S.R.L."
            },
            "geometry": {
                "type": "Point",
                "coordinates": [
                    16.685894922615034,
                    41.115876280222096
                ]
            }
        }
    ]
}