{
    "type": "FeatureCollection",
    "features": [
        {
            "type": "Feature",
            "properties": {
                "name": "MATERA - TIMMARI",
                "id": "24807",
                "brand": "Api-Ip",
                "amenity": "fuel",
                "operator": "IP SERVICES S.R.L."
            },
            "geometry": {
                "type": "Point",
                "coordinates": [
                    16.592999241733537,
                    40.65961627765828
                ]
            }
        },
        {
            "type": "Feature",
            "properties": {
                "name": "Latorre Carburanti Snc di Latorre C. & C.",
                "id": "22322",
                "amenity": "fuel",
                "operator": "LATORRE CARBURANTI S.N.C. DI LATORRE CARLO & C."
            },
            "geometry": {
                "type": "Point",
                "coordinates": [
                    16.589661627733673,
                    40.68086510616976
                ]
            }
        },
        {
            "type": "Feature",
            "properties": {
                "name": "chiro sas di chita maria & c.",
                "id": "18796",
                "brand": "Tamoil",
                "amenity": "fuel",
                "operator": "CHIRO S.A.S. DI CHITA MARIA & C."
            },
            "geometry": {
                "type": "Point",
                "coordinates": [
                    16.59695014357567,
                    40.6647673728745
                ]
            }
        },
        {
            "type": "Feature",
            "properties": {
                "name": "TOMMASINI SERVICE DI TOMMASINI PIETRO",
                "id": "18513",
                "brand": "Api-Ip",
                "amenity": "fuel",
                "operator": "TOMMASINI SERVICE DI TOMMASINI PIETRO"
            },
            "geometry": {
                "type": "Point",
                "coordinates": [
                    16.594900271395314,
                    40.66666800790281
                ]
            }
        },
        {
            "type": "Feature",
            "properties": {
                "name": "STAZIONE DI SERVIZIO IP",
                "id": "18247",
                "brand": "Api-Ip",
                "amenity": "fuel",
                "operator": "STAZIONE DI SERVIZIO IP DI ANTEZZA LEONARDO"
            },
            "geometry": {
                "type": "Point",
                "coordinates": [
                    16.590406894683834,
                    40.68328632614113
                ]
            }
        },
        {
            "type": "Feature",
            "properties": {
                "name": "AUTOMETANO SRL",
                "id": "6222",
                "amenity": "fuel",
                "operator": "AUTOMETANO S.R.L."
            },
            "geometry": {
                "type": "Point",
                "coordinates": [
                    16.655548363924026,
                    40.67848086364001
                ]
            }
        },
        {
            "type": "Feature",
            "properties": {
                "name": "STAZIONE DI SERVIZIO RICCARDI DI GR srl",
                "id": "23114",
                "amenity": "fuel",
                "operator": "GR S.R.L."
            },
            "geometry": {
                "type": "Point",
                "coordinates": [
                    16.57534897327423,
                    40.684583182235166
                ]
            }
        },
        {
            "type": "Feature",
            "properties": {
                "name": "Stazione Agip di Pietro Bonamassa",
                "id": "5601",
                "brand": "Agip Eni",
                "amenity": "fuel",
                "operator": "STAZIONE DI SERVIZIO AGIP DI BONAMASSA PIETRO"
            },
            "geometry": {
                "type": "Point",
                "coordinates": [
                    16.59235954284668,
                    40.67309202784114
                ]
            }
        },
        {
            "type": "Feature",
            "properties": {
                "name": "Esso di Venezia Eustachio",
                "id": "32147",
                "brand": "Esso",
                "amenity": "fuel",
                "operator": "VENEZIA EUSTACHIO"
            },
            "geometry": {
                "type": "Point",
                "coordinates": [
                    16.59371497238726,
                    40.67661623947441
                ]
            }
        },
        {
            "type": "Feature",
            "properties": {
                "name": "Grifogas",
                "id": "23603",
                "amenity": "fuel",
                "operator": "DELL'ORCO GIUSEPPE"
            },
            "geometry": {
                "type": "Point",
                "coordinates": [
                    16.569700241088867,
                    40.606394013377674
                ]
            }
        },
        {
            "type": "Feature",
            "properties": {
                "name": "ENI Rubino Francesco",
                "id": "32111",
                "brand": "Agip Eni",
                "amenity": "fuel",
                "operator": "RUBINO FRANCESCO PAOLO"
            },
            "geometry": {
                "type": "Point",
                "coordinates": [
                    16.61274514732554,
                    40.6600301629774
                ]
            }
        },
        {
            "type": "Feature",
            "properties": {
                "name": "f.lli gaudiano s.a.s",
                "id": "18390",
                "brand": "Api-Ip",
                "amenity": "fuel",
                "operator": "F.LLI GAUDIANO S.A.S. DI VINCENZA GAUDIANO & C."
            },
            "geometry": {
                "type": "Point",
                "coordinates": [
                    16.585349589586258,
                    40.673157939171006
                ]
            }
        }
    ]
}