{
    "type": "FeatureCollection",
    "features": [
        {
            "type": "Feature",
            "properties": {
                "name": "Q8 Basile - San Giovanni in Fiore",
                "id": "11367",
                "brand": "Q8",
                "amenity": "fuel",
                "operator": "SODIGEST DI BASILE PIETRO & C. S.A.S."
            },
            "geometry": {
                "type": "Point",
                "coordinates": [
                    16.714255213737488,
                    39.264742736899784
                ]
            }
        },
        {
            "type": "Feature",
            "properties": {
                "name": "Stazione di servizio Esso",
                "id": "17965",
                "brand": "Esso",
                "amenity": "fuel",
                "operator": "PALETTA FORTUNATO"
            },
            "geometry": {
                "type": "Point",
                "coordinates": [
                    16.776828339142753,
                    39.31381890456588
                ]
            }
        },
        {
            "type": "Feature",
            "properties": {
                "name": "Stazione Q8 di Spina Salvatore",
                "id": "25625",
                "brand": "Q8",
                "amenity": "fuel",
                "operator": "SPINA SALVATORE"
            },
            "geometry": {
                "type": "Point",
                "coordinates": [
                    16.703863065073392,
                    39.26753939920713
                ]
            }
        },
        {
            "type": "Feature",
            "properties": {
                "name": "CACCURI - BIVIO CASTELSILANO",
                "id": "31133",
                "brand": "Api-Ip",
                "amenity": "fuel",
                "operator": "IP SERVICES S.R.L."
            },
            "geometry": {
                "type": "Point",
                "coordinates": [
                    16.7544624490738,
                    39.25961038399201
                ]
            }
        },
        {
            "type": "Feature",
            "properties": {
                "name": "AUTONOCE",
                "id": "13298",
                "amenity": "fuel",
                "operator": "NOCE ANGELO ELISEO"
            },
            "geometry": {
                "type": "Point",
                "coordinates": [
                    16.787538528442383,
                    39.2353977396446
                ]
            }
        },
        {
            "type": "Feature",
            "properties": {
                "name": "Q8 rotondo cataldo",
                "id": "10229",
                "brand": "Q8",
                "amenity": "fuel",
                "operator": "ROTONDO CATALDO"
            },
            "geometry": {
                "type": "Point",
                "coordinates": [
                    16.861473619937897,
                    39.3114251371945
                ]
            }
        }
    ]
}