{
    "type": "FeatureCollection",
    "features": [
        {
            "type": "Feature",
            "properties": {
                "name": "MY EN UNIONE GAS AUTO",
                "id": "31696",
                "amenity": "fuel",
                "operator": "CARBURECO CALIA  SOCIETA' A RESPONSABILITA' LIMITATA IN SIGLA CARBURECO CALIA S.R.L."
            },
            "geometry": {
                "type": "Point",
                "coordinates": [
                    17.169859260320663,
                    40.93099264593122
                ]
            }
        },
        {
            "type": "Feature",
            "properties": {
                "name": "DE.CA. Sas - Impianto Eni nr 09031",
                "id": "12670",
                "brand": "Agip Eni",
                "amenity": "fuel",
                "operator": "DE.CA. DI COLUCCI LUCIA ROCCA E C. - S.A.S."
            },
            "geometry": {
                "type": "Point",
                "coordinates": [
                    17.166650667786598,
                    40.89053496204819
                ]
            }
        },
        {
            "type": "Feature",
            "properties": {
                "name": "STAZIONE DI SERVIZIO ENI DI DOMENICO SCAVO",
                "id": "21610",
                "brand": "Agip Eni",
                "amenity": "fuel",
                "operator": "SCAVO DOMENICO"
            },
            "geometry": {
                "type": "Point",
                "coordinates": [
                    17.113914866409235,
                    40.97016255541296
                ]
            }
        },
        {
            "type": "Feature",
            "properties": {
                "name": "PUTIGNANO - VIA TURI",
                "id": "30119",
                "brand": "Q8",
                "amenity": "fuel",
                "operator": "SERVIZI & GESTIONI ITALIA S.R.L."
            },
            "geometry": {
                "type": "Point",
                "coordinates": [
                    17.114623306745898,
                    40.854455198735245
                ]
            }
        },
        {
            "type": "Feature",
            "properties": {
                "name": "STAZIONE DI SERVIZIO ESSO - F.LLI LAMONTANARA SNC",
                "id": "7926",
                "brand": "Esso",
                "amenity": "fuel",
                "operator": "F.LLI LAMONTANARA S.N.C. DI ANTONIO E GIUSEPPE LAMONTANARA"
            },
            "geometry": {
                "type": "Point",
                "coordinates": [
                    17.16028779745102,
                    40.89328626981995
                ]
            }
        },
        {
            "type": "Feature",
            "properties": {
                "name": "PETROLPUGLIA S.R.L.",
                "id": "12775",
                "brand": "Agip Eni",
                "amenity": "fuel",
                "operator": "PETROLPUGLIA SOCIETA' A RESPONSABILITA' LIMITATA (IN SIGLA PETROLPUGLIA S.R.L.)"
            },
            "geometry": {
                "type": "Point",
                "coordinates": [
                    17.133469646154822,
                    40.93667386116584
                ]
            }
        },
        {
            "type": "Feature",
            "properties": {
                "name": "TAMOIL",
                "id": "10257",
                "brand": "Tamoil",
                "amenity": "fuel",
                "operator": "POLIGNANO ANTONIO"
            },
            "geometry": {
                "type": "Point",
                "coordinates": [
                    17.11649594907385,
                    40.84841032860672
                ]
            }
        },
        {
            "type": "Feature",
            "properties": {
                "name": "moro sas",
                "id": "13176",
                "brand": "Agip Eni",
                "amenity": "fuel",
                "operator": "MORO SAS DI ROMANO N. & C."
            },
            "geometry": {
                "type": "Point",
                "coordinates": [
                    17.15749830007553,
                    40.87646509349454
                ]
            }
        },
        {
            "type": "Feature",
            "properties": {
                "name": "09081 Putignano",
                "id": "27534",
                "brand": "Agip Eni",
                "amenity": "fuel",
                "operator": "ENI RETE OIL&NONOIL S.P.A."
            },
            "geometry": {
                "type": "Point",
                "coordinates": [
                    17.118021547794346,
                    40.853320677197374
                ]
            }
        },
        {
            "type": "Feature",
            "properties": {
                "name": "CAMPANELLI APOLLONIA",
                "id": "12802",
                "amenity": "fuel",
                "operator": "CAMPANELLI APOLLONIA"
            },
            "geometry": {
                "type": "Point",
                "coordinates": [
                    17.214128211219304,
                    40.93202217587145
                ]
            }
        },
        {
            "type": "Feature",
            "properties": {
                "name": "Stazione di servizio IP",
                "id": "14752",
                "brand": "Api-Ip",
                "amenity": "fuel",
                "operator": "SABATO AGOSTINO VINCENZO"
            },
            "geometry": {
                "type": "Point",
                "coordinates": [
                    17.14351996779442,
                    40.86625901749058
                ]
            }
        },
        {
            "type": "Feature",
            "properties": {
                "name": "DILL'S PUTIGNANO",
                "id": "26846",
                "brand": "Dill s",
                "amenity": "fuel",
                "operator": "MODI - SOCIETA' A RESPONSABILITA' LIMITATA"
            },
            "geometry": {
                "type": "Point",
                "coordinates": [
                    17.10755154490471,
                    40.85558111317829
                ]
            }
        },
        {
            "type": "Feature",
            "properties": {
                "name": "TOTALERG",
                "id": "29117",
                "brand": "Total Erg",
                "amenity": "fuel",
                "operator": "M.D.M. S.A.S. DI  DI MATTEO MICHELE & C."
            },
            "geometry": {
                "type": "Point",
                "coordinates": [
                    17.11373805999756,
                    40.96071861134323
                ]
            }
        },
        {
            "type": "Feature",
            "properties": {
                "name": "STAZIONE DI SERVIZIO RETITALIA SATALINO ANTONIO",
                "id": "14806",
                "brand": "Retitalia",
                "amenity": "fuel",
                "operator": "SATALINO ANTONIO"
            },
            "geometry": {
                "type": "Point",
                "coordinates": [
                    17.176738433181413,
                    40.93376665798866
                ]
            }
        },
        {
            "type": "Feature",
            "properties": {
                "name": "CAMPANELLA LOREDANA SRL",
                "id": "19228",
                "brand": "Api-Ip",
                "amenity": "fuel",
                "operator": "CAMPANELLA LOREDANA S.R.L."
            },
            "geometry": {
                "type": "Point",
                "coordinates": [
                    17.124582605529216,
                    40.852335192741315
                ]
            }
        },
        {
            "type": "Feature",
            "properties": {
                "name": "ESSO CONVERSANO SP 50",
                "id": "26845",
                "brand": "Esso",
                "amenity": "fuel",
                "operator": "MODI - SOCIETA' A RESPONSABILITA' LIMITATA"
            },
            "geometry": {
                "type": "Point",
                "coordinates": [
                    17.116622775793076,
                    40.97770262987328
                ]
            }
        },
        {
            "type": "Feature",
            "properties": {
                "name": "La Lampada di Aladino Sc.a r.l.",
                "id": "20758",
                "brand": "Api-Ip",
                "amenity": "fuel",
                "operator": "LA LAMPADA DI ALADINO - SOCIETA' COOPERATIVA"
            },
            "geometry": {
                "type": "Point",
                "coordinates": [
                    17.21297616094205,
                    40.936690104846235
                ]
            }
        },
        {
            "type": "Feature",
            "properties": {
                "name": "Guarnieri Saverio Stazione di Servizio IP",
                "id": "12685",
                "brand": "Api-Ip",
                "amenity": "fuel",
                "operator": "GUARNIERI SAVERIO  STAZ.SERVIZIO IP"
            },
            "geometry": {
                "type": "Point",
                "coordinates": [
                    17.127162502299484,
                    40.85256826603318
                ]
            }
        },
        {
            "type": "Feature",
            "properties": {
                "name": "eni",
                "id": "16253",
                "brand": "Agip Eni",
                "amenity": "fuel",
                "operator": "DE.TO.SOCIETA' IN NOME COLLETTIVO DI DE FILIPPIS DORIANA E TORRES DOMENICO"
            },
            "geometry": {
                "type": "Point",
                "coordinates": [
                    17.115540504455566,
                    40.969639705205076
                ]
            }
        },
        {
            "type": "Feature",
            "properties": {
                "name": "Ip via gioia 42560",
                "id": "15095",
                "brand": "Api-Ip",
                "amenity": "fuel",
                "operator": "CASULLI LUCA"
            },
            "geometry": {
                "type": "Point",
                "coordinates": [
                    17.10199400782585,
                    40.84756110611165
                ]
            }
        },
        {
            "type": "Feature",
            "properties": {
                "name": "CASTELLANA GROTTE",
                "id": "5423",
                "brand": "Agip Eni",
                "amenity": "fuel",
                "operator": "enirete oil&nonoil S.p.A."
            },
            "geometry": {
                "type": "Point",
                "coordinates": [
                    17.169529817457374,
                    40.88686942276814
                ]
            }
        },
        {
            "type": "Feature",
            "properties": {
                "name": "eni",
                "id": "7784",
                "brand": "Agip Eni",
                "amenity": "fuel",
                "operator": "CAPOZZI FRANCESCO"
            },
            "geometry": {
                "type": "Point",
                "coordinates": [
                    17.082876563072205,
                    40.8709249633297
                ]
            }
        }
    ]
}