{
    "type": "FeatureCollection",
    "features": [
        {
            "type": "Feature",
            "properties": {
                "name": "SCINO CARBURANTI",
                "id": "25550",
                "amenity": "fuel",
                "operator": "SCINO CARBURANTI S.R.L."
            },
            "geometry": {
                "type": "Point",
                "coordinates": [
                    17.090792432427406,
                    38.961259585812876
                ]
            }
        },
        {
            "type": "Feature",
            "properties": {
                "name": "STAZIONE DI SERVIZIO IP",
                "id": "16179",
                "brand": "Api-Ip",
                "amenity": "fuel",
                "operator": "LAPORTA FRANCESCO"
            },
            "geometry": {
                "type": "Point",
                "coordinates": [
                    17.127623856067657,
                    39.072373202388675
                ]
            }
        },
        {
            "type": "Feature",
            "properties": {
                "name": "TOTALERG",
                "id": "20769",
                "brand": "Total Erg",
                "amenity": "fuel",
                "operator": "VIOLAUTO DI VIOLA  ERMANNO"
            },
            "geometry": {
                "type": "Point",
                "coordinates": [
                    17.07695960998535,
                    39.05379133907458
                ]
            }
        },
        {
            "type": "Feature",
            "properties": {
                "name": "Mario Nicoletta",
                "id": "27297",
                "brand": "Q8",
                "amenity": "fuel",
                "operator": "FOTI PETROLI S.R.L."
            },
            "geometry": {
                "type": "Point",
                "coordinates": [
                    17.118102492511525,
                    39.08248940935358
                ]
            }
        },
        {
            "type": "Feature",
            "properties": {
                "name": "ASTERITI XXV APRILE",
                "id": "14120",
                "brand": "Api-Ip",
                "amenity": "fuel",
                "operator": "ASTERITI CARBURANTI S.A.S. DI ASTERITI EUGENIO E C."
            },
            "geometry": {
                "type": "Point",
                "coordinates": [
                    17.119390359385648,
                    39.081802838664856
                ]
            }
        },
        {
            "type": "Feature",
            "properties": {
                "name": "Carburanti Vrenna SRL",
                "id": "16852",
                "amenity": "fuel",
                "operator": "CARBURANTI VRENNA S.R.L."
            },
            "geometry": {
                "type": "Point",
                "coordinates": [
                    17.08612136542797,
                    39.05585372700091
                ]
            }
        },
        {
            "type": "Feature",
            "properties": {
                "name": "_Esso Foti Petroli via Gandi",
                "id": "4818",
                "brand": "Esso",
                "amenity": "fuel",
                "operator": "FOTI PETROLI S.R.L."
            },
            "geometry": {
                "type": "Point",
                "coordinates": [
                    17.10834681987762,
                    39.064506538754635
                ]
            }
        },
        {
            "type": "Feature",
            "properties": {
                "name": "carburanti di porta luciano",
                "id": "29528",
                "brand": "Tamoil",
                "amenity": "fuel",
                "operator": "CARBURANTI DI PORTA LUCIANO"
            },
            "geometry": {
                "type": "Point",
                "coordinates": [
                    17.118796868976915,
                    39.0825195846174
                ]
            }
        },
        {
            "type": "Feature",
            "properties": {
                "name": "eni",
                "id": "20419",
                "brand": "Agip Eni",
                "amenity": "fuel",
                "operator": "GI.DO. S.R.L."
            },
            "geometry": {
                "type": "Point",
                "coordinates": [
                    17.107322216033936,
                    39.09152974077811
                ]
            }
        },
        {
            "type": "Feature",
            "properties": {
                "name": "isola di capo rizzuto via crotone",
                "id": "27157",
                "brand": "Agip Eni",
                "amenity": "fuel",
                "operator": "PERITI PAOLO"
            },
            "geometry": {
                "type": "Point",
                "coordinates": [
                    17.090789079666138,
                    38.961238312638656
                ]
            }
        },
        {
            "type": "Feature",
            "properties": {
                "name": "CROTONE",
                "id": "26657",
                "brand": "Q8",
                "amenity": "fuel",
                "operator": "ZETA GAS S.P.A."
            },
            "geometry": {
                "type": "Point",
                "coordinates": [
                    17.114463597536087,
                    39.06064243972441
                ]
            }
        },
        {
            "type": "Feature",
            "properties": {
                "name": "Esso Foti Petroli  G P IIÂ°",
                "id": "4868",
                "brand": "Esso",
                "amenity": "fuel",
                "operator": "FOTI PETROLI S.R.L."
            },
            "geometry": {
                "type": "Point",
                "coordinates": [
                    17.106292247772217,
                    39.076730143706676
                ]
            }
        }
    ]
}