{
    "type": "FeatureCollection",
    "features": [
        {
            "type": "Feature",
            "properties": {
                "name": "9016 monopoli",
                "id": "26076",
                "brand": "Agip Eni",
                "amenity": "fuel",
                "operator": "ENI RETE OIL&NONOIL S.P.A."
            },
            "geometry": {
                "type": "Point",
                "coordinates": [
                    17.29135662317276,
                    40.94755806499309
                ]
            }
        },
        {
            "type": "Feature",
            "properties": {
                "name": "RETITALIA -  48929",
                "id": "10599",
                "brand": "Retitalia",
                "amenity": "fuel",
                "operator": "BRUNELLI GIACOMO"
            },
            "geometry": {
                "type": "Point",
                "coordinates": [
                    17.290849685668945,
                    40.95532935989801
                ]
            }
        },
        {
            "type": "Feature",
            "properties": {
                "name": "MONOPOLI",
                "id": "5774",
                "brand": "Total Erg",
                "amenity": "fuel",
                "operator": "TotalErg SpA"
            },
            "geometry": {
                "type": "Point",
                "coordinates": [
                    17.25846658895489,
                    40.974542300850565
                ]
            }
        },
        {
            "type": "Feature",
            "properties": {
                "name": "notarangelo adriano & c. snc",
                "id": "11396",
                "brand": "Agip Eni",
                "amenity": "fuel",
                "operator": "NOTARANGELO ADRIANO & C. S.N.C."
            },
            "geometry": {
                "type": "Point",
                "coordinates": [
                    17.289851903915405,
                    40.96003804158602
                ]
            }
        },
        {
            "type": "Feature",
            "properties": {
                "name": "CORBASCIO PAOLO   P.V.  ENI",
                "id": "14746",
                "brand": "Agip Eni",
                "amenity": "fuel",
                "operator": "CORBASCIO PAOLO"
            },
            "geometry": {
                "type": "Point",
                "coordinates": [
                    17.27861277759075,
                    40.87096735368476
                ]
            }
        },
        {
            "type": "Feature",
            "properties": {
                "name": "SOGEDI SRL PUNTO VENDITA ENI 9151",
                "id": "13859",
                "brand": "Agip Eni",
                "amenity": "fuel",
                "operator": "SOGEDI SOCIETA' GESTIONI DIVERSE S.R.L."
            },
            "geometry": {
                "type": "Point",
                "coordinates": [
                    17.28152833878994,
                    40.960016368555486
                ]
            }
        },
        {
            "type": "Feature",
            "properties": {
                "name": "ENI 09173 - Petrol and Car Shop",
                "id": "22502",
                "brand": "Agip Eni",
                "amenity": "fuel",
                "operator": "PETROL AND CAR SHOP DI PIETRO ZACCARIA & MARIA D'ALESSIO S.N.C."
            },
            "geometry": {
                "type": "Point",
                "coordinates": [
                    17.274803578915453,
                    40.93505518563606
                ]
            }
        },
        {
            "type": "Feature",
            "properties": {
                "name": "SEMERARO CLAUDIO - ENI 09174",
                "id": "29241",
                "brand": "Agip Eni",
                "amenity": "fuel",
                "operator": "SEMERARO CLAUDIO"
            },
            "geometry": {
                "type": "Point",
                "coordinates": [
                    17.24117808475341,
                    40.8924887536998
                ]
            }
        },
        {
            "type": "Feature",
            "properties": {
                "name": "ENI 09154 Dinielli Francesca s.r.l.",
                "id": "4256",
                "brand": "Agip Eni",
                "amenity": "fuel",
                "operator": "DINIELLI FRANCESCA S.R.L."
            },
            "geometry": {
                "type": "Point",
                "coordinates": [
                    17.322014272212982,
                    40.910627768225716
                ]
            }
        },
        {
            "type": "Feature",
            "properties": {
                "name": "Q8 Danese",
                "id": "7096",
                "brand": "Q8",
                "amenity": "fuel",
                "operator": "DANESE MARINO"
            },
            "geometry": {
                "type": "Point",
                "coordinates": [
                    17.347237765789032,
                    40.86353665820478
                ]
            }
        },
        {
            "type": "Feature",
            "properties": {
                "name": "METANAUTO SAS",
                "id": "29343",
                "amenity": "fuel",
                "operator": "METANAUTO SOCIETA' IN ACCOMANDITA SEMPLICE DI LADOGANA ANTONIETTA & C."
            },
            "geometry": {
                "type": "Point",
                "coordinates": [
                    17.260884046554565,
                    40.96562093683936
                ]
            }
        },
        {
            "type": "Feature",
            "properties": {
                "name": "F.LLI UVA",
                "id": "13048",
                "brand": "Agip Eni",
                "amenity": "fuel",
                "operator": "F.LLI UVA S.N.C. DI UVA SERGIO & MASSIMO"
            },
            "geometry": {
                "type": "Point",
                "coordinates": [
                    17.305214467553697,
                    40.944587282114846
                ]
            }
        },
        {
            "type": "Feature",
            "properties": {
                "name": "stazione q8",
                "id": "9731",
                "brand": "Q8",
                "amenity": "fuel",
                "operator": "SEMERARO DANIELE VITO"
            },
            "geometry": {
                "type": "Point",
                "coordinates": [
                    17.34724849462509,
                    40.8635579571805
                ]
            }
        },
        {
            "type": "Feature",
            "properties": {
                "name": "Eni Caf√® di Angiulli Paolo",
                "id": "18925",
                "brand": "Agip Eni",
                "amenity": "fuel",
                "operator": "ANGIULLI PAOLO"
            },
            "geometry": {
                "type": "Point",
                "coordinates": [
                    17.271504876104927,
                    40.96732547849731
                ]
            }
        },
        {
            "type": "Feature",
            "properties": {
                "name": "MONOPOLI - BAIONE",
                "id": "24512",
                "brand": "Api-Ip",
                "amenity": "fuel",
                "operator": "IP SERVICES S.R.L."
            },
            "geometry": {
                "type": "Point",
                "coordinates": [
                    17.284330262565614,
                    40.95083646437446
                ]
            }
        }
    ]
}