{
    "type": "FeatureCollection",
    "features": [
        {
            "type": "Feature",
            "properties": {
                "name": "Taras Oil",
                "id": "29961",
                "brand": "Q8",
                "amenity": "fuel",
                "operator": "TARAS OIL S.R.L."
            },
            "geometry": {
                "type": "Point",
                "coordinates": [
                    17.268012609262087,
                    40.45981436331777
                ]
            }
        },
        {
            "type": "Feature",
            "properties": {
                "name": "STAZIONE DI SERVIZIO AGIP DI SPINA ANDREA & C. S.A.S.",
                "id": "29883",
                "brand": "Agip Eni",
                "amenity": "fuel",
                "operator": "STAZIONE DI SERVIZIO AGIP DI SPINA ANDREA & C. S.A.S."
            },
            "geometry": {
                "type": "Point",
                "coordinates": [
                    17.26297442327882,
                    40.453926855493236
                ]
            }
        },
        {
            "type": "Feature",
            "properties": {
                "name": "ZETAGAS MONTEIASI",
                "id": "31455",
                "brand": "Q8",
                "amenity": "fuel",
                "operator": "ZETA GAS S.P.A."
            },
            "geometry": {
                "type": "Point",
                "coordinates": [
                    17.37158015370369,
                    40.512627654202205
                ]
            }
        },
        {
            "type": "Feature",
            "properties": {
                "name": "Bi esse gestioni di Bove Sergio",
                "id": "15648",
                "brand": "Total Erg",
                "amenity": "fuel",
                "operator": "BI ESSE GESTIONI S.A.S. DI BOVE SERGIO"
            },
            "geometry": {
                "type": "Point",
                "coordinates": [
                    17.296694219112396,
                    40.458808533391895
                ]
            }
        },
        {
            "type": "Feature",
            "properties": {
                "name": "TARANTO VIA ANCONA C/O DISTRIB.Q8",
                "id": "6767",
                "brand": "Q8",
                "amenity": "fuel",
                "operator": "SERVIZI & GESTIONI ITALIA srl"
            },
            "geometry": {
                "type": "Point",
                "coordinates": [
                    17.26881928769683,
                    40.455136100000004
                ]
            }
        },
        {
            "type": "Feature",
            "properties": {
                "name": "STAZIONE DI SERVIZIO \"ERG\" DI LOBASSO VITO",
                "id": "16653",
                "brand": "Total Erg",
                "amenity": "fuel",
                "operator": "STAZIONE DI SERVIZIO \"ERG\" DI LOBASSO VITO"
            },
            "geometry": {
                "type": "Point",
                "coordinates": [
                    17.277642488479614,
                    40.460420761426285
                ]
            }
        },
        {
            "type": "Feature",
            "properties": {
                "name": "Q8 - PLUS PETROLI",
                "id": "22034",
                "brand": "Q8",
                "amenity": "fuel",
                "operator": "PLUS PETROLI S.R.L."
            },
            "geometry": {
                "type": "Point",
                "coordinates": [
                    17.3715727776289,
                    40.51262337190372
                ]
            }
        },
        {
            "type": "Feature",
            "properties": {
                "name": "TOTAL ERG",
                "id": "13962",
                "brand": "Total Erg",
                "amenity": "fuel",
                "operator": "CAROPPO CARBURANTI S.A.S. DI ANDREA CAROPPO & C."
            },
            "geometry": {
                "type": "Point",
                "coordinates": [
                    17.268799245357513,
                    40.46106400925559
                ]
            }
        },
        {
            "type": "Feature",
            "properties": {
                "name": "ENI",
                "id": "30502",
                "brand": "Agip Eni",
                "amenity": "fuel",
                "operator": "SERGEST ITALIA S.R.L."
            },
            "geometry": {
                "type": "Point",
                "coordinates": [
                    17.22753949463367,
                    40.485075050081896
                ]
            }
        },
        {
            "type": "Feature",
            "properties": {
                "name": "TotalERG",
                "id": "27734",
                "brand": "Total Erg",
                "amenity": "fuel",
                "operator": "BASILE GIUSEPPE"
            },
            "geometry": {
                "type": "Point",
                "coordinates": [
                    17.269654870033268,
                    40.4630022865955
                ]
            }
        },
        {
            "type": "Feature",
            "properties": {
                "name": "ENI (Basile Petroli)",
                "id": "14278",
                "brand": "Agip Eni",
                "amenity": "fuel",
                "operator": "CORALLO COSIMO DISTRIBUTORE CARBURANTI E LUBRIFICANTI"
            },
            "geometry": {
                "type": "Point",
                "coordinates": [
                    17.27355534631033,
                    40.45886464346327
                ]
            }
        },
        {
            "type": "Feature",
            "properties": {
                "name": "tamoil",
                "id": "24563",
                "brand": "Tamoil",
                "amenity": "fuel",
                "operator": "BARBI UGO"
            },
            "geometry": {
                "type": "Point",
                "coordinates": [
                    17.281644344329834,
                    40.46239885127021
                ]
            }
        },
        {
            "type": "Feature",
            "properties": {
                "name": "MENGA PETROLI",
                "id": "24553",
                "amenity": "fuel",
                "operator": "ATENE S.A.S. DI CARRISI GIANMARCO & C."
            },
            "geometry": {
                "type": "Point",
                "coordinates": [
                    17.35626608133316,
                    40.46017158292726
                ]
            }
        },
        {
            "type": "Feature",
            "properties": {
                "name": "Stazione di servizio Agip di Spina Andrea & C.s.a.s.",
                "id": "16365",
                "brand": "Agip Eni",
                "amenity": "fuel",
                "operator": "STAZIONE DI SERVIZIO AGIP DI SPINA ANDREA & C. S.A.S."
            },
            "geometry": {
                "type": "Point",
                "coordinates": [
                    17.25943356057428,
                    40.45448611924439
                ]
            }
        },
        {
            "type": "Feature",
            "properties": {
                "name": "STATTE S.S. 172 KM. 68+00",
                "id": "23876",
                "brand": "Q8",
                "amenity": "fuel",
                "operator": "SERVIZI & GESTIONI ITALIA S.R.L."
            },
            "geometry": {
                "type": "Point",
                "coordinates": [
                    17.275054156780243,
                    40.548883302784944
                ]
            }
        },
        {
            "type": "Feature",
            "properties": {
                "name": "San Giorgio Ionico",
                "id": "25120",
                "brand": "Total Erg",
                "amenity": "fuel",
                "operator": "GESTIONI EUROPA - SOCIETA' PER AZIONI"
            },
            "geometry": {
                "type": "Point",
                "coordinates": [
                    17.38378688693047,
                    40.45764035813964
                ]
            }
        },
        {
            "type": "Feature",
            "properties": {
                "name": "menga petroli",
                "id": "15144",
                "amenity": "fuel",
                "operator": "QUARANTA S.A.S. DI QUARANTA SALVATORE E QUARANTA RAFFAELE"
            },
            "geometry": {
                "type": "Point",
                "coordinates": [
                    17.334859371185303,
                    40.572785315659154
                ]
            }
        },
        {
            "type": "Feature",
            "properties": {
                "name": "Totalerg",
                "id": "18759",
                "brand": "Total Erg",
                "amenity": "fuel",
                "operator": "GRECO ANTONIO & SCHIRONE LUIGI S.N.C."
            },
            "geometry": {
                "type": "Point",
                "coordinates": [
                    17.257298603653908,
                    40.46768918483094
                ]
            }
        },
        {
            "type": "Feature",
            "properties": {
                "name": "RENO SALVATORE",
                "id": "18098",
                "brand": "Esso",
                "amenity": "fuel",
                "operator": "RENO' SALVATORE"
            },
            "geometry": {
                "type": "Point",
                "coordinates": [
                    17.285127192735672,
                    40.57958606252557
                ]
            }
        },
        {
            "type": "Feature",
            "properties": {
                "name": "3P PIANETA PETROLI PUGLIESI",
                "id": "22993",
                "amenity": "fuel",
                "operator": "PIANETA PETROLI PUGLIESI S.P.A. IN SIGLA \"TRE P  S.P.A.\""
            },
            "geometry": {
                "type": "Point",
                "coordinates": [
                    17.338072284277363,
                    40.51827412472593
                ]
            }
        },
        {
            "type": "Feature",
            "properties": {
                "name": "V.LE UMBRIA -  TARANTO",
                "id": "28460",
                "brand": "Q8",
                "amenity": "fuel",
                "operator": "SERVIZI & GESTIONI ITALIA S.R.L."
            },
            "geometry": {
                "type": "Point",
                "coordinates": [
                    17.26163866193656,
                    40.46047345397983
                ]
            }
        },
        {
            "type": "Feature",
            "properties": {
                "name": "Q8",
                "id": "21322",
                "brand": "Q8",
                "amenity": "fuel",
                "operator": "D'AMONE CHRISTIAN SILVIO"
            },
            "geometry": {
                "type": "Point",
                "coordinates": [
                    17.395167149701816,
                    40.46295609968868
                ]
            }
        },
        {
            "type": "Feature",
            "properties": {
                "name": "SAN GIORGIO IONICO",
                "id": "28678",
                "brand": "Api-Ip",
                "amenity": "fuel",
                "operator": "IP SERVICES S.R.L."
            },
            "geometry": {
                "type": "Point",
                "coordinates": [
                    17.370197317791053,
                    40.457832653594984
                ]
            }
        },
        {
            "type": "Feature",
            "properties": {
                "name": "TARANTO S.S.7 TER KM.2+500 STAZ.SERVIZIO Q8",
                "id": "6768",
                "brand": "Q8",
                "amenity": "fuel",
                "operator": "SERVIZI & GESTIONI ITALIA srl"
            },
            "geometry": {
                "type": "Point",
                "coordinates": [
                    17.26893184047549,
                    40.494790363138314
                ]
            }
        },
        {
            "type": "Feature",
            "properties": {
                "name": "2738",
                "id": "30817",
                "brand": "Tamoil",
                "amenity": "fuel",
                "operator": "T.D.M. S.R.L."
            },
            "geometry": {
                "type": "Point",
                "coordinates": [
                    17.2663651406765,
                    40.51923797454732
                ]
            }
        },
        {
            "type": "Feature",
            "properties": {
                "name": "TARANTO - VIRGILIO",
                "id": "23965",
                "brand": "Api-Ip",
                "amenity": "fuel",
                "operator": "IP SERVICES S.R.L."
            },
            "geometry": {
                "type": "Point",
                "coordinates": [
                    17.255371127647436,
                    40.45360870535749
                ]
            }
        },
        {
            "type": "Feature",
            "properties": {
                "name": "TARANTO",
                "id": "5547",
                "brand": "Total Erg",
                "amenity": "fuel",
                "operator": "GESTIONI EUROPA S.p.A."
            },
            "geometry": {
                "type": "Point",
                "coordinates": [
                    17.24629316319465,
                    40.46344344746994
                ]
            }
        },
        {
            "type": "Feature",
            "properties": {
                "name": "A&C Energy di Bove Roberto",
                "id": "14957",
                "brand": "Total Erg",
                "amenity": "fuel",
                "operator": "A.& C. ENERGY DI BOVE ROBERTO & C. S.N.C."
            },
            "geometry": {
                "type": "Point",
                "coordinates": [
                    17.29162461282806,
                    40.464976562102976
                ]
            }
        }
    ]
}