{
    "type": "FeatureCollection",
    "features": [
        {
            "type": "Feature",
            "properties": {
                "name": "Q8\\\\TOIL FRAGAGNANO",
                "id": "21670",
                "brand": "Q8",
                "amenity": "fuel",
                "operator": "TOIL S.P.A."
            },
            "geometry": {
                "type": "Point",
                "coordinates": [
                    17.45960623025894,
                    40.43260338350836
                ]
            }
        },
        {
            "type": "Feature",
            "properties": {
                "name": "Stazione di Servizio Koil",
                "id": "18260",
                "amenity": "fuel",
                "operator": "CALO' ANTONIO LUIGI"
            },
            "geometry": {
                "type": "Point",
                "coordinates": [
                    17.53833286017459,
                    40.41281253034834
                ]
            }
        },
        {
            "type": "Feature",
            "properties": {
                "name": "stazione di servizio q8",
                "id": "30792",
                "brand": "Q8",
                "amenity": "fuel",
                "operator": "G.M. DI GIOVANNI MACRI' S.A.S."
            },
            "geometry": {
                "type": "Point",
                "coordinates": [
                    17.448251098394394,
                    40.396079792292326
                ]
            }
        },
        {
            "type": "Feature",
            "properties": {
                "name": "Stazione di Servizio Koil",
                "id": "18275",
                "amenity": "fuel",
                "operator": "CALO' ANTONIO LUIGI"
            },
            "geometry": {
                "type": "Point",
                "coordinates": [
                    17.538783471289094,
                    40.3883014746413
                ]
            }
        },
        {
            "type": "Feature",
            "properties": {
                "name": "AREA SERVICE SRL",
                "id": "27986",
                "brand": "Q8",
                "amenity": "fuel",
                "operator": "AREA SERVICE S.R.L."
            },
            "geometry": {
                "type": "Point",
                "coordinates": [
                    17.5694078207016,
                    40.31498043328806
                ]
            }
        },
        {
            "type": "Feature",
            "properties": {
                "name": "Semeraro Antonio Pietro",
                "id": "29432",
                "brand": "Total Erg",
                "amenity": "fuel",
                "operator": "SEMERARO ANTONIO PIETRO"
            },
            "geometry": {
                "type": "Point",
                "coordinates": [
                    17.546509588954905,
                    40.40686639912048
                ]
            }
        },
        {
            "type": "Feature",
            "properties": {
                "name": "esso",
                "id": "16280",
                "brand": "Esso",
                "amenity": "fuel",
                "operator": "CAVALLO ALESSANDRO"
            },
            "geometry": {
                "type": "Point",
                "coordinates": [
                    17.449744418263435,
                    40.41777819291582
                ]
            }
        },
        {
            "type": "Feature",
            "properties": {
                "name": "Stazione di Servizio Koil",
                "id": "18265",
                "amenity": "fuel",
                "operator": "CALO' ANTONIO LUIGI"
            },
            "geometry": {
                "type": "Point",
                "coordinates": [
                    17.52951375693363,
                    40.41205282166266
                ]
            }
        },
        {
            "type": "Feature",
            "properties": {
                "name": "MONTEPARANO S.S. 7 TER KM 3+051",
                "id": "25448",
                "brand": "Q8",
                "amenity": "fuel",
                "operator": "SERVIZI & GESTIONI ITALIA S.R.L."
            },
            "geometry": {
                "type": "Point",
                "coordinates": [
                    17.409652759524533,
                    40.445707229741785
                ]
            }
        },
        {
            "type": "Feature",
            "properties": {
                "name": "Stazione di Servizio Koil",
                "id": "18264",
                "amenity": "fuel",
                "operator": "CALO' ANTONIO LUIGI"
            },
            "geometry": {
                "type": "Point",
                "coordinates": [
                    17.494032418988013,
                    40.362350145255974
                ]
            }
        },
        {
            "type": "Feature",
            "properties": {
                "name": "totalerg",
                "id": "16009",
                "brand": "Total Erg",
                "amenity": "fuel",
                "operator": "STAZIONE DI SERVIZIO IP DI BUCCOLIERO PARIDE COSIMO"
            },
            "geometry": {
                "type": "Point",
                "coordinates": [
                    17.547976970672607,
                    40.40644888136055
                ]
            }
        },
        {
            "type": "Feature",
            "properties": {
                "name": "Q8",
                "id": "9422",
                "brand": "Q8",
                "amenity": "fuel",
                "operator": "GUARINO FABIO"
            },
            "geometry": {
                "type": "Point",
                "coordinates": [
                    17.552441507577896,
                    40.400491931223144
                ]
            }
        },
        {
            "type": "Feature",
            "properties": {
                "name": "Italiana Carburanti",
                "id": "13086",
                "amenity": "fuel",
                "operator": "ITALIANA CARBURANTI S.P.A."
            },
            "geometry": {
                "type": "Point",
                "coordinates": [
                    17.474801495631368,
                    40.434873497560936
                ]
            }
        },
        {
            "type": "Feature",
            "properties": {
                "name": "TotalErg di Nicoli' Raffaele",
                "id": "28018",
                "brand": "Total Erg",
                "amenity": "fuel",
                "operator": "NICOLI' RAFFAELE"
            },
            "geometry": {
                "type": "Point",
                "coordinates": [
                    17.498268261551857,
                    40.344176661607364
                ]
            }
        },
        {
            "type": "Feature",
            "properties": {
                "name": "09452",
                "id": "9613",
                "brand": "Agip Eni",
                "amenity": "fuel",
                "operator": "BISCI GIANPAOLO"
            },
            "geometry": {
                "type": "Point",
                "coordinates": [
                    17.549689561128616,
                    40.40595584196172
                ]
            }
        },
        {
            "type": "Feature",
            "properties": {
                "name": "MG2 SRL SEMPLIFICATA",
                "id": "27967",
                "brand": "Api-Ip",
                "amenity": "fuel",
                "operator": "MG2 SOCIETA' A RESPONSABILITA' LIMITATA SEMPLIFICATA"
            },
            "geometry": {
                "type": "Point",
                "coordinates": [
                    17.515449821949005,
                    40.43738386014352
                ]
            }
        }
    ]
}