{
    "type": "FeatureCollection",
    "features": [
        {
            "type": "Feature",
            "properties": {
                "name": "IES",
                "id": "26436",
                "brand": "Ies",
                "amenity": "fuel",
                "operator": "MAVER CARBURANTI S.R.L."
            },
            "geometry": {
                "type": "Point",
                "coordinates": [
                    18.093304932117462,
                    40.13458499947188
                ]
            }
        },
        {
            "type": "Feature",
            "properties": {
                "name": "So.Ge.Carb",
                "id": "27140",
                "amenity": "fuel",
                "operator": "SAVOIA SERVIZI E LAVORO SOCIETA' COOPERATIVA"
            },
            "geometry": {
                "type": "Point",
                "coordinates": [
                    18.06325078010559,
                    40.15228870294251
                ]
            }
        },
        {
            "type": "Feature",
            "properties": {
                "name": "totalerg",
                "id": "18541",
                "brand": "Total Erg",
                "amenity": "fuel",
                "operator": "EREDI ANTONIO DURANTE"
            },
            "geometry": {
                "type": "Point",
                "coordinates": [
                    18.025522828102112,
                    40.16658296619742
                ]
            }
        },
        {
            "type": "Feature",
            "properties": {
                "name": "AGIP",
                "id": "26596",
                "brand": "Agip Eni",
                "amenity": "fuel",
                "operator": "MUSUMECI CARMELO"
            },
            "geometry": {
                "type": "Point",
                "coordinates": [
                    18.03865760564804,
                    40.05915895009273
                ]
            }
        },
        {
            "type": "Feature",
            "properties": {
                "name": "ENI",
                "id": "16126",
                "brand": "Agip Eni",
                "amenity": "fuel",
                "operator": "PISANELLO MARCELLO"
            },
            "geometry": {
                "type": "Point",
                "coordinates": [
                    18.062141686677933,
                    40.06781470088059
                ]
            }
        },
        {
            "type": "Feature",
            "properties": {
                "name": "So.Ge.Carb",
                "id": "27138",
                "amenity": "fuel",
                "operator": "GHALA' SERVIZI E LAVORO SOCIETA' COOPERATIVA"
            },
            "geometry": {
                "type": "Point",
                "coordinates": [
                    18.078753948211666,
                    40.15161216606791
                ]
            }
        },
        {
            "type": "Feature",
            "properties": {
                "name": "totalerg",
                "id": "18543",
                "brand": "Total Erg",
                "amenity": "fuel",
                "operator": "DURANTE DI DURANTE CLARISSA & C. S.N.C."
            },
            "geometry": {
                "type": "Point",
                "coordinates": [
                    18.077938556671143,
                    40.14816910400514
                ]
            }
        },
        {
            "type": "Feature",
            "properties": {
                "name": "TOTALERG",
                "id": "21206",
                "brand": "Total Erg",
                "amenity": "fuel",
                "operator": "GATTO GESTIONI S.R.L."
            },
            "geometry": {
                "type": "Point",
                "coordinates": [
                    18.05052979050754,
                    40.113477097316455
                ]
            }
        },
        {
            "type": "Feature",
            "properties": {
                "name": "TOTALERG",
                "id": "17684",
                "brand": "Total Erg",
                "amenity": "fuel",
                "operator": "CALO' STEFANO"
            },
            "geometry": {
                "type": "Point",
                "coordinates": [
                    18.06621059775353,
                    40.08924509215996
                ]
            }
        },
        {
            "type": "Feature",
            "properties": {
                "name": "stazione di servizio esso",
                "id": "15158",
                "brand": "Esso",
                "amenity": "fuel",
                "operator": "TAMBORRINI PATRIZIA"
            },
            "geometry": {
                "type": "Point",
                "coordinates": [
                    17.997320573155548,
                    40.06266891445183
                ]
            }
        },
        {
            "type": "Feature",
            "properties": {
                "name": "IP - SIVO GERARDA",
                "id": "21983",
                "brand": "Api-Ip",
                "amenity": "fuel",
                "operator": "SIVO GERARDA"
            },
            "geometry": {
                "type": "Point",
                "coordinates": [
                    17.987294644117355,
                    40.14539550180291
                ]
            }
        },
        {
            "type": "Feature",
            "properties": {
                "name": "Stazione di Servizio Eni",
                "id": "32119",
                "brand": "Agip Eni",
                "amenity": "fuel",
                "operator": "FEDELE FABRIZIO"
            },
            "geometry": {
                "type": "Point",
                "coordinates": [
                    17.999323222923294,
                    40.06424160093634
                ]
            }
        },
        {
            "type": "Feature",
            "properties": {
                "name": "totalerg",
                "id": "19071",
                "brand": "Total Erg",
                "amenity": "fuel",
                "operator": "DE PREZZO GRAZIANO"
            },
            "geometry": {
                "type": "Point",
                "coordinates": [
                    18.060677200555805,
                    40.099608971891506
                ]
            }
        },
        {
            "type": "Feature",
            "properties": {
                "name": "GUIDO CARBURANTI",
                "id": "20898",
                "amenity": "fuel",
                "operator": "GUIDO MAURIZIO"
            },
            "geometry": {
                "type": "Point",
                "coordinates": [
                    18.09121683239937,
                    40.069799583823325
                ]
            }
        },
        {
            "type": "Feature",
            "properties": {
                "name": "NARDO' - VIA GALATONE",
                "id": "24705",
                "brand": "Api-Ip",
                "amenity": "fuel",
                "operator": "IP SERVICES S.R.L."
            },
            "geometry": {
                "type": "Point",
                "coordinates": [
                    18.042199999999983,
                    40.167908198520344
                ]
            }
        },
        {
            "type": "Feature",
            "properties": {
                "name": "GALLIPOLI SS 101 KM 34+300",
                "id": "6838",
                "brand": "Q8",
                "amenity": "fuel",
                "operator": "SERVIZI & GESTIONI ITALIA srl"
            },
            "geometry": {
                "type": "Point",
                "coordinates": [
                    18.0088699466271,
                    40.072085692858295
                ]
            }
        },
        {
            "type": "Feature",
            "properties": {
                "name": "Totalerg di Vergaro Dennis",
                "id": "27126",
                "brand": "Total Erg",
                "amenity": "fuel",
                "operator": "VERGARO DENNIS LUIGI"
            },
            "geometry": {
                "type": "Point",
                "coordinates": [
                    18.062373697757724,
                    40.05973253079968
                ]
            }
        },
        {
            "type": "Feature",
            "properties": {
                "name": "CAMER PARABITA",
                "id": "12324",
                "brand": "Camer",
                "amenity": "fuel",
                "operator": "CAMER PETROLEUM EUROPA S.R.L."
            },
            "geometry": {
                "type": "Point",
                "coordinates": [
                    18.081485897950756,
                    40.056308623729585
                ]
            }
        },
        {
            "type": "Feature",
            "properties": {
                "name": "Stazione di rifornimento Totalerg Di Muci Salvatore Giuseppe",
                "id": "17762",
                "brand": "Total Erg",
                "amenity": "fuel",
                "operator": "MUCI SALVATORE"
            },
            "geometry": {
                "type": "Point",
                "coordinates": [
                    18.03307056427002,
                    40.17355927443143
                ]
            }
        },
        {
            "type": "Feature",
            "properties": {
                "name": "PV 9359",
                "id": "30233",
                "brand": "Agip Eni",
                "amenity": "fuel",
                "operator": "GESTIONI INNOVATIVE ITALIA S.R.L."
            },
            "geometry": {
                "type": "Point",
                "coordinates": [
                    18.071970641613007,
                    40.15227558224141
                ]
            }
        },
        {
            "type": "Feature",
            "properties": {
                "name": "NARDO'",
                "id": "5806",
                "brand": "Total Erg",
                "amenity": "fuel",
                "operator": "TotalErg SpA"
            },
            "geometry": {
                "type": "Point",
                "coordinates": [
                    18.03297927116398,
                    40.17447254375276
                ]
            }
        },
        {
            "type": "Feature",
            "properties": {
                "name": "self area eni",
                "id": "19171",
                "brand": "Agip Eni",
                "amenity": "fuel",
                "operator": "DE MARTINIS DAVIDE"
            },
            "geometry": {
                "type": "Point",
                "coordinates": [
                    18.076844215393066,
                    40.16330915446997
                ]
            }
        },
        {
            "type": "Feature",
            "properties": {
                "name": "Santa Maria",
                "id": "15113",
                "brand": "Agip Eni",
                "amenity": "fuel",
                "operator": "CASTRIOTA SCANDERBEG GIANLUIGI"
            },
            "geometry": {
                "type": "Point",
                "coordinates": [
                    17.994114990710386,
                    40.129417454360365
                ]
            }
        },
        {
            "type": "Feature",
            "properties": {
                "name": "Stazione di Servizio Q8",
                "id": "32120",
                "brand": "Q8",
                "amenity": "fuel",
                "operator": "OLTREMARINI LUCIA"
            },
            "geometry": {
                "type": "Point",
                "coordinates": [
                    18.00305395952455,
                    40.04864171244216
                ]
            }
        },
        {
            "type": "Feature",
            "properties": {
                "name": "Q8",
                "id": "32125",
                "brand": "Q8",
                "amenity": "fuel",
                "operator": "FEGI S.R.L."
            },
            "geometry": {
                "type": "Point",
                "coordinates": [
                    18.05612951517105,
                    40.14475805755583
                ]
            }
        }
    ]
}