{
    "type": "FeatureCollection",
    "features": [
        {
            "type": "Feature",
            "properties": {
                "name": "METALUPIAE SRL",
                "id": "4806",
                "amenity": "fuel",
                "operator": "METALUPIAE SRL"
            },
            "geometry": {
                "type": "Point",
                "coordinates": [
                    18.059710264205933,
                    40.39232250543406
                ]
            }
        },
        {
            "type": "Feature",
            "properties": {
                "name": "BUCCARELLA CARBURANTI",
                "id": "14711",
                "amenity": "fuel",
                "operator": "BUCCARELLA CARBURANTI DEI FRATELLI BUCCARELLA GIUSEPPE & VALERIO *SNC"
            },
            "geometry": {
                "type": "Point",
                "coordinates": [
                    17.97797290278072,
                    40.321496400009124
                ]
            }
        },
        {
            "type": "Feature",
            "properties": {
                "name": "ALEMANNO PETROLI DI ALEMANNO FEDERICA & C. SNC",
                "id": "20144",
                "brand": "Total Erg",
                "amenity": "fuel",
                "operator": "ALEMANNO PETROLI DI ALEMANNO FEDERICA  &  C. S.N.C."
            },
            "geometry": {
                "type": "Point",
                "coordinates": [
                    17.956651747226715,
                    40.39291901144015
                ]
            }
        },
        {
            "type": "Feature",
            "properties": {
                "name": "ENERSALENTO DI DIMAGLI FRANCESCO",
                "id": "27137",
                "brand": "Agip Eni",
                "amenity": "fuel",
                "operator": "ENERSALENTO DI DI MAGLI FRANCESCO"
            },
            "geometry": {
                "type": "Point",
                "coordinates": [
                    18.084501922130585,
                    40.363001402261105
                ]
            }
        },
        {
            "type": "Feature",
            "properties": {
                "name": "PV 9342",
                "id": "30232",
                "brand": "Agip Eni",
                "amenity": "fuel",
                "operator": "GESTIONI INNOVATIVE ITALIA S.R.L."
            },
            "geometry": {
                "type": "Point",
                "coordinates": [
                    18.035787642002106,
                    40.440761183581444
                ]
            }
        },
        {
            "type": "Feature",
            "properties": {
                "name": "stazione di servizio ip di franco paladini",
                "id": "25879",
                "brand": "Api-Ip",
                "amenity": "fuel",
                "operator": "PALADINI FRANCO"
            },
            "geometry": {
                "type": "Point",
                "coordinates": [
                    18.035832300363154,
                    40.35169564214696
                ]
            }
        },
        {
            "type": "Feature",
            "properties": {
                "name": "METALUPIAE SRL",
                "id": "6369",
                "amenity": "fuel",
                "operator": "METALUPIAE SRL"
            },
            "geometry": {
                "type": "Point",
                "coordinates": [
                    18.090834617614746,
                    40.36242833877285
                ]
            }
        },
        {
            "type": "Feature",
            "properties": {
                "name": "BUCCARELLA CARBURANTI",
                "id": "14685",
                "brand": "Total Erg",
                "amenity": "fuel",
                "operator": "BUCCARELLA CARBURANTI DEI FRATELLI BUCCARELLA GIUSEPPE & VALERIO *SNC"
            },
            "geometry": {
                "type": "Point",
                "coordinates": [
                    17.960137887033056,
                    40.333675624975726
                ]
            }
        },
        {
            "type": "Feature",
            "properties": {
                "name": "FM Carburanti",
                "id": "29037",
                "amenity": "fuel",
                "operator": "OIL NON OIL SALENTO S.R.L."
            },
            "geometry": {
                "type": "Point",
                "coordinates": [
                    17.979559898376465,
                    40.340156442027045
                ]
            }
        },
        {
            "type": "Feature",
            "properties": {
                "name": "DISTRIBUTORE AGIP",
                "id": "28254",
                "brand": "Agip Eni",
                "amenity": "fuel",
                "operator": "MAZZOTTA LUIGI STEFANO"
            },
            "geometry": {
                "type": "Point",
                "coordinates": [
                    18.05076777935028,
                    40.43011174995866
                ]
            }
        },
        {
            "type": "Feature",
            "properties": {
                "name": "CAMPI SALENTINA - NINO DI PALMA",
                "id": "29941",
                "brand": "Api-Ip",
                "amenity": "fuel",
                "operator": "IP SERVICES S.R.L."
            },
            "geometry": {
                "type": "Point",
                "coordinates": [
                    18.011821457672113,
                    40.4007673187018
                ]
            }
        },
        {
            "type": "Feature",
            "properties": {
                "name": "totalerg",
                "id": "26686",
                "brand": "Total Erg",
                "amenity": "fuel",
                "operator": "CENTRO SERVICE DI VADACCA GIOVANNI S.N.C."
            },
            "geometry": {
                "type": "Point",
                "coordinates": [
                    18.064072045626972,
                    40.38486308478433
                ]
            }
        },
        {
            "type": "Feature",
            "properties": {
                "name": "IMP.38068",
                "id": "30560",
                "brand": "Agip Eni",
                "amenity": "fuel",
                "operator": "CINO & PETRELLI  S.A.S.  DI LORETA CINO E COSIMO PETRELLI"
            },
            "geometry": {
                "type": "Point",
                "coordinates": [
                    18.08448851108551,
                    40.36299159236432
                ]
            }
        },
        {
            "type": "Feature",
            "properties": {
                "name": "SQUINZANO - MASSERIA NUOVA",
                "id": "28616",
                "brand": "Api-Ip",
                "amenity": "fuel",
                "operator": "IP SERVICES S.R.L."
            },
            "geometry": {
                "type": "Point",
                "coordinates": [
                    18.055622577667236,
                    40.43474337065358
                ]
            }
        },
        {
            "type": "Feature",
            "properties": {
                "name": "Q8\\\\TOIL SALICE SALENTINO",
                "id": "21666",
                "brand": "Q8",
                "amenity": "fuel",
                "operator": "TOIL S.P.A."
            },
            "geometry": {
                "type": "Point",
                "coordinates": [
                    17.966842915344273,
                    40.37541535792267
                ]
            }
        },
        {
            "type": "Feature",
            "properties": {
                "name": "Stazione di Servizio Q8 di Diego Calabrese",
                "id": "9270",
                "brand": "Q8",
                "amenity": "fuel",
                "operator": "CALABRESE DIEGO"
            },
            "geometry": {
                "type": "Point",
                "coordinates": [
                    18.06679129600525,
                    40.36601460606423
                ]
            }
        },
        {
            "type": "Feature",
            "properties": {
                "name": "ESSO",
                "id": "16212",
                "brand": "Esso",
                "amenity": "fuel",
                "operator": "RO.AN. SERVICE DI ROBERTO LANDOLFO &. C. S.A.S."
            },
            "geometry": {
                "type": "Point",
                "coordinates": [
                    18.019088208675385,
                    40.40249425244749
                ]
            }
        },
        {
            "type": "Feature",
            "properties": {
                "name": "Q8",
                "id": "18126",
                "brand": "Q8",
                "amenity": "fuel",
                "operator": "ROLLO CESARE LUIGI"
            },
            "geometry": {
                "type": "Point",
                "coordinates": [
                    18.093333776430658,
                    40.32383112615535
                ]
            }
        },
        {
            "type": "Feature",
            "properties": {
                "name": "TREPUZZI SS 16 KM 945+374",
                "id": "24789",
                "brand": "Q8",
                "amenity": "fuel",
                "operator": "SERVIZI & GESTIONI ITALIA S.R.L."
            },
            "geometry": {
                "type": "Point",
                "coordinates": [
                    18.079723148479502,
                    40.40040856115531
                ]
            }
        },
        {
            "type": "Feature",
            "properties": {
                "name": "IP di Quarta Luigi",
                "id": "29536",
                "brand": "Api-Ip",
                "amenity": "fuel",
                "operator": "QUARTA LUIGI"
            },
            "geometry": {
                "type": "Point",
                "coordinates": [
                    18.040413658282773,
                    40.34497268487515
                ]
            }
        },
        {
            "type": "Feature",
            "properties": {
                "name": "carrozzo giuseppe",
                "id": "25547",
                "brand": "Agip Eni",
                "amenity": "fuel",
                "operator": "CARROZZO GIUSEPPE"
            },
            "geometry": {
                "type": "Point",
                "coordinates": [
                    18.045231699943542,
                    40.34483185587284
                ]
            }
        },
        {
            "type": "Feature",
            "properties": {
                "name": "TOTALERG TREPUZZI",
                "id": "15014",
                "brand": "Total Erg",
                "amenity": "fuel",
                "operator": "LA.MA. SERVICE S.R.L."
            },
            "geometry": {
                "type": "Point",
                "coordinates": [
                    18.06648150086403,
                    40.411120526115425
                ]
            }
        },
        {
            "type": "Feature",
            "properties": {
                "name": "AVIOLAMP SAS di SQUINZANO",
                "id": "10335",
                "amenity": "fuel",
                "operator": "AVIO LAMP DI MANCO MARIA SILVANA & C. S.A.S."
            },
            "geometry": {
                "type": "Point",
                "coordinates": [
                    18.04948639235488,
                    40.43167482095964
                ]
            }
        },
        {
            "type": "Feature",
            "properties": {
                "name": "DIESEL CAFE' DI QUARTA PIERLUIGI",
                "id": "28344",
                "brand": "Api-Ip",
                "amenity": "fuel",
                "operator": "QUARTA PIERLUIGI"
            },
            "geometry": {
                "type": "Point",
                "coordinates": [
                    18.051677048206326,
                    40.34511233016727
                ]
            }
        },
        {
            "type": "Feature",
            "properties": {
                "name": "AvioLamp",
                "id": "31254",
                "amenity": "fuel",
                "operator": "SCHIAVONE VALERIO"
            },
            "geometry": {
                "type": "Point",
                "coordinates": [
                    17.93791651725769,
                    40.4000488920094
                ]
            }
        },
        {
            "type": "Feature",
            "properties": {
                "name": "MENGA PETROLI",
                "id": "27410",
                "amenity": "fuel",
                "operator": "NEW GENERATION DI GUERRIERI EMANUELA- SOCIETA' IN ACCOMANDITA SEMPLICE"
            },
            "geometry": {
                "type": "Point",
                "coordinates": [
                    17.969073057174683,
                    40.393188663105924
                ]
            }
        },
        {
            "type": "Feature",
            "properties": {
                "name": "IP",
                "id": "27130",
                "brand": "Api-Ip",
                "amenity": "fuel",
                "operator": "TONDO ANTONIO"
            },
            "geometry": {
                "type": "Point",
                "coordinates": [
                    18.09584101111454,
                    40.33535758482891
                ]
            }
        }
    ]
}