{
    "type": "FeatureCollection",
    "features": [
        {
            "type": "Feature",
            "properties": {
                "name": "AVIO LAMP DI D'ONOFRIO MARCO",
                "id": "12727",
                "amenity": "fuel",
                "operator": "AVIOLAMP DI D'ONOFRIO MARCO"
            },
            "geometry": {
                "type": "Point",
                "coordinates": [
                    18.079786598682404,
                    39.976054992391255
                ]
            }
        },
        {
            "type": "Feature",
            "properties": {
                "name": "AVIOLAMP SAS via per Gallipoli - Racale LE",
                "id": "10337",
                "amenity": "fuel",
                "operator": "AVIO LAMP DI MANCO MARIA SILVANA & C. S.A.S."
            },
            "geometry": {
                "type": "Point",
                "coordinates": [
                    18.08902680873871,
                    39.97036702053176
                ]
            }
        },
        {
            "type": "Feature",
            "properties": {
                "name": "Stazione di servizio di Bruno Massimo",
                "id": "31095",
                "brand": "Tamoil",
                "amenity": "fuel",
                "operator": "BRUNO MASSIMO"
            },
            "geometry": {
                "type": "Point",
                "coordinates": [
                    18.091113567352295,
                    39.95457708864258
                ]
            }
        },
        {
            "type": "Feature",
            "properties": {
                "name": "TOTALERG",
                "id": "14966",
                "brand": "Total Erg",
                "amenity": "fuel",
                "operator": "FA.LUI. S.N.C. DEI FRATELLI LUIGI E FABIO FRACASSO"
            },
            "geometry": {
                "type": "Point",
                "coordinates": [
                    18.081403364418065,
                    39.983958089838055
                ]
            }
        },
        {
            "type": "Feature",
            "properties": {
                "name": "CAMER",
                "id": "12870",
                "amenity": "fuel",
                "operator": "STAZIONE DI RIFORNIMENTO CAMER DI ANGELE' EMANUELE"
            },
            "geometry": {
                "type": "Point",
                "coordinates": [
                    18.086556494235992,
                    39.976120765532805
                ]
            }
        },
        {
            "type": "Feature",
            "properties": {
                "name": "AVIOLAMP SAS TORRE SUDA",
                "id": "30034",
                "amenity": "fuel",
                "operator": "AVIO LAMP DI GIANNELLI EMANUELE & C. S.A.S."
            },
            "geometry": {
                "type": "Point",
                "coordinates": [
                    18.03233429789543,
                    39.950297887910146
                ]
            }
        },
        {
            "type": "Feature",
            "properties": {
                "name": "ENI",
                "id": "20654",
                "brand": "Agip Eni",
                "amenity": "fuel",
                "operator": "B.S.G. BUILDING SERVICE GROUP S.R.L."
            },
            "geometry": {
                "type": "Point",
                "coordinates": [
                    18.08904254232789,
                    39.96891766624326
                ]
            }
        },
        {
            "type": "Feature",
            "properties": {
                "name": "ENI",
                "id": "15456",
                "brand": "Agip Eni",
                "amenity": "fuel",
                "operator": "STEFANELLI CESARIO LUDOVICO"
            },
            "geometry": {
                "type": "Point",
                "coordinates": [
                    18.083674183449716,
                    39.981716287195994
                ]
            }
        },
        {
            "type": "Feature",
            "properties": {
                "name": "CAMER",
                "id": "14591",
                "amenity": "fuel",
                "operator": "PALUMBO & PETRACCA DI PALUMBO GIORGIO E PETRACCA MARILENA S.N.C."
            },
            "geometry": {
                "type": "Point",
                "coordinates": [
                    18.06948289275169,
                    39.995596285064615
                ]
            }
        },
        {
            "type": "Feature",
            "properties": {
                "name": "GENERAL MOTO DI SCORRANO ANTONIO\\t",
                "id": "12845",
                "amenity": "fuel",
                "operator": "GENERAL MOTO DI SCORRANO ANTONIO"
            },
            "geometry": {
                "type": "Point",
                "coordinates": [
                    18.08890294662706,
                    39.94920201579416
                ]
            }
        },
        {
            "type": "Feature",
            "properties": {
                "name": "Totalerg",
                "id": "31431",
                "brand": "Total Erg",
                "amenity": "fuel",
                "operator": "VENNERI SEBASTIANO"
            },
            "geometry": {
                "type": "Point",
                "coordinates": [
                    18.09034377336502,
                    39.967226840286806
                ]
            }
        },
        {
            "type": "Feature",
            "properties": {
                "name": "Stazione di Servizio Eni",
                "id": "32121",
                "brand": "Agip Eni",
                "amenity": "fuel",
                "operator": "OLTREMARINI LUCIA"
            },
            "geometry": {
                "type": "Point",
                "coordinates": [
                    18.027873784303665,
                    40.034066128559495
                ]
            }
        },
        {
            "type": "Feature",
            "properties": {
                "name": "STAZIONE DI SERVIZIO TOTALERG",
                "id": "27594",
                "brand": "Total Erg",
                "amenity": "fuel",
                "operator": "SCHITO ANDREA"
            },
            "geometry": {
                "type": "Point",
                "coordinates": [
                    18.09098125120397,
                    39.960942860488714
                ]
            }
        },
        {
            "type": "Feature",
            "properties": {
                "name": "totalerg",
                "id": "27048",
                "brand": "Total Erg",
                "amenity": "fuel",
                "operator": "LI.MA. S.N.C. DI LIVIELLO ROSSELLA & MARGARI QUINTINO"
            },
            "geometry": {
                "type": "Point",
                "coordinates": [
                    18.10343563556671,
                    39.96444791945585
                ]
            }
        },
        {
            "type": "Feature",
            "properties": {
                "name": "AVIO LAMP SAS - Via Roma Racale (LE)",
                "id": "10340",
                "amenity": "fuel",
                "operator": "AVIO LAMP DI MANCO MARIA SILVANA & C. S.A.S."
            },
            "geometry": {
                "type": "Point",
                "coordinates": [
                    18.096282116535804,
                    39.95964110492482
                ]
            }
        }
    ]
}