{
    "type": "FeatureCollection",
    "features": [
        {
            "type": "Feature",
            "properties": {
                "name": "APULIA PETROLI",
                "id": "4781",
                "amenity": "fuel",
                "operator": "APULIA PETROLI S.R.L."
            },
            "geometry": {
                "type": "Point",
                "coordinates": [
                    18.162778640847822,
                    40.27626452535166
                ]
            }
        },
        {
            "type": "Feature",
            "properties": {
                "name": "Esso",
                "id": "27418",
                "brand": "Esso",
                "amenity": "fuel",
                "operator": "COLUCCIA MARIO"
            },
            "geometry": {
                "type": "Point",
                "coordinates": [
                    18.16855162382126,
                    40.18448242323204
                ]
            }
        },
        {
            "type": "Feature",
            "properties": {
                "name": "Totalerg San Donato di Lecce",
                "id": "18558",
                "brand": "Total Erg",
                "amenity": "fuel",
                "operator": "GIGANTE FILIPPO"
            },
            "geometry": {
                "type": "Point",
                "coordinates": [
                    18.17972197056963,
                    40.27023088216302
                ]
            }
        },
        {
            "type": "Feature",
            "properties": {
                "name": "EDB Carburanti",
                "id": "27491",
                "amenity": "fuel",
                "operator": "STAZIONE DI SERVIZIO DI BRUNO DAVID"
            },
            "geometry": {
                "type": "Point",
                "coordinates": [
                    18.179060518741608,
                    40.270688950156575
                ]
            }
        },
        {
            "type": "Feature",
            "properties": {
                "name": "CAVALLINO CENTRO COMMERCIALE LECLERC",
                "id": "10140",
                "brand": "Q8",
                "amenity": "fuel",
                "operator": "SERVIZI & GESTIONI ITALIA S.R.L."
            },
            "geometry": {
                "type": "Point",
                "coordinates": [
                    18.199177086353302,
                    40.2918119082552
                ]
            }
        },
        {
            "type": "Feature",
            "properties": {
                "name": "STAZIONE DI SERVIZIO Q8 DI MINGIANO MAURIZIO",
                "id": "27303",
                "brand": "Q8",
                "amenity": "fuel",
                "operator": "MINGIANO MAURIZIO"
            },
            "geometry": {
                "type": "Point",
                "coordinates": [
                    18.215694257211226,
                    40.30685595147307
                ]
            }
        },
        {
            "type": "Feature",
            "properties": {
                "name": "METALUPIAE SRL",
                "id": "4805",
                "amenity": "fuel",
                "operator": "METALUPIAE SRL"
            },
            "geometry": {
                "type": "Point",
                "coordinates": [
                    18.16714346408844,
                    40.2185861126487
                ]
            }
        },
        {
            "type": "Feature",
            "properties": {
                "name": "Galatina - STRADA PROV.LE PER LECCE",
                "id": "26639",
                "brand": "Q8",
                "amenity": "fuel",
                "operator": "SERVIZI & GESTIONI ITALIA S.R.L."
            },
            "geometry": {
                "type": "Point",
                "coordinates": [
                    18.16861611163938,
                    40.18166273919462
                ]
            }
        },
        {
            "type": "Feature",
            "properties": {
                "name": "TAMOIL",
                "id": "21727",
                "brand": "Tamoil",
                "amenity": "fuel",
                "operator": "CASTELLANO PANTALEO"
            },
            "geometry": {
                "type": "Point",
                "coordinates": [
                    18.251937478780746,
                    40.196338879035814
                ]
            }
        },
        {
            "type": "Feature",
            "properties": {
                "name": "pit stop carburanti di spagnolo angelo",
                "id": "21766",
                "brand": "Q8",
                "amenity": "fuel",
                "operator": "PIT STOP CARBURANTI DI SPAGNOLO ANGELO"
            },
            "geometry": {
                "type": "Point",
                "coordinates": [
                    18.131620501710472,
                    40.28744124540462
                ]
            }
        },
        {
            "type": "Feature",
            "properties": {
                "name": "AREA SERVIZIO DE LORENZIS",
                "id": "26413",
                "brand": "Api-Ip",
                "amenity": "fuel",
                "operator": "DE LORENZIS MARIA CRISTINA"
            },
            "geometry": {
                "type": "Point",
                "coordinates": [
                    18.167575299739838,
                    40.19258173832819
                ]
            }
        },
        {
            "type": "Feature",
            "properties": {
                "name": "preite petroli",
                "id": "27128",
                "amenity": "fuel",
                "operator": "FORLETTI S.N.C. DI FORLETTI GABRIELE E FORLETTI LUIGI"
            },
            "geometry": {
                "type": "Point",
                "coordinates": [
                    18.149690330028534,
                    40.18475044880282
                ]
            }
        },
        {
            "type": "Feature",
            "properties": {
                "name": "MARGARI DEMETRIO",
                "id": "20156",
                "brand": "Api-Ip",
                "amenity": "fuel",
                "operator": "MARGARI DEMETRIO"
            },
            "geometry": {
                "type": "Point",
                "coordinates": [
                    18.187972735012863,
                    40.180646271573686
                ]
            }
        },
        {
            "type": "Feature",
            "properties": {
                "name": "PV 8642",
                "id": "9820",
                "brand": "Q8",
                "amenity": "fuel",
                "operator": "CARBURANTI CASTELLANO MICHELANGELO GIOVANNI & C. S.A.S."
            },
            "geometry": {
                "type": "Point",
                "coordinates": [
                    18.245820297991145,
                    40.20705571693394
                ]
            }
        },
        {
            "type": "Feature",
            "properties": {
                "name": "SAN CESARIO DI LECCE VIA CIRCONVALLAZIONE 37",
                "id": "25208",
                "brand": "Q8",
                "amenity": "fuel",
                "operator": "SERVIZI & GESTIONI ITALIA S.R.L."
            },
            "geometry": {
                "type": "Point",
                "coordinates": [
                    18.16118326382366,
                    40.308690199999994
                ]
            }
        },
        {
            "type": "Feature",
            "properties": {
                "name": "CHIRIATTI SALVATORE",
                "id": "19604",
                "brand": "Agip Eni",
                "amenity": "fuel",
                "operator": "CHIRIATTI SALVATORE"
            },
            "geometry": {
                "type": "Point",
                "coordinates": [
                    18.237014968061885,
                    40.270645711949044
                ]
            }
        }
    ]
}