{
    "type": "FeatureCollection",
    "features": [
        {
            "type": "Feature",
            "properties": {
                "name": "IP Est service srl",
                "id": "15192",
                "brand": "Api-Ip",
                "amenity": "fuel",
                "operator": "EST SERVICE - SOCIETA' A RESPONSABILITA' LIMITATA"
            },
            "geometry": {
                "type": "Point",
                "coordinates": [
                    18.193171620368958,
                    40.32880404070503
                ]
            }
        },
        {
            "type": "Feature",
            "properties": {
                "name": "LECCE TANGENZIALE OVEST DIR.BRINDISI",
                "id": "24671",
                "brand": "Total Erg",
                "amenity": "fuel",
                "operator": "TOTALERG S.P.A."
            },
            "geometry": {
                "type": "Point",
                "coordinates": [
                    18.136420913079633,
                    40.33208042505923
                ]
            }
        },
        {
            "type": "Feature",
            "properties": {
                "name": "totalerg",
                "id": "27894",
                "brand": "Total Erg",
                "amenity": "fuel",
                "operator": "SAMBATI MARCO"
            },
            "geometry": {
                "type": "Point",
                "coordinates": [
                    18.162099570035934,
                    40.34890475195903
                ]
            }
        },
        {
            "type": "Feature",
            "properties": {
                "name": "CINO & PETRELLI S.A.S. DI LORETA CINO E COSIMO PETRELLI",
                "id": "27131",
                "brand": "Agip Eni",
                "amenity": "fuel",
                "operator": "CINO & PETRELLI  S.A.S.  DI LORETA CINO E COSIMO PETRELLI"
            },
            "geometry": {
                "type": "Point",
                "coordinates": [
                    18.11094582080841,
                    40.337211993279695
                ]
            }
        },
        {
            "type": "Feature",
            "properties": {
                "name": "eni porta d'europa",
                "id": "22243",
                "brand": "Agip Eni",
                "amenity": "fuel",
                "operator": "DE VITIS RAFFAELE"
            },
            "geometry": {
                "type": "Point",
                "coordinates": [
                    18.176536560058594,
                    40.38772678068083
                ]
            }
        },
        {
            "type": "Feature",
            "properties": {
                "name": "LECCE VIA MONTERONI",
                "id": "6772",
                "brand": "Q8",
                "amenity": "fuel",
                "operator": "SERVIZI & GESTIONI ITALIA srl"
            },
            "geometry": {
                "type": "Point",
                "coordinates": [
                    18.15200182883609,
                    40.3467330667193
                ]
            }
        },
        {
            "type": "Feature",
            "properties": {
                "name": "stazione esso on the run cafe'",
                "id": "28603",
                "brand": "Esso",
                "amenity": "fuel",
                "operator": "POSATI S.A.S. DI PASCALI LUANA & C."
            },
            "geometry": {
                "type": "Point",
                "coordinates": [
                    18.215855062007908,
                    40.374665986796074
                ]
            }
        },
        {
            "type": "Feature",
            "properties": {
                "name": "CO.GEST. SRL CAVALLINO",
                "id": "11093",
                "brand": "Q8",
                "amenity": "fuel",
                "operator": "CO.GEST. - COORDINAMENTO GESTIONI - S.R.L."
            },
            "geometry": {
                "type": "Point",
                "coordinates": [
                    18.183284997940063,
                    40.32379541118011
                ]
            }
        },
        {
            "type": "Feature",
            "properties": {
                "name": "TOTALERG",
                "id": "18682",
                "brand": "Total Erg",
                "amenity": "fuel",
                "operator": "EVANGELISTA PASQUALE & C. *S.N.C."
            },
            "geometry": {
                "type": "Point",
                "coordinates": [
                    18.162418220643758,
                    40.313753311342985
                ]
            }
        },
        {
            "type": "Feature",
            "properties": {
                "name": "Lecce NUOVA TANGENZIALE EST DIR NORD",
                "id": "23940",
                "brand": "Total Erg",
                "amenity": "fuel",
                "operator": "TOTALERG S.P.A."
            },
            "geometry": {
                "type": "Point",
                "coordinates": [
                    18.193552494049072,
                    40.32820492234916
                ]
            }
        },
        {
            "type": "Feature",
            "properties": {
                "name": "Agape Service",
                "id": "17678",
                "brand": "Total Erg",
                "amenity": "fuel",
                "operator": "AGAPE SERVICE DI ENRICO GRECO & C. S.N.C."
            },
            "geometry": {
                "type": "Point",
                "coordinates": [
                    18.204385936260223,
                    40.351709682243886
                ]
            }
        },
        {
            "type": "Feature",
            "properties": {
                "name": "TOTAL ERG",
                "id": "27954",
                "brand": "Total Erg",
                "amenity": "fuel",
                "operator": "GAROIL DI ANDREA GARGIULO"
            },
            "geometry": {
                "type": "Point",
                "coordinates": [
                    18.15637479558336,
                    40.35930829238813
                ]
            }
        },
        {
            "type": "Feature",
            "properties": {
                "name": "ESSO",
                "id": "17422",
                "brand": "Esso",
                "amenity": "fuel",
                "operator": "COLUCCIA ELGA"
            },
            "geometry": {
                "type": "Point",
                "coordinates": [
                    18.2152706928955,
                    40.37450333875209
                ]
            }
        },
        {
            "type": "Feature",
            "properties": {
                "name": "LECCE VIA GIAMMATTEO",
                "id": "6761",
                "brand": "Q8",
                "amenity": "fuel",
                "operator": "SERVIZI & GESTIONI ITALIA srl"
            },
            "geometry": {
                "type": "Point",
                "coordinates": [
                    18.17769404418027,
                    40.369906511222325
                ]
            }
        },
        {
            "type": "Feature",
            "properties": {
                "name": "ANTONIO PAREO",
                "id": "18920",
                "brand": "Agip Eni",
                "amenity": "fuel",
                "operator": "PAREO ANTONIO"
            },
            "geometry": {
                "type": "Point",
                "coordinates": [
                    18.16246032714844,
                    40.366357935986464
                ]
            }
        },
        {
            "type": "Feature",
            "properties": {
                "name": "EniCaf√® Arseni Sergio",
                "id": "17435",
                "brand": "Agip Eni",
                "amenity": "fuel",
                "operator": "ARSENI SERGIO"
            },
            "geometry": {
                "type": "Point",
                "coordinates": [
                    18.181904458847043,
                    40.32838949125756
                ]
            }
        },
        {
            "type": "Feature",
            "properties": {
                "name": "eni s. oronzo",
                "id": "26138",
                "brand": "Agip Eni",
                "amenity": "fuel",
                "operator": "DECAR S.R.L."
            },
            "geometry": {
                "type": "Point",
                "coordinates": [
                    18.1760162115097,
                    40.38707547641108
                ]
            }
        },
        {
            "type": "Feature",
            "properties": {
                "name": "Saponaro Andrea & C. s.a.s.",
                "id": "19766",
                "brand": "Agip Eni",
                "amenity": "fuel",
                "operator": "SAPONARO ANDREA & C. S.A.S."
            },
            "geometry": {
                "type": "Point",
                "coordinates": [
                    18.17636489868164,
                    40.362235817748235
                ]
            }
        },
        {
            "type": "Feature",
            "properties": {
                "name": "ANNAMARIA BONUSO",
                "id": "17018",
                "brand": "Agip Eni",
                "amenity": "fuel",
                "operator": "BONUSO ANNA MARIA"
            },
            "geometry": {
                "type": "Point",
                "coordinates": [
                    18.159582316875458,
                    40.34775633625276
                ]
            }
        },
        {
            "type": "Feature",
            "properties": {
                "name": "gravili giuliano",
                "id": "20652",
                "brand": "Q8",
                "amenity": "fuel",
                "operator": "GRAVILI GIULIANO"
            },
            "geometry": {
                "type": "Point",
                "coordinates": [
                    18.187809499247237,
                    40.35686875277273
                ]
            }
        },
        {
            "type": "Feature",
            "properties": {
                "name": "GESER SRL",
                "id": "23830",
                "brand": "Api-Ip",
                "amenity": "fuel",
                "operator": "GESER S.R.L."
            },
            "geometry": {
                "type": "Point",
                "coordinates": [
                    18.13407987356186,
                    40.38592239901518
                ]
            }
        },
        {
            "type": "Feature",
            "properties": {
                "name": "TOTALERG",
                "id": "30252",
                "brand": "Total Erg",
                "amenity": "fuel",
                "operator": "ERRICO ALESSANDRO"
            },
            "geometry": {
                "type": "Point",
                "coordinates": [
                    18.13344673022459,
                    40.3142782778469
                ]
            }
        },
        {
            "type": "Feature",
            "properties": {
                "name": "Q8",
                "id": "29360",
                "brand": "Q8",
                "amenity": "fuel",
                "operator": "GIACOVAZZO GIANPAOLO"
            },
            "geometry": {
                "type": "Point",
                "coordinates": [
                    18.155963498811392,
                    40.359451445127455
                ]
            }
        },
        {
            "type": "Feature",
            "properties": {
                "name": "De Vitis Davide",
                "id": "22255",
                "brand": "Agip Eni",
                "amenity": "fuel",
                "operator": "DE VITIS DAVIDE"
            },
            "geometry": {
                "type": "Point",
                "coordinates": [
                    18.185709714889526,
                    40.34915659130048
                ]
            }
        },
        {
            "type": "Feature",
            "properties": {
                "name": "indaca frei di Dajana Carrozzi",
                "id": "23807",
                "brand": "Agip Eni",
                "amenity": "fuel",
                "operator": "CARROZZI DAJANA"
            },
            "geometry": {
                "type": "Point",
                "coordinates": [
                    18.27698935303954,
                    40.31606615565217
                ]
            }
        },
        {
            "type": "Feature",
            "properties": {
                "name": "SURBO",
                "id": "5950",
                "brand": "Total Erg",
                "amenity": "fuel",
                "operator": "GESTIONI EUROPA S.p.A."
            },
            "geometry": {
                "type": "Point",
                "coordinates": [
                    18.1416730932541,
                    40.37602051999193
                ]
            }
        },
        {
            "type": "Feature",
            "properties": {
                "name": "esso",
                "id": "26501",
                "brand": "Esso",
                "amenity": "fuel",
                "operator": "RUSSO CESARIO SALVATORE"
            },
            "geometry": {
                "type": "Point",
                "coordinates": [
                    18.16243350505829,
                    40.3162983357717
                ]
            }
        },
        {
            "type": "Feature",
            "properties": {
                "name": "LECCE - ORSINI DUCAS",
                "id": "24962",
                "brand": "Api-Ip",
                "amenity": "fuel",
                "operator": "IP SERVICES S.R.L."
            },
            "geometry": {
                "type": "Point",
                "coordinates": [
                    18.16045364418028,
                    40.347283646373995
                ]
            }
        },
        {
            "type": "Feature",
            "properties": {
                "name": "demoil",
                "id": "22929",
                "brand": "Api-Ip",
                "amenity": "fuel",
                "operator": "DEMO OIL S.N.C. DI DE PASCALIS MAURIZIO E C."
            },
            "geometry": {
                "type": "Point",
                "coordinates": [
                    18.175585728836037,
                    40.3364185546755
                ]
            }
        },
        {
            "type": "Feature",
            "properties": {
                "name": "Stazione Esso",
                "id": "19889",
                "brand": "Esso",
                "amenity": "fuel",
                "operator": "CARAGNULO SAVERIO"
            },
            "geometry": {
                "type": "Point",
                "coordinates": [
                    18.148388117551804,
                    40.34557269800639
                ]
            }
        },
        {
            "type": "Feature",
            "properties": {
                "name": "LECCE - VIA ROMA",
                "id": "31875",
                "brand": "Q8",
                "amenity": "fuel",
                "operator": "SERVIZI & GESTIONI ITALIA S.R.L."
            },
            "geometry": {
                "type": "Point",
                "coordinates": [
                    18.204743073680106,
                    40.361864137261364
                ]
            }
        },
        {
            "type": "Feature",
            "properties": {
                "name": "BI ESSE GESTIONI s.a.s DI BOVE SERGIO",
                "id": "21172",
                "brand": "Agip Eni",
                "amenity": "fuel",
                "operator": "BI ESSE GESTIONI S.A.S. DI BOVE SERGIO"
            },
            "geometry": {
                "type": "Point",
                "coordinates": [
                    18.19844216108322,
                    40.36083665178734
                ]
            }
        },
        {
            "type": "Feature",
            "properties": {
                "name": "PAREO ANTONIO",
                "id": "18921",
                "brand": "Agip Eni",
                "amenity": "fuel",
                "operator": "PAREO ANTONIO"
            },
            "geometry": {
                "type": "Point",
                "coordinates": [
                    18.13014104962349,
                    40.393095102296435
                ]
            }
        },
        {
            "type": "Feature",
            "properties": {
                "name": "IMPIANTO Q8 DI CAZZETTA ANTONIO",
                "id": "9863",
                "brand": "Q8",
                "amenity": "fuel",
                "operator": "CAZZETTA ANTONIO"
            },
            "geometry": {
                "type": "Point",
                "coordinates": [
                    18.187002539634705,
                    40.34244180734904
                ]
            }
        },
        {
            "type": "Feature",
            "properties": {
                "name": "DELTA OIL COMPANY SRL",
                "id": "11077",
                "brand": "Q8",
                "amenity": "fuel",
                "operator": "DELTA OIL COMPANY S.R.L."
            },
            "geometry": {
                "type": "Point",
                "coordinates": [
                    18.2028865814209,
                    40.344634787154604
                ]
            }
        },
        {
            "type": "Feature",
            "properties": {
                "name": "Stazione di Servizio Eni",
                "id": "13174",
                "brand": "Agip Eni",
                "amenity": "fuel",
                "operator": "SPINETTA RAFFAELE"
            },
            "geometry": {
                "type": "Point",
                "coordinates": [
                    18.153080642223358,
                    40.355943634623195
                ]
            }
        },
        {
            "type": "Feature",
            "properties": {
                "name": "PV 56420",
                "id": "26232",
                "brand": "Agip Eni",
                "amenity": "fuel",
                "operator": "GESTIONI INNOVATIVE ITALIA S.R.L."
            },
            "geometry": {
                "type": "Point",
                "coordinates": [
                    18.165070116519928,
                    40.32842085089302
                ]
            }
        },
        {
            "type": "Feature",
            "properties": {
                "name": "LECCE - RISORGIMENTO",
                "id": "25343",
                "brand": "Api-Ip",
                "amenity": "fuel",
                "operator": "IP SERVICES S.R.L."
            },
            "geometry": {
                "type": "Point",
                "coordinates": [
                    18.15792145767216,
                    40.362832699722574
                ]
            }
        },
        {
            "type": "Feature",
            "properties": {
                "name": "eni pv 19365",
                "id": "28090",
                "brand": "Agip Eni",
                "amenity": "fuel",
                "operator": "NOCITA LUCIANO"
            },
            "geometry": {
                "type": "Point",
                "coordinates": [
                    18.186680674552917,
                    40.360395599909396
                ]
            }
        },
        {
            "type": "Feature",
            "properties": {
                "name": "ENI",
                "id": "23415",
                "brand": "Agip Eni",
                "amenity": "fuel",
                "operator": "INGROSSO S. S.N.C. DI INGROSSO SARA E LICCARDI ROBERTO"
            },
            "geometry": {
                "type": "Point",
                "coordinates": [
                    18.186120092868805,
                    40.352914446006466
                ]
            }
        },
        {
            "type": "Feature",
            "properties": {
                "name": "TAMOIL",
                "id": "21316",
                "brand": "Tamoil",
                "amenity": "fuel",
                "operator": "DE VITIS PIETRO LUIGI"
            },
            "geometry": {
                "type": "Point",
                "coordinates": [
                    18.16861204841007,
                    40.367616489702904
                ]
            }
        }
    ]
}