{
    "type": "FeatureCollection",
    "features": [
        {
            "type": "Feature",
            "properties": {
                "name": "API IP",
                "id": "26807",
                "brand": "Api-Ip",
                "amenity": "fuel",
                "operator": "NON SOLO CARBURANTI S.A.S. DI GALLO CARMELINA  &  C."
            },
            "geometry": {
                "type": "Point",
                "coordinates": [
                    18.2388174533844,
                    39.959695328745745
                ]
            }
        },
        {
            "type": "Feature",
            "properties": {
                "name": "ENI S.p.A.  CAMILLI ANDREA",
                "id": "8518",
                "brand": "Agip Eni",
                "amenity": "fuel",
                "operator": "CAMILLI ANDREA"
            },
            "geometry": {
                "type": "Point",
                "coordinates": [
                    18.158142475918567,
                    40.01399782944539
                ]
            }
        },
        {
            "type": "Feature",
            "properties": {
                "name": "R&G di DE IACO GIOVANNI",
                "id": "21832",
                "brand": "Api-Ip",
                "amenity": "fuel",
                "operator": "R&G DI DE IACO GIOVANNI"
            },
            "geometry": {
                "type": "Point",
                "coordinates": [
                    18.25517624616623,
                    39.98525809500483
                ]
            }
        },
        {
            "type": "Feature",
            "properties": {
                "name": "TAURISANO VIA CASARANO N. 34",
                "id": "23552",
                "brand": "Q8",
                "amenity": "fuel",
                "operator": "SERVIZI & GESTIONI ITALIA S.R.L."
            },
            "geometry": {
                "type": "Point",
                "coordinates": [
                    18.207179493778998,
                    39.96457811174285
                ]
            }
        },
        {
            "type": "Feature",
            "properties": {
                "name": "Bianca24",
                "id": "26744",
                "amenity": "fuel",
                "operator": "EUROAMBIENTE SRL"
            },
            "geometry": {
                "type": "Point",
                "coordinates": [
                    18.11725835503239,
                    39.967825176763206
                ]
            }
        },
        {
            "type": "Feature",
            "properties": {
                "name": "DE VITIS MICHELE",
                "id": "14553",
                "amenity": "fuel",
                "operator": "DE VITIS MICHELE"
            },
            "geometry": {
                "type": "Point",
                "coordinates": [
                    18.2394839823246,
                    40.02116254698917
                ]
            }
        },
        {
            "type": "Feature",
            "properties": {
                "name": "BASILE PETROLI",
                "id": "18797",
                "amenity": "fuel",
                "operator": "SINDACO ANTONIO"
            },
            "geometry": {
                "type": "Point",
                "coordinates": [
                    18.160432643855753,
                    40.01691102650409
                ]
            }
        },
        {
            "type": "Feature",
            "properties": {
                "name": "AVIOLAMP SAS FELLINE",
                "id": "10327",
                "amenity": "fuel",
                "operator": "AVIO LAMP DI MANCO MARIA SILVANA & C. S.A.S."
            },
            "geometry": {
                "type": "Point",
                "coordinates": [
                    18.116648197174072,
                    39.93428572665113
                ]
            }
        },
        {
            "type": "Feature",
            "properties": {
                "name": "AvioLamp",
                "id": "29548",
                "amenity": "fuel",
                "operator": "SIMEONE DANILO"
            },
            "geometry": {
                "type": "Point",
                "coordinates": [
                    18.120765388011932,
                    39.96968703044085
                ]
            }
        },
        {
            "type": "Feature",
            "properties": {
                "name": "totalerg",
                "id": "27315",
                "brand": "Total Erg",
                "amenity": "fuel",
                "operator": "STEFANO GIOVANNI"
            },
            "geometry": {
                "type": "Point",
                "coordinates": [
                    18.155907690525055,
                    40.01661636236399
                ]
            }
        },
        {
            "type": "Feature",
            "properties": {
                "name": "esso",
                "id": "31504",
                "brand": "Esso",
                "amenity": "fuel",
                "operator": "VINCI DARIO"
            },
            "geometry": {
                "type": "Point",
                "coordinates": [
                    18.1307190656662,
                    40.03776180559758
                ]
            }
        },
        {
            "type": "Feature",
            "properties": {
                "name": "totalerg",
                "id": "17080",
                "brand": "Total Erg",
                "amenity": "fuel",
                "operator": "RIZZELLO LEONARDO"
            },
            "geometry": {
                "type": "Point",
                "coordinates": [
                    18.12696397304535,
                    39.98274708507272
                ]
            }
        },
        {
            "type": "Feature",
            "properties": {
                "name": "API IP",
                "id": "26713",
                "brand": "Api-Ip",
                "amenity": "fuel",
                "operator": "CONGEDI SERGIO"
            },
            "geometry": {
                "type": "Point",
                "coordinates": [
                    18.163644882556127,
                    39.93041451743255
                ]
            }
        },
        {
            "type": "Feature",
            "properties": {
                "name": "TOTALERG",
                "id": "23109",
                "brand": "Total Erg",
                "amenity": "fuel",
                "operator": "PALESE PETROLI S.A.S. DI PALESE MARIO & C."
            },
            "geometry": {
                "type": "Point",
                "coordinates": [
                    18.13089743256569,
                    40.035672897773864
                ]
            }
        },
        {
            "type": "Feature",
            "properties": {
                "name": "Q8\\\\TOIL CASARANO",
                "id": "21665",
                "brand": "Q8",
                "amenity": "fuel",
                "operator": "TOIL S.P.A."
            },
            "geometry": {
                "type": "Point",
                "coordinates": [
                    18.18232105026243,
                    40.029958924221674
                ]
            }
        },
        {
            "type": "Feature",
            "properties": {
                "name": "Q8",
                "id": "21555",
                "brand": "Q8",
                "amenity": "fuel",
                "operator": "CORRADO SIMONA"
            },
            "geometry": {
                "type": "Point",
                "coordinates": [
                    18.246719241142273,
                    39.992726868694874
                ]
            }
        },
        {
            "type": "Feature",
            "properties": {
                "name": "STAZIONE DI SERVIZIO ENI",
                "id": "14656",
                "brand": "Agip Eni",
                "amenity": "fuel",
                "operator": "DE SIMONE PASQUALE"
            },
            "geometry": {
                "type": "Point",
                "coordinates": [
                    18.129577649524435,
                    40.03724735906407
                ]
            }
        },
        {
            "type": "Feature",
            "properties": {
                "name": "stazione di servizio VERGARI SANDRA",
                "id": "17598",
                "amenity": "fuel",
                "operator": "STAZIONE DI SERVIZIO DI SANDRA VERGARI"
            },
            "geometry": {
                "type": "Point",
                "coordinates": [
                    18.237248361110687,
                    40.028451585686526
                ]
            }
        },
        {
            "type": "Feature",
            "properties": {
                "name": "CHIRIVI' SALVATORE",
                "id": "23252",
                "brand": "Api-Ip",
                "amenity": "fuel",
                "operator": "CHIRIVI' SALVATORE"
            },
            "geometry": {
                "type": "Point",
                "coordinates": [
                    18.16449215794978,
                    39.929019796691136
                ]
            }
        },
        {
            "type": "Feature",
            "properties": {
                "name": "GAAR S.N.C. di Rodigliano Antonio",
                "id": "22785",
                "amenity": "fuel",
                "operator": "GAAR DI RODIGLIANO ANTONIO S.N.C."
            },
            "geometry": {
                "type": "Point",
                "coordinates": [
                    18.15512716770172,
                    39.91996735627569
                ]
            }
        },
        {
            "type": "Feature",
            "properties": {
                "name": "CAMER GEMINI",
                "id": "12334",
                "brand": "Camer",
                "amenity": "fuel",
                "operator": "CAMER PETROLEUM EUROPA S.R.L."
            },
            "geometry": {
                "type": "Point",
                "coordinates": [
                    18.185161563273596,
                    39.912760923984756
                ]
            }
        },
        {
            "type": "Feature",
            "properties": {
                "name": "MARTINESE VIA TAURISANO-UGENTO",
                "id": "24102",
                "amenity": "fuel",
                "operator": "MARTINESE CARBURANTI DI MARTINESE GRAZIANO"
            },
            "geometry": {
                "type": "Point",
                "coordinates": [
                    18.20281282067299,
                    39.9518770206589
                ]
            }
        },
        {
            "type": "Feature",
            "properties": {
                "name": "Totalerg di Vergaro Dennis",
                "id": "27127",
                "brand": "Total Erg",
                "amenity": "fuel",
                "operator": "VERGARO DENNIS LUIGI"
            },
            "geometry": {
                "type": "Point",
                "coordinates": [
                    18.252900038653593,
                    39.97677204954026
                ]
            }
        },
        {
            "type": "Feature",
            "properties": {
                "name": "ENERGIA SICILIANA",
                "id": "16521",
                "brand": "Agip Eni",
                "amenity": "fuel",
                "operator": "RICCHIUTO CARLO ALBERTO"
            },
            "geometry": {
                "type": "Point",
                "coordinates": [
                    18.23654696345329,
                    39.91711122251937
                ]
            }
        }
    ]
}