{
    "type": "FeatureCollection",
    "features": [
        {
            "type": "Feature",
            "properties": {
                "name": "_Eni",
                "id": "8544",
                "brand": "Agip Eni",
                "amenity": "fuel",
                "operator": "VERGINE DARIO"
            },
            "geometry": {
                "type": "Point",
                "coordinates": [
                    18.20021939670812,
                    40.131384985562775
                ]
            }
        },
        {
            "type": "Feature",
            "properties": {
                "name": "COLLEPASSO",
                "id": "28837",
                "brand": "Esso",
                "amenity": "fuel",
                "operator": "PENTA PETROLI SRL"
            },
            "geometry": {
                "type": "Point",
                "coordinates": [
                    18.196422457695007,
                    40.06942560094364
                ]
            }
        },
        {
            "type": "Feature",
            "properties": {
                "name": "basile petroli",
                "id": "16026",
                "amenity": "fuel",
                "operator": "LAZZOI GIUSEPPE"
            },
            "geometry": {
                "type": "Point",
                "coordinates": [
                    18.191308826208115,
                    40.15243179985353
                ]
            }
        },
        {
            "type": "Feature",
            "properties": {
                "name": "Eni",
                "id": "28339",
                "brand": "Agip Eni",
                "amenity": "fuel",
                "operator": "SPAGNOLO MASSIMO CARBURANTI"
            },
            "geometry": {
                "type": "Point",
                "coordinates": [
                    18.178309500217438,
                    40.1775531431796
                ]
            }
        },
        {
            "type": "Feature",
            "properties": {
                "name": "CAMER GALATINA 2",
                "id": "31577",
                "brand": "Camer",
                "amenity": "fuel",
                "operator": "CAMER PETROLEUM EUROPA S.R.L."
            },
            "geometry": {
                "type": "Point",
                "coordinates": [
                    18.16466510295868,
                    40.17530078013425
                ]
            }
        },
        {
            "type": "Feature",
            "properties": {
                "name": "TOTALERG",
                "id": "26822",
                "brand": "Total Erg",
                "amenity": "fuel",
                "operator": "GARGANESE SIMONE"
            },
            "geometry": {
                "type": "Point",
                "coordinates": [
                    18.261919672082513,
                    40.162886905415405
                ]
            }
        },
        {
            "type": "Feature",
            "properties": {
                "name": "ENI",
                "id": "15409",
                "brand": "Agip Eni",
                "amenity": "fuel",
                "operator": "PELLEGRINO FRANCESCO"
            },
            "geometry": {
                "type": "Point",
                "coordinates": [
                    18.11138570308685,
                    40.11435123537611
                ]
            }
        },
        {
            "type": "Feature",
            "properties": {
                "name": "ENI",
                "id": "26742",
                "brand": "Agip Eni",
                "amenity": "fuel",
                "operator": "ECO CARBURANTI - SOCIETA' IN ACCOMANDITA SEMPLICE DI ANTONAZZO ANTONIO & C."
            },
            "geometry": {
                "type": "Point",
                "coordinates": [
                    18.119940564047283,
                    40.049429994023264
                ]
            }
        },
        {
            "type": "Feature",
            "properties": {
                "name": "2dsrl",
                "id": "22478",
                "brand": "Agip Eni",
                "amenity": "fuel",
                "operator": "2D S.R.L."
            },
            "geometry": {
                "type": "Point",
                "coordinates": [
                    18.180313110351562,
                    40.16448079223301
                ]
            }
        },
        {
            "type": "Feature",
            "properties": {
                "name": "STAZIONE DI SERVIZIO IP",
                "id": "17129",
                "brand": "Api-Ip",
                "amenity": "fuel",
                "operator": "DI GESU' STEFANO"
            },
            "geometry": {
                "type": "Point",
                "coordinates": [
                    18.110078126192093,
                    40.117138411698406
                ]
            }
        },
        {
            "type": "Feature",
            "properties": {
                "name": "GALATINA VIA CORIGLIANO (IMP. Q8)",
                "id": "6763",
                "brand": "Q8",
                "amenity": "fuel",
                "operator": "SERVIZI & GESTIONI ITALIA srl"
            },
            "geometry": {
                "type": "Point",
                "coordinates": [
                    18.179136539881142,
                    40.17498667088749
                ]
            }
        },
        {
            "type": "Feature",
            "properties": {
                "name": "Basile Petroli",
                "id": "19300",
                "amenity": "fuel",
                "operator": "STAPANE DAVIDE SEBASTIANO"
            },
            "geometry": {
                "type": "Point",
                "coordinates": [
                    18.155945689972892,
                    40.169083731456354
                ]
            }
        },
        {
            "type": "Feature",
            "properties": {
                "name": "AVIOLAMP SAS di CORIGLIANO",
                "id": "10338",
                "amenity": "fuel",
                "operator": "AVIO LAMP DI MANCO MARIA SILVANA & C. S.A.S."
            },
            "geometry": {
                "type": "Point",
                "coordinates": [
                    18.253601789474487,
                    40.12319809529552
                ]
            }
        },
        {
            "type": "Feature",
            "properties": {
                "name": "ENI-MELPIGNANO",
                "id": "27908",
                "brand": "Agip Eni",
                "amenity": "fuel",
                "operator": "STORELLA ROCCO"
            },
            "geometry": {
                "type": "Point",
                "coordinates": [
                    18.272696435451508,
                    40.16204648513112
                ]
            }
        },
        {
            "type": "Feature",
            "properties": {
                "name": "STAZIONE CARBURANTI E GPL DE PAOLIS GIOVANNI",
                "id": "14234",
                "brand": "Agip Eni",
                "amenity": "fuel",
                "operator": "DE PAOLIS GIOVANNI"
            },
            "geometry": {
                "type": "Point",
                "coordinates": [
                    18.2125586271286,
                    40.12492253688157
                ]
            }
        },
        {
            "type": "Feature",
            "properties": {
                "name": "PV 58013",
                "id": "29334",
                "brand": "Agip Eni",
                "amenity": "fuel",
                "operator": "GESTIONI INNOVATIVE ITALIA S.R.L."
            },
            "geometry": {
                "type": "Point",
                "coordinates": [
                    18.173449337482452,
                    40.07151142190762
                ]
            }
        },
        {
            "type": "Feature",
            "properties": {
                "name": "PETRO.OIL srl Q8",
                "id": "4916",
                "brand": "Q8",
                "amenity": "fuel",
                "operator": "PETRO.OIL S.R.L."
            },
            "geometry": {
                "type": "Point",
                "coordinates": [
                    18.164037466049194,
                    40.08967765312724
                ]
            }
        },
        {
            "type": "Feature",
            "properties": {
                "name": "Q8",
                "id": "8368",
                "brand": "Q8",
                "amenity": "fuel",
                "operator": "ALUISI ANTONIO"
            },
            "geometry": {
                "type": "Point",
                "coordinates": [
                    18.13458412885666,
                    40.1342696109727
                ]
            }
        },
        {
            "type": "Feature",
            "properties": {
                "name": "Bovino Carburanti sas",
                "id": "30076",
                "amenity": "fuel",
                "operator": "BOVINO CARBURANTI S.A.S. DI BOVINO  PIETRO SERGIO E BOVINO STEFAN IA"
            },
            "geometry": {
                "type": "Point",
                "coordinates": [
                    18.164258712233732,
                    40.151109078087686
                ]
            }
        },
        {
            "type": "Feature",
            "properties": {
                "name": "ENI",
                "id": "23683",
                "brand": "Agip Eni",
                "amenity": "fuel",
                "operator": "DANIELE E ASSUNTA ELISA CAPUTO S.N.C."
            },
            "geometry": {
                "type": "Point",
                "coordinates": [
                    18.27873945236206,
                    40.15218619778863
                ]
            }
        },
        {
            "type": "Feature",
            "properties": {
                "name": "PETRO.OIL srl Q8",
                "id": "4922",
                "brand": "Q8",
                "amenity": "fuel",
                "operator": "PETRO.OIL S.R.L."
            },
            "geometry": {
                "type": "Point",
                "coordinates": [
                    18.164037466049194,
                    40.08967765312724
                ]
            }
        },
        {
            "type": "Feature",
            "properties": {
                "name": "CAMER GALATINA",
                "id": "12314",
                "brand": "Camer",
                "amenity": "fuel",
                "operator": "CAMER PETROLEUM EUROPA S.R.L."
            },
            "geometry": {
                "type": "Point",
                "coordinates": [
                    18.17986186172186,
                    40.17527321849478
                ]
            }
        },
        {
            "type": "Feature",
            "properties": {
                "name": "ENI",
                "id": "8533",
                "brand": "Agip Eni",
                "amenity": "fuel",
                "operator": "COLI' GIOVANNI FRANCESCO & MARCELLO S.N.C."
            },
            "geometry": {
                "type": "Point",
                "coordinates": [
                    18.203970193862915,
                    40.121324704848135
                ]
            }
        },
        {
            "type": "Feature",
            "properties": {
                "name": "ENI",
                "id": "23894",
                "brand": "Agip Eni",
                "amenity": "fuel",
                "operator": "FADDIMM  S.R.L."
            },
            "geometry": {
                "type": "Point",
                "coordinates": [
                    18.14856300740962,
                    40.06007355540671
                ]
            }
        },
        {
            "type": "Feature",
            "properties": {
                "name": "Bovino Carburanti sas",
                "id": "30075",
                "amenity": "fuel",
                "operator": "BOVINO CARBURANTI S.A.S. DI BOVINO  PIETRO SERGIO E BOVINO STEFAN IA"
            },
            "geometry": {
                "type": "Point",
                "coordinates": [
                    18.168385326862335,
                    40.15566718622709
                ]
            }
        },
        {
            "type": "Feature",
            "properties": {
                "name": "TOTAL ERG",
                "id": "16467",
                "brand": "Total Erg",
                "amenity": "fuel",
                "operator": "SCARCELLA DONATO"
            },
            "geometry": {
                "type": "Point",
                "coordinates": [
                    18.159205466508865,
                    40.17450570811607
                ]
            }
        },
        {
            "type": "Feature",
            "properties": {
                "name": "Buccarella",
                "id": "30143",
                "brand": "Total Erg",
                "amenity": "fuel",
                "operator": "F. CARBURANTI SOCIETA' A RESPONSABILITA' LIMITATA SEMPLIFICATA"
            },
            "geometry": {
                "type": "Point",
                "coordinates": [
                    18.186460733413693,
                    40.16259009165769
                ]
            }
        },
        {
            "type": "Feature",
            "properties": {
                "name": "centro servizi Eni di Antonio Nicoletti",
                "id": "22375",
                "brand": "Agip Eni",
                "amenity": "fuel",
                "operator": "NICOLETTI ANTONIO"
            },
            "geometry": {
                "type": "Point",
                "coordinates": [
                    18.126141875982288,
                    40.044504934576985
                ]
            }
        }
    ]
}