{
    "type": "FeatureCollection",
    "features": [
        {
            "type": "Feature",
            "properties": {
                "name": "totalerg",
                "id": "26125",
                "brand": "Total Erg",
                "amenity": "fuel",
                "operator": "COCCIOLO MARIA BRUNA"
            },
            "geometry": {
                "type": "Point",
                "coordinates": [
                    18.347326571534722,
                    40.143191797938414
                ]
            }
        },
        {
            "type": "Feature",
            "properties": {
                "name": "IP  Pede Luigi & C. snc Giurdignano",
                "id": "19785",
                "brand": "Api-Ip",
                "amenity": "fuel",
                "operator": "PEDE LUIGI & C. S.N.C."
            },
            "geometry": {
                "type": "Point",
                "coordinates": [
                    18.433139572962663,
                    40.12061348827685
                ]
            }
        },
        {
            "type": "Feature",
            "properties": {
                "name": "TOTAL ERG",
                "id": "15663",
                "brand": "Total Erg",
                "amenity": "fuel",
                "operator": "TOMA MARIA ABBONDANZA"
            },
            "geometry": {
                "type": "Point",
                "coordinates": [
                    18.308911936584536,
                    40.12649513917458
                ]
            }
        },
        {
            "type": "Feature",
            "properties": {
                "name": "stazione di servizio san luigi di merico luigi antonio",
                "id": "30016",
                "brand": "Api-Ip",
                "amenity": "fuel",
                "operator": "STAZIONE DI SERVIZIO SAN LUIGI DI MERICO LUIGI ANTONIO"
            },
            "geometry": {
                "type": "Point",
                "coordinates": [
                    18.3732470870018,
                    40.06052083706695
                ]
            }
        },
        {
            "type": "Feature",
            "properties": {
                "name": "totalerg",
                "id": "18733",
                "brand": "Total Erg",
                "amenity": "fuel",
                "operator": "AMATO FRANCESCO"
            },
            "geometry": {
                "type": "Point",
                "coordinates": [
                    18.325554728507996,
                    40.10837610279626
                ]
            }
        },
        {
            "type": "Feature",
            "properties": {
                "name": "totalerg",
                "id": "23062",
                "brand": "Total Erg",
                "amenity": "fuel",
                "operator": "PULIMENO ROCCO"
            },
            "geometry": {
                "type": "Point",
                "coordinates": [
                    18.30944538116455,
                    40.12172137396248
                ]
            }
        },
        {
            "type": "Feature",
            "properties": {
                "name": "CAMER CARBURANTI di Aventaggiato s.a.s di aventaggiato giuseppe & c.",
                "id": "14505",
                "amenity": "fuel",
                "operator": "AVENTAGGIATO S.A.S. DI AVENTAGGIATO GIUSEPPE & C."
            },
            "geometry": {
                "type": "Point",
                "coordinates": [
                    18.294227868318558,
                    40.16580121764221
                ]
            }
        },
        {
            "type": "Feature",
            "properties": {
                "name": "STAZIONE DI SERVIZIO TOTALERG",
                "id": "15740",
                "brand": "Total Erg",
                "amenity": "fuel",
                "operator": "PASTORELLI GABRIELLA"
            },
            "geometry": {
                "type": "Point",
                "coordinates": [
                    18.292764723300934,
                    40.12811739644984
                ]
            }
        },
        {
            "type": "Feature",
            "properties": {
                "name": "BASILE PETROLI",
                "id": "14805",
                "brand": "Agip Eni",
                "amenity": "fuel",
                "operator": "SVILUPPO DEL SUD S.R.L."
            },
            "geometry": {
                "type": "Point",
                "coordinates": [
                    18.312700241804123,
                    40.147519589303336
                ]
            }
        },
        {
            "type": "Feature",
            "properties": {
                "name": "eni",
                "id": "27748",
                "brand": "Agip Eni",
                "amenity": "fuel",
                "operator": "MERICO ANNUNZIATA"
            },
            "geometry": {
                "type": "Point",
                "coordinates": [
                    18.384760469198227,
                    40.051995149297454
                ]
            }
        },
        {
            "type": "Feature",
            "properties": {
                "name": "TOTAL ERG DI VERGARI LUIGI",
                "id": "31811",
                "brand": "Total Erg",
                "amenity": "fuel",
                "operator": "LUIGI VERGARI"
            },
            "geometry": {
                "type": "Point",
                "coordinates": [
                    18.357911556959152,
                    40.15720220854116
                ]
            }
        },
        {
            "type": "Feature",
            "properties": {
                "name": "Plawer distribuzione carburanti",
                "id": "17128",
                "amenity": "fuel",
                "operator": "PLAWER  DEI F.LLI ROBERTO & IVAN MIGGIANO S.N.C."
            },
            "geometry": {
                "type": "Point",
                "coordinates": [
                    18.331026434898376,
                    40.10593445114741
                ]
            }
        },
        {
            "type": "Feature",
            "properties": {
                "name": "totalerg",
                "id": "29623",
                "brand": "Total Erg",
                "amenity": "fuel",
                "operator": "DE PASCALIS GIANPIERO"
            },
            "geometry": {
                "type": "Point",
                "coordinates": [
                    18.282078802585602,
                    40.16950245337593
                ]
            }
        },
        {
            "type": "Feature",
            "properties": {
                "name": "TOTAL",
                "id": "29414",
                "brand": "Total Erg",
                "amenity": "fuel",
                "operator": "LEO ANDREA"
            },
            "geometry": {
                "type": "Point",
                "coordinates": [
                    18.317904550926183,
                    40.05985841335822
                ]
            }
        },
        {
            "type": "Feature",
            "properties": {
                "name": "AvioLamp Sas Castrignano dei Greci",
                "id": "24155",
                "amenity": "fuel",
                "operator": "AVIO LAMP DI MANCO MARIA SILVANA & C. S.A.S."
            },
            "geometry": {
                "type": "Point",
                "coordinates": [
                    18.29422116279602,
                    40.16579506856119
                ]
            }
        },
        {
            "type": "Feature",
            "properties": {
                "name": "TOTALERG POGGIARDO",
                "id": "15022",
                "brand": "Total Erg",
                "amenity": "fuel",
                "operator": "LA.MA. SERVICE S.R.L."
            },
            "geometry": {
                "type": "Point",
                "coordinates": [
                    18.37224930524826,
                    40.07697793186205
                ]
            }
        },
        {
            "type": "Feature",
            "properties": {
                "name": "IP",
                "id": "23065",
                "brand": "Api-Ip",
                "amenity": "fuel",
                "operator": "FI.MAS.DI FILIPPO MASTRANDREA"
            },
            "geometry": {
                "type": "Point",
                "coordinates": [
                    18.438400886154795,
                    40.06407934545472
                ]
            }
        },
        {
            "type": "Feature",
            "properties": {
                "name": "ESSO ITALIANA",
                "id": "15450",
                "brand": "Esso",
                "amenity": "fuel",
                "operator": "VALENTINI DOMENICO"
            },
            "geometry": {
                "type": "Point",
                "coordinates": [
                    18.295266289436427,
                    40.12560854818931
                ]
            }
        },
        {
            "type": "Feature",
            "properties": {
                "name": "Stazione di Servizio ENI di Rizzo Mauro",
                "id": "26336",
                "brand": "Agip Eni",
                "amenity": "fuel",
                "operator": "RIZZO MAURO"
            },
            "geometry": {
                "type": "Point",
                "coordinates": [
                    18.308270573616028,
                    40.0946268737185
                ]
            }
        },
        {
            "type": "Feature",
            "properties": {
                "name": "stazione di servizio",
                "id": "14973",
                "brand": "Agip Eni",
                "amenity": "fuel",
                "operator": "RIZZELLI MARCO"
            },
            "geometry": {
                "type": "Point",
                "coordinates": [
                    18.320807876444178,
                    40.05537000074579
                ]
            }
        },
        {
            "type": "Feature",
            "properties": {
                "name": "TOTALERG di MAGAGNINO gIUSEPPE",
                "id": "18261",
                "brand": "Total Erg",
                "amenity": "fuel",
                "operator": "MAGAGNINO GIUSEPPE"
            },
            "geometry": {
                "type": "Point",
                "coordinates": [
                    18.363711833953857,
                    40.094241536896405
                ]
            }
        },
        {
            "type": "Feature",
            "properties": {
                "name": "MAGLIE S.S. 497 KM. 22+692",
                "id": "6762",
                "brand": "Q8",
                "amenity": "fuel",
                "operator": "SERVIZI & GESTIONI ITALIA srl"
            },
            "geometry": {
                "type": "Point",
                "coordinates": [
                    18.312847384655697,
                    40.11293384902756
                ]
            }
        },
        {
            "type": "Feature",
            "properties": {
                "name": "Energia Siciliana",
                "id": "26490",
                "amenity": "fuel",
                "operator": "CAZZETTA TIZIANO"
            },
            "geometry": {
                "type": "Point",
                "coordinates": [
                    18.375339210033413,
                    40.132923964203975
                ]
            }
        },
        {
            "type": "Feature",
            "properties": {
                "name": "esso",
                "id": "29830",
                "brand": "Esso",
                "amenity": "fuel",
                "operator": "SELF AREA DISTRIBUZIONE CARBURANTI S.A.S. DI SCIBILIA SALVATORE & C."
            },
            "geometry": {
                "type": "Point",
                "coordinates": [
                    18.298884974205066,
                    40.114463744783684
                ]
            }
        },
        {
            "type": "Feature",
            "properties": {
                "name": "SA.MER PETROL S.U.R.L.",
                "id": "27289",
                "amenity": "fuel",
                "operator": "SA.MER.PETROL *SRL"
            },
            "geometry": {
                "type": "Point",
                "coordinates": [
                    18.310339884994505,
                    40.07109123156407
                ]
            }
        }
    ]
}